{"type": "FeatureCollection", "features": [{"type": "Feature", "properties": {"segment_id": 1072731, "physicalid": "74302", "street_name": "HARBOR VIEW PL S", "borough": "staten_island", "direction": "TW", "total_row_ft": 73.8, "roadbed_ft": 43.8, "median_ft": 0.0, "left_sw_ft": 15.0, "right_sw_ft": 15.0}, "geometry": {"type": "LineString", "coordinates": [[-74.06009969710368, 40.61043195621171], [-74.05988842305403, 40.610144618321954]]}}, {"type": "Feature", "properties": {"segment_id": 1072732, "physicalid": "74302", "street_name": "HARBOR VIEW PL S", "borough": "staten_island", "direction": "TW", "total_row_ft": 64.8, "roadbed_ft": 34.8, "median_ft": 0.0, "left_sw_ft": 15.0, "right_sw_ft": 15.0}, "geometry": {"type": "LineString", "coordinates": [[-74.06003685817649, 40.61045879168492], [-74.0598255843124, 40.610171453680415]]}}, {"type": "Feature", "properties": {"segment_id": 1072733, "physicalid": "74302", "street_name": "HARBOR VIEW PL S", "borough": "staten_island", "direction": "TW", "total_row_ft": 64.3, "roadbed_ft": 34.3, "median_ft": 0.0, "left_sw_ft": 15.0, "right_sw_ft": 15.0}, "geometry": {"type": "LineString", "coordinates": [[-74.05997401919879, 40.61048562712366], [-74.05976274552023, 40.61019828900446]]}}, {"type": "Feature", "properties": {"segment_id": 1072734, "physicalid": "74303", "street_name": "HARBOR VIEW PL S", "borough": "staten_island", "direction": "TW", "total_row_ft": 73.5, "roadbed_ft": 43.5, "median_ft": 0.0, "left_sw_ft": 15.0, "right_sw_ft": 15.0}, "geometry": {"type": "LineString", "coordinates": [[-74.05983150853453, 40.61054628100413], [-74.05962186262393, 40.61025825117836]]}}, {"type": "Feature", "properties": {"segment_id": 1072735, "physicalid": "74303", "street_name": "HARBOR VIEW PL S", "borough": "staten_island", "direction": "TW", "total_row_ft": 74.4, "roadbed_ft": 44.4, "median_ft": 0.0, "left_sw_ft": 15.0, "right_sw_ft": 15.0}, "geometry": {"type": "LineString", "coordinates": [[-74.05976851817627, 40.610572909629546], [-74.05955887245382, 40.61028487968966]]}}, {"type": "Feature", "properties": {"segment_id": 1072736, "physicalid": "74303", "street_name": "HARBOR VIEW PL S", "borough": "staten_island", "direction": "TW", "total_row_ft": 49.9, "roadbed_ft": 19.9, "median_ft": 0.0, "left_sw_ft": 15.0, "right_sw_ft": 15.0}, "geometry": {"type": "LineString", "coordinates": [[-74.05970552776779, 40.61059953822036], [-74.05949588223348, 40.61031150816635]]}}, {"type": "Feature", "properties": {"segment_id": 1394269, "physicalid": "94628", "street_name": "SEA GATE RD", "borough": "staten_island", "direction": "TW", "total_row_ft": 47.6, "roadbed_ft": 17.6, "median_ft": 0.0, "left_sw_ft": 15.0, "right_sw_ft": 15.0}, "geometry": {"type": "LineString", "coordinates": [[-74.05955786817535, 40.61042357880972], [-74.05993907611494, 40.6102683803912]]}}, {"type": "Feature", "properties": {"segment_id": 1394270, "physicalid": "94628", "street_name": "SEA GATE RD", "borough": "staten_island", "direction": "TW", "total_row_ft": 46.2, "roadbed_ft": 16.2, "median_ft": 0.0, "left_sw_ft": 15.0, "right_sw_ft": 15.0}, "geometry": {"type": "LineString", "coordinates": [[-74.05952392744851, 40.610375158835076], [-74.05990513519052, 40.61021996052834]]}}, {"type": "Feature", "properties": {"segment_id": 1394271, "physicalid": "94628", "street_name": "SEA GATE RD", "borough": "staten_island", "direction": "TW", "total_row_ft": 46.0, "roadbed_ft": 16.0, "median_ft": 0.0, "left_sw_ft": 15.0, "right_sw_ft": 15.0}, "geometry": {"type": "LineString", "coordinates": [[-74.05948998677088, 40.610326738850105], [-74.05987119431536, 40.610171540655244]]}}, {"type": "Feature", "properties": {"segment_id": 1394272, "physicalid": "94628", "street_name": "SEA GATE RD", "borough": "staten_island", "direction": "TW", "total_row_ft": 45.8, "roadbed_ft": 15.8, "median_ft": 0.0, "left_sw_ft": 15.0, "right_sw_ft": 15.0}, "geometry": {"type": "LineString", "coordinates": [[-74.05945604614254, 40.61027831885495], [-74.05983725348939, 40.61012312077185]]}}, {"type": "Feature", "properties": {"segment_id": 1394273, "physicalid": "94628", "street_name": "SEA GATE RD", "borough": "staten_island", "direction": "TW", "total_row_ft": 45.2, "roadbed_ft": 15.2, "median_ft": 0.0, "left_sw_ft": 15.0, "right_sw_ft": 15.0}, "geometry": {"type": "LineString", "coordinates": [[-74.05942210556339, 40.61022989884949], [-74.05980331271269, 40.61007470087823]]}}, {"type": "Feature", "properties": {"segment_id": 1394274, "physicalid": "94628", "street_name": "SEA GATE RD", "borough": "staten_island", "direction": "TW", "total_row_ft": 45.7, "roadbed_ft": 15.7, "median_ft": 0.0, "left_sw_ft": 15.0, "right_sw_ft": 15.0}, "geometry": {"type": "LineString", "coordinates": [[-74.05938816503351, 40.61018147883382], [-74.05976937198518, 40.61002628097432]]}}, {"type": "Feature", "properties": {"segment_id": 1394275, "physicalid": "94628", "street_name": "SEA GATE RD", "borough": "staten_island", "direction": "TW", "total_row_ft": 47.0, "roadbed_ft": 17.0, "median_ft": 0.0, "left_sw_ft": 15.0, "right_sw_ft": 15.0}, "geometry": {"type": "LineString", "coordinates": [[-74.05935422455285, 40.61013305880784], [-74.05973543130693, 40.60997786106015]]}}, {"type": "Feature", "properties": {"segment_id": 1394276, "physicalid": "94628", "street_name": "SEA GATE RD", "borough": "staten_island", "direction": "TW", "total_row_ft": 47.8, "roadbed_ft": 17.8, "median_ft": 0.0, "left_sw_ft": 15.0, "right_sw_ft": 15.0}, "geometry": {"type": "LineString", "coordinates": [[-74.05932028412138, 40.6100846387716], [-74.05970149067794, 40.609929441135776]]}}]}