{"type": "FeatureCollection", "features": [{"type": "Feature", "properties": {"segment_id": 1300523, "physicalid": "88900", "street_name": "BAYONNE BRG", "borough": "staten_island", "direction": "TF", "total_row_ft": 81.6, "roadbed_ft": 48.8, "median_ft": 2.8, "left_sw_ft": 15.0, "right_sw_ft": 15.0}, "geometry": {"type": "LineString", "coordinates": [[-74.14185526961813, 40.642080386936], [-74.14226777764193, 40.642179136792514]]}}, {"type": "Feature", "properties": {"segment_id": 1300524, "physicalid": "88900", "street_name": "BAYONNE BRG", "borough": "staten_island", "direction": "TF", "total_row_ft": 81.7, "roadbed_ft": 49.0, "median_ft": 2.8, "left_sw_ft": 15.0, "right_sw_ft": 15.0}, "geometry": {"type": "LineString", "coordinates": [[-74.14187687636412, 40.64202801605266], [-74.14228938367425, 40.6421267668548]]}}, {"type": "Feature", "properties": {"segment_id": 1300525, "physicalid": "88900", "street_name": "BAYONNE BRG", "borough": "staten_island", "direction": "TF", "total_row_ft": 81.6, "roadbed_ft": 48.9, "median_ft": 2.7, "left_sw_ft": 15.0, "right_sw_ft": 15.0}, "geometry": {"type": "LineString", "coordinates": [[-74.14189848297181, 40.64197564570177], [-74.1423109899902, 40.642074396426906]]}}, {"type": "Feature", "properties": {"segment_id": 1300526, "physicalid": "88900", "street_name": "BAYONNE BRG", "borough": "staten_island", "direction": "TF", "total_row_ft": 81.6, "roadbed_ft": 48.9, "median_ft": 2.6, "left_sw_ft": 15.0, "right_sw_ft": 15.0}, "geometry": {"type": "LineString", "coordinates": [[-74.14192008954562, 40.64192327534645], [-74.1423325962722, 40.64202202599471]]}}, {"type": "Feature", "properties": {"segment_id": 1300527, "physicalid": "88900", "street_name": "BAYONNE BRG", "borough": "staten_island", "direction": "TF", "total_row_ft": 81.4, "roadbed_ft": 48.8, "median_ft": 2.6, "left_sw_ft": 15.0, "right_sw_ft": 15.0}, "geometry": {"type": "LineString", "coordinates": [[-74.14194169608551, 40.64187090498683], [-74.14235420252031, 40.64196965555814]]}}, {"type": "Feature", "properties": {"segment_id": 1300528, "physicalid": "88900", "street_name": "BAYONNE BRG", "borough": "staten_island", "direction": "TF", "total_row_ft": 81.2, "roadbed_ft": 48.7, "median_ft": 2.6, "left_sw_ft": 15.0, "right_sw_ft": 15.0}, "geometry": {"type": "LineString", "coordinates": [[-74.14196330259146, 40.64181853462282], [-74.14237580873449, 40.64191728511721]]}}, {"type": "Feature", "properties": {"segment_id": 1300529, "physicalid": "88900", "street_name": "BAYONNE BRG", "borough": "staten_island", "direction": "TF", "total_row_ft": 81.1, "roadbed_ft": 48.6, "median_ft": 2.5, "left_sw_ft": 15.0, "right_sw_ft": 15.0}, "geometry": {"type": "LineString", "coordinates": [[-74.14198490906352, 40.64176616425444], [-74.14239741491475, 40.64186491467188]]}}, {"type": "Feature", "properties": {"segment_id": 1300530, "physicalid": "88900", "street_name": "BAYONNE BRG", "borough": "staten_island", "direction": "TF", "total_row_ft": 81.0, "roadbed_ft": 48.5, "median_ft": 2.5, "left_sw_ft": 15.0, "right_sw_ft": 15.0}, "geometry": {"type": "LineString", "coordinates": [[-74.14200651550166, 40.64171379388169], [-74.14241902106112, 40.64181254422222]]}}, {"type": "Feature", "properties": {"segment_id": 1300531, "physicalid": "88900", "street_name": "BAYONNE BRG", "borough": "staten_island", "direction": "TF", "total_row_ft": 80.8, "roadbed_ft": 48.3, "median_ft": 2.5, "left_sw_ft": 15.0, "right_sw_ft": 15.0}, "geometry": {"type": "LineString", "coordinates": [[-74.14202812190588, 40.64166142350461], [-74.14244062717356, 40.64176017376818]]}}, {"type": "Feature", "properties": {"segment_id": 1300532, "physicalid": "88900", "street_name": "BAYONNE BRG", "borough": "staten_island", "direction": "TF", "total_row_ft": 80.7, "roadbed_ft": 48.2, "median_ft": 2.5, "left_sw_ft": 15.0, "right_sw_ft": 15.0}, "geometry": {"type": "LineString", "coordinates": [[-74.14204972827618, 40.641609053123155], [-74.14246223325206, 40.6417078033098]]}}, {"type": "Feature", "properties": {"segment_id": 1300533, "physicalid": "88900", "street_name": "BAYONNE BRG", "borough": "staten_island", "direction": "TF", "total_row_ft": 80.7, "roadbed_ft": 48.2, "median_ft": 2.6, "left_sw_ft": 15.0, "right_sw_ft": 15.0}, "geometry": {"type": "LineString", "coordinates": [[-74.14207133461257, 40.641556682737324], [-74.14248383929667, 40.64165543284705]]}}, {"type": "Feature", "properties": {"segment_id": 1300534, "physicalid": "88900", "street_name": "BAYONNE BRG", "borough": "staten_island", "direction": "TF", "total_row_ft": 80.8, "roadbed_ft": 48.2, "median_ft": 2.6, "left_sw_ft": 15.0, "right_sw_ft": 15.0}, "geometry": {"type": "LineString", "coordinates": [[-74.14209294091503, 40.64150431234714], [-74.14250544530738, 40.641603062379936]]}}, {"type": "Feature", "properties": {"segment_id": 1300535, "physicalid": "88900", "street_name": "BAYONNE BRG", "borough": "staten_island", "direction": "TF", "total_row_ft": 80.8, "roadbed_ft": 48.2, "median_ft": 2.7, "left_sw_ft": 15.0, "right_sw_ft": 15.0}, "geometry": {"type": "LineString", "coordinates": [[-74.1421145471836, 40.64145194195259], [-74.14252705128415, 40.641550691908456]]}}, {"type": "Feature", "properties": {"segment_id": 1300536, "physicalid": "88900", "street_name": "BAYONNE BRG", "borough": "staten_island", "direction": "TF", "total_row_ft": 80.9, "roadbed_ft": 48.2, "median_ft": 2.7, "left_sw_ft": 15.0, "right_sw_ft": 15.0}, "geometry": {"type": "LineString", "coordinates": [[-74.14213615341824, 40.641399571553656], [-74.14254865722701, 40.641498321432614]]}}, {"type": "Feature", "properties": {"segment_id": 1300537, "physicalid": "88900", "street_name": "BAYONNE BRG", "borough": "staten_island", "direction": "TF", "total_row_ft": 80.8, "roadbed_ft": 48.1, "median_ft": 2.7, "left_sw_ft": 15.0, "right_sw_ft": 15.0}, "geometry": {"type": "LineString", "coordinates": [[-74.14215775961895, 40.64134720115041], [-74.14257026313597, 40.6414459509524]]}}, {"type": "Feature", "properties": {"segment_id": 1300538, "physicalid": "88900", "street_name": "BAYONNE BRG", "borough": "staten_island", "direction": "TF", "total_row_ft": 80.6, "roadbed_ft": 48.1, "median_ft": 2.5, "left_sw_ft": 15.0, "right_sw_ft": 15.0}, "geometry": {"type": "LineString", "coordinates": [[-74.14217936578575, 40.641294830742794], [-74.14259186901101, 40.6413935804678]]}}, {"type": "Feature", "properties": {"segment_id": 1300539, "physicalid": "88900", "street_name": "BAYONNE BRG", "borough": "staten_island", "direction": "TF", "total_row_ft": 80.4, "roadbed_ft": 48.1, "median_ft": 2.3, "left_sw_ft": 15.0, "right_sw_ft": 15.0}, "geometry": {"type": "LineString", "coordinates": [[-74.14220097191867, 40.64124246033076], [-74.14261347485211, 40.641341209978904]]}}, {"type": "Feature", "properties": {"segment_id": 1300540, "physicalid": "88900", "street_name": "BAYONNE BRG", "borough": "staten_island", "direction": "TF", "total_row_ft": 80.4, "roadbed_ft": 48.2, "median_ft": 2.2, "left_sw_ft": 15.0, "right_sw_ft": 15.0}, "geometry": {"type": "LineString", "coordinates": [[-74.14222257801765, 40.6411900899144], [-74.14263508065932, 40.64128883948561]]}}, {"type": "Feature", "properties": {"segment_id": 1300541, "physicalid": "88900", "street_name": "BAYONNE BRG", "borough": "staten_island", "direction": "TF", "total_row_ft": 80.3, "roadbed_ft": 48.3, "median_ft": 2.0, "left_sw_ft": 15.0, "right_sw_ft": 15.0}, "geometry": {"type": "LineString", "coordinates": [[-74.14224418408271, 40.641137719493685], [-74.14265668643262, 40.641236468987955]]}}, {"type": "Feature", "properties": {"segment_id": 1300542, "physicalid": "88900", "street_name": "BAYONNE BRG", "borough": "staten_island", "direction": "TF", "total_row_ft": 80.1, "roadbed_ft": 48.3, "median_ft": 1.8, "left_sw_ft": 15.0, "right_sw_ft": 15.0}, "geometry": {"type": "LineString", "coordinates": [[-74.14226579011387, 40.64108534906859], [-74.14267829217198, 40.641184098485915]]}}, {"type": "Feature", "properties": {"segment_id": 1300543, "physicalid": "88900", "street_name": "BAYONNE BRG", "borough": "staten_island", "direction": "TF", "total_row_ft": 79.8, "roadbed_ft": 48.1, "median_ft": 1.8, "left_sw_ft": 15.0, "right_sw_ft": 15.0}, "geometry": {"type": "LineString", "coordinates": [[-74.1422873961111, 40.641032978639146], [-74.14269989787745, 40.64113172797956]]}}, {"type": "Feature", "properties": {"segment_id": 1300544, "physicalid": "88900", "street_name": "BAYONNE BRG", "borough": "staten_island", "direction": "TF", "total_row_ft": 79.6, "roadbed_ft": 47.9, "median_ft": 1.8, "left_sw_ft": 15.0, "right_sw_ft": 15.0}, "geometry": {"type": "LineString", "coordinates": [[-74.14230900207444, 40.640980608205325], [-74.142721503549, 40.641079357468826]]}}, {"type": "Feature", "properties": {"segment_id": 1300545, "physicalid": "88900", "street_name": "BAYONNE BRG", "borough": "staten_island", "direction": "TF", "total_row_ft": 79.5, "roadbed_ft": 47.7, "median_ft": 1.8, "left_sw_ft": 15.0, "right_sw_ft": 15.0}, "geometry": {"type": "LineString", "coordinates": [[-74.14233060800383, 40.64092823776717], [-74.14274310918663, 40.6410269869537]]}}, {"type": "Feature", "properties": {"segment_id": 1300546, "physicalid": "88900", "street_name": "BAYONNE BRG", "borough": "staten_island", "direction": "TF", "total_row_ft": 79.5, "roadbed_ft": 47.7, "median_ft": 1.8, "left_sw_ft": 15.0, "right_sw_ft": 15.0}, "geometry": {"type": "LineString", "coordinates": [[-74.14235221389933, 40.64087586732464], [-74.14276471479035, 40.640974616434235]]}}, {"type": "Feature", "properties": {"segment_id": 1300547, "physicalid": "88900", "street_name": "BAYONNE BRG", "borough": "staten_island", "direction": "TF", "total_row_ft": 79.5, "roadbed_ft": 47.8, "median_ft": 1.8, "left_sw_ft": 15.0, "right_sw_ft": 15.0}, "geometry": {"type": "LineString", "coordinates": [[-74.14237381976089, 40.64082349687776], [-74.14278632036017, 40.64092224591038]]}}, {"type": "Feature", "properties": {"segment_id": 1300548, "physicalid": "88900", "street_name": "BAYONNE BRG", "borough": "staten_island", "direction": "TF", "total_row_ft": 79.6, "roadbed_ft": 47.9, "median_ft": 1.8, "left_sw_ft": 15.0, "right_sw_ft": 15.0}, "geometry": {"type": "LineString", "coordinates": [[-74.14239542558859, 40.64077112642647], [-74.14280792589604, 40.640869875382215]]}}, {"type": "Feature", "properties": {"segment_id": 1300549, "physicalid": "88900", "street_name": "BAYONNE BRG", "borough": "staten_island", "direction": "TF", "total_row_ft": 79.8, "roadbed_ft": 48.0, "median_ft": 1.8, "left_sw_ft": 15.0, "right_sw_ft": 15.0}, "geometry": {"type": "LineString", "coordinates": [[-74.14241703138232, 40.64071875597085], [-74.14282953139802, 40.64081750484966]]}}, {"type": "Feature", "properties": {"segment_id": 1300550, "physicalid": "88900", "street_name": "BAYONNE BRG", "borough": "staten_island", "direction": "TF", "total_row_ft": 79.8, "roadbed_ft": 48.0, "median_ft": 1.8, "left_sw_ft": 15.0, "right_sw_ft": 15.0}, "geometry": {"type": "LineString", "coordinates": [[-74.14243863714216, 40.640666385510855], [-74.14285113686608, 40.64076513431275]]}}, {"type": "Feature", "properties": {"segment_id": 1300551, "physicalid": "88900", "street_name": "BAYONNE BRG", "borough": "staten_island", "direction": "TF", "total_row_ft": 79.7, "roadbed_ft": 48.0, "median_ft": 1.8, "left_sw_ft": 15.0, "right_sw_ft": 15.0}, "geometry": {"type": "LineString", "coordinates": [[-74.14246024286808, 40.64061401504653], [-74.14287274230023, 40.64071276377148]]}}, {"type": "Feature", "properties": {"segment_id": 1300552, "physicalid": "88900", "street_name": "BAYONNE BRG", "borough": "staten_island", "direction": "TF", "total_row_ft": 79.6, "roadbed_ft": 47.9, "median_ft": 1.8, "left_sw_ft": 15.0, "right_sw_ft": 15.0}, "geometry": {"type": "LineString", "coordinates": [[-74.1424818485601, 40.640561644577815], [-74.14289434770046, 40.64066039322582]]}}, {"type": "Feature", "properties": {"segment_id": 1300553, "physicalid": "88900", "street_name": "BAYONNE BRG", "borough": "staten_island", "direction": "TF", "total_row_ft": 79.5, "roadbed_ft": 47.8, "median_ft": 1.8, "left_sw_ft": 15.0, "right_sw_ft": 15.0}, "geometry": {"type": "LineString", "coordinates": [[-74.14250345421819, 40.64050927410475], [-74.14291595306679, 40.64060802267583]]}}, {"type": "Feature", "properties": {"segment_id": 1300554, "physicalid": "88900", "street_name": "BAYONNE BRG", "borough": "staten_island", "direction": "TF", "total_row_ft": 79.4, "roadbed_ft": 47.7, "median_ft": 1.8, "left_sw_ft": 15.0, "right_sw_ft": 15.0}, "geometry": {"type": "LineString", "coordinates": [[-74.14252505984237, 40.640456903627324], [-74.14293755839918, 40.64055565212147]]}}, {"type": "Feature", "properties": {"segment_id": 1300555, "physicalid": "88900", "street_name": "BAYONNE BRG", "borough": "staten_island", "direction": "TF", "total_row_ft": 79.4, "roadbed_ft": 47.7, "median_ft": 1.8, "left_sw_ft": 15.0, "right_sw_ft": 15.0}, "geometry": {"type": "LineString", "coordinates": [[-74.14254666543263, 40.64040453314552], [-74.1429591636977, 40.64050328156275]]}}, {"type": "Feature", "properties": {"segment_id": 1300556, "physicalid": "88900", "street_name": "BAYONNE BRG", "borough": "staten_island", "direction": "TF", "total_row_ft": 79.4, "roadbed_ft": 47.6, "median_ft": 1.8, "left_sw_ft": 15.0, "right_sw_ft": 15.0}, "geometry": {"type": "LineString", "coordinates": [[-74.14256827098897, 40.64035216265938], [-74.14298076896227, 40.64045091099967]]}}, {"type": "Feature", "properties": {"segment_id": 1300557, "physicalid": "88900", "street_name": "BAYONNE BRG", "borough": "staten_island", "direction": "TF", "total_row_ft": 79.3, "roadbed_ft": 47.6, "median_ft": 1.8, "left_sw_ft": 15.0, "right_sw_ft": 15.0}, "geometry": {"type": "LineString", "coordinates": [[-74.14258987651142, 40.64029979216885], [-74.14300237419295, 40.64039854043221]]}}, {"type": "Feature", "properties": {"segment_id": 1300558, "physicalid": "88900", "street_name": "BAYONNE BRG", "borough": "staten_island", "direction": "TF", "total_row_ft": 79.4, "roadbed_ft": 47.7, "median_ft": 1.8, "left_sw_ft": 15.0, "right_sw_ft": 15.0}, "geometry": {"type": "LineString", "coordinates": [[-74.14261148199995, 40.64024742167397], [-74.1430239793897, 40.640346169860415]]}}, {"type": "Feature", "properties": {"segment_id": 1300559, "physicalid": "88900", "street_name": "BAYONNE BRG", "borough": "staten_island", "direction": "TF", "total_row_ft": 79.6, "roadbed_ft": 47.8, "median_ft": 1.8, "left_sw_ft": 15.0, "right_sw_ft": 15.0}, "geometry": {"type": "LineString", "coordinates": [[-74.14263308751954, 40.640195051087815], [-74.14304558454056, 40.64029379938385]]}}, {"type": "Feature", "properties": {"segment_id": 1300560, "physicalid": "88900", "street_name": "BAYONNE BRG", "borough": "staten_island", "direction": "TF", "total_row_ft": 79.7, "roadbed_ft": 47.9, "median_ft": 1.8, "left_sw_ft": 15.0, "right_sw_ft": 15.0}, "geometry": {"type": "LineString", "coordinates": [[-74.14265469298105, 40.640142680594], [-74.1430671897103, 40.64024142881309]]}}, {"type": "Feature", "properties": {"segment_id": 1300561, "physicalid": "88900", "street_name": "BAYONNE BRG", "borough": "staten_island", "direction": "TF", "total_row_ft": 79.9, "roadbed_ft": 48.1, "median_ft": 1.8, "left_sw_ft": 15.0, "right_sw_ft": 15.0}, "geometry": {"type": "LineString", "coordinates": [[-74.14267629840865, 40.64009031009579], [-74.14308879484614, 40.64018905823796]]}}, {"type": "Feature", "properties": {"segment_id": 1300562, "physicalid": "88900", "street_name": "BAYONNE BRG", "borough": "staten_island", "direction": "TF", "total_row_ft": 80.2, "roadbed_ft": 48.4, "median_ft": 1.8, "left_sw_ft": 15.0, "right_sw_ft": 15.0}, "geometry": {"type": "LineString", "coordinates": [[-74.14269790380234, 40.640037939593235], [-74.14311039994804, 40.64013668765848]]}}, {"type": "Feature", "properties": {"segment_id": 1300563, "physicalid": "88900", "street_name": "BAYONNE BRG", "borough": "staten_island", "direction": "TF", "total_row_ft": 80.3, "roadbed_ft": 48.5, "median_ft": 1.8, "left_sw_ft": 15.0, "right_sw_ft": 15.0}, "geometry": {"type": "LineString", "coordinates": [[-74.1427195091621, 40.639985569086335], [-74.14313200501606, 40.64008431707463]]}}, {"type": "Feature", "properties": {"segment_id": 1465961, "physicalid": "99029", "street_name": "BAYONNE BRG", "borough": "staten_island", "direction": "FT", "total_row_ft": 81.7, "roadbed_ft": 49.0, "median_ft": 2.8, "left_sw_ft": 15.0, "right_sw_ft": 15.0}, "geometry": {"type": "LineString", "coordinates": [[-74.14199057890912, 40.642056150637266], [-74.1424036697154, 40.64215347627265]]}}, {"type": "Feature", "properties": {"segment_id": 1465962, "physicalid": "99029", "street_name": "BAYONNE BRG", "borough": "staten_island", "direction": "FT", "total_row_ft": 81.6, "roadbed_ft": 48.9, "median_ft": 2.7, "left_sw_ft": 15.0, "right_sw_ft": 15.0}, "geometry": {"type": "LineString", "coordinates": [[-74.142011874874, 40.64200370480584], [-74.14242496412727, 40.64210103346687]]}}, {"type": "Feature", "properties": {"segment_id": 1465963, "physicalid": "99029", "street_name": "BAYONNE BRG", "borough": "staten_island", "direction": "FT", "total_row_ft": 81.6, "roadbed_ft": 48.9, "median_ft": 2.6, "left_sw_ft": 15.0, "right_sw_ft": 15.0}, "geometry": {"type": "LineString", "coordinates": [[-74.14203317031317, 40.64195126055332], [-74.14244625927283, 40.64204858913845]]}}, {"type": "Feature", "properties": {"segment_id": 1465964, "physicalid": "99029", "street_name": "BAYONNE BRG", "borough": "staten_island", "direction": "FT", "total_row_ft": 81.4, "roadbed_ft": 48.8, "median_ft": 2.6, "left_sw_ft": 15.0, "right_sw_ft": 15.0}, "geometry": {"type": "LineString", "coordinates": [[-74.14205446571884, 40.64189881629661], [-74.14246755438494, 40.64199614480573]]}}, {"type": "Feature", "properties": {"segment_id": 1465965, "physicalid": "99029", "street_name": "BAYONNE BRG", "borough": "staten_island", "direction": "FT", "total_row_ft": 81.2, "roadbed_ft": 48.7, "median_ft": 2.6, "left_sw_ft": 15.0, "right_sw_ft": 15.0}, "geometry": {"type": "LineString", "coordinates": [[-74.14207576109109, 40.641846372035566], [-74.14248884946353, 40.64194370046884]]}}, {"type": "Feature", "properties": {"segment_id": 1465966, "physicalid": "99029", "street_name": "BAYONNE BRG", "borough": "staten_island", "direction": "FT", "total_row_ft": 81.1, "roadbed_ft": 48.6, "median_ft": 2.5, "left_sw_ft": 15.0, "right_sw_ft": 15.0}, "geometry": {"type": "LineString", "coordinates": [[-74.14209705642982, 40.64179392777037], [-74.14251014450869, 40.641891256127636]]}}, {"type": "Feature", "properties": {"segment_id": 1465967, "physicalid": "99029", "street_name": "BAYONNE BRG", "borough": "staten_island", "direction": "FT", "total_row_ft": 81.0, "roadbed_ft": 48.5, "median_ft": 2.5, "left_sw_ft": 15.0, "right_sw_ft": 15.0}, "geometry": {"type": "LineString", "coordinates": [[-74.1421183517351, 40.641741483500844], [-74.14253143952033, 40.64183881178224]]}}, {"type": "Feature", "properties": {"segment_id": 1465968, "physicalid": "99029", "street_name": "BAYONNE BRG", "borough": "staten_island", "direction": "FT", "total_row_ft": 80.8, "roadbed_ft": 48.3, "median_ft": 2.5, "left_sw_ft": 15.0, "right_sw_ft": 15.0}, "geometry": {"type": "LineString", "coordinates": [[-74.14213964700691, 40.641689039227096], [-74.14255273449852, 40.64178636743256]]}}, {"type": "Feature", "properties": {"segment_id": 1465969, "physicalid": "99029", "street_name": "BAYONNE BRG", "borough": "staten_island", "direction": "FT", "total_row_ft": 80.7, "roadbed_ft": 48.2, "median_ft": 2.5, "left_sw_ft": 15.0, "right_sw_ft": 15.0}, "geometry": {"type": "LineString", "coordinates": [[-74.14216094224521, 40.64163659494915], [-74.14257402944324, 40.641733923078625]]}}, {"type": "Feature", "properties": {"segment_id": 1465970, "physicalid": "99029", "street_name": "BAYONNE BRG", "borough": "staten_island", "direction": "FT", "total_row_ft": 80.7, "roadbed_ft": 48.2, "median_ft": 2.6, "left_sw_ft": 15.0, "right_sw_ft": 15.0}, "geometry": {"type": "LineString", "coordinates": [[-74.14218223745007, 40.64158415066689], [-74.14259532435447, 40.641681478720486]]}}, {"type": "Feature", "properties": {"segment_id": 1465971, "physicalid": "99029", "street_name": "BAYONNE BRG", "borough": "staten_island", "direction": "FT", "total_row_ft": 80.8, "roadbed_ft": 48.2, "median_ft": 2.6, "left_sw_ft": 15.0, "right_sw_ft": 15.0}, "geometry": {"type": "LineString", "coordinates": [[-74.14220353262144, 40.64153170638043], [-74.14261661923224, 40.64162903435805]]}}, {"type": "Feature", "properties": {"segment_id": 1465972, "physicalid": "99029", "street_name": "BAYONNE BRG", "borough": "staten_island", "direction": "FT", "total_row_ft": 80.8, "roadbed_ft": 48.2, "median_ft": 2.7, "left_sw_ft": 15.0, "right_sw_ft": 15.0}, "geometry": {"type": "LineString", "coordinates": [[-74.14222482775935, 40.64147926208965], [-74.14263791407653, 40.6415765899914]]}}, {"type": "Feature", "properties": {"segment_id": 1465973, "physicalid": "99029", "street_name": "BAYONNE BRG", "borough": "staten_island", "direction": "FT", "total_row_ft": 80.9, "roadbed_ft": 48.2, "median_ft": 2.7, "left_sw_ft": 15.0, "right_sw_ft": 15.0}, "geometry": {"type": "LineString", "coordinates": [[-74.14224612286377, 40.64142681779473], [-74.14265920888737, 40.641524145620465]]}}, {"type": "Feature", "properties": {"segment_id": 1465974, "physicalid": "99029", "street_name": "BAYONNE BRG", "borough": "staten_island", "direction": "FT", "total_row_ft": 80.8, "roadbed_ft": 48.1, "median_ft": 2.7, "left_sw_ft": 15.0, "right_sw_ft": 15.0}, "geometry": {"type": "LineString", "coordinates": [[-74.14226741793472, 40.64137437349545], [-74.14268050366469, 40.641471701245344]]}}, {"type": "Feature", "properties": {"segment_id": 1465975, "physicalid": "99029", "street_name": "BAYONNE BRG", "borough": "staten_island", "direction": "FT", "total_row_ft": 80.6, "roadbed_ft": 48.1, "median_ft": 2.5, "left_sw_ft": 15.0, "right_sw_ft": 15.0}, "geometry": {"type": "LineString", "coordinates": [[-74.1422887129722, 40.641321929191996], [-74.14270179840857, 40.64141925686593]]}}, {"type": "Feature", "properties": {"segment_id": 1465976, "physicalid": "99029", "street_name": "BAYONNE BRG", "borough": "staten_island", "direction": "FT", "total_row_ft": 80.4, "roadbed_ft": 48.1, "median_ft": 2.3, "left_sw_ft": 15.0, "right_sw_ft": 15.0}, "geometry": {"type": "LineString", "coordinates": [[-74.14231000797619, 40.6412694848843], [-74.14272309311897, 40.64136681248224]]}}, {"type": "Feature", "properties": {"segment_id": 1465977, "physicalid": "99029", "street_name": "BAYONNE BRG", "borough": "staten_island", "direction": "FT", "total_row_ft": 80.4, "roadbed_ft": 48.2, "median_ft": 2.2, "left_sw_ft": 15.0, "right_sw_ft": 15.0}, "geometry": {"type": "LineString", "coordinates": [[-74.14233130294674, 40.64121704057229], [-74.14274438779589, 40.641314368094385]]}}, {"type": "Feature", "properties": {"segment_id": 1465978, "physicalid": "99029", "street_name": "BAYONNE BRG", "borough": "staten_island", "direction": "FT", "total_row_ft": 80.3, "roadbed_ft": 48.3, "median_ft": 2.0, "left_sw_ft": 15.0, "right_sw_ft": 15.0}, "geometry": {"type": "LineString", "coordinates": [[-74.14235259788379, 40.64116459625613], [-74.14276568243935, 40.64126192370221]]}}, {"type": "Feature", "properties": {"segment_id": 1465979, "physicalid": "99029", "street_name": "BAYONNE BRG", "borough": "staten_island", "direction": "FT", "total_row_ft": 80.1, "roadbed_ft": 48.3, "median_ft": 1.8, "left_sw_ft": 15.0, "right_sw_ft": 15.0}, "geometry": {"type": "LineString", "coordinates": [[-74.14237389278738, 40.64111215193561], [-74.14278697704931, 40.64120947930584]]}}, {"type": "Feature", "properties": {"segment_id": 1465980, "physicalid": "99029", "street_name": "BAYONNE BRG", "borough": "staten_island", "direction": "FT", "total_row_ft": 79.8, "roadbed_ft": 48.1, "median_ft": 1.8, "left_sw_ft": 15.0, "right_sw_ft": 15.0}, "geometry": {"type": "LineString", "coordinates": [[-74.14239518765747, 40.64105970761096], [-74.14280827162584, 40.641157034905184]]}}, {"type": "Feature", "properties": {"segment_id": 1465981, "physicalid": "99029", "street_name": "BAYONNE BRG", "borough": "staten_island", "direction": "FT", "total_row_ft": 79.6, "roadbed_ft": 47.9, "median_ft": 1.8, "left_sw_ft": 15.0, "right_sw_ft": 15.0}, "geometry": {"type": "LineString", "coordinates": [[-74.14241648249411, 40.64100726328196], [-74.14282956616884, 40.64110459050033]]}}, {"type": "Feature", "properties": {"segment_id": 1465982, "physicalid": "99029", "street_name": "BAYONNE BRG", "borough": "staten_island", "direction": "FT", "total_row_ft": 79.5, "roadbed_ft": 47.7, "median_ft": 1.8, "left_sw_ft": 15.0, "right_sw_ft": 15.0}, "geometry": {"type": "LineString", "coordinates": [[-74.14243777729729, 40.64095481894875], [-74.14285086067841, 40.64105214609119]]}}, {"type": "Feature", "properties": {"segment_id": 1465983, "physicalid": "99029", "street_name": "BAYONNE BRG", "borough": "staten_island", "direction": "FT", "total_row_ft": 79.5, "roadbed_ft": 47.7, "median_ft": 1.8, "left_sw_ft": 15.0, "right_sw_ft": 15.0}, "geometry": {"type": "LineString", "coordinates": [[-74.14245907206697, 40.640902374611336], [-74.1428721551545, 40.64099970167777]]}}, {"type": "Feature", "properties": {"segment_id": 1465984, "physicalid": "99029", "street_name": "BAYONNE BRG", "borough": "staten_island", "direction": "FT", "total_row_ft": 79.5, "roadbed_ft": 47.8, "median_ft": 1.8, "left_sw_ft": 15.0, "right_sw_ft": 15.0}, "geometry": {"type": "LineString", "coordinates": [[-74.14248036680318, 40.640849930269596], [-74.14289344959711, 40.640947257260194]]}}, {"type": "Feature", "properties": {"segment_id": 1465985, "physicalid": "99029", "street_name": "BAYONNE BRG", "borough": "staten_island", "direction": "FT", "total_row_ft": 79.6, "roadbed_ft": 47.9, "median_ft": 1.8, "left_sw_ft": 15.0, "right_sw_ft": 15.0}, "geometry": {"type": "LineString", "coordinates": [[-74.14250166150592, 40.6407974859237], [-74.14291474400626, 40.640894812838276]]}}, {"type": "Feature", "properties": {"segment_id": 1465986, "physicalid": "99029", "street_name": "BAYONNE BRG", "borough": "staten_island", "direction": "FT", "total_row_ft": 79.8, "roadbed_ft": 48.0, "median_ft": 1.8, "left_sw_ft": 15.0, "right_sw_ft": 15.0}, "geometry": {"type": "LineString", "coordinates": [[-74.1425229561752, 40.640745041573474], [-74.14293603838192, 40.640842368412194]]}}, {"type": "Feature", "properties": {"segment_id": 1465987, "physicalid": "99029", "street_name": "BAYONNE BRG", "borough": "staten_island", "direction": "FT", "total_row_ft": 79.8, "roadbed_ft": 48.0, "median_ft": 1.8, "left_sw_ft": 15.0, "right_sw_ft": 15.0}, "geometry": {"type": "LineString", "coordinates": [[-74.142544250811, 40.64069259721904], [-74.14295733272411, 40.640789923981814]]}}, {"type": "Feature", "properties": {"segment_id": 1465988, "physicalid": "99029", "street_name": "BAYONNE BRG", "borough": "staten_island", "direction": "FT", "total_row_ft": 79.7, "roadbed_ft": 48.0, "median_ft": 1.8, "left_sw_ft": 15.0, "right_sw_ft": 15.0}, "geometry": {"type": "LineString", "coordinates": [[-74.14256554541332, 40.64064015286036], [-74.14297862703283, 40.640737479547205]]}}, {"type": "Feature", "properties": {"segment_id": 1465989, "physicalid": "99029", "street_name": "BAYONNE BRG", "borough": "staten_island", "direction": "FT", "total_row_ft": 79.6, "roadbed_ft": 47.9, "median_ft": 1.8, "left_sw_ft": 15.0, "right_sw_ft": 15.0}, "geometry": {"type": "LineString", "coordinates": [[-74.14258683998217, 40.64058770849742], [-74.14299992130807, 40.64068503510835]]}}, {"type": "Feature", "properties": {"segment_id": 1465990, "physicalid": "99029", "street_name": "BAYONNE BRG", "borough": "staten_island", "direction": "FT", "total_row_ft": 79.5, "roadbed_ft": 47.8, "median_ft": 1.8, "left_sw_ft": 15.0, "right_sw_ft": 15.0}, "geometry": {"type": "LineString", "coordinates": [[-74.14260813451754, 40.6405352641303], [-74.14302121554988, 40.640632590665206]]}}, {"type": "Feature", "properties": {"segment_id": 1465991, "physicalid": "99029", "street_name": "BAYONNE BRG", "borough": "staten_island", "direction": "FT", "total_row_ft": 79.4, "roadbed_ft": 47.7, "median_ft": 1.8, "left_sw_ft": 15.0, "right_sw_ft": 15.0}, "geometry": {"type": "LineString", "coordinates": [[-74.14262942901945, 40.640482819758816], [-74.14304250975816, 40.6405801462179]]}}, {"type": "Feature", "properties": {"segment_id": 1465992, "physicalid": "99029", "street_name": "BAYONNE BRG", "borough": "staten_island", "direction": "FT", "total_row_ft": 79.4, "roadbed_ft": 47.7, "median_ft": 1.8, "left_sw_ft": 15.0, "right_sw_ft": 15.0}, "geometry": {"type": "LineString", "coordinates": [[-74.14265072348788, 40.6404303753832], [-74.14306380393302, 40.64052770176626]]}}, {"type": "Feature", "properties": {"segment_id": 1465993, "physicalid": "99029", "street_name": "BAYONNE BRG", "borough": "staten_island", "direction": "FT", "total_row_ft": 79.4, "roadbed_ft": 47.6, "median_ft": 1.8, "left_sw_ft": 15.0, "right_sw_ft": 15.0}, "geometry": {"type": "LineString", "coordinates": [[-74.14267201799026, 40.64037793090168], [-74.14308509805471, 40.64047525742325]]}}, {"type": "Feature", "properties": {"segment_id": 1465994, "physicalid": "99029", "street_name": "BAYONNE BRG", "borough": "staten_island", "direction": "FT", "total_row_ft": 79.3, "roadbed_ft": 47.6, "median_ft": 1.8, "left_sw_ft": 15.0, "right_sw_ft": 15.0}, "geometry": {"type": "LineString", "coordinates": [[-74.14269331243864, 40.64032548652857], [-74.1431063922095, 40.64042281297422]]}}, {"type": "Feature", "properties": {"segment_id": 1465995, "physicalid": "99029", "street_name": "BAYONNE BRG", "borough": "staten_island", "direction": "FT", "total_row_ft": 79.4, "roadbed_ft": 47.7, "median_ft": 1.8, "left_sw_ft": 15.0, "right_sw_ft": 15.0}, "geometry": {"type": "LineString", "coordinates": [[-74.14271460685356, 40.640273042151215], [-74.14312768633081, 40.640370368520905]]}}, {"type": "Feature", "properties": {"segment_id": 1465996, "physicalid": "99029", "street_name": "BAYONNE BRG", "borough": "staten_island", "direction": "FT", "total_row_ft": 79.6, "roadbed_ft": 47.8, "median_ft": 1.8, "left_sw_ft": 15.0, "right_sw_ft": 15.0}, "geometry": {"type": "LineString", "coordinates": [[-74.14273590123499, 40.64022059776964], [-74.14314898041867, 40.64031792406334]]}}, {"type": "Feature", "properties": {"segment_id": 1465997, "physicalid": "99029", "street_name": "BAYONNE BRG", "borough": "staten_island", "direction": "FT", "total_row_ft": 79.7, "roadbed_ft": 47.9, "median_ft": 1.8, "left_sw_ft": 15.0, "right_sw_ft": 15.0}, "geometry": {"type": "LineString", "coordinates": [[-74.14275719558296, 40.64016815338379], [-74.14317027447305, 40.640265479601574]]}}, {"type": "Feature", "properties": {"segment_id": 1465998, "physicalid": "99029", "street_name": "BAYONNE BRG", "borough": "staten_island", "direction": "FT", "total_row_ft": 79.9, "roadbed_ft": 48.1, "median_ft": 1.8, "left_sw_ft": 15.0, "right_sw_ft": 15.0}, "geometry": {"type": "LineString", "coordinates": [[-74.14277848989745, 40.6401157089937], [-74.14319156849395, 40.64021303513554]]}}, {"type": "Feature", "properties": {"segment_id": 1465999, "physicalid": "99029", "street_name": "BAYONNE BRG", "borough": "staten_island", "direction": "FT", "total_row_ft": 80.2, "roadbed_ft": 48.4, "median_ft": 1.8, "left_sw_ft": 15.0, "right_sw_ft": 15.0}, "geometry": {"type": "LineString", "coordinates": [[-74.1427997841785, 40.64006326459931], [-74.14321286248136, 40.64016059066531]]}}, {"type": "Feature", "properties": {"segment_id": 1466000, "physicalid": "99029", "street_name": "BAYONNE BRG", "borough": "staten_island", "direction": "FT", "total_row_ft": 80.3, "roadbed_ft": 48.5, "median_ft": 1.8, "left_sw_ft": 15.0, "right_sw_ft": 15.0}, "geometry": {"type": "LineString", "coordinates": [[-74.14282107842604, 40.64001082020072], [-74.14323415643533, 40.64010814619077]]}}, {"type": "Feature", "properties": {"segment_id": 1466001, "physicalid": "99029", "street_name": "BAYONNE BRG", "borough": "staten_island", "direction": "FT", "total_row_ft": 80.3, "roadbed_ft": 48.6, "median_ft": 1.8, "left_sw_ft": 15.0, "right_sw_ft": 15.0}, "geometry": {"type": "LineString", "coordinates": [[-74.14284237264013, 40.63995837579789], [-74.14325545035581, 40.640055701712015]]}}, {"type": "Feature", "properties": {"segment_id": 1769432, "physicalid": "191501", "street_name": "BAYONNE BR PED AND BIKE PATH", "borough": "staten_island", "direction": "NV", "total_row_ft": 65.0, "roadbed_ft": 33.2, "median_ft": 1.8, "left_sw_ft": 15.0, "right_sw_ft": 15.0}, "geometry": {"type": "LineString", "coordinates": [[-74.14300114770177, 40.64009316335392], [-74.14258814745862, 40.63999564627168]]}}, {"type": "Feature", "properties": {"segment_id": 1769433, "physicalid": "191501", "street_name": "BAYONNE BR PED AND BIKE PATH", "borough": "staten_island", "direction": "NV", "total_row_ft": 64.9, "roadbed_ft": 33.1, "median_ft": 1.8, "left_sw_ft": 15.0, "right_sw_ft": 15.0}, "geometry": {"type": "LineString", "coordinates": [[-74.14297981194319, 40.640145597967255], [-74.1425668114067, 40.640048080808924]]}}, {"type": "Feature", "properties": {"segment_id": 1769434, "physicalid": "191501", "street_name": "BAYONNE BR PED AND BIKE PATH", "borough": "staten_island", "direction": "NV", "total_row_ft": 64.8, "roadbed_ft": 33.0, "median_ft": 1.8, "left_sw_ft": 15.0, "right_sw_ft": 15.0}, "geometry": {"type": "LineString", "coordinates": [[-74.14295847615108, 40.64019803257628], [-74.14254547532123, 40.640100515341906]]}}, {"type": "Feature", "properties": {"segment_id": 1769435, "physicalid": "191501", "street_name": "BAYONNE BR PED AND BIKE PATH", "borough": "staten_island", "direction": "NV", "total_row_ft": 64.9, "roadbed_ft": 33.1, "median_ft": 1.8, "left_sw_ft": 15.0, "right_sw_ft": 15.0}, "geometry": {"type": "LineString", "coordinates": [[-74.14293714032542, 40.640250467181104], [-74.14252413920225, 40.640152949870604]]}}, {"type": "Feature", "properties": {"segment_id": 1769436, "physicalid": "191501", "street_name": "BAYONNE BR PED AND BIKE PATH", "borough": "staten_island", "direction": "NV", "total_row_ft": 65.0, "roadbed_ft": 33.2, "median_ft": 1.8, "left_sw_ft": 15.0, "right_sw_ft": 15.0}, "geometry": {"type": "LineString", "coordinates": [[-74.14291580446627, 40.6403029017816], [-74.14250280304972, 40.64020538439511]]}}, {"type": "Feature", "properties": {"segment_id": 1769437, "physicalid": "191501", "street_name": "BAYONNE BR PED AND BIKE PATH", "borough": "staten_island", "direction": "NV", "total_row_ft": 65.0, "roadbed_ft": 33.3, "median_ft": 1.8, "left_sw_ft": 15.0, "right_sw_ft": 15.0}, "geometry": {"type": "LineString", "coordinates": [[-74.14289446857356, 40.64035533637787], [-74.14248146686366, 40.6402578189153]]}}, {"type": "Feature", "properties": {"segment_id": 1769438, "physicalid": "191501", "street_name": "BAYONNE BR PED AND BIKE PATH", "borough": "staten_island", "direction": "NV", "total_row_ft": 65.2, "roadbed_ft": 33.5, "median_ft": 1.8, "left_sw_ft": 15.0, "right_sw_ft": 15.0}, "geometry": {"type": "LineString", "coordinates": [[-74.14287313264732, 40.64040777096988], [-74.14246013064407, 40.64031025343125]]}}, {"type": "Feature", "properties": {"segment_id": 1769439, "physicalid": "191501", "street_name": "BAYONNE BR PED AND BIKE PATH", "borough": "staten_island", "direction": "NV", "total_row_ft": 65.4, "roadbed_ft": 33.6, "median_ft": 1.8, "left_sw_ft": 15.0, "right_sw_ft": 15.0}, "geometry": {"type": "LineString", "coordinates": [[-74.14285179668755, 40.640460205557616], [-74.14243879439096, 40.64036268794292]]}}, {"type": "Feature", "properties": {"segment_id": 1769440, "physicalid": "191501", "street_name": "BAYONNE BR PED AND BIKE PATH", "borough": "staten_island", "direction": "NV", "total_row_ft": 65.4, "roadbed_ft": 33.6, "median_ft": 1.8, "left_sw_ft": 15.0, "right_sw_ft": 15.0}, "geometry": {"type": "LineString", "coordinates": [[-74.14283046069426, 40.640512640141104], [-74.14241745810429, 40.64041512245034]]}}, {"type": "Feature", "properties": {"segment_id": 1769441, "physicalid": "191501", "street_name": "BAYONNE BR PED AND BIKE PATH", "borough": "staten_island", "direction": "NV", "total_row_ft": 65.4, "roadbed_ft": 33.7, "median_ft": 1.8, "left_sw_ft": 15.0, "right_sw_ft": 15.0}, "geometry": {"type": "LineString", "coordinates": [[-74.14280912466744, 40.64056507472032], [-74.1423961217841, 40.64046755695348]]}}, {"type": "Feature", "properties": {"segment_id": 1769442, "physicalid": "191501", "street_name": "BAYONNE BR PED AND BIKE PATH", "borough": "staten_island", "direction": "NV", "total_row_ft": 65.5, "roadbed_ft": 33.7, "median_ft": 1.8, "left_sw_ft": 15.0, "right_sw_ft": 15.0}, "geometry": {"type": "LineString", "coordinates": [[-74.14278778860707, 40.64061750929527], [-74.14237478543039, 40.64051999145238]]}}, {"type": "Feature", "properties": {"segment_id": 1769443, "physicalid": "191501", "street_name": "BAYONNE BR PED AND BIKE PATH", "borough": "staten_island", "direction": "NV", "total_row_ft": 65.5, "roadbed_ft": 33.8, "median_ft": 1.8, "left_sw_ft": 15.0, "right_sw_ft": 15.0}, "geometry": {"type": "LineString", "coordinates": [[-74.14276645251317, 40.64066994386599], [-74.14235344904314, 40.640572425947006]]}}, {"type": "Feature", "properties": {"segment_id": 1769444, "physicalid": "191501", "street_name": "BAYONNE BR PED AND BIKE PATH", "borough": "staten_island", "direction": "NV", "total_row_ft": 65.5, "roadbed_ft": 33.8, "median_ft": 1.8, "left_sw_ft": 15.0, "right_sw_ft": 15.0}, "geometry": {"type": "LineString", "coordinates": [[-74.14274511638575, 40.64072237843241], [-74.14233211262237, 40.64062486043739]]}}, {"type": "Feature", "properties": {"segment_id": 1769445, "physicalid": "191501", "street_name": "BAYONNE BR PED AND BIKE PATH", "borough": "staten_island", "direction": "NV", "total_row_ft": 65.6, "roadbed_ft": 33.8, "median_ft": 1.8, "left_sw_ft": 15.0, "right_sw_ft": 15.0}, "geometry": {"type": "LineString", "coordinates": [[-74.1427237802248, 40.64077481299457], [-74.14231077616805, 40.64067729492349]]}}, {"type": "Feature", "properties": {"segment_id": 1769446, "physicalid": "191501", "street_name": "BAYONNE BR PED AND BIKE PATH", "borough": "staten_island", "direction": "NV", "total_row_ft": 65.5, "roadbed_ft": 33.8, "median_ft": 1.8, "left_sw_ft": 15.0, "right_sw_ft": 15.0}, "geometry": {"type": "LineString", "coordinates": [[-74.14270244403028, 40.64082724755251], [-74.14228943968021, 40.6407297294053]]}}, {"type": "Feature", "properties": {"segment_id": 1769447, "physicalid": "191501", "street_name": "BAYONNE BR PED AND BIKE PATH", "borough": "staten_island", "direction": "NV", "total_row_ft": 65.5, "roadbed_ft": 33.7, "median_ft": 1.8, "left_sw_ft": 15.0, "right_sw_ft": 15.0}, "geometry": {"type": "LineString", "coordinates": [[-74.14268110780226, 40.640879682106174], [-74.14226810315883, 40.640782163882875]]}}, {"type": "Feature", "properties": {"segment_id": 1769448, "physicalid": "191501", "street_name": "BAYONNE BR PED AND BIKE PATH", "borough": "staten_island", "direction": "NV", "total_row_ft": 65.5, "roadbed_ft": 33.8, "median_ft": 1.8, "left_sw_ft": 15.0, "right_sw_ft": 15.0}, "geometry": {"type": "LineString", "coordinates": [[-74.14265977154072, 40.64093211665554], [-74.14224676660392, 40.640834598356236]]}}, {"type": "Feature", "properties": {"segment_id": 1769449, "physicalid": "191501", "street_name": "BAYONNE BR PED AND BIKE PATH", "borough": "staten_island", "direction": "NV", "total_row_ft": 65.6, "roadbed_ft": 33.8, "median_ft": 1.8, "left_sw_ft": 15.0, "right_sw_ft": 15.0}, "geometry": {"type": "LineString", "coordinates": [[-74.14263843524564, 40.64098455120065], [-74.14222543001546, 40.6408870328253]]}}, {"type": "Feature", "properties": {"segment_id": 1769450, "physicalid": "191501", "street_name": "BAYONNE BR PED AND BIKE PATH", "borough": "staten_island", "direction": "NV", "total_row_ft": 65.7, "roadbed_ft": 33.9, "median_ft": 1.8, "left_sw_ft": 15.0, "right_sw_ft": 15.0}, "geometry": {"type": "LineString", "coordinates": [[-74.14261709891703, 40.64103698574152], [-74.14220409339349, 40.64093946729009]]}}, {"type": "Feature", "properties": {"segment_id": 1769451, "physicalid": "191501", "street_name": "BAYONNE BR PED AND BIKE PATH", "borough": "staten_island", "direction": "NV", "total_row_ft": 65.9, "roadbed_ft": 34.2, "median_ft": 1.8, "left_sw_ft": 15.0, "right_sw_ft": 15.0}, "geometry": {"type": "LineString", "coordinates": [[-74.14259576255486, 40.641089420278114], [-74.14218275673797, 40.640991901750624]]}}, {"type": "Feature", "properties": {"segment_id": 1769452, "physicalid": "191501", "street_name": "BAYONNE BR PED AND BIKE PATH", "borough": "staten_island", "direction": "NV", "total_row_ft": 66.2, "roadbed_ft": 34.4, "median_ft": 1.8, "left_sw_ft": 15.0, "right_sw_ft": 15.0}, "geometry": {"type": "LineString", "coordinates": [[-74.1425744261592, 40.641141854810456], [-74.14216142004894, 40.64104433620689]]}}, {"type": "Feature", "properties": {"segment_id": 1769453, "physicalid": "191501", "street_name": "BAYONNE BR PED AND BIKE PATH", "borough": "staten_island", "direction": "NV", "total_row_ft": 66.4, "roadbed_ft": 34.5, "median_ft": 2.0, "left_sw_ft": 15.0, "right_sw_ft": 15.0}, "geometry": {"type": "LineString", "coordinates": [[-74.14255308972997, 40.641194289338536], [-74.14214008332635, 40.6410967706589]]}}, {"type": "Feature", "properties": {"segment_id": 1769454, "physicalid": "191501", "street_name": "BAYONNE BR PED AND BIKE PATH", "borough": "staten_island", "direction": "NV", "total_row_ft": 66.6, "roadbed_ft": 34.4, "median_ft": 2.1, "left_sw_ft": 15.0, "right_sw_ft": 15.0}, "geometry": {"type": "LineString", "coordinates": [[-74.14253175326724, 40.641246723862345], [-74.14211874657025, 40.64114920510664]]}}, {"type": "Feature", "properties": {"segment_id": 1769455, "physicalid": "191501", "street_name": "BAYONNE BR PED AND BIKE PATH", "borough": "staten_island", "direction": "NV", "total_row_ft": 66.7, "roadbed_ft": 34.4, "median_ft": 2.3, "left_sw_ft": 15.0, "right_sw_ft": 15.0}, "geometry": {"type": "LineString", "coordinates": [[-74.14251041677095, 40.6412991583819], [-74.1420974097806, 40.64120163955014]]}}, {"type": "Feature", "properties": {"segment_id": 1769456, "physicalid": "191501", "street_name": "BAYONNE BR PED AND BIKE PATH", "borough": "staten_island", "direction": "NV", "total_row_ft": 66.8, "roadbed_ft": 34.4, "median_ft": 2.4, "left_sw_ft": 15.0, "right_sw_ft": 15.0}, "geometry": {"type": "LineString", "coordinates": [[-74.14248908024113, 40.64135159289717], [-74.14207607295744, 40.641254073989366]]}}, {"type": "Feature", "properties": {"segment_id": 1769457, "physicalid": "191501", "street_name": "BAYONNE BR PED AND BIKE PATH", "borough": "staten_island", "direction": "NV", "total_row_ft": 67.1, "roadbed_ft": 34.4, "median_ft": 2.6, "left_sw_ft": 15.0, "right_sw_ft": 15.0}, "geometry": {"type": "LineString", "coordinates": [[-74.14246774367778, 40.6414040274082], [-74.14205473610073, 40.641306508424314]]}}, {"type": "Feature", "properties": {"segment_id": 1769458, "physicalid": "191501", "street_name": "BAYONNE BR PED AND BIKE PATH", "borough": "staten_island", "direction": "NV", "total_row_ft": 67.3, "roadbed_ft": 34.6, "median_ft": 2.7, "left_sw_ft": 15.0, "right_sw_ft": 15.0}, "geometry": {"type": "LineString", "coordinates": [[-74.1424464070809, 40.641456461915], [-74.14203339921049, 40.64135894285497]]}}, {"type": "Feature", "properties": {"segment_id": 1769459, "physicalid": "191501", "street_name": "BAYONNE BR PED AND BIKE PATH", "borough": "staten_island", "direction": "NV", "total_row_ft": 67.4, "roadbed_ft": 34.7, "median_ft": 2.7, "left_sw_ft": 15.0, "right_sw_ft": 15.0}, "geometry": {"type": "LineString", "coordinates": [[-74.14242507045049, 40.64150889641749], [-74.14201206228672, 40.64141137728143]]}}, {"type": "Feature", "properties": {"segment_id": 1769460, "physicalid": "191501", "street_name": "BAYONNE BR PED AND BIKE PATH", "borough": "staten_island", "direction": "NV", "total_row_ft": 67.4, "roadbed_ft": 34.8, "median_ft": 2.6, "left_sw_ft": 15.0, "right_sw_ft": 15.0}, "geometry": {"type": "LineString", "coordinates": [[-74.14240373378655, 40.6415613309157], [-74.1419907253294, 40.64146381170361]]}}, {"type": "Feature", "properties": {"segment_id": 1769461, "physicalid": "191501", "street_name": "BAYONNE BR PED AND BIKE PATH", "borough": "staten_island", "direction": "NV", "total_row_ft": 67.4, "roadbed_ft": 34.8, "median_ft": 2.6, "left_sw_ft": 15.0, "right_sw_ft": 15.0}, "geometry": {"type": "LineString", "coordinates": [[-74.14238239708907, 40.64161376540969], [-74.14196938833855, 40.64151624612153]]}}, {"type": "Feature", "properties": {"segment_id": 1769462, "physicalid": "191501", "street_name": "BAYONNE BR PED AND BIKE PATH", "borough": "staten_island", "direction": "NV", "total_row_ft": 67.4, "roadbed_ft": 34.9, "median_ft": 2.5, "left_sw_ft": 15.0, "right_sw_ft": 15.0}, "geometry": {"type": "LineString", "coordinates": [[-74.14236106035806, 40.6416661998994], [-74.14194805131417, 40.641568680535144]]}}, {"type": "Feature", "properties": {"segment_id": 1769463, "physicalid": "191501", "street_name": "BAYONNE BR PED AND BIKE PATH", "borough": "staten_island", "direction": "NV", "total_row_ft": 67.5, "roadbed_ft": 34.9, "median_ft": 2.5, "left_sw_ft": 15.0, "right_sw_ft": 15.0}, "geometry": {"type": "LineString", "coordinates": [[-74.14233972359351, 40.64171863438483], [-74.14192671425627, 40.64162111494455]]}}, {"type": "Feature", "properties": {"segment_id": 1769464, "physicalid": "191501", "street_name": "BAYONNE BR PED AND BIKE PATH", "borough": "staten_island", "direction": "NV", "total_row_ft": 67.5, "roadbed_ft": 35.0, "median_ft": 2.5, "left_sw_ft": 15.0, "right_sw_ft": 15.0}, "geometry": {"type": "LineString", "coordinates": [[-74.14231838679544, 40.641771068866014], [-74.14190537716482, 40.64167354934967]]}}, {"type": "Feature", "properties": {"segment_id": 1769465, "physicalid": "191501", "street_name": "BAYONNE BR PED AND BIKE PATH", "borough": "staten_island", "direction": "NV", "total_row_ft": 67.6, "roadbed_ft": 35.1, "median_ft": 2.5, "left_sw_ft": 15.0, "right_sw_ft": 15.0}, "geometry": {"type": "LineString", "coordinates": [[-74.14229704996382, 40.64182350334295], [-74.14188404003986, 40.64172598375052]]}}, {"type": "Feature", "properties": {"segment_id": 1769466, "physicalid": "191501", "street_name": "BAYONNE BR PED AND BIKE PATH", "borough": "staten_island", "direction": "NV", "total_row_ft": 67.7, "roadbed_ft": 35.1, "median_ft": 2.6, "left_sw_ft": 15.0, "right_sw_ft": 15.0}, "geometry": {"type": "LineString", "coordinates": [[-74.14227571309867, 40.64187593781559], [-74.14186270288134, 40.64177841814713]]}}, {"type": "Feature", "properties": {"segment_id": 1769467, "physicalid": "191501", "street_name": "BAYONNE BR PED AND BIKE PATH", "borough": "staten_island", "direction": "NV", "total_row_ft": 67.7, "roadbed_ft": 35.1, "median_ft": 2.6, "left_sw_ft": 15.0, "right_sw_ft": 15.0}, "geometry": {"type": "LineString", "coordinates": [[-74.14225437619999, 40.64192837228399], [-74.1418413656893, 40.64183085253944]]}}, {"type": "Feature", "properties": {"segment_id": 1769468, "physicalid": "191501", "street_name": "BAYONNE BR PED AND BIKE PATH", "borough": "staten_island", "direction": "NV", "total_row_ft": 67.8, "roadbed_ft": 35.2, "median_ft": 2.6, "left_sw_ft": 15.0, "right_sw_ft": 15.0}, "geometry": {"type": "LineString", "coordinates": [[-74.14223303926778, 40.64198080674814], [-74.14182002846371, 40.641883286927516]]}}, {"type": "Feature", "properties": {"segment_id": 1769469, "physicalid": "191501", "street_name": "BAYONNE BR PED AND BIKE PATH", "borough": "staten_island", "direction": "NV", "total_row_ft": 68.0, "roadbed_ft": 35.3, "median_ft": 2.7, "left_sw_ft": 15.0, "right_sw_ft": 15.0}, "geometry": {"type": "LineString", "coordinates": [[-74.14221170230203, 40.642033241208], [-74.14179869120461, 40.641935721311306]]}}, {"type": "Feature", "properties": {"segment_id": 1769470, "physicalid": "191501", "street_name": "BAYONNE BR PED AND BIKE PATH", "borough": "staten_island", "direction": "NV", "total_row_ft": 68.1, "roadbed_ft": 35.4, "median_ft": 2.7, "left_sw_ft": 15.0, "right_sw_ft": 15.0}, "geometry": {"type": "LineString", "coordinates": [[-74.14219036530274, 40.642085675663644], [-74.14177735391198, 40.64198815569082]]}}, {"type": "Feature", "properties": {"segment_id": 1769471, "physicalid": "191501", "street_name": "BAYONNE BR PED AND BIKE PATH", "borough": "staten_island", "direction": "NV", "total_row_ft": 68.3, "roadbed_ft": 35.4, "median_ft": 2.8, "left_sw_ft": 15.0, "right_sw_ft": 15.0}, "geometry": {"type": "LineString", "coordinates": [[-74.14216902826992, 40.642138110114985], [-74.14175601658579, 40.64204059006608]]}}, {"type": "Feature", "properties": {"segment_id": 1769472, "physicalid": "191501", "street_name": "BAYONNE BR PED AND BIKE PATH", "borough": "staten_island", "direction": "NV", "total_row_ft": 68.3, "roadbed_ft": 35.5, "median_ft": 2.9, "left_sw_ft": 15.0, "right_sw_ft": 15.0}, "geometry": {"type": "LineString", "coordinates": [[-74.14214769120359, 40.64219054456201], [-74.14173467922606, 40.64209302443713]]}}]}