{"type": "FeatureCollection", "features": [{"type": "Feature", "properties": {"segment_id": 1581395, "physicalid": "123590", "street_name": "BUFFALO ST", "borough": "staten_island", "direction": "TW", "total_row_ft": 59.7, "roadbed_ft": 22.5, "median_ft": 0.0, "left_sw_ft": 22.2, "right_sw_ft": 15.0}, "geometry": {"type": "LineString", "coordinates": [[-74.1295968960143, 40.538760983454324], [-74.12981195152899, 40.538923680898165]]}}, {"type": "Feature", "properties": {"segment_id": 1581396, "physicalid": "123590", "street_name": "BUFFALO ST", "borough": "staten_island", "direction": "TW", "total_row_ft": 58.7, "roadbed_ft": 22.3, "median_ft": 0.0, "left_sw_ft": 21.4, "right_sw_ft": 15.0}, "geometry": {"type": "LineString", "coordinates": [[-74.12964544073746, 40.53872039863796], [-74.12986261713216, 40.538884700518096]]}}, {"type": "Feature", "properties": {"segment_id": 1581397, "physicalid": "123590", "street_name": "BUFFALO ST", "borough": "staten_island", "direction": "TW", "total_row_ft": 57.8, "roadbed_ft": 22.2, "median_ft": 0.0, "left_sw_ft": 20.6, "right_sw_ft": 15.0}, "geometry": {"type": "LineString", "coordinates": [[-74.12969398540169, 40.53867981380092], [-74.1299132826762, 40.538845720115596]]}}, {"type": "Feature", "properties": {"segment_id": 1581398, "physicalid": "123590", "street_name": "BUFFALO ST", "borough": "staten_island", "direction": "TW", "total_row_ft": 57.7, "roadbed_ft": 22.9, "median_ft": 0.0, "left_sw_ft": 19.8, "right_sw_ft": 15.0}, "geometry": {"type": "LineString", "coordinates": [[-74.12974253000694, 40.53863922894324], [-74.1299639481612, 40.538806739690564]]}}, {"type": "Feature", "properties": {"segment_id": 1581399, "physicalid": "123590", "street_name": "BUFFALO ST", "borough": "staten_island", "direction": "TW", "total_row_ft": 57.8, "roadbed_ft": 24.3, "median_ft": 0.0, "left_sw_ft": 18.4, "right_sw_ft": 15.0}, "geometry": {"type": "LineString", "coordinates": [[-74.12979088094154, 40.53859849759024], [-74.13001461358706, 40.538767759243086]]}}, {"type": "Feature", "properties": {"segment_id": 1581400, "physicalid": "123590", "street_name": "BUFFALO ST", "borough": "staten_island", "direction": "TW", "total_row_ft": 59.0, "roadbed_ft": 26.5, "median_ft": 0.0, "left_sw_ft": 17.5, "right_sw_ft": 15.0}, "geometry": {"type": "LineString", "coordinates": [[-74.12983619379257, 40.53855546783598], [-74.13006527895382, 40.53872877877314]]}}, {"type": "Feature", "properties": {"segment_id": 1581401, "physicalid": "123590", "street_name": "BUFFALO ST", "borough": "staten_island", "direction": "TW", "total_row_ft": 60.5, "roadbed_ft": 30.4, "median_ft": 0.0, "left_sw_ft": 15.2, "right_sw_ft": 15.0}, "geometry": {"type": "LineString", "coordinates": [[-74.12988074812507, 40.53851186426001], [-74.13011594426143, 40.53868979828072]]}}, {"type": "Feature", "properties": {"segment_id": 1683569, "physicalid": "171377", "street_name": "BUFFALO ST", "borough": "staten_island", "direction": "TW", "total_row_ft": 55.9, "roadbed_ft": 23.0, "median_ft": 0.0, "left_sw_ft": 17.9, "right_sw_ft": 15.0}, "geometry": {"type": "LineString", "coordinates": [[-74.12831076491797, 40.53992234842102], [-74.12854277803136, 40.54007114546066]]}}, {"type": "Feature", "properties": {"segment_id": 1683570, "physicalid": "171377", "street_name": "BUFFALO ST", "borough": "staten_island", "direction": "TW", "total_row_ft": 56.0, "roadbed_ft": 22.9, "median_ft": 0.0, "left_sw_ft": 18.1, "right_sw_ft": 15.0}, "geometry": {"type": "LineString", "coordinates": [[-74.1283573585521, 40.53988051415991], [-74.12858908028569, 40.540029124262645]]}}, {"type": "Feature", "properties": {"segment_id": 1683571, "physicalid": "171377", "street_name": "BUFFALO ST", "borough": "staten_island", "direction": "TW", "total_row_ft": 56.2, "roadbed_ft": 22.9, "median_ft": 0.0, "left_sw_ft": 18.2, "right_sw_ft": 15.0}, "geometry": {"type": "LineString", "coordinates": [[-74.12840384527196, 40.539838611349644], [-74.12863538248183, 40.539987103045824]]}}, {"type": "Feature", "properties": {"segment_id": 1683572, "physicalid": "171377", "street_name": "BUFFALO ST", "borough": "staten_island", "direction": "TW", "total_row_ft": 56.4, "roadbed_ft": 23.2, "median_ft": 0.0, "left_sw_ft": 18.3, "right_sw_ft": 15.0}, "geometry": {"type": "LineString", "coordinates": [[-74.12845033193355, 40.53979670852042], [-74.1286816846197, 40.53994508181018]]}}, {"type": "Feature", "properties": {"segment_id": 1683573, "physicalid": "171377", "street_name": "BUFFALO ST", "borough": "staten_island", "direction": "TW", "total_row_ft": 56.9, "roadbed_ft": 23.6, "median_ft": 0.0, "left_sw_ft": 18.3, "right_sw_ft": 15.0}, "geometry": {"type": "LineString", "coordinates": [[-74.12849681853682, 40.53975480567223], [-74.1287279866994, 40.539903060555694]]}}, {"type": "Feature", "properties": {"segment_id": 1683574, "physicalid": "171377", "street_name": "BUFFALO ST", "borough": "staten_island", "direction": "TW", "total_row_ft": 57.3, "roadbed_ft": 24.0, "median_ft": 0.0, "left_sw_ft": 18.3, "right_sw_ft": 15.0}, "geometry": {"type": "LineString", "coordinates": [[-74.12854330508182, 40.53971290280507], [-74.1287742887208, 40.53986103928244]]}}, {"type": "Feature", "properties": {"segment_id": 1683575, "physicalid": "171377", "street_name": "BUFFALO ST", "borough": "staten_island", "direction": "TW", "total_row_ft": 57.5, "roadbed_ft": 23.9, "median_ft": 0.0, "left_sw_ft": 18.5, "right_sw_ft": 15.0}, "geometry": {"type": "LineString", "coordinates": [[-74.1285897915685, 40.53967099991893], [-74.12882059068401, 40.53981901799036]]}}, {"type": "Feature", "properties": {"segment_id": 1683576, "physicalid": "171377", "street_name": "BUFFALO ST", "borough": "staten_island", "direction": "TW", "total_row_ft": 57.3, "roadbed_ft": 23.5, "median_ft": 0.0, "left_sw_ft": 18.9, "right_sw_ft": 15.0}, "geometry": {"type": "LineString", "coordinates": [[-74.12863627799689, 40.53962909701387], [-74.12886689258902, 40.539776996679436]]}}, {"type": "Feature", "properties": {"segment_id": 1683577, "physicalid": "171377", "street_name": "BUFFALO ST", "borough": "staten_island", "direction": "TW", "total_row_ft": 57.2, "roadbed_ft": 23.0, "median_ft": 0.0, "left_sw_ft": 19.2, "right_sw_ft": 15.0}, "geometry": {"type": "LineString", "coordinates": [[-74.128682764367, 40.53958719408983], [-74.12891319443574, 40.53973497534977]]}}, {"type": "Feature", "properties": {"segment_id": 1683578, "physicalid": "171377", "street_name": "BUFFALO ST", "borough": "staten_island", "direction": "TW", "total_row_ft": 57.2, "roadbed_ft": 22.5, "median_ft": 0.0, "left_sw_ft": 19.7, "right_sw_ft": 15.0}, "geometry": {"type": "LineString", "coordinates": [[-74.12872899122019, 40.539545124748194], [-74.12895949622427, 40.53969295400124]]}}, {"type": "Feature", "properties": {"segment_id": 1683579, "physicalid": "171377", "street_name": "BUFFALO ST", "borough": "staten_island", "direction": "TW", "total_row_ft": 57.3, "roadbed_ft": 22.2, "median_ft": 0.0, "left_sw_ft": 20.1, "right_sw_ft": 15.0}, "geometry": {"type": "LineString", "coordinates": [[-74.12877514236773, 40.539503006872835], [-74.12900579795456, 40.539650932633926]]}}, {"type": "Feature", "properties": {"segment_id": 1683580, "physicalid": "171377", "street_name": "BUFFALO ST", "borough": "staten_island", "direction": "TW", "total_row_ft": 57.4, "roadbed_ft": 21.9, "median_ft": 0.0, "left_sw_ft": 20.4, "right_sw_ft": 15.0}, "geometry": {"type": "LineString", "coordinates": [[-74.1288212934571, 40.53946088897878], [-74.12905209962662, 40.5396089112478]]}}, {"type": "Feature", "properties": {"segment_id": 1683581, "physicalid": "171377", "street_name": "BUFFALO ST", "borough": "staten_island", "direction": "TW", "total_row_ft": 57.4, "roadbed_ft": 21.7, "median_ft": 0.0, "left_sw_ft": 20.8, "right_sw_ft": 15.0}, "geometry": {"type": "LineString", "coordinates": [[-74.12886744448828, 40.539418771066046], [-74.12909840124047, 40.53956688984281]]}}, {"type": "Feature", "properties": {"segment_id": 1683582, "physicalid": "171377", "street_name": "BUFFALO ST", "borough": "staten_island", "direction": "TW", "total_row_ft": 57.6, "roadbed_ft": 21.5, "median_ft": 0.0, "left_sw_ft": 21.1, "right_sw_ft": 15.0}, "geometry": {"type": "LineString", "coordinates": [[-74.12891359546131, 40.53937665313462], [-74.12914470279607, 40.539524868419065]]}}, {"type": "Feature", "properties": {"segment_id": 1683583, "physicalid": "171377", "street_name": "BUFFALO ST", "borough": "staten_island", "direction": "TW", "total_row_ft": 57.9, "roadbed_ft": 21.5, "median_ft": 0.0, "left_sw_ft": 21.4, "right_sw_ft": 15.0}, "geometry": {"type": "LineString", "coordinates": [[-74.12895974637618, 40.53933453518448], [-74.12919100429345, 40.53948284697648]]}}, {"type": "Feature", "properties": {"segment_id": 1683584, "physicalid": "171377", "street_name": "BUFFALO ST", "borough": "staten_island", "direction": "TW", "total_row_ft": 58.2, "roadbed_ft": 21.6, "median_ft": 0.0, "left_sw_ft": 21.6, "right_sw_ft": 15.0}, "geometry": {"type": "LineString", "coordinates": [[-74.12900589723286, 40.5392924172157], [-74.12923730573263, 40.53944082551506]]}}, {"type": "Feature", "properties": {"segment_id": 1683585, "physicalid": "171377", "street_name": "BUFFALO ST", "borough": "staten_island", "direction": "TW", "total_row_ft": 58.4, "roadbed_ft": 21.8, "median_ft": 0.0, "left_sw_ft": 21.5, "right_sw_ft": 15.0}, "geometry": {"type": "LineString", "coordinates": [[-74.12905222758239, 40.53925041437931], [-74.12928360711352, 40.53939880403488]]}}, {"type": "Feature", "properties": {"segment_id": 1683586, "physicalid": "171377", "street_name": "BUFFALO ST", "borough": "staten_island", "direction": "TW", "total_row_ft": 58.5, "roadbed_ft": 22.1, "median_ft": 0.0, "left_sw_ft": 21.4, "right_sw_ft": 15.0}, "geometry": {"type": "LineString", "coordinates": [[-74.12909874072264, 40.53920852879023], [-74.12932990843622, 40.53935678253587]]}}, {"type": "Feature", "properties": {"segment_id": 1683587, "physicalid": "171377", "street_name": "BUFFALO ST", "borough": "staten_island", "direction": "TW", "total_row_ft": 58.6, "roadbed_ft": 22.4, "median_ft": 0.0, "left_sw_ft": 21.2, "right_sw_ft": 15.0}, "geometry": {"type": "LineString", "coordinates": [[-74.12914525380458, 40.5391666431822], [-74.12937620970072, 40.53931476101802]]}}, {"type": "Feature", "properties": {"segment_id": 1683588, "physicalid": "171377", "street_name": "BUFFALO ST", "borough": "staten_island", "direction": "TW", "total_row_ft": 58.8, "roadbed_ft": 22.7, "median_ft": 0.0, "left_sw_ft": 21.1, "right_sw_ft": 15.0}, "geometry": {"type": "LineString", "coordinates": [[-74.12919176682826, 40.539124757555165], [-74.12942251090693, 40.539272739481405]]}}, {"type": "Feature", "properties": {"segment_id": 1683589, "physicalid": "171377", "street_name": "BUFFALO ST", "borough": "staten_island", "direction": "TW", "total_row_ft": 58.9, "roadbed_ft": 23.0, "median_ft": 0.0, "left_sw_ft": 20.9, "right_sw_ft": 15.0}, "geometry": {"type": "LineString", "coordinates": [[-74.12923827979358, 40.539082871909166], [-74.12946881205497, 40.53923071792597]]}}, {"type": "Feature", "properties": {"segment_id": 1683590, "physicalid": "171377", "street_name": "BUFFALO ST", "borough": "staten_island", "direction": "TW", "total_row_ft": 59.1, "roadbed_ft": 22.9, "median_ft": 0.0, "left_sw_ft": 21.1, "right_sw_ft": 15.0}, "geometry": {"type": "LineString", "coordinates": [[-74.12928479270062, 40.53904098624418], [-74.12951511314475, 40.539188696351715]]}}, {"type": "Feature", "properties": {"segment_id": 1683591, "physicalid": "171377", "street_name": "BUFFALO ST", "borough": "staten_island", "direction": "TW", "total_row_ft": 59.3, "roadbed_ft": 22.7, "median_ft": 0.0, "left_sw_ft": 21.5, "right_sw_ft": 15.0}, "geometry": {"type": "LineString", "coordinates": [[-74.1293313090657, 40.53899910281532], [-74.12956141417631, 40.53914667475863]]}}, {"type": "Feature", "properties": {"segment_id": 1683592, "physicalid": "171377", "street_name": "BUFFALO ST", "borough": "staten_island", "direction": "TW", "total_row_ft": 59.4, "roadbed_ft": 22.5, "median_ft": 0.0, "left_sw_ft": 21.9, "right_sw_ft": 15.0}, "geometry": {"type": "LineString", "coordinates": [[-74.1293778361663, 40.53895722628985], [-74.12960771514967, 40.53910465314672]]}}, {"type": "Feature", "properties": {"segment_id": 1683593, "physicalid": "171377", "street_name": "BUFFALO ST", "borough": "staten_island", "direction": "TW", "total_row_ft": 59.5, "roadbed_ft": 22.3, "median_ft": 0.0, "left_sw_ft": 22.2, "right_sw_ft": 15.0}, "geometry": {"type": "LineString", "coordinates": [[-74.12942436320861, 40.53891534974538], [-74.12965401606475, 40.53906263151606]]}}, {"type": "Feature", "properties": {"segment_id": 1683594, "physicalid": "171377", "street_name": "BUFFALO ST", "borough": "staten_island", "direction": "TW", "total_row_ft": 59.7, "roadbed_ft": 22.3, "median_ft": 0.0, "left_sw_ft": 22.4, "right_sw_ft": 15.0}, "geometry": {"type": "LineString", "coordinates": [[-74.1294708901926, 40.53887347318195], [-74.12970031692163, 40.53902060986654]]}}, {"type": "Feature", "properties": {"segment_id": 1683595, "physicalid": "171377", "street_name": "BUFFALO ST", "borough": "staten_island", "direction": "TW", "total_row_ft": 59.8, "roadbed_ft": 22.4, "median_ft": 0.0, "left_sw_ft": 22.4, "right_sw_ft": 15.0}, "geometry": {"type": "LineString", "coordinates": [[-74.12951741711828, 40.538831596599515], [-74.12974661772031, 40.538978588198205]]}}]}