{"type": "FeatureCollection", "features": [{"type": "Feature", "properties": {"segment_id": 1510962, "physicalid": "101859", "street_name": "CHESTER AVE", "borough": "staten_island", "direction": "TW", "total_row_ft": 48.3, "roadbed_ft": 30.6, "median_ft": 0.0, "left_sw_ft": 7.4, "right_sw_ft": 10.3}, "geometry": {"type": "LineString", "coordinates": [[-74.18699736421793, 40.519614065889805], [-74.18710436656852, 40.51979089631753]]}}, {"type": "Feature", "properties": {"segment_id": 1510963, "physicalid": "101859", "street_name": "CHESTER AVE", "borough": "staten_island", "direction": "TW", "total_row_ft": 49.7, "roadbed_ft": 30.6, "median_ft": 0.0, "left_sw_ft": 8.3, "right_sw_ft": 10.8}, "geometry": {"type": "LineString", "coordinates": [[-74.1870657107746, 40.51959607350866], [-74.1871697462534, 40.51976800063803]]}}, {"type": "Feature", "properties": {"segment_id": 1510964, "physicalid": "101859", "street_name": "CHESTER AVE", "borough": "staten_island", "direction": "TW", "total_row_ft": 50.6, "roadbed_ft": 30.6, "median_ft": 0.0, "left_sw_ft": 9.1, "right_sw_ft": 10.9}, "geometry": {"type": "LineString", "coordinates": [[-74.18713294521389, 40.51957624328077], [-74.1872344293773, 40.51974395387651]]}}, {"type": "Feature", "properties": {"segment_id": 1510965, "physicalid": "101859", "street_name": "CHESTER AVE", "borough": "staten_island", "direction": "TW", "total_row_ft": 50.6, "roadbed_ft": 30.5, "median_ft": 0.0, "left_sw_ft": 9.1, "right_sw_ft": 11.0}, "geometry": {"type": "LineString", "coordinates": [[-74.18719952475857, 40.519555330813105], [-74.18729911245467, 40.519719907078496]]}}, {"type": "Feature", "properties": {"segment_id": 1510966, "physicalid": "101859", "street_name": "CHESTER AVE", "borough": "staten_island", "direction": "TW", "total_row_ft": 50.1, "roadbed_ft": 30.1, "median_ft": 0.0, "left_sw_ft": 9.0, "right_sw_ft": 11.0}, "geometry": {"type": "LineString", "coordinates": [[-74.18726556229926, 40.51953352267176], [-74.1873637954855, 40.519695860244]]}}, {"type": "Feature", "properties": {"segment_id": 1510967, "physicalid": "101859", "street_name": "CHESTER AVE", "borough": "staten_island", "direction": "TW", "total_row_ft": 49.4, "roadbed_ft": 29.8, "median_ft": 0.0, "left_sw_ft": 8.8, "right_sw_ft": 10.8}, "geometry": {"type": "LineString", "coordinates": [[-74.18733100048121, 40.51951072407812], [-74.1874284784698, 40.519671813372966]]}}, {"type": "Feature", "properties": {"segment_id": 1510968, "physicalid": "101859", "street_name": "CHESTER AVE", "borough": "staten_island", "direction": "TW", "total_row_ft": 48.6, "roadbed_ft": 29.4, "median_ft": 0.0, "left_sw_ft": 8.5, "right_sw_ft": 10.6}, "geometry": {"type": "LineString", "coordinates": [[-74.18739584569953, 40.51948694560531], [-74.18749324189547, 40.51964789947691]]}}, {"type": "Feature", "properties": {"segment_id": 1510969, "physicalid": "101859", "street_name": "CHESTER AVE", "borough": "staten_island", "direction": "TW", "total_row_ft": 47.6, "roadbed_ft": 29.1, "median_ft": 0.0, "left_sw_ft": 8.1, "right_sw_ft": 10.5}, "geometry": {"type": "LineString", "coordinates": [[-74.1874601491463, 40.51946227185656], [-74.18755802171776, 40.51962401271724]]}}, {"type": "Feature", "properties": {"segment_id": 1510970, "physicalid": "101859", "street_name": "CHESTER AVE", "borough": "staten_island", "direction": "TW", "total_row_ft": 47.8, "roadbed_ft": 29.2, "median_ft": 0.0, "left_sw_ft": 8.3, "right_sw_ft": 10.3}, "geometry": {"type": "LineString", "coordinates": [[-74.18752271512585, 40.519434726868056], [-74.18762280149376, 40.51960012592097]]}}, {"type": "Feature", "properties": {"segment_id": 1510971, "physicalid": "101859", "street_name": "CHESTER AVE", "borough": "staten_island", "direction": "TW", "total_row_ft": 51.7, "roadbed_ft": 34.6, "median_ft": 0.0, "left_sw_ft": 8.6, "right_sw_ft": 8.5}, "geometry": {"type": "LineString", "coordinates": [[-74.1875850852799, 40.51940685831608], [-74.18769299469935, 40.519585185159315]]}}, {"type": "Feature", "properties": {"segment_id": 1678462, "physicalid": "170391", "street_name": "CORNELIA AVE", "borough": "staten_island", "direction": "TW", "total_row_ft": 45.5, "roadbed_ft": 25.3, "median_ft": 0.0, "left_sw_ft": 15.0, "right_sw_ft": 5.2}, "geometry": {"type": "LineString", "coordinates": [[-74.18783433522754, 40.5200084908655], [-74.18809135525261, 40.519896786273044]]}}, {"type": "Feature", "properties": {"segment_id": 1678463, "physicalid": "170391", "street_name": "CORNELIA AVE", "borough": "staten_island", "direction": "TW", "total_row_ft": 47.5, "roadbed_ft": 27.3, "median_ft": 0.0, "left_sw_ft": 15.0, "right_sw_ft": 5.2}, "geometry": {"type": "LineString", "coordinates": [[-74.18779873622312, 40.519960788042766], [-74.18805542621706, 40.51984922691264]]}}, {"type": "Feature", "properties": {"segment_id": 1678464, "physicalid": "170391", "street_name": "CORNELIA AVE", "borough": "staten_island", "direction": "TW", "total_row_ft": 70.4, "roadbed_ft": 50.2, "median_ft": 0.0, "left_sw_ft": 15.0, "right_sw_ft": 5.1}, "geometry": {"type": "LineString", "coordinates": [[-74.1877631372695, 40.51991308520883], [-74.18801949716165, 40.51980166757165]]}}, {"type": "Feature", "properties": {"segment_id": 1678465, "physicalid": "170391", "street_name": "CORNELIA AVE", "borough": "staten_island", "direction": "TW", "total_row_ft": 51.0, "roadbed_ft": 31.3, "median_ft": 0.0, "left_sw_ft": 15.0, "right_sw_ft": 4.7}, "geometry": {"type": "LineString", "coordinates": [[-74.18772753823389, 40.51986538210293], [-74.18798356803764, 40.51975410838763]]}}, {"type": "Feature", "properties": {"segment_id": 1678466, "physicalid": "170391", "street_name": "CORNELIA AVE", "borough": "staten_island", "direction": "TW", "total_row_ft": 51.4, "roadbed_ft": 31.7, "median_ft": 0.0, "left_sw_ft": 15.0, "right_sw_ft": 4.7}, "geometry": {"type": "LineString", "coordinates": [[-74.18769193948691, 40.519817679200884], [-74.18794758514319, 40.519706572466916]]}}, {"type": "Feature", "properties": {"segment_id": 1678467, "physicalid": "170391", "street_name": "CORNELIA AVE", "borough": "staten_island", "direction": "TW", "total_row_ft": 51.6, "roadbed_ft": 31.7, "median_ft": 0.0, "left_sw_ft": 15.0, "right_sw_ft": 4.9}, "geometry": {"type": "LineString", "coordinates": [[-74.18765634079078, 40.51976997628771], [-74.18791160112191, 40.5196590370467]]}}, {"type": "Feature", "properties": {"segment_id": 1678468, "physicalid": "170391", "street_name": "CORNELIA AVE", "borough": "staten_island", "direction": "TW", "total_row_ft": 51.7, "roadbed_ft": 31.8, "median_ft": 0.0, "left_sw_ft": 15.0, "right_sw_ft": 5.0}, "geometry": {"type": "LineString", "coordinates": [[-74.18762074214541, 40.519722273363264], [-74.18787561715183, 40.51961150161505]]}}, {"type": "Feature", "properties": {"segment_id": 1678469, "physicalid": "170391", "street_name": "CORNELIA AVE", "borough": "staten_island", "direction": "TW", "total_row_ft": 51.8, "roadbed_ft": 31.8, "median_ft": 0.0, "left_sw_ft": 15.0, "right_sw_ft": 5.0}, "geometry": {"type": "LineString", "coordinates": [[-74.18758514355088, 40.51967457042763], [-74.18783950015306, 40.51956402401029]]}}, {"type": "Feature", "properties": {"segment_id": 1678470, "physicalid": "170391", "street_name": "CORNELIA AVE", "borough": "staten_island", "direction": "TW", "total_row_ft": 91.8, "roadbed_ft": 32.5, "median_ft": 0.0, "left_sw_ft": 43.7, "right_sw_ft": 15.6}, "geometry": {"type": "LineString", "coordinates": [[-74.18754954500716, 40.5196268674808], [-74.18783732534402, 40.51950179466849]]}}]}