{"type": "FeatureCollection", "features": [{"type": "Feature", "properties": {"segment_id": 695993, "physicalid": "49536", "street_name": "PEARSON ST", "borough": "staten_island", "direction": "TW", "total_row_ft": 31.0, "roadbed_ft": 0.0, "median_ft": 0.0, "left_sw_ft": 15.0, "right_sw_ft": 16.0}, "geometry": {"type": "LineString", "coordinates": [[-74.18706675409088, 40.59010772941343], [-74.18731691182387, 40.58987484227479]]}}, {"type": "Feature", "properties": {"segment_id": 695994, "physicalid": "49536", "street_name": "PEARSON ST", "borough": "staten_island", "direction": "TW", "total_row_ft": 31.1, "roadbed_ft": 0.0, "median_ft": 0.0, "left_sw_ft": 15.0, "right_sw_ft": 16.1}, "geometry": {"type": "LineString", "coordinates": [[-74.18701104005369, 40.590072949609485], [-74.18725986414893, 40.58984130422071]]}}, {"type": "Feature", "properties": {"segment_id": 695995, "physicalid": "49536", "street_name": "PEARSON ST", "borough": "staten_island", "direction": "TW", "total_row_ft": 31.0, "roadbed_ft": 0.0, "median_ft": 0.0, "left_sw_ft": 15.0, "right_sw_ft": 16.0}, "geometry": {"type": "LineString", "coordinates": [[-74.1869553260745, 40.59003816977836], [-74.1872022559374, 40.589808288030966]]}}, {"type": "Feature", "properties": {"segment_id": 695996, "physicalid": "49536", "street_name": "PEARSON ST", "borough": "staten_island", "direction": "TW", "total_row_ft": 30.8, "roadbed_ft": 0.0, "median_ft": 0.0, "left_sw_ft": 15.0, "right_sw_ft": 15.8}, "geometry": {"type": "LineString", "coordinates": [[-74.18689961215337, 40.59000338992015], [-74.18714449590115, 40.589775413208464]]}}, {"type": "Feature", "properties": {"segment_id": 695997, "physicalid": "49536", "street_name": "PEARSON ST", "borough": "staten_island", "direction": "TW", "total_row_ft": 44.2, "roadbed_ft": 0.0, "median_ft": 0.0, "left_sw_ft": 15.0, "right_sw_ft": 29.2}, "geometry": {"type": "LineString", "coordinates": [[-74.18684389829029, 40.58996861003481], [-74.18711763382156, 40.58971377355747]]}}, {"type": "Feature", "properties": {"segment_id": 695998, "physicalid": "49536", "street_name": "PEARSON ST", "borough": "staten_island", "direction": "TW", "total_row_ft": 30.5, "roadbed_ft": 0.0, "median_ft": 0.0, "left_sw_ft": 15.0, "right_sw_ft": 15.5}, "geometry": {"type": "LineString", "coordinates": [[-74.18678818448524, 40.58993383012234], [-74.18702897593853, 40.589709663532545]]}}, {"type": "Feature", "properties": {"segment_id": 695999, "physicalid": "49536", "street_name": "PEARSON ST", "borough": "staten_island", "direction": "TW", "total_row_ft": 45.5, "roadbed_ft": 0.0, "median_ft": 0.0, "left_sw_ft": 15.0, "right_sw_ft": 30.5}, "geometry": {"type": "LineString", "coordinates": [[-74.18673247073822, 40.58989905018274], [-74.18700604999327, 40.5896443595868]]}}, {"type": "Feature", "properties": {"segment_id": 696000, "physicalid": "49536", "street_name": "PEARSON ST", "borough": "staten_island", "direction": "TW", "total_row_ft": 38.9, "roadbed_ft": 0.0, "median_ft": 0.0, "left_sw_ft": 15.0, "right_sw_ft": 23.9}, "geometry": {"type": "LineString", "coordinates": [[-74.1866767570492, 40.58986427021599], [-74.18693352874847, 40.589625226996205]]}}, {"type": "Feature", "properties": {"segment_id": 696001, "physicalid": "49536", "street_name": "PEARSON ST", "borough": "staten_island", "direction": "TW", "total_row_ft": 34.8, "roadbed_ft": 0.0, "median_ft": 0.0, "left_sw_ft": 15.0, "right_sw_ft": 19.8}, "geometry": {"type": "LineString", "coordinates": [[-74.18662104341826, 40.589829490222115], [-74.1868667068547, 40.58960078853338]]}}, {"type": "Feature", "properties": {"segment_id": 696002, "physicalid": "49536", "street_name": "PEARSON ST", "borough": "staten_island", "direction": "TW", "total_row_ft": 32.2, "roadbed_ft": 0.0, "median_ft": 0.0, "left_sw_ft": 15.0, "right_sw_ft": 17.2}, "geometry": {"type": "LineString", "coordinates": [[-74.18656532984535, 40.58979471020115], [-74.18680289003518, 40.589573552477546]]}}, {"type": "Feature", "properties": {"segment_id": 696003, "physicalid": "49536", "street_name": "PEARSON ST", "borough": "staten_island", "direction": "TW", "total_row_ft": 30.2, "roadbed_ft": 0.0, "median_ft": 0.0, "left_sw_ft": 15.0, "right_sw_ft": 15.2}, "geometry": {"type": "LineString", "coordinates": [[-74.18650961633047, 40.58975993015303], [-74.18674040517892, 40.58954507643335]]}}, {"type": "Feature", "properties": {"segment_id": 738704, "physicalid": "51971", "street_name": "WILD AVE", "borough": "staten_island", "direction": "TW", "total_row_ft": 63.3, "roadbed_ft": 38.1, "median_ft": 0.0, "left_sw_ft": 10.2, "right_sw_ft": 15.0}, "geometry": {"type": "LineString", "coordinates": [[-74.18874654256808, 40.58991468808485], [-74.18904945844187, 40.59003321750994]]}}, {"type": "Feature", "properties": {"segment_id": 738705, "physicalid": "51971", "street_name": "WILD AVE", "borough": "staten_island", "direction": "TW", "total_row_ft": 62.8, "roadbed_ft": 37.4, "median_ft": 0.0, "left_sw_ft": 10.4, "right_sw_ft": 15.0}, "geometry": {"type": "LineString", "coordinates": [[-74.1887771458183, 40.589864957831836], [-74.18908234127927, 40.589984379229854]]}}, {"type": "Feature", "properties": {"segment_id": 738706, "physicalid": "51971", "street_name": "WILD AVE", "borough": "staten_island", "direction": "TW", "total_row_ft": 61.5, "roadbed_ft": 36.5, "median_ft": 0.0, "left_sw_ft": 10.0, "right_sw_ft": 15.0}, "geometry": {"type": "LineString", "coordinates": [[-74.18881063627357, 40.58981635734226], [-74.18911522406857, 40.589935540940154]]}}, {"type": "Feature", "properties": {"segment_id": 738707, "physicalid": "51971", "street_name": "WILD AVE", "borough": "staten_island", "direction": "TW", "total_row_ft": 60.1, "roadbed_ft": 35.1, "median_ft": 0.0, "left_sw_ft": 10.0, "right_sw_ft": 15.0}, "geometry": {"type": "LineString", "coordinates": [[-74.1888454887827, 40.58976828982897], [-74.18914810680981, 40.58988670264077]]}}, {"type": "Feature", "properties": {"segment_id": 738708, "physicalid": "51971", "street_name": "WILD AVE", "borough": "staten_island", "direction": "TW", "total_row_ft": 60.6, "roadbed_ft": 35.2, "median_ft": 0.0, "left_sw_ft": 10.4, "right_sw_ft": 15.0}, "geometry": {"type": "LineString", "coordinates": [[-74.18888034124166, 40.58972022230484], [-74.18918098950294, 40.58983786433178]]}}, {"type": "Feature", "properties": {"segment_id": 738709, "physicalid": "51971", "street_name": "WILD AVE", "borough": "staten_island", "direction": "TW", "total_row_ft": 61.8, "roadbed_ft": 36.1, "median_ft": 0.0, "left_sw_ft": 10.7, "right_sw_ft": 15.0}, "geometry": {"type": "LineString", "coordinates": [[-74.18891666930355, 40.58967273218773], [-74.18921387214795, 40.58978902601316]]}}, {"type": "Feature", "properties": {"segment_id": 738710, "physicalid": "51971", "street_name": "WILD AVE", "borough": "staten_island", "direction": "TW", "total_row_ft": 76.3, "roadbed_ft": 50.3, "median_ft": 0.0, "left_sw_ft": 11.1, "right_sw_ft": 15.0}, "geometry": {"type": "LineString", "coordinates": [[-74.18895324806579, 40.58962534017728], [-74.1892467547449, 40.589740187684875]]}}, {"type": "Feature", "properties": {"segment_id": 738711, "physicalid": "51972", "street_name": "WILD AVE", "borough": "staten_island", "direction": "TW", "total_row_ft": 114.1, "roadbed_ft": 79.2, "median_ft": 0.0, "left_sw_ft": 15.0, "right_sw_ft": 19.9}, "geometry": {"type": "LineString", "coordinates": [[-74.18894477711585, 40.58947897781952], [-74.18924324657485, 40.589628178263524]]}}, {"type": "Feature", "properties": {"segment_id": 738712, "physicalid": "51972", "street_name": "WILD AVE", "borough": "staten_island", "direction": "TW", "total_row_ft": 53.2, "roadbed_ft": 33.3, "median_ft": 0.0, "left_sw_ft": 15.0, "right_sw_ft": 4.9}, "geometry": {"type": "LineString", "coordinates": [[-74.18898426359493, 40.58943307109202], [-74.18922787242249, 40.589554847595075]]}}, {"type": "Feature", "properties": {"segment_id": 738713, "physicalid": "51972", "street_name": "WILD AVE", "borough": "staten_island", "direction": "TW", "total_row_ft": 53.2, "roadbed_ft": 33.4, "median_ft": 0.0, "left_sw_ft": 15.0, "right_sw_ft": 4.9}, "geometry": {"type": "LineString", "coordinates": [[-74.18902375001969, 40.589387164350796], [-74.18926753733487, 40.5895090300413]]}}, {"type": "Feature", "properties": {"segment_id": 738714, "physicalid": "51972", "street_name": "WILD AVE", "borough": "staten_island", "direction": "TW", "total_row_ft": 53.2, "roadbed_ft": 33.4, "median_ft": 0.0, "left_sw_ft": 15.0, "right_sw_ft": 4.9}, "geometry": {"type": "LineString", "coordinates": [[-74.18906323639017, 40.589341257595756], [-74.18930720289868, 40.5894632128265]]}}, {"type": "Feature", "properties": {"segment_id": 738715, "physicalid": "51972", "street_name": "WILD AVE", "borough": "staten_island", "direction": "TW", "total_row_ft": 53.2, "roadbed_ft": 33.4, "median_ft": 0.0, "left_sw_ft": 15.0, "right_sw_ft": 4.8}, "geometry": {"type": "LineString", "coordinates": [[-74.18910272270638, 40.589295350826966], [-74.18934686840804, 40.589417395597806]]}}, {"type": "Feature", "properties": {"segment_id": 738716, "physicalid": "51972", "street_name": "WILD AVE", "borough": "staten_island", "direction": "TW", "total_row_ft": 53.2, "roadbed_ft": 33.4, "median_ft": 0.0, "left_sw_ft": 15.0, "right_sw_ft": 4.8}, "geometry": {"type": "LineString", "coordinates": [[-74.18914220896829, 40.589249444044384], [-74.18938653614136, 40.589371579494134]]}}, {"type": "Feature", "properties": {"segment_id": 738717, "physicalid": "51972", "street_name": "WILD AVE", "borough": "staten_island", "direction": "TW", "total_row_ft": 57.3, "roadbed_ft": 33.4, "median_ft": 0.0, "left_sw_ft": 15.0, "right_sw_ft": 8.9}, "geometry": {"type": "LineString", "coordinates": [[-74.1891816951759, 40.58920353724806], [-74.18943848317122, 40.589331901610606]]}}, {"type": "Feature", "properties": {"segment_id": 738718, "physicalid": "51972", "street_name": "WILD AVE", "borough": "staten_island", "direction": "TW", "total_row_ft": 57.5, "roadbed_ft": 33.4, "median_ft": 0.0, "left_sw_ft": 15.0, "right_sw_ft": 9.1}, "geometry": {"type": "LineString", "coordinates": [[-74.18922118132924, 40.58915763043794], [-74.18947877289551, 40.589286396454085]]}}, {"type": "Feature", "properties": {"segment_id": 738719, "physicalid": "51972", "street_name": "WILD AVE", "borough": "staten_island", "direction": "TW", "total_row_ft": 57.8, "roadbed_ft": 33.5, "median_ft": 0.0, "left_sw_ft": 15.0, "right_sw_ft": 9.3}, "geometry": {"type": "LineString", "coordinates": [[-74.18926066742829, 40.58911172361408], [-74.1895190625649, 40.589240891283204]]}}, {"type": "Feature", "properties": {"segment_id": 738720, "physicalid": "51972", "street_name": "WILD AVE", "borough": "staten_island", "direction": "TW", "total_row_ft": 58.0, "roadbed_ft": 33.5, "median_ft": 0.0, "left_sw_ft": 15.0, "right_sw_ft": 9.5}, "geometry": {"type": "LineString", "coordinates": [[-74.18930015347304, 40.58906581677643], [-74.18955935217936, 40.58919538609802]]}}, {"type": "Feature", "properties": {"segment_id": 738721, "physicalid": "51972", "street_name": "WILD AVE", "borough": "staten_island", "direction": "TW", "total_row_ft": 58.3, "roadbed_ft": 33.6, "median_ft": 0.0, "left_sw_ft": 15.0, "right_sw_ft": 9.7}, "geometry": {"type": "LineString", "coordinates": [[-74.18933963946351, 40.58901990992502], [-74.18959964173894, 40.58914988089852]]}}, {"type": "Feature", "properties": {"segment_id": 738722, "physicalid": "51972", "street_name": "WILD AVE", "borough": "staten_island", "direction": "TW", "total_row_ft": 108.6, "roadbed_ft": 78.6, "median_ft": 0.0, "left_sw_ft": 15.0, "right_sw_ft": 15.0}, "geometry": {"type": "LineString", "coordinates": [[-74.18937912539968, 40.58897400305985], [-74.18974043282155, 40.589154614504345]]}}, {"type": "Feature", "properties": {"segment_id": 738723, "physicalid": "51973", "street_name": "WILD AVE", "borough": "staten_island", "direction": "TW", "total_row_ft": 83.3, "roadbed_ft": 41.2, "median_ft": 0.0, "left_sw_ft": 27.2, "right_sw_ft": 15.0}, "geometry": {"type": "LineString", "coordinates": [[-74.18948742892715, 40.58891998313198], [-74.18980508855005, 40.589079627860436]]}}, {"type": "Feature", "properties": {"segment_id": 738724, "physicalid": "51973", "street_name": "WILD AVE", "borough": "staten_island", "direction": "TW", "total_row_ft": 59.5, "roadbed_ft": 33.9, "median_ft": 0.0, "left_sw_ft": 10.6, "right_sw_ft": 15.0}, "geometry": {"type": "LineString", "coordinates": [[-74.18958214669514, 40.58890183381432], [-74.1898447220477, 40.589033794939006]]}}, {"type": "Feature", "properties": {"segment_id": 738725, "physicalid": "51973", "street_name": "WILD AVE", "borough": "staten_island", "direction": "TW", "total_row_ft": 59.0, "roadbed_ft": 33.2, "median_ft": 0.0, "left_sw_ft": 10.8, "right_sw_ft": 15.0}, "geometry": {"type": "LineString", "coordinates": [[-74.18962193084806, 40.588856076659496], [-74.18988435549093, 40.588987962003735]]}}, {"type": "Feature", "properties": {"segment_id": 738726, "physicalid": "51973", "street_name": "WILD AVE", "borough": "staten_island", "direction": "TW", "total_row_ft": 59.0, "roadbed_ft": 33.0, "median_ft": 0.0, "left_sw_ft": 11.0, "right_sw_ft": 15.0}, "geometry": {"type": "LineString", "coordinates": [[-74.18966171494645, 40.58881031949071], [-74.18992398887976, 40.588942129054566]]}}, {"type": "Feature", "properties": {"segment_id": 738727, "physicalid": "51973", "street_name": "WILD AVE", "borough": "staten_island", "direction": "TW", "total_row_ft": 58.9, "roadbed_ft": 32.8, "median_ft": 0.0, "left_sw_ft": 11.1, "right_sw_ft": 15.0}, "geometry": {"type": "LineString", "coordinates": [[-74.18970149899033, 40.58876456230794], [-74.1899636222142, 40.58889629609154]]}}, {"type": "Feature", "properties": {"segment_id": 738728, "physicalid": "51973", "street_name": "WILD AVE", "borough": "staten_island", "direction": "TW", "total_row_ft": 63.0, "roadbed_ft": 33.0, "median_ft": 0.0, "left_sw_ft": 15.0, "right_sw_ft": 15.0}, "geometry": {"type": "LineString", "coordinates": [[-74.18964253223189, 40.588669176231875], [-74.19000325549423, 40.58885046311463]]}}, {"type": "Feature", "properties": {"segment_id": 738729, "physicalid": "51973", "street_name": "WILD AVE", "borough": "staten_island", "direction": "TW", "total_row_ft": 63.1, "roadbed_ft": 33.1, "median_ft": 0.0, "left_sw_ft": 15.0, "right_sw_ft": 15.0}, "geometry": {"type": "LineString", "coordinates": [[-74.18968216559749, 40.58862334336474], [-74.19004288871986, 40.588804630123875]]}}, {"type": "Feature", "properties": {"segment_id": 738730, "physicalid": "51973", "street_name": "WILD AVE", "borough": "staten_island", "direction": "TW", "total_row_ft": 63.2, "roadbed_ft": 33.2, "median_ft": 0.0, "left_sw_ft": 15.0, "right_sw_ft": 15.0}, "geometry": {"type": "LineString", "coordinates": [[-74.1897217989087, 40.58857751048374], [-74.19008252189107, 40.588758797119254]]}}, {"type": "Feature", "properties": {"segment_id": 738731, "physicalid": "51973", "street_name": "WILD AVE", "borough": "staten_island", "direction": "TW", "total_row_ft": 63.5, "roadbed_ft": 33.5, "median_ft": 0.0, "left_sw_ft": 15.0, "right_sw_ft": 15.0}, "geometry": {"type": "LineString", "coordinates": [[-74.1897614321655, 40.58853167758888], [-74.1901221550079, 40.58871296410074]]}}, {"type": "Feature", "properties": {"segment_id": 739108, "physicalid": "51997", "street_name": "ROSWELL AVE", "borough": "staten_island", "direction": "FT", "total_row_ft": 42.5, "roadbed_ft": 29.0, "median_ft": 0.0, "left_sw_ft": 7.7, "right_sw_ft": 5.8}, "geometry": {"type": "LineString", "coordinates": [[-74.18966903493362, 40.590039387630355], [-74.1897627374847, 40.589947123684475]]}}, {"type": "Feature", "properties": {"segment_id": 739109, "physicalid": "51997", "street_name": "ROSWELL AVE", "borough": "staten_island", "direction": "FT", "total_row_ft": 42.3, "roadbed_ft": 29.0, "median_ft": 0.0, "left_sw_ft": 7.5, "right_sw_ft": 5.7}, "geometry": {"type": "LineString", "coordinates": [[-74.18961338589556, 40.59000451042301], [-74.18970654244987, 40.589912784164376]]}}, {"type": "Feature", "properties": {"segment_id": 739110, "physicalid": "51997", "street_name": "ROSWELL AVE", "borough": "staten_island", "direction": "FT", "total_row_ft": 42.0, "roadbed_ft": 29.1, "median_ft": 0.0, "left_sw_ft": 7.4, "right_sw_ft": 5.6}, "geometry": {"type": "LineString", "coordinates": [[-74.18955766823392, 40.58996970081561], [-74.18965034746373, 40.5898784446257]]}}, {"type": "Feature", "properties": {"segment_id": 739111, "physicalid": "51997", "street_name": "ROSWELL AVE", "borough": "staten_island", "direction": "FT", "total_row_ft": 42.3, "roadbed_ft": 29.1, "median_ft": 0.0, "left_sw_ft": 7.7, "right_sw_ft": 5.5}, "geometry": {"type": "LineString", "coordinates": [[-74.18950091117115, 40.58993591467732], [-74.18959415253538, 40.58984410505941]]}}, {"type": "Feature", "properties": {"segment_id": 739112, "physicalid": "51997", "street_name": "ROSWELL AVE", "borough": "staten_island", "direction": "FT", "total_row_ft": 42.6, "roadbed_ft": 29.0, "median_ft": 0.0, "left_sw_ft": 8.1, "right_sw_ft": 5.5}, "geometry": {"type": "LineString", "coordinates": [[-74.1894441541658, 40.58990212851087], [-74.1895379576648, 40.589809765465546]]}}, {"type": "Feature", "properties": {"segment_id": 739113, "physicalid": "51997", "street_name": "ROSWELL AVE", "borough": "staten_island", "direction": "FT", "total_row_ft": 49.3, "roadbed_ft": 29.0, "median_ft": 0.0, "left_sw_ft": 15.0, "right_sw_ft": 5.3}, "geometry": {"type": "LineString", "coordinates": [[-74.18931389901111, 40.58994071158636], [-74.18948185701021, 40.589775333131705]]}}, {"type": "Feature", "properties": {"segment_id": 739114, "physicalid": "51997", "street_name": "ROSWELL AVE", "borough": "staten_island", "direction": "FT", "total_row_ft": 49.1, "roadbed_ft": 29.0, "median_ft": 0.0, "left_sw_ft": 15.0, "right_sw_ft": 5.1}, "geometry": {"type": "LineString", "coordinates": [[-74.18925695990637, 40.58990710471871], [-74.18942585986937, 40.58974079890312]]}}, {"type": "Feature", "properties": {"segment_id": 739115, "physicalid": "51997", "street_name": "ROSWELL AVE", "borough": "staten_island", "direction": "FT", "total_row_ft": 49.0, "roadbed_ft": 29.0, "median_ft": 0.0, "left_sw_ft": 15.0, "right_sw_ft": 5.0}, "geometry": {"type": "LineString", "coordinates": [[-74.1892000208589, 40.589873497822715], [-74.18936986278646, 40.58970626464713]]}}, {"type": "Feature", "properties": {"segment_id": 739116, "physicalid": "51997", "street_name": "ROSWELL AVE", "borough": "staten_island", "direction": "FT", "total_row_ft": 48.8, "roadbed_ft": 28.9, "median_ft": 0.0, "left_sw_ft": 15.0, "right_sw_ft": 4.9}, "geometry": {"type": "LineString", "coordinates": [[-74.18914308186875, 40.589839890898425], [-74.18931386576148, 40.58967173036375]]}}, {"type": "Feature", "properties": {"segment_id": 739117, "physicalid": "51997", "street_name": "ROSWELL AVE", "borough": "staten_island", "direction": "FT", "total_row_ft": 48.7, "roadbed_ft": 28.9, "median_ft": 0.0, "left_sw_ft": 15.0, "right_sw_ft": 4.8}, "geometry": {"type": "LineString", "coordinates": [[-74.1890861429359, 40.58980628394579], [-74.1892578687944, 40.58963719605291]]}}, {"type": "Feature", "properties": {"segment_id": 739118, "physicalid": "51997", "street_name": "ROSWELL AVE", "borough": "staten_island", "direction": "FT", "total_row_ft": 55.0, "roadbed_ft": 35.5, "median_ft": 0.0, "left_sw_ft": 15.0, "right_sw_ft": 4.4}, "geometry": {"type": "LineString", "coordinates": [[-74.18902920406035, 40.58977267696479], [-74.18920187204185, 40.58960266156052]]}}, {"type": "Feature", "properties": {"segment_id": 739119, "physicalid": "51998", "street_name": "ROSWELL AVE", "borough": "staten_island", "direction": "TW", "total_row_ft": 135.0, "roadbed_ft": 88.0, "median_ft": 0.0, "left_sw_ft": 32.0, "right_sw_ft": 15.0}, "geometry": {"type": "LineString", "coordinates": [[-74.18891751880854, 40.589705410436906], [-74.18919036117714, 40.589450018573146]]}}, {"type": "Feature", "properties": {"segment_id": 739120, "physicalid": "51998", "street_name": "ROSWELL AVE", "borough": "staten_island", "direction": "TW", "total_row_ft": 54.7, "roadbed_ft": 29.4, "median_ft": 0.0, "left_sw_ft": 10.3, "right_sw_ft": 15.0}, "geometry": {"type": "LineString", "coordinates": [[-74.18893849358503, 40.58959884702084], [-74.18913452624298, 40.58941535213675]]}}, {"type": "Feature", "properties": {"segment_id": 739121, "physicalid": "51998", "street_name": "ROSWELL AVE", "borough": "staten_island", "direction": "TW", "total_row_ft": 54.8, "roadbed_ft": 29.6, "median_ft": 0.0, "left_sw_ft": 10.3, "right_sw_ft": 15.0}, "geometry": {"type": "LineString", "coordinates": [[-74.1888826538868, 40.589564184927774], [-74.1890786913668, 40.58938068567311]]}}, {"type": "Feature", "properties": {"segment_id": 739122, "physicalid": "51998", "street_name": "ROSWELL AVE", "borough": "staten_island", "direction": "TW", "total_row_ft": 54.9, "roadbed_ft": 29.7, "median_ft": 0.0, "left_sw_ft": 10.2, "right_sw_ft": 15.0}, "geometry": {"type": "LineString", "coordinates": [[-74.18882681424655, 40.589529522807474], [-74.18902285654858, 40.58934601918223]]}}, {"type": "Feature", "properties": {"segment_id": 739123, "physicalid": "51998", "street_name": "ROSWELL AVE", "borough": "staten_island", "direction": "TW", "total_row_ft": 55.0, "roadbed_ft": 29.9, "median_ft": 0.0, "left_sw_ft": 10.1, "right_sw_ft": 15.0}, "geometry": {"type": "LineString", "coordinates": [[-74.1887709746643, 40.589494860659954], [-74.18896702178829, 40.589311352664105]]}}, {"type": "Feature", "properties": {"segment_id": 739124, "physicalid": "51998", "street_name": "ROSWELL AVE", "borough": "staten_island", "direction": "TW", "total_row_ft": 55.1, "roadbed_ft": 30.0, "median_ft": 0.0, "left_sw_ft": 10.1, "right_sw_ft": 15.0}, "geometry": {"type": "LineString", "coordinates": [[-74.18871501164229, 40.589460314083425], [-74.188911187086, 40.58927668611872]]}}, {"type": "Feature", "properties": {"segment_id": 739125, "physicalid": "51998", "street_name": "ROSWELL AVE", "borough": "staten_island", "direction": "TW", "total_row_ft": 55.3, "roadbed_ft": 30.1, "median_ft": 0.0, "left_sw_ft": 10.2, "right_sw_ft": 15.0}, "geometry": {"type": "LineString", "coordinates": [[-74.18865895891373, 40.589425851502256], [-74.1888553524417, 40.58924201954613]]}}, {"type": "Feature", "properties": {"segment_id": 739126, "physicalid": "51998", "street_name": "ROSWELL AVE", "borough": "staten_island", "direction": "TW", "total_row_ft": 60.2, "roadbed_ft": 30.2, "median_ft": 0.0, "left_sw_ft": 15.0, "right_sw_ft": 15.0}, "geometry": {"type": "LineString", "coordinates": [[-74.18852667498344, 40.58946274388781], [-74.18879951785536, 40.58920735294625]]}}, {"type": "Feature", "properties": {"segment_id": 739127, "physicalid": "51998", "street_name": "ROSWELL AVE", "borough": "staten_island", "direction": "TW", "total_row_ft": 60.0, "roadbed_ft": 30.0, "median_ft": 0.0, "left_sw_ft": 15.0, "right_sw_ft": 15.0}, "geometry": {"type": "LineString", "coordinates": [[-74.18847084038319, 40.589428077128986], [-74.18874368332695, 40.589172686319124]]}}, {"type": "Feature", "properties": {"segment_id": 739128, "physicalid": "51998", "street_name": "ROSWELL AVE", "borough": "staten_island", "direction": "TW", "total_row_ft": 54.5, "roadbed_ft": 30.2, "median_ft": 0.0, "left_sw_ft": 15.0, "right_sw_ft": 9.3}, "geometry": {"type": "LineString", "coordinates": [[-74.18841500584088, 40.58939341034288], [-74.18860291890161, 40.589217517375175]]}}, {"type": "Feature", "properties": {"segment_id": 739129, "physicalid": "51998", "street_name": "ROSWELL AVE", "borough": "staten_island", "direction": "TW", "total_row_ft": 55.4, "roadbed_ft": 30.7, "median_ft": 0.0, "left_sw_ft": 15.0, "right_sw_ft": 9.7}, "geometry": {"type": "LineString", "coordinates": [[-74.18835917135654, 40.58935874352954], [-74.18854773473274, 40.58918224198005]]}}, {"type": "Feature", "properties": {"segment_id": 739130, "physicalid": "51998", "street_name": "ROSWELL AVE", "borough": "staten_island", "direction": "TW", "total_row_ft": 57.6, "roadbed_ft": 32.9, "median_ft": 0.0, "left_sw_ft": 15.0, "right_sw_ft": 9.7}, "geometry": {"type": "LineString", "coordinates": [[-74.18830333693016, 40.589324076688946], [-74.18849255062216, 40.58914696655827]]}}, {"type": "Feature", "properties": {"segment_id": 739131, "physicalid": "51998", "street_name": "ROSWELL AVE", "borough": "staten_island", "direction": "TW", "total_row_ft": 57.8, "roadbed_ft": 33.3, "median_ft": 0.0, "left_sw_ft": 15.0, "right_sw_ft": 9.5}, "geometry": {"type": "LineString", "coordinates": [[-74.1882475025618, 40.58928940982114], [-74.18843700172003, 40.58911203262208]]}}, {"type": "Feature", "properties": {"segment_id": 739132, "physicalid": "51998", "street_name": "ROSWELL AVE", "borough": "staten_island", "direction": "TW", "total_row_ft": 57.7, "roadbed_ft": 33.5, "median_ft": 0.0, "left_sw_ft": 15.0, "right_sw_ft": 9.2}, "geometry": {"type": "LineString", "coordinates": [[-74.18819166825138, 40.58925474292607], [-74.1883810630518, 40.589077463547724]]}}, {"type": "Feature", "properties": {"segment_id": 739133, "physicalid": "51998", "street_name": "ROSWELL AVE", "borough": "staten_island", "direction": "TW", "total_row_ft": 49.5, "roadbed_ft": 33.8, "median_ft": 0.0, "left_sw_ft": 6.9, "right_sw_ft": 8.9}, "geometry": {"type": "LineString", "coordinates": [[-74.18821254429662, 40.58914827300499], [-74.18832512444152, 40.589042894446]]}}, {"type": "Feature", "properties": {"segment_id": 739134, "physicalid": "51998", "street_name": "ROSWELL AVE", "borough": "staten_island", "direction": "TW", "total_row_ft": 49.7, "roadbed_ft": 34.0, "median_ft": 0.0, "left_sw_ft": 7.1, "right_sw_ft": 8.5}, "geometry": {"type": "LineString", "coordinates": [[-74.18815625914269, 40.5891140282224], [-74.18826918588911, 40.58900832531695]]}}, {"type": "Feature", "properties": {"segment_id": 739135, "physicalid": "51998", "street_name": "ROSWELL AVE", "borough": "staten_island", "direction": "TW", "total_row_ft": 49.8, "roadbed_ft": 34.1, "median_ft": 0.0, "left_sw_ft": 7.4, "right_sw_ft": 8.3}, "geometry": {"type": "LineString", "coordinates": [[-74.18809997404651, 40.589079783412146], [-74.18821324739463, 40.58897375616055]]}}, {"type": "Feature", "properties": {"segment_id": 739136, "physicalid": "51998", "street_name": "ROSWELL AVE", "borough": "staten_island", "direction": "TW", "total_row_ft": 50.0, "roadbed_ft": 34.0, "median_ft": 0.0, "left_sw_ft": 7.6, "right_sw_ft": 8.4}, "geometry": {"type": "LineString", "coordinates": [[-74.18804368900804, 40.589045538574176], [-74.1881573088294, 40.58893918709724]]}}, {"type": "Feature", "properties": {"segment_id": 739137, "physicalid": "51998", "street_name": "ROSWELL AVE", "borough": "staten_island", "direction": "TW", "total_row_ft": 50.1, "roadbed_ft": 33.9, "median_ft": 0.0, "left_sw_ft": 7.8, "right_sw_ft": 8.5}, "geometry": {"type": "LineString", "coordinates": [[-74.18798740402728, 40.58901129370854], [-74.18810138311406, 40.58890460603289]]}}, {"type": "Feature", "properties": {"segment_id": 739138, "physicalid": "51998", "street_name": "ROSWELL AVE", "borough": "staten_island", "direction": "TW", "total_row_ft": 50.0, "roadbed_ft": 30.9, "median_ft": 0.0, "left_sw_ft": 10.5, "right_sw_ft": 8.6}, "geometry": {"type": "LineString", "coordinates": [[-74.18793199660814, 40.58897622744895], [-74.1880455809143, 40.5888699093812]]}}, {"type": "Feature", "properties": {"segment_id": 739139, "physicalid": "51998", "street_name": "ROSWELL AVE", "borough": "staten_island", "direction": "TW", "total_row_ft": 49.7, "roadbed_ft": 30.9, "median_ft": 0.0, "left_sw_ft": 10.2, "right_sw_ft": 8.6}, "geometry": {"type": "LineString", "coordinates": [[-74.18787678913979, 40.58894097405806], [-74.18798977877253, 40.58883521270223]]}}, {"type": "Feature", "properties": {"segment_id": 739140, "physicalid": "51998", "street_name": "ROSWELL AVE", "borough": "staten_island", "direction": "TW", "total_row_ft": 49.6, "roadbed_ft": 31.0, "median_ft": 0.0, "left_sw_ft": 10.1, "right_sw_ft": 8.5}, "geometry": {"type": "LineString", "coordinates": [[-74.18782115633233, 40.588906118822855], [-74.18793397668877, 40.58880051599608]]}}, {"type": "Feature", "properties": {"segment_id": 739141, "physicalid": "51998", "street_name": "ROSWELL AVE", "borough": "staten_island", "direction": "TW", "total_row_ft": 49.7, "roadbed_ft": 31.1, "median_ft": 0.0, "left_sw_ft": 10.3, "right_sw_ft": 8.4}, "geometry": {"type": "LineString", "coordinates": [[-74.18776509961457, 40.588871660405026], [-74.18787817466298, 40.58876581926272]]}}, {"type": "Feature", "properties": {"segment_id": 739142, "physicalid": "51998", "street_name": "ROSWELL AVE", "borough": "staten_island", "direction": "TW", "total_row_ft": 49.8, "roadbed_ft": 31.1, "median_ft": 0.0, "left_sw_ft": 10.4, "right_sw_ft": 8.3}, "geometry": {"type": "LineString", "coordinates": [[-74.18770904295465, 40.5888372019597], [-74.18782237269518, 40.58873112250214]]}}, {"type": "Feature", "properties": {"segment_id": 739143, "physicalid": "51998", "street_name": "ROSWELL AVE", "borough": "staten_island", "direction": "TW", "total_row_ft": 50.0, "roadbed_ft": 31.3, "median_ft": 0.0, "left_sw_ft": 10.4, "right_sw_ft": 8.3}, "geometry": {"type": "LineString", "coordinates": [[-74.1876529863526, 40.588802743486966], [-74.18776657078534, 40.588696425714346]]}}, {"type": "Feature", "properties": {"segment_id": 739144, "physicalid": "51998", "street_name": "ROSWELL AVE", "borough": "staten_island", "direction": "TW", "total_row_ft": 50.1, "roadbed_ft": 31.6, "median_ft": 0.0, "left_sw_ft": 10.3, "right_sw_ft": 8.2}, "geometry": {"type": "LineString", "coordinates": [[-74.1875969298084, 40.58876828498675], [-74.18771079230635, 40.588661707021764]]}}, {"type": "Feature", "properties": {"segment_id": 739145, "physicalid": "51998", "street_name": "ROSWELL AVE", "borough": "staten_island", "direction": "TW", "total_row_ft": 50.2, "roadbed_ft": 31.8, "median_ft": 0.0, "left_sw_ft": 10.2, "right_sw_ft": 8.2}, "geometry": {"type": "LineString", "coordinates": [[-74.18754091252362, 40.58873378976557], [-74.18765505853094, 40.588626946512626]]}}, {"type": "Feature", "properties": {"segment_id": 739146, "physicalid": "51998", "street_name": "ROSWELL AVE", "borough": "staten_island", "direction": "TW", "total_row_ft": 50.3, "roadbed_ft": 31.8, "median_ft": 0.0, "left_sw_ft": 10.1, "right_sw_ft": 8.4}, "geometry": {"type": "LineString", "coordinates": [[-74.18748491425131, 40.58869927677512], [-74.18759932481355, 40.58859218597633]]}}, {"type": "Feature", "properties": {"segment_id": 739147, "physicalid": "51998", "street_name": "ROSWELL AVE", "borough": "staten_island", "direction": "TW", "total_row_ft": 50.4, "roadbed_ft": 31.9, "median_ft": 0.0, "left_sw_ft": 10.0, "right_sw_ft": 8.5}, "geometry": {"type": "LineString", "coordinates": [[-74.18742891603688, 40.58866476375724], [-74.18754359115417, 40.5885574254129]]}}, {"type": "Feature", "properties": {"segment_id": 739148, "physicalid": "51998", "street_name": "ROSWELL AVE", "borough": "staten_island", "direction": "TW", "total_row_ft": 50.6, "roadbed_ft": 32.0, "median_ft": 0.0, "left_sw_ft": 9.9, "right_sw_ft": 8.7}, "geometry": {"type": "LineString", "coordinates": [[-74.18737291788034, 40.588630250711965], [-74.18748785764134, 40.58852266473945]]}}, {"type": "Feature", "properties": {"segment_id": 739149, "physicalid": "51998", "street_name": "ROSWELL AVE", "borough": "staten_island", "direction": "TW", "total_row_ft": 50.7, "roadbed_ft": 32.0, "median_ft": 0.0, "left_sw_ft": 9.8, "right_sw_ft": 8.9}, "geometry": {"type": "LineString", "coordinates": [[-74.18731691978167, 40.58859573763929], [-74.18743212419449, 40.58848790403142]]}}, {"type": "Feature", "properties": {"segment_id": 739150, "physicalid": "51998", "street_name": "ROSWELL AVE", "borough": "staten_island", "direction": "TW", "total_row_ft": 87.3, "roadbed_ft": 37.3, "median_ft": 0.0, "left_sw_ft": 9.8, "right_sw_ft": 40.3}, "geometry": {"type": "LineString", "coordinates": [[-74.18726092174087, 40.5885612245392], [-74.18745950517388, 40.588375346376246]]}}, {"type": "Feature", "properties": {"segment_id": 1242554, "physicalid": "85528", "street_name": "RAWSON PL", "borough": "staten_island", "direction": "TW", "total_row_ft": 51.9, "roadbed_ft": 21.9, "median_ft": 0.0, "left_sw_ft": 15.0, "right_sw_ft": 15.0}, "geometry": {"type": "LineString", "coordinates": [[-74.18615349454879, 40.59011871601636], [-74.18640245586691, 40.58984951823116]]}}, {"type": "Feature", "properties": {"segment_id": 1452491, "physicalid": "98253", "street_name": "MELVIN AVE", "borough": "staten_island", "direction": "TW", "total_row_ft": 54.2, "roadbed_ft": 36.5, "median_ft": 0.0, "left_sw_ft": 8.3, "right_sw_ft": 9.3}, "geometry": {"type": "LineString", "coordinates": [[-74.18840282269184, 40.59004408047012], [-74.18851870274105, 40.589924377777855]]}}, {"type": "Feature", "properties": {"segment_id": 1452492, "physicalid": "98253", "street_name": "MELVIN AVE", "borough": "staten_island", "direction": "TW", "total_row_ft": 54.2, "roadbed_ft": 36.5, "median_ft": 0.0, "left_sw_ft": 8.5, "right_sw_ft": 9.2}, "geometry": {"type": "LineString", "coordinates": [[-74.18834466566834, 40.59001170703023], [-74.18846047180885, 40.58989208079276]]}}, {"type": "Feature", "properties": {"segment_id": 1452493, "physicalid": "98253", "street_name": "MELVIN AVE", "borough": "staten_island", "direction": "TW", "total_row_ft": 54.2, "roadbed_ft": 36.5, "median_ft": 0.0, "left_sw_ft": 8.6, "right_sw_ft": 9.0}, "geometry": {"type": "LineString", "coordinates": [[-74.18828650870122, 40.58997933356079], [-74.18840229943382, 40.58985972334742]]}}, {"type": "Feature", "properties": {"segment_id": 1452494, "physicalid": "98253", "street_name": "MELVIN AVE", "borough": "staten_island", "direction": "TW", "total_row_ft": 54.2, "roadbed_ft": 36.5, "median_ft": 0.0, "left_sw_ft": 8.8, "right_sw_ft": 8.9}, "geometry": {"type": "LineString", "coordinates": [[-74.18822835179047, 40.58994696006181], [-74.18834412711514, 40.58982736587252]]}}, {"type": "Feature", "properties": {"segment_id": 1452495, "physicalid": "98253", "street_name": "MELVIN AVE", "borough": "staten_island", "direction": "TW", "total_row_ft": 54.1, "roadbed_ft": 36.5, "median_ft": 0.0, "left_sw_ft": 8.9, "right_sw_ft": 8.8}, "geometry": {"type": "LineString", "coordinates": [[-74.18817019494179, 40.58991458652748], [-74.18828595484575, 40.589795008375425]]}}, {"type": "Feature", "properties": {"segment_id": 1452496, "physicalid": "98253", "street_name": "MELVIN AVE", "borough": "staten_island", "direction": "TW", "total_row_ft": 54.2, "roadbed_ft": 36.4, "median_ft": 0.0, "left_sw_ft": 9.1, "right_sw_ft": 8.7}, "geometry": {"type": "LineString", "coordinates": [[-74.18811203816912, 40.58988221294333], [-74.18822800252856, 40.5897624236995]]}}, {"type": "Feature", "properties": {"segment_id": 1452497, "physicalid": "98253", "street_name": "MELVIN AVE", "borough": "staten_island", "direction": "TW", "total_row_ft": 54.3, "roadbed_ft": 36.4, "median_ft": 0.0, "left_sw_ft": 9.2, "right_sw_ft": 8.7}, "geometry": {"type": "LineString", "coordinates": [[-74.18805409711531, 40.58984961655461], [-74.18817021658155, 40.58972966719482]]}}, {"type": "Feature", "properties": {"segment_id": 1452498, "physicalid": "98253", "street_name": "MELVIN AVE", "borough": "staten_island", "direction": "TW", "total_row_ft": 54.3, "roadbed_ft": 36.4, "median_ft": 0.0, "left_sw_ft": 9.1, "right_sw_ft": 8.7}, "geometry": {"type": "LineString", "coordinates": [[-74.18799633599295, 40.58981683432962], [-74.18811243069126, 40.58969691066097]]}}, {"type": "Feature", "properties": {"segment_id": 1452499, "physicalid": "98253", "street_name": "MELVIN AVE", "borough": "staten_island", "direction": "TW", "total_row_ft": 54.2, "roadbed_ft": 36.5, "median_ft": 0.0, "left_sw_ft": 9.1, "right_sw_ft": 8.6}, "geometry": {"type": "LineString", "coordinates": [[-74.18793857494317, 40.58978405205906], [-74.18805444343639, 40.58966436216266]]}}, {"type": "Feature", "properties": {"segment_id": 1452500, "physicalid": "98253", "street_name": "MELVIN AVE", "borough": "staten_island", "direction": "TW", "total_row_ft": 60.6, "roadbed_ft": 36.5, "median_ft": 0.0, "left_sw_ft": 9.1, "right_sw_ft": 15.0}, "geometry": {"type": "LineString", "coordinates": [[-74.18788081404315, 40.589751269663246], [-74.18806555495381, 40.589560435811066]]}}, {"type": "Feature", "properties": {"segment_id": 1452501, "physicalid": "98253", "street_name": "MELVIN AVE", "borough": "staten_island", "direction": "TW", "total_row_ft": 60.7, "roadbed_ft": 36.6, "median_ft": 0.0, "left_sw_ft": 9.1, "right_sw_ft": 15.0}, "geometry": {"type": "LineString", "coordinates": [[-74.18782305319985, 40.58971848723833], [-74.18800761512455, 40.58952783844484]]}}, {"type": "Feature", "properties": {"segment_id": 1452502, "physicalid": "98253", "street_name": "MELVIN AVE", "borough": "staten_island", "direction": "TW", "total_row_ft": 61.3, "roadbed_ft": 36.6, "median_ft": 0.0, "left_sw_ft": 9.7, "right_sw_ft": 15.0}, "geometry": {"type": "LineString", "coordinates": [[-74.18776394464872, 40.58968709699182], [-74.18794967535185, 40.589495241049285]]}}, {"type": "Feature", "properties": {"segment_id": 1452503, "physicalid": "98253", "street_name": "MELVIN AVE", "borough": "staten_island", "direction": "TW", "total_row_ft": 70.4, "roadbed_ft": 36.7, "median_ft": 0.0, "left_sw_ft": 18.7, "right_sw_ft": 15.0}, "geometry": {"type": "LineString", "coordinates": [[-74.18768691988804, 40.589674213751266], [-74.18789173563572, 40.58946264362443]]}}, {"type": "Feature", "properties": {"segment_id": 1452504, "physicalid": "98253", "street_name": "MELVIN AVE", "borough": "staten_island", "direction": "TW", "total_row_ft": 76.0, "roadbed_ft": 36.9, "median_ft": 0.0, "left_sw_ft": 24.1, "right_sw_ft": 15.0}, "geometry": {"type": "LineString", "coordinates": [[-74.18760873654665, 40.58966252727113], [-74.18783379597615, 40.589430046170264]]}}, {"type": "Feature", "properties": {"segment_id": 1452505, "physicalid": "98253", "street_name": "MELVIN AVE", "borough": "staten_island", "direction": "TW", "total_row_ft": 73.3, "roadbed_ft": 36.9, "median_ft": 0.0, "left_sw_ft": 21.4, "right_sw_ft": 15.0}, "geometry": {"type": "LineString", "coordinates": [[-74.1875257707442, 40.58965578090516], [-74.18777585637314, 40.58939744868676]]}}, {"type": "Feature", "properties": {"segment_id": 1452506, "physicalid": "98253", "street_name": "MELVIN AVE", "borough": "staten_island", "direction": "TW", "total_row_ft": 73.7, "roadbed_ft": 36.9, "median_ft": 0.0, "left_sw_ft": 21.8, "right_sw_ft": 15.0}, "geometry": {"type": "LineString", "coordinates": [[-74.18746135800802, 40.58962986976541], [-74.18771791682667, 40.58936485117395]]}}, {"type": "Feature", "properties": {"segment_id": 1452507, "physicalid": "98253", "street_name": "MELVIN AVE", "borough": "staten_island", "direction": "TW", "total_row_ft": 93.7, "roadbed_ft": 36.9, "median_ft": 0.0, "left_sw_ft": 41.8, "right_sw_ft": 15.0}, "geometry": {"type": "LineString", "coordinates": [[-74.18740341841344, 40.58959727209474], [-74.18765997733679, 40.58933225363182]]}}, {"type": "Feature", "properties": {"segment_id": 1452508, "physicalid": "98253", "street_name": "MELVIN AVE", "borough": "staten_island", "direction": "TW", "total_row_ft": 60.3, "roadbed_ft": 36.9, "median_ft": 0.0, "left_sw_ft": 8.4, "right_sw_ft": 15.0}, "geometry": {"type": "LineString", "coordinates": [[-74.18741814642853, 40.58948961110751], [-74.18760203790349, 40.58929965606036]]}}, {"type": "Feature", "properties": {"segment_id": 1452509, "physicalid": "98253", "street_name": "MELVIN AVE", "borough": "staten_island", "direction": "TW", "total_row_ft": 60.2, "roadbed_ft": 36.9, "median_ft": 0.0, "left_sw_ft": 8.3, "right_sw_ft": 15.0}, "geometry": {"type": "LineString", "coordinates": [[-74.18736028127574, 40.589456936666046], [-74.18754409852673, 40.58926705845962]]}}, {"type": "Feature", "properties": {"segment_id": 1452510, "physicalid": "98253", "street_name": "MELVIN AVE", "borough": "staten_island", "direction": "TW", "total_row_ft": 52.8, "roadbed_ft": 36.9, "median_ft": 0.0, "left_sw_ft": 8.2, "right_sw_ft": 7.7}, "geometry": {"type": "LineString", "coordinates": [[-74.1873023819894, 40.58942429751271], [-74.18741516500597, 40.589307796000014]]}}, {"type": "Feature", "properties": {"segment_id": 1452511, "physicalid": "98253", "street_name": "MELVIN AVE", "borough": "staten_island", "direction": "TW", "total_row_ft": 52.5, "roadbed_ft": 36.9, "median_ft": 0.0, "left_sw_ft": 8.1, "right_sw_ft": 7.5}, "geometry": {"type": "LineString", "coordinates": [[-74.18724445986771, 40.5893916819767], [-74.18735670915086, 40.58927573189954]]}}, {"type": "Feature", "properties": {"segment_id": 1452512, "physicalid": "98253", "street_name": "MELVIN AVE", "borough": "staten_island", "direction": "TW", "total_row_ft": 52.3, "roadbed_ft": 36.9, "median_ft": 0.0, "left_sw_ft": 8.0, "right_sw_ft": 7.4}, "geometry": {"type": "LineString", "coordinates": [[-74.18718653780262, 40.58935906641138], [-74.18729825335187, 40.589243667769246]]}}, {"type": "Feature", "properties": {"segment_id": 1452513, "physicalid": "98253", "street_name": "MELVIN AVE", "borough": "staten_island", "direction": "TW", "total_row_ft": 59.6, "roadbed_ft": 36.7, "median_ft": 0.0, "left_sw_ft": 7.9, "right_sw_ft": 15.0}, "geometry": {"type": "LineString", "coordinates": [[-74.18712861579411, 40.58932645081678], [-74.18731234158541, 40.58913666776345]]}}, {"type": "Feature", "properties": {"segment_id": 1452514, "physicalid": "98253", "street_name": "MELVIN AVE", "borough": "staten_island", "direction": "TW", "total_row_ft": 59.3, "roadbed_ft": 36.5, "median_ft": 0.0, "left_sw_ft": 7.8, "right_sw_ft": 15.0}, "geometry": {"type": "LineString", "coordinates": [[-74.18707069382765, 40.58929383520787], [-74.18725440249148, 40.58910407001608]]}}, {"type": "Feature", "properties": {"segment_id": 1452515, "physicalid": "98253", "street_name": "MELVIN AVE", "borough": "staten_island", "direction": "TW", "total_row_ft": 58.9, "roadbed_ft": 36.2, "median_ft": 0.0, "left_sw_ft": 7.7, "right_sw_ft": 15.0}, "geometry": {"type": "LineString", "coordinates": [[-74.18701281068302, 40.589261179526616], [-74.18719646345411, 40.58907147223943]]}}, {"type": "Feature", "properties": {"segment_id": 1452516, "physicalid": "98253", "street_name": "MELVIN AVE", "borough": "staten_island", "direction": "TW", "total_row_ft": 58.4, "roadbed_ft": 36.0, "median_ft": 0.0, "left_sw_ft": 7.4, "right_sw_ft": 15.0}, "geometry": {"type": "LineString", "coordinates": [[-74.18695515256071, 40.5892282914349], [-74.18713852447333, 40.589038874433456]]}}, {"type": "Feature", "properties": {"segment_id": 1452517, "physicalid": "98253", "street_name": "MELVIN AVE", "borough": "staten_island", "direction": "TW", "total_row_ft": 58.4, "roadbed_ft": 36.1, "median_ft": 0.0, "left_sw_ft": 7.2, "right_sw_ft": 15.0}, "geometry": {"type": "LineString", "coordinates": [[-74.18689749449521, 40.58919540331415], [-74.1870805855491, 40.58900627659818]]}}, {"type": "Feature", "properties": {"segment_id": 1452518, "physicalid": "98253", "street_name": "MELVIN AVE", "borough": "staten_island", "direction": "TW", "total_row_ft": 58.8, "roadbed_ft": 36.8, "median_ft": 0.0, "left_sw_ft": 7.0, "right_sw_ft": 15.0}, "geometry": {"type": "LineString", "coordinates": [[-74.18683983648648, 40.589162515164396], [-74.18702264668143, 40.58897367873358]]}}, {"type": "Feature", "properties": {"segment_id": 1453055, "physicalid": "98278", "street_name": "ALBERTA AVE", "borough": "staten_island", "direction": "TF", "total_row_ft": 48.8, "roadbed_ft": 29.2, "median_ft": 0.0, "left_sw_ft": 8.1, "right_sw_ft": 11.5}, "geometry": {"type": "LineString", "coordinates": [[-74.18990681047786, 40.58931280098693], [-74.19001446433046, 40.589207033809174]]}}, {"type": "Feature", "properties": {"segment_id": 1453056, "physicalid": "98278", "street_name": "ALBERTA AVE", "borough": "staten_island", "direction": "TF", "total_row_ft": 48.9, "roadbed_ft": 29.3, "median_ft": 0.0, "left_sw_ft": 8.0, "right_sw_ft": 11.5}, "geometry": {"type": "LineString", "coordinates": [[-74.18985095195488, 40.58927813295081], [-74.18995882002324, 40.5891721553952]]}}, {"type": "Feature", "properties": {"segment_id": 1453057, "physicalid": "98278", "street_name": "ALBERTA AVE", "borough": "staten_island", "direction": "TF", "total_row_ft": 56.0, "roadbed_ft": 29.4, "median_ft": 0.0, "left_sw_ft": 15.0, "right_sw_ft": 11.5}, "geometry": {"type": "LineString", "coordinates": [[-74.18979509348989, 40.58924346488738], [-74.18999216597554, 40.58904984614753]]}}, {"type": "Feature", "properties": {"segment_id": 1453058, "physicalid": "98278", "street_name": "ALBERTA AVE", "borough": "staten_island", "direction": "TF", "total_row_ft": 56.1, "roadbed_ft": 29.6, "median_ft": 0.0, "left_sw_ft": 15.0, "right_sw_ft": 11.6}, "geometry": {"type": "LineString", "coordinates": [[-74.1897392350829, 40.589208796796726], [-74.18993527482779, 40.58901619285536]]}}, {"type": "Feature", "properties": {"segment_id": 1453059, "physicalid": "98278", "street_name": "ALBERTA AVE", "borough": "staten_island", "direction": "TF", "total_row_ft": 56.3, "roadbed_ft": 29.7, "median_ft": 0.0, "left_sw_ft": 15.0, "right_sw_ft": 11.6}, "geometry": {"type": "LineString", "coordinates": [[-74.18968337673391, 40.58917412867878], [-74.18987838373738, 40.588982539534896]]}}, {"type": "Feature", "properties": {"segment_id": 1453060, "physicalid": "98278", "street_name": "ALBERTA AVE", "borough": "staten_island", "direction": "TF", "total_row_ft": 56.4, "roadbed_ft": 30.0, "median_ft": 0.0, "left_sw_ft": 15.0, "right_sw_ft": 11.5}, "geometry": {"type": "LineString", "coordinates": [[-74.1896275184429, 40.58913946053356], [-74.18982149270431, 40.58894888618616]]}}, {"type": "Feature", "properties": {"segment_id": 1453061, "physicalid": "98279", "street_name": "ALBERTA AVE", "borough": "staten_island", "direction": "TF", "total_row_ft": 116.2, "roadbed_ft": 86.2, "median_ft": 0.0, "left_sw_ft": 15.0, "right_sw_ft": 15.0}, "geometry": {"type": "LineString", "coordinates": [[-74.18941829568614, 40.589126655897054], [-74.18968715307699, 40.5888688210319]]}}, {"type": "Feature", "properties": {"segment_id": 1453062, "physicalid": "98279", "street_name": "ALBERTA AVE", "borough": "staten_island", "direction": "TF", "total_row_ft": 54.0, "roadbed_ft": 28.0, "median_ft": 0.0, "left_sw_ft": 11.0, "right_sw_ft": 15.0}, "geometry": {"type": "LineString", "coordinates": [[-74.18936192706775, 40.58909249534913], [-74.18954519471693, 40.58891674167262]]}}, {"type": "Feature", "properties": {"segment_id": 1453063, "physicalid": "98279", "street_name": "ALBERTA AVE", "borough": "staten_island", "direction": "TF", "total_row_ft": 54.0, "roadbed_ft": 27.8, "median_ft": 0.0, "left_sw_ft": 11.1, "right_sw_ft": 15.0}, "geometry": {"type": "LineString", "coordinates": [[-74.18930555850702, 40.58905833477343], [-74.18948950761894, 40.58888192771409]]}}, {"type": "Feature", "properties": {"segment_id": 1453064, "physicalid": "98279", "street_name": "ALBERTA AVE", "borough": "staten_island", "direction": "TF", "total_row_ft": 53.9, "roadbed_ft": 27.9, "median_ft": 0.0, "left_sw_ft": 11.1, "right_sw_ft": 15.0}, "geometry": {"type": "LineString", "coordinates": [[-74.18924919000398, 40.589024174169964], [-74.18943382057903, 40.58884711372848]]}}, {"type": "Feature", "properties": {"segment_id": 1453065, "physicalid": "98279", "street_name": "ALBERTA AVE", "borough": "staten_island", "direction": "TF", "total_row_ft": 54.1, "roadbed_ft": 28.2, "median_ft": 0.0, "left_sw_ft": 10.9, "right_sw_ft": 15.0}, "geometry": {"type": "LineString", "coordinates": [[-74.18919282155859, 40.58899001353875], [-74.18937813359716, 40.588812299715755]]}}, {"type": "Feature", "properties": {"segment_id": 1453066, "physicalid": "98279", "street_name": "ALBERTA AVE", "borough": "staten_island", "direction": "TF", "total_row_ft": 54.2, "roadbed_ft": 28.5, "median_ft": 0.0, "left_sw_ft": 10.6, "right_sw_ft": 15.0}, "geometry": {"type": "LineString", "coordinates": [[-74.18913645317089, 40.588955852879764], [-74.18932244667337, 40.588777485675934]]}}, {"type": "Feature", "properties": {"segment_id": 1453067, "physicalid": "98279", "street_name": "ALBERTA AVE", "borough": "staten_island", "direction": "TF", "total_row_ft": 54.3, "roadbed_ft": 28.9, "median_ft": 0.0, "left_sw_ft": 10.4, "right_sw_ft": 15.0}, "geometry": {"type": "LineString", "coordinates": [[-74.18908008484081, 40.588921692193], [-74.18926675980765, 40.58874267160902]]}}, {"type": "Feature", "properties": {"segment_id": 1453068, "physicalid": "98279", "street_name": "ALBERTA AVE", "borough": "staten_island", "direction": "TF", "total_row_ft": 49.8, "roadbed_ft": 29.1, "median_ft": 0.0, "left_sw_ft": 10.3, "right_sw_ft": 10.4}, "geometry": {"type": "LineString", "coordinates": [[-74.18909947527386, 40.58881487937906], [-74.18921105966159, 40.58870787030649]]}}, {"type": "Feature", "properties": {"segment_id": 1453069, "physicalid": "98279", "street_name": "ALBERTA AVE", "borough": "staten_island", "direction": "TF", "total_row_ft": 48.9, "roadbed_ft": 28.9, "median_ft": 0.0, "left_sw_ft": 10.6, "right_sw_ft": 9.4}, "geometry": {"type": "LineString", "coordinates": [[-74.18904560240614, 40.58877832567242], [-74.18915520763912, 40.588673214681684]]}}, {"type": "Feature", "properties": {"segment_id": 1453070, "physicalid": "98279", "street_name": "ALBERTA AVE", "borough": "staten_island", "direction": "TF", "total_row_ft": 48.5, "roadbed_ft": 28.7, "median_ft": 0.0, "left_sw_ft": 10.9, "right_sw_ft": 9.0}, "geometry": {"type": "LineString", "coordinates": [[-74.18899061979384, 40.58874283623468], [-74.18909935535216, 40.58863855933888]]}}, {"type": "Feature", "properties": {"segment_id": 1453071, "physicalid": "98279", "street_name": "ALBERTA AVE", "borough": "staten_island", "direction": "TF", "total_row_ft": 48.6, "roadbed_ft": 28.8, "median_ft": 0.0, "left_sw_ft": 10.8, "right_sw_ft": 9.0}, "geometry": {"type": "LineString", "coordinates": [[-74.18893458102666, 40.58870835967135], [-74.18904350312317, 40.58860390396882]]}}, {"type": "Feature", "properties": {"segment_id": 1453072, "physicalid": "98279", "street_name": "ALBERTA AVE", "borough": "staten_island", "direction": "TF", "total_row_ft": 48.7, "roadbed_ft": 29.0, "median_ft": 0.0, "left_sw_ft": 10.7, "right_sw_ft": 9.0}, "geometry": {"type": "LineString", "coordinates": [[-74.18887854255738, 40.58867388285036], [-74.18898774498395, 40.58856915839538]]}}, {"type": "Feature", "properties": {"segment_id": 1453073, "physicalid": "98279", "street_name": "ALBERTA AVE", "borough": "staten_island", "direction": "TF", "total_row_ft": 48.9, "roadbed_ft": 29.2, "median_ft": 0.0, "left_sw_ft": 10.7, "right_sw_ft": 9.0}, "geometry": {"type": "LineString", "coordinates": [[-74.18882250414595, 40.58863940600193], [-74.18893200187966, 40.58853439843199]]}}, {"type": "Feature", "properties": {"segment_id": 1453074, "physicalid": "98279", "street_name": "ALBERTA AVE", "borough": "staten_island", "direction": "TF", "total_row_ft": 49.0, "roadbed_ft": 29.3, "median_ft": 0.0, "left_sw_ft": 10.6, "right_sw_ft": 9.1}, "geometry": {"type": "LineString", "coordinates": [[-74.18876646579238, 40.58860492912605], [-74.1888762588334, 40.58849963844144]]}}, {"type": "Feature", "properties": {"segment_id": 1453075, "physicalid": "98279", "street_name": "ALBERTA AVE", "borough": "staten_island", "direction": "TF", "total_row_ft": 49.1, "roadbed_ft": 29.4, "median_ft": 0.0, "left_sw_ft": 10.6, "right_sw_ft": 9.2}, "geometry": {"type": "LineString", "coordinates": [[-74.18871042749669, 40.58857045222275], [-74.18882052464711, 40.58846486998272]]}}, {"type": "Feature", "properties": {"segment_id": 1453076, "physicalid": "98279", "street_name": "ALBERTA AVE", "borough": "staten_island", "direction": "TF", "total_row_ft": 49.3, "roadbed_ft": 29.4, "median_ft": 0.0, "left_sw_ft": 10.6, "right_sw_ft": 9.3}, "geometry": {"type": "LineString", "coordinates": [[-74.18865438925884, 40.58853597529198], [-74.18876479212149, 40.58843009995995]]}}, {"type": "Feature", "properties": {"segment_id": 1453077, "physicalid": "98279", "street_name": "ALBERTA AVE", "borough": "staten_island", "direction": "TF", "total_row_ft": 49.4, "roadbed_ft": 29.4, "median_ft": 0.0, "left_sw_ft": 10.6, "right_sw_ft": 9.4}, "geometry": {"type": "LineString", "coordinates": [[-74.1885983510822, 40.5885014983306], [-74.18870905964424, 40.58839532991931]]}}, {"type": "Feature", "properties": {"segment_id": 1453078, "physicalid": "98279", "street_name": "ALBERTA AVE", "borough": "staten_island", "direction": "TF", "total_row_ft": 49.5, "roadbed_ft": 29.3, "median_ft": 0.0, "left_sw_ft": 10.7, "right_sw_ft": 9.5}, "geometry": {"type": "LineString", "coordinates": [[-74.1885424362944, 40.58846690306891], [-74.18865332722503, 40.588360559851516]]}}, {"type": "Feature", "properties": {"segment_id": 1453079, "physicalid": "98279", "street_name": "ALBERTA AVE", "borough": "staten_island", "direction": "TF", "total_row_ft": 49.4, "roadbed_ft": 29.3, "median_ft": 0.0, "left_sw_ft": 10.7, "right_sw_ft": 9.5}, "geometry": {"type": "LineString", "coordinates": [[-74.18848669997118, 40.58843213669035], [-74.18859746028676, 40.58832591881474]]}}, {"type": "Feature", "properties": {"segment_id": 1453080, "physicalid": "98279", "street_name": "ALBERTA AVE", "borough": "staten_island", "direction": "TF", "total_row_ft": 49.3, "roadbed_ft": 29.3, "median_ft": 0.0, "left_sw_ft": 10.6, "right_sw_ft": 9.4}, "geometry": {"type": "LineString", "coordinates": [[-74.18843096356015, 40.5883973704245], [-74.18854148996363, 40.588291376951304]]}}, {"type": "Feature", "properties": {"segment_id": 1453081, "physicalid": "98279", "street_name": "ALBERTA AVE", "borough": "staten_island", "direction": "TF", "total_row_ft": 49.2, "roadbed_ft": 29.2, "median_ft": 0.0, "left_sw_ft": 10.6, "right_sw_ft": 9.4}, "geometry": {"type": "LineString", "coordinates": [[-74.18837522720715, 40.58836260413148], [-74.18848551969836, 40.58825683506051]]}}, {"type": "Feature", "properties": {"segment_id": 1453082, "physicalid": "98279", "street_name": "ALBERTA AVE", "borough": "staten_island", "direction": "TF", "total_row_ft": 49.1, "roadbed_ft": 29.2, "median_ft": 0.0, "left_sw_ft": 10.6, "right_sw_ft": 9.4}, "geometry": {"type": "LineString", "coordinates": [[-74.18831949091219, 40.58832783781132], [-74.18842954949102, 40.58822229314233]]}}, {"type": "Feature", "properties": {"segment_id": 1453083, "physicalid": "98279", "street_name": "ALBERTA AVE", "borough": "staten_island", "direction": "TF", "total_row_ft": 49.0, "roadbed_ft": 29.1, "median_ft": 0.0, "left_sw_ft": 10.5, "right_sw_ft": 9.4}, "geometry": {"type": "LineString", "coordinates": [[-74.18826375467084, 40.58829307146824], [-74.18837357907688, 40.58818775145063]]}}, {"type": "Feature", "properties": {"segment_id": 1453084, "physicalid": "98279", "street_name": "ALBERTA AVE", "borough": "staten_island", "direction": "TF", "total_row_ft": 48.9, "roadbed_ft": 29.0, "median_ft": 0.0, "left_sw_ft": 10.6, "right_sw_ft": 9.4}, "geometry": {"type": "LineString", "coordinates": [[-74.18820801831968, 40.58825830525898], [-74.18831768730692, 40.588153134368326]]}}, {"type": "Feature", "properties": {"segment_id": 1453085, "physicalid": "98279", "street_name": "ALBERTA AVE", "borough": "staten_island", "direction": "TF", "total_row_ft": 49.1, "roadbed_ft": 28.9, "median_ft": 0.0, "left_sw_ft": 10.6, "right_sw_ft": 9.6}, "geometry": {"type": "LineString", "coordinates": [[-74.18815174838451, 40.5882240507757], [-74.1882618174167, 40.58811849633194]]}}, {"type": "Feature", "properties": {"segment_id": 1453086, "physicalid": "98279", "street_name": "ALBERTA AVE", "borough": "staten_island", "direction": "TF", "total_row_ft": 49.4, "roadbed_ft": 28.8, "median_ft": 0.0, "left_sw_ft": 10.6, "right_sw_ft": 9.9}, "geometry": {"type": "LineString", "coordinates": [[-74.18809526837686, 40.588189997775686], [-74.18820594758444, 40.58808385826827]]}}, {"type": "Feature", "properties": {"segment_id": 1453087, "physicalid": "98279", "street_name": "ALBERTA AVE", "borough": "staten_island", "direction": "TF", "total_row_ft": 49.7, "roadbed_ft": 28.9, "median_ft": 0.0, "left_sw_ft": 10.6, "right_sw_ft": 10.2}, "geometry": {"type": "LineString", "coordinates": [[-74.18803878842681, 40.5881559447478], [-74.18815008865126, 40.58804920978084]]}}, {"type": "Feature", "properties": {"segment_id": 1453088, "physicalid": "98279", "street_name": "ALBERTA AVE", "borough": "staten_island", "direction": "TF", "total_row_ft": 50.0, "roadbed_ft": 29.1, "median_ft": 0.0, "left_sw_ft": 10.5, "right_sw_ft": 10.4}, "geometry": {"type": "LineString", "coordinates": [[-74.18798230839403, 40.588121891826596], [-74.1880943239861, 40.58801447092024]]}}, {"type": "Feature", "properties": {"segment_id": 1453089, "physicalid": "98279", "street_name": "ALBERTA AVE", "borough": "staten_island", "direction": "TF", "total_row_ft": 50.3, "roadbed_ft": 29.2, "median_ft": 0.0, "left_sw_ft": 10.5, "right_sw_ft": 10.6}, "geometry": {"type": "LineString", "coordinates": [[-74.18792582838866, 40.58808783890652], [-74.18803855934011, 40.58797973206971]]}}, {"type": "Feature", "properties": {"segment_id": 1453090, "physicalid": "98279", "street_name": "ALBERTA AVE", "borough": "staten_island", "direction": "TF", "total_row_ft": 50.6, "roadbed_ft": 29.9, "median_ft": 0.0, "left_sw_ft": 10.5, "right_sw_ft": 10.3}, "geometry": {"type": "LineString", "coordinates": [[-74.18786934844088, 40.588053785958536], [-74.18798279475212, 40.58794499319203]]}}, {"type": "Feature", "properties": {"segment_id": 1575052, "physicalid": "119256", "street_name": "BERESFORD AVE", "borough": "staten_island", "direction": "TW", "total_row_ft": 53.4, "roadbed_ft": 29.3, "median_ft": 0.0, "left_sw_ft": 9.1, "right_sw_ft": 15.0}, "geometry": {"type": "LineString", "coordinates": [[-74.18987622844622, 40.588413076056916], [-74.19006894003195, 40.58823079595092]]}}, {"type": "Feature", "properties": {"segment_id": 1575053, "physicalid": "119256", "street_name": "BERESFORD AVE", "borough": "staten_island", "direction": "TW", "total_row_ft": 53.2, "roadbed_ft": 29.2, "median_ft": 0.0, "left_sw_ft": 9.0, "right_sw_ft": 15.0}, "geometry": {"type": "LineString", "coordinates": [[-74.18982071577817, 40.58837810448033], [-74.1900128749706, 40.58819634700847]]}}, {"type": "Feature", "properties": {"segment_id": 1575054, "physicalid": "119256", "street_name": "BERESFORD AVE", "borough": "staten_island", "direction": "TW", "total_row_ft": 52.9, "roadbed_ft": 29.1, "median_ft": 0.0, "left_sw_ft": 8.8, "right_sw_ft": 15.0}, "geometry": {"type": "LineString", "coordinates": [[-74.18976520316826, 40.58834313287687], [-74.1899568099671, 40.588161898038535]]}}, {"type": "Feature", "properties": {"segment_id": 1575055, "physicalid": "119256", "street_name": "BERESFORD AVE", "borough": "staten_island", "direction": "TW", "total_row_ft": 52.7, "roadbed_ft": 29.0, "median_ft": 0.0, "left_sw_ft": 8.7, "right_sw_ft": 15.0}, "geometry": {"type": "LineString", "coordinates": [[-74.1897096906165, 40.58830816124643], [-74.18990074502143, 40.58812744904114]]}}, {"type": "Feature", "properties": {"segment_id": 1575056, "physicalid": "119256", "street_name": "BERESFORD AVE", "borough": "staten_island", "direction": "TW", "total_row_ft": 52.5, "roadbed_ft": 28.9, "median_ft": 0.0, "left_sw_ft": 8.6, "right_sw_ft": 15.0}, "geometry": {"type": "LineString", "coordinates": [[-74.18965417812286, 40.588273189589074], [-74.18984468013362, 40.588093000016265]]}}, {"type": "Feature", "properties": {"segment_id": 1575057, "physicalid": "119256", "street_name": "BERESFORD AVE", "borough": "staten_island", "direction": "TW", "total_row_ft": 52.4, "roadbed_ft": 28.9, "median_ft": 0.0, "left_sw_ft": 8.6, "right_sw_ft": 15.0}, "geometry": {"type": "LineString", "coordinates": [[-74.18959837780216, 40.588238490204716], [-74.18978861530364, 40.58805855096394]]}}, {"type": "Feature", "properties": {"segment_id": 1575058, "physicalid": "119256", "street_name": "BERESFORD AVE", "borough": "staten_island", "direction": "TW", "total_row_ft": 52.4, "roadbed_ft": 28.8, "median_ft": 0.0, "left_sw_ft": 8.5, "right_sw_ft": 15.0}, "geometry": {"type": "LineString", "coordinates": [[-74.1895424657231, 40.58820389655603], [-74.1897325505315, 40.58802410188413]]}}, {"type": "Feature", "properties": {"segment_id": 1575059, "physicalid": "119256", "street_name": "BERESFORD AVE", "borough": "staten_island", "direction": "TW", "total_row_ft": 52.3, "roadbed_ft": 28.8, "median_ft": 0.0, "left_sw_ft": 8.5, "right_sw_ft": 15.0}, "geometry": {"type": "LineString", "coordinates": [[-74.18948655370197, 40.58816930287998], [-74.18967648581722, 40.58798965277688]]}}, {"type": "Feature", "properties": {"segment_id": 1575060, "physicalid": "119256", "street_name": "BERESFORD AVE", "borough": "staten_island", "direction": "TW", "total_row_ft": 52.3, "roadbed_ft": 28.8, "median_ft": 0.0, "left_sw_ft": 8.5, "right_sw_ft": 15.0}, "geometry": {"type": "LineString", "coordinates": [[-74.18943064167455, 40.588134709237394], [-74.18962042116077, 40.58795520364213]]}}, {"type": "Feature", "properties": {"segment_id": 1575061, "physicalid": "119256", "street_name": "BERESFORD AVE", "borough": "staten_island", "direction": "TW", "total_row_ft": 52.4, "roadbed_ft": 28.8, "median_ft": 0.0, "left_sw_ft": 8.5, "right_sw_ft": 15.0}, "geometry": {"type": "LineString", "coordinates": [[-74.18937471347229, 40.5881001309214], [-74.18956435656214, 40.587920754479924]]}}, {"type": "Feature", "properties": {"segment_id": 1575062, "physicalid": "119256", "street_name": "BERESFORD AVE", "borough": "staten_island", "direction": "TW", "total_row_ft": 52.4, "roadbed_ft": 28.8, "median_ft": 0.0, "left_sw_ft": 8.5, "right_sw_ft": 15.0}, "geometry": {"type": "LineString", "coordinates": [[-74.18931871367813, 40.58806562034869], [-74.1895082920214, 40.58788630529026]]}}, {"type": "Feature", "properties": {"segment_id": 1575063, "physicalid": "119256", "street_name": "BERESFORD AVE", "borough": "staten_island", "direction": "TW", "total_row_ft": 52.4, "roadbed_ft": 28.9, "median_ft": 0.0, "left_sw_ft": 8.5, "right_sw_ft": 15.0}, "geometry": {"type": "LineString", "coordinates": [[-74.18926271394184, 40.588031109748584], [-74.18945222753847, 40.58785185607312]]}}, {"type": "Feature", "properties": {"segment_id": 1575064, "physicalid": "119256", "street_name": "BERESFORD AVE", "borough": "staten_island", "direction": "TW", "total_row_ft": 52.5, "roadbed_ft": 29.0, "median_ft": 0.0, "left_sw_ft": 8.5, "right_sw_ft": 15.0}, "geometry": {"type": "LineString", "coordinates": [[-74.18920671415155, 40.58799659922691], [-74.18939616311339, 40.58781740682851]]}}, {"type": "Feature", "properties": {"segment_id": 1575065, "physicalid": "119256", "street_name": "BERESFORD AVE", "borough": "staten_island", "direction": "TW", "total_row_ft": 52.5, "roadbed_ft": 29.1, "median_ft": 0.0, "left_sw_ft": 8.5, "right_sw_ft": 15.0}, "geometry": {"type": "LineString", "coordinates": [[-74.18915071437952, 40.58796208871529], [-74.18934009874619, 40.587782957556456]]}}, {"type": "Feature", "properties": {"segment_id": 1575066, "physicalid": "119256", "street_name": "BERESFORD AVE", "borough": "staten_island", "direction": "TW", "total_row_ft": 52.6, "roadbed_ft": 29.2, "median_ft": 0.0, "left_sw_ft": 8.4, "right_sw_ft": 15.0}, "geometry": {"type": "LineString", "coordinates": [[-74.1890947146654, 40.58792757817625], [-74.18928403443677, 40.5877485082569]]}}, {"type": "Feature", "properties": {"segment_id": 1575067, "physicalid": "119256", "street_name": "BERESFORD AVE", "borough": "staten_island", "direction": "TW", "total_row_ft": 52.7, "roadbed_ft": 29.2, "median_ft": 0.0, "left_sw_ft": 8.4, "right_sw_ft": 15.0}, "geometry": {"type": "LineString", "coordinates": [[-74.18903871500915, 40.58789306760982], [-74.18922797018521, 40.5877140589299]]}}, {"type": "Feature", "properties": {"segment_id": 1575068, "physicalid": "119256", "street_name": "BERESFORD AVE", "borough": "staten_island", "direction": "TW", "total_row_ft": 52.7, "roadbed_ft": 29.3, "median_ft": 0.0, "left_sw_ft": 8.5, "right_sw_ft": 15.0}, "geometry": {"type": "LineString", "coordinates": [[-74.18898277514006, 40.58785850052075], [-74.1891719059915, 40.5876796095754]]}}, {"type": "Feature", "properties": {"segment_id": 1575069, "physicalid": "119256", "street_name": "BERESFORD AVE", "borough": "staten_island", "direction": "TW", "total_row_ft": 52.7, "roadbed_ft": 29.3, "median_ft": 0.0, "left_sw_ft": 8.4, "right_sw_ft": 15.0}, "geometry": {"type": "LineString", "coordinates": [[-74.18892705805183, 40.58782372274095], [-74.18911584185562, 40.58764516019347]]}}, {"type": "Feature", "properties": {"segment_id": 1575070, "physicalid": "119256", "street_name": "BERESFORD AVE", "borough": "staten_island", "direction": "TW", "total_row_ft": 52.6, "roadbed_ft": 29.3, "median_ft": 0.0, "left_sw_ft": 8.3, "right_sw_ft": 15.0}, "geometry": {"type": "LineString", "coordinates": [[-74.18887134082392, 40.58778894512101], [-74.18905977777762, 40.58761071078406]]}}, {"type": "Feature", "properties": {"segment_id": 1575071, "physicalid": "119256", "street_name": "BERESFORD AVE", "borough": "staten_island", "direction": "TW", "total_row_ft": 52.6, "roadbed_ft": 29.4, "median_ft": 0.0, "left_sw_ft": 8.2, "right_sw_ft": 15.0}, "geometry": {"type": "LineString", "coordinates": [[-74.18881562365405, 40.58775416747394], [-74.18900371375743, 40.587576261347195]]}}, {"type": "Feature", "properties": {"segment_id": 1575072, "physicalid": "119256", "street_name": "BERESFORD AVE", "borough": "staten_island", "direction": "TW", "total_row_ft": 52.5, "roadbed_ft": 29.4, "median_ft": 0.0, "left_sw_ft": 8.1, "right_sw_ft": 15.0}, "geometry": {"type": "LineString", "coordinates": [[-74.18875990654222, 40.587719389799766], [-74.18894764979507, 40.58754181188283]]}}, {"type": "Feature", "properties": {"segment_id": 1575073, "physicalid": "119256", "street_name": "BERESFORD AVE", "borough": "staten_island", "direction": "TW", "total_row_ft": 52.4, "roadbed_ft": 29.4, "median_ft": 0.0, "left_sw_ft": 8.1, "right_sw_ft": 15.0}, "geometry": {"type": "LineString", "coordinates": [[-74.1887041894884, 40.58768461209842], [-74.18889158589059, 40.587507362391044]]}}, {"type": "Feature", "properties": {"segment_id": 1575074, "physicalid": "119256", "street_name": "BERESFORD AVE", "borough": "staten_island", "direction": "TW", "total_row_ft": 52.4, "roadbed_ft": 29.4, "median_ft": 0.0, "left_sw_ft": 8.0, "right_sw_ft": 15.0}, "geometry": {"type": "LineString", "coordinates": [[-74.1886484692804, 40.58764983740825], [-74.18883552204392, 40.58747291287177]]}}, {"type": "Feature", "properties": {"segment_id": 1575075, "physicalid": "119256", "street_name": "BERESFORD AVE", "borough": "staten_island", "direction": "TW", "total_row_ft": 52.4, "roadbed_ft": 29.4, "median_ft": 0.0, "left_sw_ft": 8.0, "right_sw_ft": 15.0}, "geometry": {"type": "LineString", "coordinates": [[-74.18859259944149, 40.58761520427416], [-74.1887794582551, 40.58743846332502]]}}, {"type": "Feature", "properties": {"segment_id": 1575076, "physicalid": "119256", "street_name": "BERESFORD AVE", "borough": "staten_island", "direction": "TW", "total_row_ft": 52.4, "roadbed_ft": 29.3, "median_ft": 0.0, "left_sw_ft": 8.0, "right_sw_ft": 15.0}, "geometry": {"type": "LineString", "coordinates": [[-74.18853672966053, 40.58758057111278], [-74.18872339452413, 40.5874040137508]]}}, {"type": "Feature", "properties": {"segment_id": 1575077, "physicalid": "119256", "street_name": "BERESFORD AVE", "borough": "staten_island", "direction": "TW", "total_row_ft": 52.4, "roadbed_ft": 29.4, "median_ft": 0.0, "left_sw_ft": 8.0, "right_sw_ft": 15.0}, "geometry": {"type": "LineString", "coordinates": [[-74.18848085993753, 40.587545937924126], [-74.188667330851, 40.587369564149135]]}}, {"type": "Feature", "properties": {"segment_id": 1575078, "physicalid": "119256", "street_name": "BERESFORD AVE", "borough": "staten_island", "direction": "TW", "total_row_ft": 52.7, "roadbed_ft": 29.6, "median_ft": 0.0, "left_sw_ft": 8.0, "right_sw_ft": 15.0}, "geometry": {"type": "LineString", "coordinates": [[-74.18842499012828, 40.58751130484455], [-74.18861126723571, 40.587335114519966]]}}, {"type": "Feature", "properties": {"segment_id": 1579303, "physicalid": "121540", "street_name": "DEAN AVE", "borough": "staten_island", "direction": "TW", "total_row_ft": 107.8, "roadbed_ft": 77.8, "median_ft": 0.0, "left_sw_ft": 15.0, "right_sw_ft": 15.0}, "geometry": {"type": "LineString", "coordinates": [[-74.18770444335078, 40.587821646468115], [-74.1880382891949, 40.5880307227413]]}}, {"type": "Feature", "properties": {"segment_id": 1579304, "physicalid": "121540", "street_name": "DEAN AVE", "borough": "staten_island", "direction": "TW", "total_row_ft": 52.2, "roadbed_ft": 28.9, "median_ft": 0.0, "left_sw_ft": 15.0, "right_sw_ft": 8.3}, "geometry": {"type": "LineString", "coordinates": [[-74.1877501514803, 40.58777922807193], [-74.18797160183449, 40.58791791507671]]}}, {"type": "Feature", "properties": {"segment_id": 1579305, "physicalid": "121540", "street_name": "DEAN AVE", "borough": "staten_island", "direction": "TW", "total_row_ft": 52.3, "roadbed_ft": 29.1, "median_ft": 0.0, "left_sw_ft": 15.0, "right_sw_ft": 8.2}, "geometry": {"type": "LineString", "coordinates": [[-74.18779585955178, 40.58773680965736], [-74.18801696344013, 40.58787527962413]]}}, {"type": "Feature", "properties": {"segment_id": 1579306, "physicalid": "121540", "street_name": "DEAN AVE", "borough": "staten_island", "direction": "TW", "total_row_ft": 52.3, "roadbed_ft": 29.3, "median_ft": 0.0, "left_sw_ft": 15.0, "right_sw_ft": 8.1}, "geometry": {"type": "LineString", "coordinates": [[-74.18784156756516, 40.58769439122448], [-74.18806232498787, 40.58783264415343]]}}, {"type": "Feature", "properties": {"segment_id": 1579307, "physicalid": "121540", "street_name": "DEAN AVE", "borough": "staten_island", "direction": "TW", "total_row_ft": 52.4, "roadbed_ft": 29.4, "median_ft": 0.0, "left_sw_ft": 15.0, "right_sw_ft": 8.0}, "geometry": {"type": "LineString", "coordinates": [[-74.18788727552051, 40.587651972773216], [-74.18810768663815, 40.58779000876515]]}}, {"type": "Feature", "properties": {"segment_id": 1579308, "physicalid": "121540", "street_name": "DEAN AVE", "borough": "staten_island", "direction": "TW", "total_row_ft": 52.4, "roadbed_ft": 29.6, "median_ft": 0.0, "left_sw_ft": 15.0, "right_sw_ft": 7.9}, "geometry": {"type": "LineString", "coordinates": [[-74.18793298341777, 40.58760955430361], [-74.18815304793111, 40.58774737317131]]}}, {"type": "Feature", "properties": {"segment_id": 1579309, "physicalid": "121540", "street_name": "DEAN AVE", "borough": "staten_island", "direction": "TW", "total_row_ft": 52.5, "roadbed_ft": 29.3, "median_ft": 0.0, "left_sw_ft": 15.0, "right_sw_ft": 8.1}, "geometry": {"type": "LineString", "coordinates": [[-74.18797869125697, 40.58756713581565], [-74.18819858987573, 40.58770485073114]]}}, {"type": "Feature", "properties": {"segment_id": 1579310, "physicalid": "121540", "street_name": "DEAN AVE", "borough": "staten_island", "direction": "TW", "total_row_ft": 52.5, "roadbed_ft": 29.1, "median_ft": 0.0, "left_sw_ft": 15.0, "right_sw_ft": 8.4}, "geometry": {"type": "LineString", "coordinates": [[-74.1880243990381, 40.58752471730933], [-74.1882441750759, 40.58766235539842]]}}, {"type": "Feature", "properties": {"segment_id": 1579311, "physicalid": "121540", "street_name": "DEAN AVE", "borough": "staten_island", "direction": "TW", "total_row_ft": 52.6, "roadbed_ft": 29.2, "median_ft": 0.0, "left_sw_ft": 15.0, "right_sw_ft": 8.4}, "geometry": {"type": "LineString", "coordinates": [[-74.18807010676117, 40.58748229878467], [-74.18828976020751, 40.58761986004086]]}}, {"type": "Feature", "properties": {"segment_id": 1579312, "physicalid": "121540", "street_name": "DEAN AVE", "borough": "staten_island", "direction": "TW", "total_row_ft": 52.6, "roadbed_ft": 29.3, "median_ft": 0.0, "left_sw_ft": 15.0, "right_sw_ft": 8.3}, "geometry": {"type": "LineString", "coordinates": [[-74.18811581442621, 40.58743988024163], [-74.18833534526591, 40.58757736465552]]}}, {"type": "Feature", "properties": {"segment_id": 1579313, "physicalid": "121540", "street_name": "DEAN AVE", "borough": "staten_island", "direction": "TW", "total_row_ft": 52.7, "roadbed_ft": 29.4, "median_ft": 0.0, "left_sw_ft": 15.0, "right_sw_ft": 8.3}, "geometry": {"type": "LineString", "coordinates": [[-74.18816152203311, 40.58739746168029], [-74.1883809359736, 40.58753487282619]]}}, {"type": "Feature", "properties": {"segment_id": 1579314, "physicalid": "121540", "street_name": "DEAN AVE", "borough": "staten_island", "direction": "TW", "total_row_ft": 93.9, "roadbed_ft": 32.1, "median_ft": 0.0, "left_sw_ft": 15.0, "right_sw_ft": 46.8}, "geometry": {"type": "LineString", "coordinates": [[-74.18820722958202, 40.58735504310054], [-74.18854107466763, 40.58756411792207]]}}, {"type": "Feature", "properties": {"segment_id": 1579593, "physicalid": "121756", "street_name": "DEAN AVE", "borough": "staten_island", "direction": "TW", "total_row_ft": 83.0, "roadbed_ft": 44.2, "median_ft": 0.0, "left_sw_ft": 4.0, "right_sw_ft": 34.9}, "geometry": {"type": "LineString", "coordinates": [[-74.18722981238243, 40.58839145056426], [-74.18747373380444, 40.588544605566774]]}}, {"type": "Feature", "properties": {"segment_id": 1579594, "physicalid": "121756", "street_name": "DEAN AVE", "borough": "staten_island", "direction": "TW", "total_row_ft": 57.7, "roadbed_ft": 34.1, "median_ft": 0.0, "left_sw_ft": 15.0, "right_sw_ft": 8.6}, "geometry": {"type": "LineString", "coordinates": [[-74.18719165814227, 40.58829637554622], [-74.18741801103972, 40.588438499877476]]}}, {"type": "Feature", "properties": {"segment_id": 1579595, "physicalid": "121756", "street_name": "DEAN AVE", "borough": "staten_island", "direction": "TW", "total_row_ft": 57.8, "roadbed_ft": 34.3, "median_ft": 0.0, "left_sw_ft": 15.0, "right_sw_ft": 8.6}, "geometry": {"type": "LineString", "coordinates": [[-74.1872374373323, 40.58825400150854], [-74.18746333446721, 40.58839583961243]]}}, {"type": "Feature", "properties": {"segment_id": 1579596, "physicalid": "121756", "street_name": "DEAN AVE", "borough": "staten_island", "direction": "TW", "total_row_ft": 57.9, "roadbed_ft": 34.3, "median_ft": 0.0, "left_sw_ft": 15.0, "right_sw_ft": 8.6}, "geometry": {"type": "LineString", "coordinates": [[-74.1872832164642, 40.58821162745249], [-74.18750865782565, 40.58835317932232]]}}, {"type": "Feature", "properties": {"segment_id": 1579597, "physicalid": "121756", "street_name": "DEAN AVE", "borough": "staten_island", "direction": "TW", "total_row_ft": 57.8, "roadbed_ft": 34.3, "median_ft": 0.0, "left_sw_ft": 15.0, "right_sw_ft": 8.5}, "geometry": {"type": "LineString", "coordinates": [[-74.18732899553802, 40.58816925337803], [-74.18755398109472, 40.58831051899444]]}}, {"type": "Feature", "properties": {"segment_id": 1579598, "physicalid": "121756", "street_name": "DEAN AVE", "borough": "staten_island", "direction": "TW", "total_row_ft": 57.8, "roadbed_ft": 34.3, "median_ft": 0.0, "left_sw_ft": 15.0, "right_sw_ft": 8.5}, "geometry": {"type": "LineString", "coordinates": [[-74.18737477455376, 40.588126879285134], [-74.18759930404774, 40.58826785848641]]}}, {"type": "Feature", "properties": {"segment_id": 1579599, "physicalid": "121756", "street_name": "DEAN AVE", "borough": "staten_island", "direction": "TW", "total_row_ft": 57.7, "roadbed_ft": 34.2, "median_ft": 0.0, "left_sw_ft": 15.0, "right_sw_ft": 8.5}, "geometry": {"type": "LineString", "coordinates": [[-74.18742055351139, 40.58808450517386], [-74.18764462710809, 40.5882251980641]]}}, {"type": "Feature", "properties": {"segment_id": 1579600, "physicalid": "121756", "street_name": "DEAN AVE", "borough": "staten_island", "direction": "TW", "total_row_ft": 57.6, "roadbed_ft": 34.2, "median_ft": 0.0, "left_sw_ft": 15.0, "right_sw_ft": 8.4}, "geometry": {"type": "LineString", "coordinates": [[-74.18746633241093, 40.58804213104415], [-74.18768995011052, 40.58818253762372]]}}, {"type": "Feature", "properties": {"segment_id": 1579601, "physicalid": "121756", "street_name": "DEAN AVE", "borough": "staten_island", "direction": "TW", "total_row_ft": 57.6, "roadbed_ft": 34.2, "median_ft": 0.0, "left_sw_ft": 15.0, "right_sw_ft": 8.3}, "geometry": {"type": "LineString", "coordinates": [[-74.18751211125237, 40.58799975689604], [-74.18773527305507, 40.58813987716532]]}}, {"type": "Feature", "properties": {"segment_id": 1579602, "physicalid": "121756", "street_name": "DEAN AVE", "borough": "staten_island", "direction": "TW", "total_row_ft": 57.4, "roadbed_ft": 34.2, "median_ft": 0.0, "left_sw_ft": 15.0, "right_sw_ft": 8.2}, "geometry": {"type": "LineString", "coordinates": [[-74.18755789003572, 40.58795738272952], [-74.18778041001306, 40.58809709994725]]}}, {"type": "Feature", "properties": {"segment_id": 1579603, "physicalid": "121756", "street_name": "DEAN AVE", "borough": "staten_island", "direction": "TW", "total_row_ft": 57.1, "roadbed_ft": 34.1, "median_ft": 0.0, "left_sw_ft": 15.0, "right_sw_ft": 8.0}, "geometry": {"type": "LineString", "coordinates": [[-74.187603668761, 40.58791500854457], [-74.18782522249036, 40.58805411901148]]}}, {"type": "Feature", "properties": {"segment_id": 1722924, "physicalid": "183106", "street_name": "ROSWELL AVE", "borough": "staten_island", "direction": "TW", "total_row_ft": 101.9, "roadbed_ft": 77.2, "median_ft": 0.0, "left_sw_ft": 9.7, "right_sw_ft": 15.0}, "geometry": {"type": "LineString", "coordinates": [[-74.18717707255226, 40.58850956477739], [-74.18736459338547, 40.58831874111842]]}}, {"type": "Feature", "properties": {"segment_id": 1722925, "physicalid": "183106", "street_name": "ROSWELL AVE", "borough": "staten_island", "direction": "TW", "total_row_ft": 40.6, "roadbed_ft": 20.9, "median_ft": 0.0, "left_sw_ft": 9.9, "right_sw_ft": 9.9}, "geometry": {"type": "LineString", "coordinates": [[-74.187121008154, 40.5884750575158], [-74.18720873971694, 40.58838578097377]]}}, {"type": "Feature", "properties": {"segment_id": 1722926, "physicalid": "183106", "street_name": "ROSWELL AVE", "borough": "staten_island", "direction": "TW", "total_row_ft": 37.7, "roadbed_ft": 18.9, "median_ft": 0.0, "left_sw_ft": 10.2, "right_sw_ft": 8.6}, "geometry": {"type": "LineString", "coordinates": [[-74.18706494381365, 40.58844055022673], [-74.18714638770876, 40.58835767215791]]}}, {"type": "Feature", "properties": {"segment_id": 1722927, "physicalid": "183106", "street_name": "ROSWELL AVE", "borough": "staten_island", "direction": "TW", "total_row_ft": 37.7, "roadbed_ft": 18.7, "median_ft": 0.0, "left_sw_ft": 10.4, "right_sw_ft": 8.5}, "geometry": {"type": "LineString", "coordinates": [[-74.18700887953129, 40.588406042910194], [-74.18709016190242, 40.58832332927722]]}}, {"type": "Feature", "properties": {"segment_id": 1722928, "physicalid": "183106", "street_name": "ROSWELL AVE", "borough": "staten_island", "direction": "TW", "total_row_ft": 37.6, "roadbed_ft": 18.5, "median_ft": 0.0, "left_sw_ft": 10.6, "right_sw_ft": 8.4}, "geometry": {"type": "LineString", "coordinates": [[-74.18695281530684, 40.588371535566175], [-74.18703393615392, 40.588288986368916]]}}, {"type": "Feature", "properties": {"segment_id": 1722929, "physicalid": "183106", "street_name": "ROSWELL AVE", "borough": "staten_island", "direction": "TW", "total_row_ft": 37.5, "roadbed_ft": 18.6, "median_ft": 0.0, "left_sw_ft": 10.6, "right_sw_ft": 8.3}, "geometry": {"type": "LineString", "coordinates": [[-74.18689672386482, 40.58833705595039], [-74.18697771046324, 40.58825464343299]]}}, {"type": "Feature", "properties": {"segment_id": 1722930, "physicalid": "183106", "street_name": "ROSWELL AVE", "borough": "staten_island", "direction": "TW", "total_row_ft": 37.5, "roadbed_ft": 18.7, "median_ft": 0.0, "left_sw_ft": 10.6, "right_sw_ft": 8.2}, "geometry": {"type": "LineString", "coordinates": [[-74.18684054823929, 40.5883026620316], [-74.18692148483039, 40.58822030046942]]}}, {"type": "Feature", "properties": {"segment_id": 1722931, "physicalid": "183106", "street_name": "ROSWELL AVE", "borough": "staten_island", "direction": "TW", "total_row_ft": 37.5, "roadbed_ft": 18.8, "median_ft": 0.0, "left_sw_ft": 10.5, "right_sw_ft": 8.1}, "geometry": {"type": "LineString", "coordinates": [[-74.1867843726716, 40.588268268085216], [-74.18686525925537, 40.588185957478224]]}}]}