{"type": "FeatureCollection", "features": [{"type": "Feature", "properties": {"segment_id": 199060, "physicalid": "15516", "street_name": "HYLAN BLVD", "borough": "staten_island", "direction": "FT", "total_row_ft": 94.9, "roadbed_ft": 66.0, "median_ft": 4.3, "left_sw_ft": 15.0, "right_sw_ft": 9.6}, "geometry": {"type": "LineString", "coordinates": [[-74.15982237372461, 40.52988577133966], [-74.15996880053308, 40.53009180421766]]}}, {"type": "Feature", "properties": {"segment_id": 199061, "physicalid": "15516", "street_name": "HYLAN BLVD", "borough": "staten_island", "direction": "FT", "total_row_ft": 94.7, "roadbed_ft": 66.0, "median_ft": 4.2, "left_sw_ft": 15.0, "right_sw_ft": 9.5}, "geometry": {"type": "LineString", "coordinates": [[-74.15988561856344, 40.52985960233706], [-74.16003172030047, 40.530065177544884]]}}, {"type": "Feature", "properties": {"segment_id": 201095, "physicalid": "15663", "street_name": "HYLAN BLVD", "borough": "staten_island", "direction": "TF", "total_row_ft": 91.1, "roadbed_ft": 66.1, "median_ft": 4.1, "left_sw_ft": 5.8, "right_sw_ft": 15.0}, "geometry": {"type": "LineString", "coordinates": [[-74.1596652553818, 40.5298314655001], [-74.15986981293945, 40.53012151358488]]}}, {"type": "Feature", "properties": {"segment_id": 201096, "physicalid": "15663", "street_name": "HYLAN BLVD", "borough": "staten_island", "direction": "TF", "total_row_ft": 91.3, "roadbed_ft": 66.1, "median_ft": 4.2, "left_sw_ft": 6.0, "right_sw_ft": 15.0}, "geometry": {"type": "LineString", "coordinates": [[-74.15972861009942, 40.52980545177254], [-74.1599331678524, 40.53009549974501]]}}, {"type": "Feature", "properties": {"segment_id": 201097, "physicalid": "15663", "street_name": "HYLAN BLVD", "borough": "staten_island", "direction": "TF", "total_row_ft": 91.4, "roadbed_ft": 66.0, "median_ft": 4.3, "left_sw_ft": 6.2, "right_sw_ft": 15.0}, "geometry": {"type": "LineString", "coordinates": [[-74.15979196476773, 40.52977943800996], [-74.15999652271603, 40.53006948587011]]}}, {"type": "Feature", "properties": {"segment_id": 201098, "physicalid": "15663", "street_name": "HYLAN BLVD", "borough": "staten_island", "direction": "TF", "total_row_ft": 91.6, "roadbed_ft": 66.0, "median_ft": 4.2, "left_sw_ft": 6.3, "right_sw_ft": 15.0}, "geometry": {"type": "LineString", "coordinates": [[-74.15985531938674, 40.529753424212366], [-74.16005987753034, 40.53004347196019]]}}, {"type": "Feature", "properties": {"segment_id": 809652, "physicalid": "56864", "street_name": "STRAWBERRY LN", "borough": "staten_island", "direction": "TW", "total_row_ft": 135.0, "roadbed_ft": 113.0, "median_ft": 0.0, "left_sw_ft": 7.0, "right_sw_ft": 15.0}, "geometry": {"type": "LineString", "coordinates": [[-74.15792638941782, 40.52932691009393], [-74.15818153520739, 40.52959259361756]]}}, {"type": "Feature", "properties": {"segment_id": 809653, "physicalid": "56864", "street_name": "STRAWBERRY LN", "borough": "staten_island", "direction": "TW", "total_row_ft": 59.6, "roadbed_ft": 46.3, "median_ft": 0.0, "left_sw_ft": 7.1, "right_sw_ft": 6.2}, "geometry": {"type": "LineString", "coordinates": [[-74.15805064851774, 40.52936342490206], [-74.15817735597624, 40.529495365354926]]}}, {"type": "Feature", "properties": {"segment_id": 809654, "physicalid": "56864", "street_name": "STRAWBERRY LN", "borough": "staten_island", "direction": "TW", "total_row_ft": 56.9, "roadbed_ft": 44.1, "median_ft": 0.0, "left_sw_ft": 6.7, "right_sw_ft": 6.0}, "geometry": {"type": "LineString", "coordinates": [[-74.15811360207834, 40.52933610197491], [-74.15823449016939, 40.529461982598036]]}}, {"type": "Feature", "properties": {"segment_id": 809655, "physicalid": "56864", "street_name": "STRAWBERRY LN", "borough": "staten_island", "direction": "TW", "total_row_ft": 54.7, "roadbed_ft": 41.8, "median_ft": 0.0, "left_sw_ft": 6.9, "right_sw_ft": 6.0}, "geometry": {"type": "LineString", "coordinates": [[-74.15817546268559, 40.529307640974324], [-74.15829178394904, 40.529428766048696]]}}, {"type": "Feature", "properties": {"segment_id": 809656, "physicalid": "56864", "street_name": "STRAWBERRY LN", "borough": "staten_island", "direction": "TW", "total_row_ft": 52.7, "roadbed_ft": 39.4, "median_ft": 0.0, "left_sw_ft": 7.3, "right_sw_ft": 6.0}, "geometry": {"type": "LineString", "coordinates": [[-74.15823724542965, 40.52927909891626], [-74.15834923229689, 40.52939571048106]]}}, {"type": "Feature", "properties": {"segment_id": 809657, "physicalid": "56864", "street_name": "STRAWBERRY LN", "borough": "staten_island", "direction": "TW", "total_row_ft": 50.6, "roadbed_ft": 37.8, "median_ft": 0.0, "left_sw_ft": 6.9, "right_sw_ft": 6.0}, "geometry": {"type": "LineString", "coordinates": [[-74.15829897888025, 40.529250505550706], [-74.1584065516738, 40.52936252064712]]}}, {"type": "Feature", "properties": {"segment_id": 809658, "physicalid": "56864", "street_name": "STRAWBERRY LN", "borough": "staten_island", "direction": "TW", "total_row_ft": 50.9, "roadbed_ft": 37.7, "median_ft": 0.0, "left_sw_ft": 7.4, "right_sw_ft": 5.9}, "geometry": {"type": "LineString", "coordinates": [[-74.15835552856284, 40.52921651436468], [-74.15846383674688, 40.52932929512342]]}}, {"type": "Feature", "properties": {"segment_id": 809659, "physicalid": "56864", "street_name": "STRAWBERRY LN", "borough": "staten_island", "direction": "TW", "total_row_ft": 51.3, "roadbed_ft": 37.7, "median_ft": 0.0, "left_sw_ft": 7.8, "right_sw_ft": 5.8}, "geometry": {"type": "LineString", "coordinates": [[-74.15841207823931, 40.52918252320427], [-74.15852110587514, 40.52929605302715]]}}, {"type": "Feature", "properties": {"segment_id": 809660, "physicalid": "56864", "street_name": "STRAWBERRY LN", "borough": "staten_island", "direction": "TW", "total_row_ft": 51.4, "roadbed_ft": 37.8, "median_ft": 0.0, "left_sw_ft": 7.9, "right_sw_ft": 5.7}, "geometry": {"type": "LineString", "coordinates": [[-74.15846916575167, 40.529149092121784], [-74.1585783575902, 40.52926279282935]]}}, {"type": "Feature", "properties": {"segment_id": 809661, "physicalid": "56864", "street_name": "STRAWBERRY LN", "borough": "staten_island", "direction": "TW", "total_row_ft": 51.3, "roadbed_ft": 37.7, "median_ft": 0.0, "left_sw_ft": 8.0, "right_sw_ft": 5.6}, "geometry": {"type": "LineString", "coordinates": [[-74.15852652946445, 40.52911594867627], [-74.1586355986536, 40.529229521570784]]}}, {"type": "Feature", "properties": {"segment_id": 809662, "physicalid": "56864", "street_name": "STRAWBERRY LN", "borough": "staten_island", "direction": "TW", "total_row_ft": 51.2, "roadbed_ft": 37.6, "median_ft": 0.0, "left_sw_ft": 8.2, "right_sw_ft": 5.5}, "geometry": {"type": "LineString", "coordinates": [[-74.15858389312034, 40.52908280520203], [-74.15869282175808, 40.52919623164246]]}}, {"type": "Feature", "properties": {"segment_id": 809663, "physicalid": "56864", "street_name": "STRAWBERRY LN", "borough": "staten_island", "direction": "TW", "total_row_ft": 50.7, "roadbed_ft": 37.5, "median_ft": 0.0, "left_sw_ft": 7.9, "right_sw_ft": 5.3}, "geometry": {"type": "LineString", "coordinates": [[-74.15864203548497, 40.52905047262189], [-74.15874984699579, 40.52916273570861]]}}, {"type": "Feature", "properties": {"segment_id": 809664, "physicalid": "56864", "street_name": "STRAWBERRY LN", "borough": "staten_island", "direction": "TW", "total_row_ft": 50.1, "roadbed_ft": 37.5, "median_ft": 0.0, "left_sw_ft": 7.6, "right_sw_ft": 5.0}, "geometry": {"type": "LineString", "coordinates": [[-74.158700316152, 40.52901828408396], [-74.15880683563125, 40.52912920169239]]}}, {"type": "Feature", "properties": {"segment_id": 809665, "physicalid": "56864", "street_name": "STRAWBERRY LN", "borough": "staten_island", "direction": "TW", "total_row_ft": 49.6, "roadbed_ft": 38.0, "median_ft": 0.0, "left_sw_ft": 6.7, "right_sw_ft": 4.9}, "geometry": {"type": "LineString", "coordinates": [[-74.1587585967629, 40.52898609551633], [-74.15886408498369, 40.52909593918838]]}}, {"type": "Feature", "properties": {"segment_id": 809666, "physicalid": "56864", "street_name": "STRAWBERRY LN", "borough": "staten_island", "direction": "TW", "total_row_ft": 49.6, "roadbed_ft": 38.5, "median_ft": 0.0, "left_sw_ft": 6.1, "right_sw_ft": 5.0}, "geometry": {"type": "LineString", "coordinates": [[-74.15881605468059, 40.52895305031552], [-74.15892159297216, 40.52906294602896]]}}, {"type": "Feature", "properties": {"segment_id": 809667, "physicalid": "56864", "street_name": "STRAWBERRY LN", "borough": "staten_island", "direction": "TW", "total_row_ft": 52.1, "roadbed_ft": 38.8, "median_ft": 0.0, "left_sw_ft": 7.6, "right_sw_ft": 5.7}, "geometry": {"type": "LineString", "coordinates": [[-74.15886920067118, 40.52891551518298], [-74.15898005297016, 40.529030944212565]]}}, {"type": "Feature", "properties": {"segment_id": 809668, "physicalid": "56864", "street_name": "STRAWBERRY LN", "borough": "staten_island", "direction": "TW", "total_row_ft": 53.4, "roadbed_ft": 39.1, "median_ft": 0.0, "left_sw_ft": 7.9, "right_sw_ft": 6.4}, "geometry": {"type": "LineString", "coordinates": [[-74.15888982717203, 40.528898878825636], [-74.15905735348109, 40.52897043795981]]}}, {"type": "Feature", "properties": {"segment_id": 809669, "physicalid": "56864", "street_name": "STRAWBERRY LN", "borough": "staten_island", "direction": "TW", "total_row_ft": 50.1, "roadbed_ft": 37.0, "median_ft": 0.0, "left_sw_ft": 6.4, "right_sw_ft": 6.7}, "geometry": {"type": "LineString", "coordinates": [[-74.15891773206272, 40.52886600619646], [-74.15909054820159, 40.528905371899185]]}}, {"type": "Feature", "properties": {"segment_id": 809670, "physicalid": "56864", "street_name": "STRAWBERRY LN", "borough": "staten_island", "direction": "TW", "total_row_ft": 51.5, "roadbed_ft": 38.1, "median_ft": 0.0, "left_sw_ft": 6.6, "right_sw_ft": 6.8}, "geometry": {"type": "LineString", "coordinates": [[-74.15893856347026, 40.52881346110855], [-74.15911595413138, 40.528853868832165]]}}, {"type": "Feature", "properties": {"segment_id": 809671, "physicalid": "56864", "street_name": "STRAWBERRY LN", "borough": "staten_island", "direction": "TW", "total_row_ft": 54.9, "roadbed_ft": 41.6, "median_ft": 0.0, "left_sw_ft": 7.3, "right_sw_ft": 6.0}, "geometry": {"type": "LineString", "coordinates": [[-74.15894308958674, 40.52877497978332], [-74.1591402749224, 40.528785151202676]]}}, {"type": "Feature", "properties": {"segment_id": 809672, "physicalid": "56864", "street_name": "STRAWBERRY LN", "borough": "staten_island", "direction": "TW", "total_row_ft": 53.8, "roadbed_ft": 40.1, "median_ft": 0.0, "left_sw_ft": 6.9, "right_sw_ft": 6.8}, "geometry": {"type": "LineString", "coordinates": [[-74.15894445475377, 40.52873624557764], [-74.15913575690023, 40.52871381017542]]}}, {"type": "Feature", "properties": {"segment_id": 809673, "physicalid": "56864", "street_name": "STRAWBERRY LN", "borough": "staten_island", "direction": "TW", "total_row_ft": 54.0, "roadbed_ft": 39.2, "median_ft": 0.0, "left_sw_ft": 7.4, "right_sw_ft": 7.3}, "geometry": {"type": "LineString", "coordinates": [[-74.15893754958378, 40.528703523187914], [-74.15911280245382, 40.52863966752046]]}}, {"type": "Feature", "properties": {"segment_id": 809674, "physicalid": "56864", "street_name": "STRAWBERRY LN", "borough": "staten_island", "direction": "TW", "total_row_ft": 53.0, "roadbed_ft": 38.7, "median_ft": 0.0, "left_sw_ft": 7.3, "right_sw_ft": 6.9}, "geometry": {"type": "LineString", "coordinates": [[-74.15891828427948, 40.5286497088486], [-74.15909024279243, 40.528587053511444]]}}, {"type": "Feature", "properties": {"segment_id": 809675, "physicalid": "56864", "street_name": "STRAWBERRY LN", "borough": "staten_island", "direction": "TW", "total_row_ft": 52.1, "roadbed_ft": 38.4, "median_ft": 0.0, "left_sw_ft": 7.0, "right_sw_ft": 6.7}, "geometry": {"type": "LineString", "coordinates": [[-74.15889579515405, 40.5285970691553], [-74.15906494597837, 40.52853543683121]]}}, {"type": "Feature", "properties": {"segment_id": 809676, "physicalid": "56864", "street_name": "STRAWBERRY LN", "borough": "staten_island", "direction": "TW", "total_row_ft": 57.5, "roadbed_ft": 37.8, "median_ft": 0.0, "left_sw_ft": 12.7, "right_sw_ft": 7.0}, "geometry": {"type": "LineString", "coordinates": [[-74.15883514579633, 40.52855833360367], [-74.15903826142737, 40.52848432580111]]}}, {"type": "Feature", "properties": {"segment_id": 809677, "physicalid": "56864", "street_name": "STRAWBERRY LN", "borough": "staten_island", "direction": "TW", "total_row_ft": 57.9, "roadbed_ft": 37.6, "median_ft": 0.0, "left_sw_ft": 12.8, "right_sw_ft": 7.4}, "geometry": {"type": "LineString", "coordinates": [[-74.15874372467049, 40.52853081007742], [-74.15900834851851, 40.52843439107741]]}}, {"type": "Feature", "properties": {"segment_id": 809678, "physicalid": "56864", "street_name": "STRAWBERRY LN", "borough": "staten_island", "direction": "TW", "total_row_ft": 53.3, "roadbed_ft": 38.9, "median_ft": 0.0, "left_sw_ft": 7.3, "right_sw_ft": 7.1}, "geometry": {"type": "LineString", "coordinates": [[-74.15880170376406, 40.52844885090493], [-74.15897457977134, 40.52838586129104]]}}, {"type": "Feature", "properties": {"segment_id": 809679, "physicalid": "56864", "street_name": "STRAWBERRY LN", "borough": "staten_island", "direction": "TW", "total_row_ft": 62.6, "roadbed_ft": 47.0, "median_ft": 0.0, "left_sw_ft": 9.1, "right_sw_ft": 6.5}, "geometry": {"type": "LineString", "coordinates": [[-74.15874000214988, 40.528410498773695], [-74.15894335813557, 40.528336403436775]]}}, {"type": "Feature", "properties": {"segment_id": 809680, "physicalid": "56864", "street_name": "STRAWBERRY LN", "borough": "staten_island", "direction": "TW", "total_row_ft": 114.9, "roadbed_ft": 93.0, "median_ft": 0.0, "left_sw_ft": 15.0, "right_sw_ft": 7.0}, "geometry": {"type": "LineString", "coordinates": [[-74.15861463526399, 40.52839534374903], [-74.15893904665256, 40.52827714049695]]}}, {"type": "Feature", "properties": {"segment_id": 811211, "physicalid": "56971", "street_name": "WOODS OF ARDEN RD", "borough": "staten_island", "direction": "TW", "total_row_ft": 51.6, "roadbed_ft": 28.4, "median_ft": 0.0, "left_sw_ft": 8.2, "right_sw_ft": 15.0}, "geometry": {"type": "LineString", "coordinates": [[-74.15777243724119, 40.53004216157052], [-74.15799737664518, 40.52988681763173]]}}, {"type": "Feature", "properties": {"segment_id": 811212, "physicalid": "56971", "street_name": "WOODS OF ARDEN RD", "borough": "staten_island", "direction": "TW", "total_row_ft": 57.2, "roadbed_ft": 27.2, "median_ft": 0.0, "left_sw_ft": 15.0, "right_sw_ft": 15.0}, "geometry": {"type": "LineString", "coordinates": [[-74.15762904805682, 40.53006714377632], [-74.15794909793836, 40.52984611666918]]}}, {"type": "Feature", "properties": {"segment_id": 811213, "physicalid": "56971", "street_name": "WOODS OF ARDEN RD", "borough": "staten_island", "direction": "TW", "total_row_ft": 57.0, "roadbed_ft": 27.0, "median_ft": 0.0, "left_sw_ft": 15.0, "right_sw_ft": 15.0}, "geometry": {"type": "LineString", "coordinates": [[-74.15758076944402, 40.53002644265948], [-74.15790081929029, 40.52980541568615]]}}, {"type": "Feature", "properties": {"segment_id": 811214, "physicalid": "56971", "street_name": "WOODS OF ARDEN RD", "borough": "staten_island", "direction": "TW", "total_row_ft": 57.0, "roadbed_ft": 27.0, "median_ft": 0.0, "left_sw_ft": 15.0, "right_sw_ft": 15.0}, "geometry": {"type": "LineString", "coordinates": [[-74.15753249089002, 40.52998574152212], [-74.15785254070104, 40.52976471468273]]}}, {"type": "Feature", "properties": {"segment_id": 811215, "physicalid": "56971", "street_name": "WOODS OF ARDEN RD", "borough": "staten_island", "direction": "TW", "total_row_ft": 57.1, "roadbed_ft": 27.1, "median_ft": 0.0, "left_sw_ft": 15.0, "right_sw_ft": 15.0}, "geometry": {"type": "LineString", "coordinates": [[-74.1574842123948, 40.52994504036437], [-74.15780426217057, 40.529724013658864]]}}, {"type": "Feature", "properties": {"segment_id": 811216, "physicalid": "56971", "street_name": "WOODS OF ARDEN RD", "borough": "staten_island", "direction": "TW", "total_row_ft": 56.0, "roadbed_ft": 26.0, "median_ft": 0.0, "left_sw_ft": 15.0, "right_sw_ft": 15.0}, "geometry": {"type": "LineString", "coordinates": [[-74.15743593395838, 40.52990433918618], [-74.15775598369892, 40.52968331261457]]}}, {"type": "Feature", "properties": {"segment_id": 811217, "physicalid": "56972", "street_name": "WOODS OF ARDEN RD", "borough": "staten_island", "direction": "TW", "total_row_ft": 103.2, "roadbed_ft": 73.2, "median_ft": 0.0, "left_sw_ft": 15.0, "right_sw_ft": 15.0}, "geometry": {"type": "LineString", "coordinates": [[-74.15733920818882, 40.52981800066912], [-74.15767839713503, 40.52961426883952]]}}, {"type": "Feature", "properties": {"segment_id": 811218, "physicalid": "56972", "street_name": "WOODS OF ARDEN RD", "borough": "staten_island", "direction": "TW", "total_row_ft": 48.9, "roadbed_ft": 18.9, "median_ft": 0.0, "left_sw_ft": 15.0, "right_sw_ft": 15.0}, "geometry": {"type": "LineString", "coordinates": [[-74.157294707545, 40.529774865466734], [-74.15763389640792, 40.52957113376789]]}}, {"type": "Feature", "properties": {"segment_id": 811219, "physicalid": "56972", "street_name": "WOODS OF ARDEN RD", "borough": "staten_island", "direction": "TW", "total_row_ft": 48.9, "roadbed_ft": 18.9, "median_ft": 0.0, "left_sw_ft": 15.0, "right_sw_ft": 15.0}, "geometry": {"type": "LineString", "coordinates": [[-74.15725020695857, 40.52973173024691], [-74.15758939573827, 40.52952799867893]]}}, {"type": "Feature", "properties": {"segment_id": 1261801, "physicalid": "86641", "street_name": "BLUEBERRY LN", "borough": "staten_island", "direction": "TW", "total_row_ft": 57.7, "roadbed_ft": 44.7, "median_ft": 0.0, "left_sw_ft": 6.2, "right_sw_ft": 6.8}, "geometry": {"type": "LineString", "coordinates": [[-74.16003385358005, 40.52843070986312], [-74.15991057563734, 40.52830329739573]]}}, {"type": "Feature", "properties": {"segment_id": 1261802, "physicalid": "86641", "street_name": "BLUEBERRY LN", "borough": "staten_island", "direction": "TW", "total_row_ft": 66.7, "roadbed_ft": 44.3, "median_ft": 0.0, "left_sw_ft": 15.3, "right_sw_ft": 7.0}, "geometry": {"type": "LineString", "coordinates": [[-74.16000099133367, 40.528489171251806], [-74.15985355066822, 40.52833678562829]]}}, {"type": "Feature", "properties": {"segment_id": 1261803, "physicalid": "86641", "street_name": "BLUEBERRY LN", "borough": "staten_island", "direction": "TW", "total_row_ft": 63.1, "roadbed_ft": 43.8, "median_ft": 0.0, "left_sw_ft": 11.9, "right_sw_ft": 7.3}, "geometry": {"type": "LineString", "coordinates": [[-74.15998868701428, 40.52856888002957], [-74.15979652564195, 40.52837027383246]]}}, {"type": "Feature", "properties": {"segment_id": 1261804, "physicalid": "86641", "street_name": "BLUEBERRY LN", "borough": "staten_island", "direction": "TW", "total_row_ft": 57.6, "roadbed_ft": 43.3, "median_ft": 0.0, "left_sw_ft": 6.7, "right_sw_ft": 7.6}, "geometry": {"type": "LineString", "coordinates": [[-74.15986260448743, 40.5285309949539], [-74.15973950055853, 40.5284037620082]]}}, {"type": "Feature", "properties": {"segment_id": 1261805, "physicalid": "86641", "street_name": "BLUEBERRY LN", "borough": "staten_island", "direction": "TW", "total_row_ft": 57.6, "roadbed_ft": 43.3, "median_ft": 0.0, "left_sw_ft": 6.9, "right_sw_ft": 7.4}, "geometry": {"type": "LineString", "coordinates": [[-74.15980552140228, 40.52856442332252], [-74.15968247547444, 40.52843725021384]]}}, {"type": "Feature", "properties": {"segment_id": 1261806, "physicalid": "86641", "street_name": "BLUEBERRY LN", "borough": "staten_island", "direction": "TW", "total_row_ft": 58.1, "roadbed_ft": 43.4, "median_ft": 0.0, "left_sw_ft": 7.1, "right_sw_ft": 7.7}, "geometry": {"type": "LineString", "coordinates": [[-74.15974843826008, 40.528597851662674], [-74.15962424844055, 40.52846949618075]]}}, {"type": "Feature", "properties": {"segment_id": 1261807, "physicalid": "86641", "street_name": "BLUEBERRY LN", "borough": "staten_island", "direction": "TW", "total_row_ft": 58.0, "roadbed_ft": 44.6, "median_ft": 0.0, "left_sw_ft": 7.1, "right_sw_ft": 6.3}, "geometry": {"type": "LineString", "coordinates": [[-74.15971018201503, 40.52862025478809], [-74.15954991978487, 40.528518181157615]]}}, {"type": "Feature", "properties": {"segment_id": 1261808, "physicalid": "86641", "street_name": "BLUEBERRY LN", "borough": "staten_island", "direction": "TW", "total_row_ft": 58.1, "roadbed_ft": 44.2, "median_ft": 0.0, "left_sw_ft": 6.2, "right_sw_ft": 7.7}, "geometry": {"type": "LineString", "coordinates": [[-74.15967966908447, 40.52865409546829], [-74.15949655746036, 40.52857717408602]]}}, {"type": "Feature", "properties": {"segment_id": 1261809, "physicalid": "86641", "street_name": "BLUEBERRY LN", "borough": "staten_island", "direction": "TW", "total_row_ft": 59.3, "roadbed_ft": 44.7, "median_ft": 0.0, "left_sw_ft": 5.7, "right_sw_ft": 9.0}, "geometry": {"type": "LineString", "coordinates": [[-74.15965774944856, 40.528690854705765], [-74.15945415081468, 40.52864192057004]]}}, {"type": "Feature", "properties": {"segment_id": 1261810, "physicalid": "86641", "street_name": "BLUEBERRY LN", "borough": "staten_island", "direction": "TW", "total_row_ft": 61.1, "roadbed_ft": 44.2, "median_ft": 0.0, "left_sw_ft": 6.0, "right_sw_ft": 10.9}, "geometry": {"type": "LineString", "coordinates": [[-74.159638138979, 40.52874369658384], [-74.1594284213038, 40.52869329175444]]}}, {"type": "Feature", "properties": {"segment_id": 1261811, "physicalid": "86641", "street_name": "BLUEBERRY LN", "borough": "staten_island", "direction": "TW", "total_row_ft": 56.0, "roadbed_ft": 45.1, "median_ft": 0.0, "left_sw_ft": 5.2, "right_sw_ft": 5.6}, "geometry": {"type": "LineString", "coordinates": [[-74.15962527388196, 40.52878252653337], [-74.15942498144109, 40.52876640283086]]}}, {"type": "Feature", "properties": {"segment_id": 1261812, "physicalid": "86641", "street_name": "BLUEBERRY LN", "borough": "staten_island", "direction": "TW", "total_row_ft": 54.4, "roadbed_ft": 44.8, "median_ft": 0.0, "left_sw_ft": 4.2, "right_sw_ft": 5.4}, "geometry": {"type": "LineString", "coordinates": [[-74.15961661900819, 40.52882349118101], [-74.15942159973201, 40.52883735343744]]}}, {"type": "Feature", "properties": {"segment_id": 1261813, "physicalid": "86641", "street_name": "BLUEBERRY LN", "borough": "staten_island", "direction": "TW", "total_row_ft": 55.3, "roadbed_ft": 44.7, "median_ft": 0.0, "left_sw_ft": 5.0, "right_sw_ft": 5.7}, "geometry": {"type": "LineString", "coordinates": [[-74.15962741665471, 40.528877857633475], [-74.15942942749969, 40.52889193099791]]}}, {"type": "Feature", "properties": {"segment_id": 1261814, "physicalid": "86641", "street_name": "BLUEBERRY LN", "borough": "staten_island", "direction": "TW", "total_row_ft": 55.9, "roadbed_ft": 44.1, "median_ft": 0.0, "left_sw_ft": 5.3, "right_sw_ft": 6.4}, "geometry": {"type": "LineString", "coordinates": [[-74.15964549296409, 40.52891700861552], [-74.15945270812291, 40.52896015337073]]}}, {"type": "Feature", "properties": {"segment_id": 1261815, "physicalid": "86641", "street_name": "BLUEBERRY LN", "borough": "staten_island", "direction": "TW", "total_row_ft": 56.5, "roadbed_ft": 43.4, "median_ft": 0.0, "left_sw_ft": 5.5, "right_sw_ft": 7.7}, "geometry": {"type": "LineString", "coordinates": [[-74.15966233850997, 40.528942052715784], [-74.1595007519042, 40.52903625745744]]}}, {"type": "Feature", "properties": {"segment_id": 1261816, "physicalid": "86641", "street_name": "BLUEBERRY LN", "borough": "staten_island", "direction": "TW", "total_row_ft": 56.3, "roadbed_ft": 42.9, "median_ft": 0.0, "left_sw_ft": 6.0, "right_sw_ft": 7.5}, "geometry": {"type": "LineString", "coordinates": [[-74.15970578901454, 40.52898580703304], [-74.15954485257488, 40.52907963276459]]}}, {"type": "Feature", "properties": {"segment_id": 1261817, "physicalid": "86641", "street_name": "BLUEBERRY LN", "borough": "staten_island", "direction": "TW", "total_row_ft": 56.6, "roadbed_ft": 43.3, "median_ft": 0.0, "left_sw_ft": 5.8, "right_sw_ft": 7.5}, "geometry": {"type": "LineString", "coordinates": [[-74.15975100912216, 40.52902852968749], [-74.15958933253111, 40.529122786965544]]}}, {"type": "Feature", "properties": {"segment_id": 1261818, "physicalid": "86641", "street_name": "BLUEBERRY LN", "borough": "staten_island", "direction": "TW", "total_row_ft": 56.6, "roadbed_ft": 43.8, "median_ft": 0.0, "left_sw_ft": 5.6, "right_sw_ft": 7.3}, "geometry": {"type": "LineString", "coordinates": [[-74.15979628500483, 40.52907121984083], [-74.15963439214727, 40.52916560324222]]}}, {"type": "Feature", "properties": {"segment_id": 1261819, "physicalid": "86641", "street_name": "BLUEBERRY LN", "borough": "staten_island", "direction": "TW", "total_row_ft": 57.3, "roadbed_ft": 44.1, "median_ft": 0.0, "left_sw_ft": 6.2, "right_sw_ft": 7.1}, "geometry": {"type": "LineString", "coordinates": [[-74.15984330862797, 40.52911289107551], [-74.15967945182113, 40.529208419501074]]}}, {"type": "Feature", "properties": {"segment_id": 1261820, "physicalid": "86641", "street_name": "BLUEBERRY LN", "borough": "staten_island", "direction": "TW", "total_row_ft": 58.0, "roadbed_ft": 44.1, "median_ft": 0.0, "left_sw_ft": 6.9, "right_sw_ft": 7.0}, "geometry": {"type": "LineString", "coordinates": [[-74.15989033230974, 40.52915456229082], [-74.15972451155275, 40.529251235742116]]}}, {"type": "Feature", "properties": {"segment_id": 1261821, "physicalid": "86641", "street_name": "BLUEBERRY LN", "borough": "staten_island", "direction": "TW", "total_row_ft": 58.7, "roadbed_ft": 44.1, "median_ft": 0.0, "left_sw_ft": 7.6, "right_sw_ft": 7.0}, "geometry": {"type": "LineString", "coordinates": [[-74.15993735605014, 40.52919623348672], [-74.1597695713421, 40.52929405196529]]}}, {"type": "Feature", "properties": {"segment_id": 1261822, "physicalid": "86641", "street_name": "BLUEBERRY LN", "borough": "staten_island", "direction": "TW", "total_row_ft": 59.4, "roadbed_ft": 44.8, "median_ft": 0.0, "left_sw_ft": 7.6, "right_sw_ft": 6.9}, "geometry": {"type": "LineString", "coordinates": [[-74.15998437984915, 40.529237904663184], [-74.15981463118918, 40.52933686817068]]}}, {"type": "Feature", "properties": {"segment_id": 1261823, "physicalid": "86641", "street_name": "BLUEBERRY LN", "borough": "staten_island", "direction": "TW", "total_row_ft": 135.0, "roadbed_ft": 87.4, "median_ft": 0.0, "left_sw_ft": 32.6, "right_sw_ft": 15.0}, "geometry": {"type": "LineString", "coordinates": [[-74.16011053871256, 40.52923343988528], [-74.15976753151162, 40.529433413210306]]}}, {"type": "Feature", "properties": {"segment_id": 1396548, "physicalid": "94747", "street_name": "MAYBERRY PROM", "borough": "staten_island", "direction": "TW", "total_row_ft": 80.7, "roadbed_ft": 63.5, "median_ft": 0.0, "left_sw_ft": 8.0, "right_sw_ft": 9.3}, "geometry": {"type": "LineString", "coordinates": [[-74.1587278909393, 40.528175018496924], [-74.15893952792595, 40.52832674268582]]}}, {"type": "Feature", "properties": {"segment_id": 1396549, "physicalid": "94747", "street_name": "MAYBERRY PROM", "borough": "staten_island", "direction": "TW", "total_row_ft": 62.5, "roadbed_ft": 48.7, "median_ft": 0.0, "left_sw_ft": 7.6, "right_sw_ft": 6.2}, "geometry": {"type": "LineString", "coordinates": [[-74.15878255652078, 40.5281388841778], [-74.15894631365452, 40.52825628294225]]}}, {"type": "Feature", "properties": {"segment_id": 1396550, "physicalid": "94747", "street_name": "MAYBERRY PROM", "borough": "staten_island", "direction": "TW", "total_row_ft": 58.0, "roadbed_ft": 44.7, "median_ft": 0.0, "left_sw_ft": 7.9, "right_sw_ft": 5.4}, "geometry": {"type": "LineString", "coordinates": [[-74.15883281503483, 40.52809959040728], [-74.15898482319825, 40.52820856620402]]}}, {"type": "Feature", "properties": {"segment_id": 1396551, "physicalid": "94747", "street_name": "MAYBERRY PROM", "borough": "staten_island", "direction": "TW", "total_row_ft": 58.0, "roadbed_ft": 44.6, "median_ft": 0.0, "left_sw_ft": 7.3, "right_sw_ft": 6.1}, "geometry": {"type": "LineString", "coordinates": [[-74.15888790057471, 40.52805492443493], [-74.15902774386805, 40.52817316616915]]}}, {"type": "Feature", "properties": {"segment_id": 1396552, "physicalid": "94747", "street_name": "MAYBERRY PROM", "borough": "staten_island", "direction": "TW", "total_row_ft": 58.1, "roadbed_ft": 44.0, "median_ft": 0.0, "left_sw_ft": 7.5, "right_sw_ft": 6.6}, "geometry": {"type": "LineString", "coordinates": [[-74.15893675440397, 40.52801429319486], [-74.15907685712457, 40.528132754221666]]}}, {"type": "Feature", "properties": {"segment_id": 1396553, "physicalid": "94747", "street_name": "MAYBERRY PROM", "borough": "staten_island", "direction": "TW", "total_row_ft": 57.7, "roadbed_ft": 44.0, "median_ft": 0.0, "left_sw_ft": 7.4, "right_sw_ft": 6.4}, "geometry": {"type": "LineString", "coordinates": [[-74.1589868201266, 40.527974686678085], [-74.15912597032174, 40.52809234225304]]}}, {"type": "Feature", "properties": {"segment_id": 1396554, "physicalid": "94747", "street_name": "MAYBERRY PROM", "borough": "staten_island", "direction": "TW", "total_row_ft": 58.0, "roadbed_ft": 44.1, "median_ft": 0.0, "left_sw_ft": 6.7, "right_sw_ft": 7.2}, "geometry": {"type": "LineString", "coordinates": [[-74.15904606868014, 40.527931438404586], [-74.15917261890978, 40.52805810963259]]}}, {"type": "Feature", "properties": {"segment_id": 1396555, "physicalid": "94747", "street_name": "MAYBERRY PROM", "borough": "staten_island", "direction": "TW", "total_row_ft": 57.6, "roadbed_ft": 43.1, "median_ft": 0.0, "left_sw_ft": 7.1, "right_sw_ft": 7.4}, "geometry": {"type": "LineString", "coordinates": [[-74.15910011227405, 40.52789498340802], [-74.15922565104187, 40.52802064211768]]}}, {"type": "Feature", "properties": {"segment_id": 1396556, "physicalid": "94747", "street_name": "MAYBERRY PROM", "borough": "staten_island", "direction": "TW", "total_row_ft": 57.6, "roadbed_ft": 42.7, "median_ft": 0.0, "left_sw_ft": 7.5, "right_sw_ft": 7.4}, "geometry": {"type": "LineString", "coordinates": [[-74.15915568337095, 40.527860057409896], [-74.15928130563582, 40.52798579959675]]}}, {"type": "Feature", "properties": {"segment_id": 1396557, "physicalid": "94747", "street_name": "MAYBERRY PROM", "borough": "staten_island", "direction": "TW", "total_row_ft": 58.2, "roadbed_ft": 42.9, "median_ft": 0.0, "left_sw_ft": 8.0, "right_sw_ft": 7.2}, "geometry": {"type": "LineString", "coordinates": [[-74.15922169438457, 40.527821674300235], [-74.15933425376136, 40.527956228258795]]}}, {"type": "Feature", "properties": {"segment_id": 1396558, "physicalid": "94747", "street_name": "MAYBERRY PROM", "borough": "staten_island", "direction": "TW", "total_row_ft": 58.2, "roadbed_ft": 43.2, "median_ft": 0.0, "left_sw_ft": 8.2, "right_sw_ft": 6.8}, "geometry": {"type": "LineString", "coordinates": [[-74.15928196456908, 40.52779169303213], [-74.15939456540514, 40.52792629640761]]}}, {"type": "Feature", "properties": {"segment_id": 1396559, "physicalid": "94747", "street_name": "MAYBERRY PROM", "borough": "staten_island", "direction": "TW", "total_row_ft": 57.9, "roadbed_ft": 43.2, "median_ft": 0.0, "left_sw_ft": 8.1, "right_sw_ft": 6.6}, "geometry": {"type": "LineString", "coordinates": [[-74.15934494424455, 40.52776495073475], [-74.15945706968837, 40.52789898566774]]}}, {"type": "Feature", "properties": {"segment_id": 1396560, "physicalid": "94747", "street_name": "MAYBERRY PROM", "borough": "staten_island", "direction": "TW", "total_row_ft": 57.4, "roadbed_ft": 43.1, "median_ft": 0.0, "left_sw_ft": 7.4, "right_sw_ft": 7.0}, "geometry": {"type": "LineString", "coordinates": [[-74.15942002860588, 40.52773835216884], [-74.159516351542, 40.5278778359404]]}}, {"type": "Feature", "properties": {"segment_id": 1396561, "physicalid": "94747", "street_name": "MAYBERRY PROM", "borough": "staten_island", "direction": "TW", "total_row_ft": 57.9, "roadbed_ft": 43.6, "median_ft": 0.0, "left_sw_ft": 6.8, "right_sw_ft": 7.5}, "geometry": {"type": "LineString", "coordinates": [[-74.15948701216246, 40.52771759170779], [-74.15958415289565, 40.52785825949905]]}}, {"type": "Feature", "properties": {"segment_id": 1396562, "physicalid": "94747", "street_name": "MAYBERRY PROM", "borough": "staten_island", "direction": "TW", "total_row_ft": 58.0, "roadbed_ft": 44.2, "median_ft": 0.0, "left_sw_ft": 6.8, "right_sw_ft": 7.0}, "geometry": {"type": "LineString", "coordinates": [[-74.15955468645403, 40.52769783150994], [-74.15965196602727, 40.527838700130516]]}}, {"type": "Feature", "properties": {"segment_id": 1396563, "physicalid": "94747", "street_name": "MAYBERRY PROM", "borough": "staten_island", "direction": "TW", "total_row_ft": 58.6, "roadbed_ft": 44.2, "median_ft": 0.0, "left_sw_ft": 6.8, "right_sw_ft": 7.6}, "geometry": {"type": "LineString", "coordinates": [[-74.15963157747245, 40.52767853467688], [-74.15971403417839, 40.52782649252818]]}}, {"type": "Feature", "properties": {"segment_id": 1396564, "physicalid": "94747", "street_name": "MAYBERRY PROM", "borough": "staten_island", "direction": "TW", "total_row_ft": 59.2, "roadbed_ft": 44.5, "median_ft": 0.0, "left_sw_ft": 6.9, "right_sw_ft": 7.9}, "geometry": {"type": "LineString", "coordinates": [[-74.15970150706184, 40.527663734251824], [-74.15978490259954, 40.52781337641229]]}}, {"type": "Feature", "properties": {"segment_id": 1396565, "physicalid": "94747", "street_name": "MAYBERRY PROM", "borough": "staten_island", "direction": "TW", "total_row_ft": 59.0, "roadbed_ft": 43.9, "median_ft": 0.0, "left_sw_ft": 7.1, "right_sw_ft": 8.0}, "geometry": {"type": "LineString", "coordinates": [[-74.15977273354707, 40.5276512609472], [-74.15985577099288, 40.52780026025265]]}}, {"type": "Feature", "properties": {"segment_id": 1396566, "physicalid": "94747", "street_name": "MAYBERRY PROM", "borough": "staten_island", "direction": "TW", "total_row_ft": 59.4, "roadbed_ft": 43.1, "median_ft": 0.0, "left_sw_ft": 8.4, "right_sw_ft": 7.9}, "geometry": {"type": "LineString", "coordinates": [[-74.15984754002388, 40.527634702950905], [-74.15991465094457, 40.52778936284907]]}}, {"type": "Feature", "properties": {"segment_id": 1396567, "physicalid": "94747", "street_name": "MAYBERRY PROM", "borough": "staten_island", "direction": "TW", "total_row_ft": 58.9, "roadbed_ft": 42.5, "median_ft": 0.0, "left_sw_ft": 8.6, "right_sw_ft": 7.8}, "geometry": {"type": "LineString", "coordinates": [[-74.1599182275236, 40.52762295753817], [-74.15998480142595, 40.52777637947053]]}}, {"type": "Feature", "properties": {"segment_id": 1396569, "physicalid": "94748", "street_name": "MAYBERRY PROM", "borough": "staten_island", "direction": "TW", "total_row_ft": 101.2, "roadbed_ft": 79.5, "median_ft": 0.0, "left_sw_ft": 6.8, "right_sw_ft": 15.0}, "geometry": {"type": "LineString", "coordinates": [[-74.1579036156627, 40.52949942182139], [-74.15813977532888, 40.52934596392809]]}}, {"type": "Feature", "properties": {"segment_id": 1396570, "physicalid": "94748", "street_name": "MAYBERRY PROM", "borough": "staten_island", "direction": "TW", "total_row_ft": 52.4, "roadbed_ft": 38.6, "median_ft": 0.0, "left_sw_ft": 7.0, "right_sw_ft": 6.7}, "geometry": {"type": "LineString", "coordinates": [[-74.15785573774849, 40.52945842774119], [-74.15799924085933, 40.52936517879205]]}}, {"type": "Feature", "properties": {"segment_id": 1396571, "physicalid": "94748", "street_name": "MAYBERRY PROM", "borough": "staten_island", "direction": "TW", "total_row_ft": 52.4, "roadbed_ft": 38.7, "median_ft": 0.0, "left_sw_ft": 7.0, "right_sw_ft": 6.7}, "geometry": {"type": "LineString", "coordinates": [[-74.15780850735948, 40.52941701291554], [-74.15795208428565, 40.529323716044566]]}}, {"type": "Feature", "properties": {"segment_id": 1396572, "physicalid": "94748", "street_name": "MAYBERRY PROM", "borough": "staten_island", "direction": "TW", "total_row_ft": 52.3, "roadbed_ft": 38.7, "median_ft": 0.0, "left_sw_ft": 6.9, "right_sw_ft": 6.7}, "geometry": {"type": "LineString", "coordinates": [[-74.15776164847908, 40.52937535670123], [-74.15790492777049, 40.52928225327757]]}}, {"type": "Feature", "properties": {"segment_id": 1396573, "physicalid": "94748", "street_name": "MAYBERRY PROM", "borough": "staten_island", "direction": "TW", "total_row_ft": 52.1, "roadbed_ft": 38.7, "median_ft": 0.0, "left_sw_ft": 6.7, "right_sw_ft": 6.7}, "geometry": {"type": "LineString", "coordinates": [[-74.15771473788455, 40.529333734109585], [-74.15785753343758, 40.52924094506424]]}}, {"type": "Feature", "properties": {"segment_id": 1396574, "physicalid": "94748", "street_name": "MAYBERRY PROM", "borough": "staten_island", "direction": "TW", "total_row_ft": 51.9, "roadbed_ft": 38.3, "median_ft": 0.0, "left_sw_ft": 6.6, "right_sw_ft": 7.0}, "geometry": {"type": "LineString", "coordinates": [[-74.15766794098643, 40.529292037656454], [-74.15781009123484, 40.52919966797534]]}}, {"type": "Feature", "properties": {"segment_id": 1396575, "physicalid": "94748", "street_name": "MAYBERRY PROM", "borough": "staten_island", "direction": "TW", "total_row_ft": 51.6, "roadbed_ft": 37.9, "median_ft": 0.0, "left_sw_ft": 6.4, "right_sw_ft": 7.4}, "geometry": {"type": "LineString", "coordinates": [[-74.15762121476277, 40.52925029529769], [-74.15776264905426, 40.529158390890366]]}}, {"type": "Feature", "properties": {"segment_id": 1396576, "physicalid": "94748", "street_name": "MAYBERRY PROM", "borough": "staten_island", "direction": "TW", "total_row_ft": 51.4, "roadbed_ft": 37.9, "median_ft": 0.0, "left_sw_ft": 6.2, "right_sw_ft": 7.2}, "geometry": {"type": "LineString", "coordinates": [[-74.1575744745122, 40.52920856207241], [-74.15771521642739, 40.529117107615726]]}}, {"type": "Feature", "properties": {"segment_id": 1396577, "physicalid": "94748", "street_name": "MAYBERRY PROM", "borough": "staten_island", "direction": "TW", "total_row_ft": 51.3, "roadbed_ft": 38.0, "median_ft": 0.0, "left_sw_ft": 6.3, "right_sw_ft": 7.0}, "geometry": {"type": "LineString", "coordinates": [[-74.15752718477069, 40.529167185925544], [-74.15766781683976, 40.52907580289036]]}}, {"type": "Feature", "properties": {"segment_id": 1396578, "physicalid": "94748", "street_name": "MAYBERRY PROM", "borough": "staten_island", "direction": "TW", "total_row_ft": 52.8, "roadbed_ft": 38.9, "median_ft": 0.0, "left_sw_ft": 6.3, "right_sw_ft": 7.5}, "geometry": {"type": "LineString", "coordinates": [[-74.15747989505789, 40.52912580977845], [-74.15762440279642, 40.52903190836284]]}}, {"type": "Feature", "properties": {"segment_id": 1396579, "physicalid": "94748", "street_name": "MAYBERRY PROM", "borough": "staten_island", "direction": "TW", "total_row_ft": 102.9, "roadbed_ft": 81.5, "median_ft": 0.0, "left_sw_ft": 6.4, "right_sw_ft": 15.0}, "geometry": {"type": "LineString", "coordinates": [[-74.15743260521182, 40.5290844337364], [-74.1576733157534, 40.52892801937435]]}}, {"type": "Feature", "properties": {"segment_id": 1396580, "physicalid": "94748", "street_name": "MAYBERRY PROM", "borough": "staten_island", "direction": "TW", "total_row_ft": 123.7, "roadbed_ft": 101.3, "median_ft": 0.0, "left_sw_ft": 7.4, "right_sw_ft": 15.0}, "geometry": {"type": "LineString", "coordinates": [[-74.15736596601519, 40.528886067340146], [-74.15759806783294, 40.52912621720753]]}}, {"type": "Feature", "properties": {"segment_id": 1396581, "physicalid": "94748", "street_name": "MAYBERRY PROM", "borough": "staten_island", "direction": "TW", "total_row_ft": 108.8, "roadbed_ft": 74.6, "median_ft": 0.0, "left_sw_ft": 7.4, "right_sw_ft": 26.8}, "geometry": {"type": "LineString", "coordinates": [[-74.15742360671032, 40.52885321471068], [-74.15765596997106, 40.529093634872865]]}}, {"type": "Feature", "properties": {"segment_id": 1396582, "physicalid": "94748", "street_name": "MAYBERRY PROM", "borough": "staten_island", "direction": "TW", "total_row_ft": 78.2, "roadbed_ft": 65.1, "median_ft": 0.0, "left_sw_ft": 7.0, "right_sw_ft": 6.1}, "geometry": {"type": "LineString", "coordinates": [[-74.15749043415794, 40.52882986743575], [-74.15765743991727, 40.52900266391554]]}}, {"type": "Feature", "properties": {"segment_id": 1396583, "physicalid": "94748", "street_name": "MAYBERRY PROM", "borough": "staten_island", "direction": "TW", "total_row_ft": 73.8, "roadbed_ft": 61.0, "median_ft": 0.0, "left_sw_ft": 7.1, "right_sw_ft": 5.7}, "geometry": {"type": "LineString", "coordinates": [[-74.15755613557192, 40.528805355090306], [-74.1577137014867, 40.52896838424493]]}}, {"type": "Feature", "properties": {"segment_id": 1396584, "physicalid": "94748", "street_name": "MAYBERRY PROM", "borough": "staten_island", "direction": "TW", "total_row_ft": 70.0, "roadbed_ft": 57.1, "median_ft": 0.0, "left_sw_ft": 7.4, "right_sw_ft": 5.4}, "geometry": {"type": "LineString", "coordinates": [[-74.15762089285944, 40.52877986589324], [-74.15777029010798, 40.528934442996686]]}}, {"type": "Feature", "properties": {"segment_id": 1396585, "physicalid": "94748", "street_name": "MAYBERRY PROM", "borough": "staten_island", "direction": "TW", "total_row_ft": 65.6, "roadbed_ft": 53.5, "median_ft": 0.0, "left_sw_ft": 6.6, "right_sw_ft": 5.5}, "geometry": {"type": "LineString", "coordinates": [[-74.1576874482181, 40.52875623712729], [-74.15782743148706, 40.52890107370057]]}}, {"type": "Feature", "properties": {"segment_id": 1396586, "physicalid": "94748", "street_name": "MAYBERRY PROM", "borough": "staten_island", "direction": "TW", "total_row_ft": 62.1, "roadbed_ft": 49.8, "median_ft": 0.0, "left_sw_ft": 6.7, "right_sw_ft": 5.6}, "geometry": {"type": "LineString", "coordinates": [[-74.15775191811099, 40.52873045059791], [-74.15788457280911, 40.528867704375934]]}}, {"type": "Feature", "properties": {"segment_id": 1396587, "physicalid": "94748", "street_name": "MAYBERRY PROM", "borough": "staten_island", "direction": "TW", "total_row_ft": 59.9, "roadbed_ft": 46.0, "median_ft": 0.0, "left_sw_ft": 8.1, "right_sw_ft": 5.7}, "geometry": {"type": "LineString", "coordinates": [[-74.1578140526427, 40.528702247752975], [-74.15794183637628, 40.52883446156471]]}}, {"type": "Feature", "properties": {"segment_id": 1396588, "physicalid": "94748", "street_name": "MAYBERRY PROM", "borough": "staten_island", "direction": "TW", "total_row_ft": 58.8, "roadbed_ft": 44.3, "median_ft": 0.0, "left_sw_ft": 8.5, "right_sw_ft": 5.9}, "geometry": {"type": "LineString", "coordinates": [[-74.15787376045995, 40.52867153407965], [-74.15799926527545, 40.528801389847]]}}, {"type": "Feature", "properties": {"segment_id": 1396589, "physicalid": "94748", "street_name": "MAYBERRY PROM", "borough": "staten_island", "direction": "TW", "total_row_ft": 58.2, "roadbed_ft": 44.3, "median_ft": 0.0, "left_sw_ft": 7.9, "right_sw_ft": 6.0}, "geometry": {"type": "LineString", "coordinates": [[-74.15793249264844, 40.52863981097892], [-74.15805666803091, 40.528768291109316]]}}, {"type": "Feature", "properties": {"segment_id": 1396590, "physicalid": "94748", "street_name": "MAYBERRY PROM", "borough": "staten_island", "direction": "TW", "total_row_ft": 57.6, "roadbed_ft": 44.2, "median_ft": 0.0, "left_sw_ft": 7.4, "right_sw_ft": 6.1}, "geometry": {"type": "LineString", "coordinates": [[-74.15799086273238, 40.52860771324766], [-74.15811390100677, 40.52873501673696]]}}, {"type": "Feature", "properties": {"segment_id": 1396591, "physicalid": "94748", "street_name": "MAYBERRY PROM", "borough": "staten_island", "direction": "TW", "total_row_ft": 57.3, "roadbed_ft": 44.1, "median_ft": 0.0, "left_sw_ft": 7.0, "right_sw_ft": 6.1}, "geometry": {"type": "LineString", "coordinates": [[-74.15804887631514, 40.52857524668457], [-74.15817113392563, 40.52870174233599]]}}, {"type": "Feature", "properties": {"segment_id": 1396592, "physicalid": "94748", "street_name": "MAYBERRY PROM", "borough": "staten_island", "direction": "TW", "total_row_ft": 57.0, "roadbed_ft": 44.0, "median_ft": 0.0, "left_sw_ft": 6.9, "right_sw_ft": 6.2}, "geometry": {"type": "LineString", "coordinates": [[-74.15810658968975, 40.52854246953508], [-74.15822836678751, 40.528668467906385]]}}, {"type": "Feature", "properties": {"segment_id": 1396593, "physicalid": "94748", "street_name": "MAYBERRY PROM", "borough": "staten_island", "direction": "TW", "total_row_ft": 56.9, "roadbed_ft": 43.9, "median_ft": 0.0, "left_sw_ft": 6.9, "right_sw_ft": 6.1}, "geometry": {"type": "LineString", "coordinates": [[-74.15816400290593, 40.52850938185146], [-74.1582854230377, 40.528635010773954]]}}, {"type": "Feature", "properties": {"segment_id": 1396594, "physicalid": "94748", "street_name": "MAYBERRY PROM", "borough": "staten_island", "direction": "TW", "total_row_ft": 56.8, "roadbed_ft": 43.7, "median_ft": 0.0, "left_sw_ft": 7.1, "right_sw_ft": 6.0}, "geometry": {"type": "LineString", "coordinates": [[-74.15822111914805, 40.52847598692934], [-74.15834247820382, 40.528601552550555]]}}, {"type": "Feature", "properties": {"segment_id": 1396595, "physicalid": "94748", "street_name": "MAYBERRY PROM", "borough": "staten_island", "direction": "TW", "total_row_ft": 56.8, "roadbed_ft": 43.6, "median_ft": 0.0, "left_sw_ft": 7.2, "right_sw_ft": 6.0}, "geometry": {"type": "LineString", "coordinates": [[-74.15827829133886, 40.52844264992584], [-74.15839953331283, 40.52856809429871]]}}, {"type": "Feature", "properties": {"segment_id": 1396596, "physicalid": "94748", "street_name": "MAYBERRY PROM", "borough": "staten_island", "direction": "TW", "total_row_ft": 56.8, "roadbed_ft": 43.5, "median_ft": 0.0, "left_sw_ft": 7.3, "right_sw_ft": 5.9}, "geometry": {"type": "LineString", "coordinates": [[-74.15833546305547, 40.52840931246216], [-74.15845666305802, 40.528534713300424]]}}, {"type": "Feature", "properties": {"segment_id": 1396597, "physicalid": "94748", "street_name": "MAYBERRY PROM", "borough": "staten_island", "direction": "TW", "total_row_ft": 57.0, "roadbed_ft": 43.5, "median_ft": 0.0, "left_sw_ft": 7.4, "right_sw_ft": 6.1}, "geometry": {"type": "LineString", "coordinates": [[-74.15839263471324, 40.52837597496803], [-74.15851428879024, 40.528501845509155]]}}, {"type": "Feature", "properties": {"segment_id": 1396598, "physicalid": "94748", "street_name": "MAYBERRY PROM", "borough": "staten_island", "direction": "TW", "total_row_ft": 61.3, "roadbed_ft": 43.5, "median_ft": 0.0, "left_sw_ft": 7.4, "right_sw_ft": 10.3}, "geometry": {"type": "LineString", "coordinates": [[-74.15844980627887, 40.52834263740903], [-74.1585806048085, 40.52847796920305]]}}, {"type": "Feature", "properties": {"segment_id": 1396599, "physicalid": "94748", "street_name": "MAYBERRY PROM", "borough": "staten_island", "direction": "TW", "total_row_ft": 59.2, "roadbed_ft": 43.5, "median_ft": 0.0, "left_sw_ft": 7.5, "right_sw_ft": 8.2}, "geometry": {"type": "LineString", "coordinates": [[-74.15850697778748, 40.52830929982146], [-74.15869819880429, 40.528507147840905]]}}, {"type": "Feature", "properties": {"segment_id": 1396600, "physicalid": "94748", "street_name": "MAYBERRY PROM", "borough": "staten_island", "direction": "TW", "total_row_ft": 60.5, "roadbed_ft": 46.1, "median_ft": 0.0, "left_sw_ft": 7.2, "right_sw_ft": 7.2}, "geometry": {"type": "LineString", "coordinates": [[-74.1585642527725, 40.528276069327205], [-74.15869347312089, 40.52840976801512]]}}, {"type": "Feature", "properties": {"segment_id": 1396601, "physicalid": "94748", "street_name": "MAYBERRY PROM", "borough": "staten_island", "direction": "TW", "total_row_ft": 90.4, "roadbed_ft": 65.1, "median_ft": 0.0, "left_sw_ft": 7.2, "right_sw_ft": 18.1}, "geometry": {"type": "LineString", "coordinates": [[-74.15862095773625, 40.52824224908589], [-74.15881400087896, 40.528441982029435]]}}, {"type": "Feature", "properties": {"segment_id": 1396602, "physicalid": "94749", "street_name": "MAYBERRY PROM", "borough": "staten_island", "direction": "TW", "total_row_ft": 105.0, "roadbed_ft": 82.4, "median_ft": 0.0, "left_sw_ft": 7.5, "right_sw_ft": 15.0}, "geometry": {"type": "LineString", "coordinates": [[-74.15998318066184, 40.52946365209758], [-74.15982471901646, 40.529248365376304]]}}, {"type": "Feature", "properties": {"segment_id": 1396603, "physicalid": "94749", "street_name": "MAYBERRY PROM", "borough": "staten_island", "direction": "TW", "total_row_ft": 69.6, "roadbed_ft": 38.3, "median_ft": 0.0, "left_sw_ft": 7.8, "right_sw_ft": 23.5}, "geometry": {"type": "LineString", "coordinates": [[-74.15992032197113, 40.52949035754526], [-74.15976199033513, 40.5292752471808]]}}, {"type": "Feature", "properties": {"segment_id": 1396604, "physicalid": "94749", "street_name": "MAYBERRY PROM", "borough": "staten_island", "direction": "TW", "total_row_ft": 53.1, "roadbed_ft": 38.1, "median_ft": 0.0, "left_sw_ft": 7.7, "right_sw_ft": 7.3}, "geometry": {"type": "LineString", "coordinates": [[-74.15985696309411, 40.52951638347207], [-74.15976334767602, 40.52938919699997]]}}, {"type": "Feature", "properties": {"segment_id": 1396605, "physicalid": "94749", "street_name": "MAYBERRY PROM", "borough": "staten_island", "direction": "TW", "total_row_ft": 52.8, "roadbed_ft": 37.9, "median_ft": 0.0, "left_sw_ft": 7.7, "right_sw_ft": 7.3}, "geometry": {"type": "LineString", "coordinates": [[-74.15979360416775, 40.52954240936384], [-74.15970051045944, 40.52941593152662]]}}, {"type": "Feature", "properties": {"segment_id": 1396606, "physicalid": "94749", "street_name": "MAYBERRY PROM", "borough": "staten_island", "direction": "TW", "total_row_ft": 52.6, "roadbed_ft": 37.8, "median_ft": 0.0, "left_sw_ft": 7.6, "right_sw_ft": 7.1}, "geometry": {"type": "LineString", "coordinates": [[-74.15973024519207, 40.52956843522064], [-74.15963767318357, 40.52944266600656]]}}, {"type": "Feature", "properties": {"segment_id": 1396607, "physicalid": "94749", "street_name": "MAYBERRY PROM", "borough": "staten_island", "direction": "TW", "total_row_ft": 52.3, "roadbed_ft": 38.1, "median_ft": 0.0, "left_sw_ft": 7.2, "right_sw_ft": 7.0}, "geometry": {"type": "LineString", "coordinates": [[-74.15966688616702, 40.52959446104238], [-74.1595748358324, 40.529469400418044]]}}, {"type": "Feature", "properties": {"segment_id": 1396608, "physicalid": "94749", "street_name": "MAYBERRY PROM", "borough": "staten_island", "direction": "TW", "total_row_ft": 52.1, "roadbed_ft": 38.3, "median_ft": 0.0, "left_sw_ft": 7.0, "right_sw_ft": 6.8}, "geometry": {"type": "LineString", "coordinates": [[-74.1596037565911, 40.52962079862803], [-74.15951199843097, 40.529496134795075]]}}, {"type": "Feature", "properties": {"segment_id": 1396609, "physicalid": "94749", "street_name": "MAYBERRY PROM", "borough": "staten_island", "direction": "TW", "total_row_ft": 52.0, "roadbed_ft": 38.3, "median_ft": 0.0, "left_sw_ft": 7.0, "right_sw_ft": 6.7}, "geometry": {"type": "LineString", "coordinates": [[-74.15954079378224, 40.52964736281825], [-74.15944916097929, 40.52952286913766]]}}, {"type": "Feature", "properties": {"segment_id": 1396610, "physicalid": "94749", "street_name": "MAYBERRY PROM", "borough": "staten_island", "direction": "TW", "total_row_ft": 51.9, "roadbed_ft": 38.3, "median_ft": 0.0, "left_sw_ft": 7.1, "right_sw_ft": 6.5}, "geometry": {"type": "LineString", "coordinates": [[-74.15947783092334, 40.52967392697388], [-74.15938632347732, 40.52954960344578]]}}, {"type": "Feature", "properties": {"segment_id": 1396611, "physicalid": "94749", "street_name": "MAYBERRY PROM", "borough": "staten_island", "direction": "TW", "total_row_ft": 51.9, "roadbed_ft": 38.4, "median_ft": 0.0, "left_sw_ft": 7.2, "right_sw_ft": 6.4}, "geometry": {"type": "LineString", "coordinates": [[-74.1594148680144, 40.52970049109489], [-74.15932348592509, 40.52957633771947]]}}, {"type": "Feature", "properties": {"segment_id": 1396612, "physicalid": "94749", "street_name": "MAYBERRY PROM", "borough": "staten_island", "direction": "TW", "total_row_ft": 51.8, "roadbed_ft": 38.4, "median_ft": 0.0, "left_sw_ft": 7.2, "right_sw_ft": 6.2}, "geometry": {"type": "LineString", "coordinates": [[-74.1593519050554, 40.52972705518132], [-74.15926064832259, 40.529603071958704]]}}, {"type": "Feature", "properties": {"segment_id": 1396613, "physicalid": "94749", "street_name": "MAYBERRY PROM", "borough": "staten_island", "direction": "TW", "total_row_ft": 51.7, "roadbed_ft": 38.4, "median_ft": 0.0, "left_sw_ft": 7.3, "right_sw_ft": 6.0}, "geometry": {"type": "LineString", "coordinates": [[-74.15928894204636, 40.52975361923318], [-74.15919781066981, 40.52962980616349]]}}, {"type": "Feature", "properties": {"segment_id": 1396614, "physicalid": "94749", "street_name": "MAYBERRY PROM", "borough": "staten_island", "direction": "TW", "total_row_ft": 51.9, "roadbed_ft": 38.4, "median_ft": 0.0, "left_sw_ft": 7.4, "right_sw_ft": 6.1}, "geometry": {"type": "LineString", "coordinates": [[-74.15922597898727, 40.529780183250466], [-74.15913456759087, 40.52965598957942]]}}, {"type": "Feature", "properties": {"segment_id": 1396615, "physicalid": "94749", "street_name": "MAYBERRY PROM", "borough": "staten_island", "direction": "TW", "total_row_ft": 52.2, "roadbed_ft": 38.4, "median_ft": 0.0, "left_sw_ft": 7.4, "right_sw_ft": 6.4}, "geometry": {"type": "LineString", "coordinates": [[-74.15916282874313, 40.52980649298737], [-74.15907092227984, 40.52968162654389]]}}, {"type": "Feature", "properties": {"segment_id": 1396616, "physicalid": "94749", "street_name": "MAYBERRY PROM", "borough": "staten_island", "direction": "TW", "total_row_ft": 51.3, "roadbed_ft": 38.8, "median_ft": 0.0, "left_sw_ft": 5.7, "right_sw_ft": 6.7}, "geometry": {"type": "LineString", "coordinates": [[-74.1590977905191, 40.52983023770198], [-74.15900750650914, 40.529707575399776]]}}, {"type": "Feature", "properties": {"segment_id": 1396617, "physicalid": "94749", "street_name": "MAYBERRY PROM", "borough": "staten_island", "direction": "TW", "total_row_ft": 52.0, "roadbed_ft": 38.7, "median_ft": 0.0, "left_sw_ft": 6.3, "right_sw_ft": 6.9}, "geometry": {"type": "LineString", "coordinates": [[-74.1590358740575, 40.529858223749955], [-74.15894435784558, 40.529733887187696]]}}, {"type": "Feature", "properties": {"segment_id": 1396618, "physicalid": "94749", "street_name": "MAYBERRY PROM", "borough": "staten_island", "direction": "TW", "total_row_ft": 51.5, "roadbed_ft": 38.6, "median_ft": 0.0, "left_sw_ft": 5.9, "right_sw_ft": 7.0}, "geometry": {"type": "LineString", "coordinates": [[-74.1589721451351, 40.52988374737569], [-74.15888141819845, 40.5297604829851]]}}, {"type": "Feature", "properties": {"segment_id": 1396619, "physicalid": "94749", "street_name": "MAYBERRY PROM", "borough": "staten_island", "direction": "TW", "total_row_ft": 50.9, "roadbed_ft": 38.5, "median_ft": 0.0, "left_sw_ft": 5.5, "right_sw_ft": 6.9}, "geometry": {"type": "LineString", "coordinates": [[-74.15890841616402, 40.52990927096599], [-74.15881868779137, 40.52978736309691]]}}, {"type": "Feature", "properties": {"segment_id": 1396620, "physicalid": "94749", "street_name": "MAYBERRY PROM", "borough": "staten_island", "direction": "TW", "total_row_ft": 50.1, "roadbed_ft": 38.4, "median_ft": 0.0, "left_sw_ft": 5.1, "right_sw_ft": 6.6}, "geometry": {"type": "LineString", "coordinates": [[-74.15884468714428, 40.52993479452086], [-74.1587563786987, 40.52981481565623]]}}, {"type": "Feature", "properties": {"segment_id": 1396621, "physicalid": "94749", "street_name": "MAYBERRY PROM", "borough": "staten_island", "direction": "TW", "total_row_ft": 52.9, "roadbed_ft": 40.0, "median_ft": 0.0, "left_sw_ft": 6.4, "right_sw_ft": 6.6}, "geometry": {"type": "LineString", "coordinates": [[-74.15877976928643, 40.5299587029116], [-74.1586866362792, 40.52983216904453]]}}, {"type": "Feature", "properties": {"segment_id": 1396622, "physicalid": "94749", "street_name": "MAYBERRY PROM", "borough": "staten_island", "direction": "TW", "total_row_ft": 66.0, "roadbed_ft": 48.0, "median_ft": 0.0, "left_sw_ft": 6.5, "right_sw_ft": 11.5}, "geometry": {"type": "LineString", "coordinates": [[-74.15870462762494, 40.52996872090794], [-74.15858838913692, 40.529810794720625]]}}, {"type": "Feature", "properties": {"segment_id": 1396623, "physicalid": "94749", "street_name": "MAYBERRY PROM", "borough": "staten_island", "direction": "TW", "total_row_ft": 75.8, "roadbed_ft": 51.5, "median_ft": 0.0, "left_sw_ft": 7.1, "right_sw_ft": 17.3}, "geometry": {"type": "LineString", "coordinates": [[-74.15857823648967, 40.52996018876132], [-74.15876716200503, 40.52980998884793]]}}, {"type": "Feature", "properties": {"segment_id": 1396624, "physicalid": "94749", "street_name": "MAYBERRY PROM", "borough": "staten_island", "direction": "TW", "total_row_ft": 54.1, "roadbed_ft": 41.6, "median_ft": 0.0, "left_sw_ft": 5.8, "right_sw_ft": 6.6}, "geometry": {"type": "LineString", "coordinates": [[-74.15850777055033, 40.529936931136355], [-74.15864248588231, 40.5298298297395]]}}, {"type": "Feature", "properties": {"segment_id": 1396625, "physicalid": "94749", "street_name": "MAYBERRY PROM", "borough": "staten_island", "direction": "TW", "total_row_ft": 52.5, "roadbed_ft": 39.6, "median_ft": 0.0, "left_sw_ft": 6.6, "right_sw_ft": 6.3}, "geometry": {"type": "LineString", "coordinates": [[-74.15844359577486, 40.52990867192281], [-74.15857434824927, 40.52980472119282]]}}, {"type": "Feature", "properties": {"segment_id": 1396626, "physicalid": "94749", "street_name": "MAYBERRY PROM", "borough": "staten_island", "direction": "TW", "total_row_ft": 52.2, "roadbed_ft": 39.0, "median_ft": 0.0, "left_sw_ft": 6.5, "right_sw_ft": 6.7}, "geometry": {"type": "LineString", "coordinates": [[-74.1583841293519, 40.52987666949786], [-74.15851406910363, 40.529773364990135]]}}, {"type": "Feature", "properties": {"segment_id": 1396627, "physicalid": "94749", "street_name": "MAYBERRY PROM", "borough": "staten_island", "direction": "TW", "total_row_ft": 52.7, "roadbed_ft": 38.5, "median_ft": 0.0, "left_sw_ft": 6.8, "right_sw_ft": 7.4}, "geometry": {"type": "LineString", "coordinates": [[-74.15832595141474, 40.529843642720444], [-74.15845716298327, 40.52973932717938]]}}, {"type": "Feature", "properties": {"segment_id": 1396628, "physicalid": "94749", "street_name": "MAYBERRY PROM", "borough": "staten_island", "direction": "TW", "total_row_ft": 52.6, "roadbed_ft": 38.1, "median_ft": 0.0, "left_sw_ft": 7.0, "right_sw_ft": 7.5}, "geometry": {"type": "LineString", "coordinates": [[-74.15827048920842, 40.529808456911276], [-74.15840151827169, 40.529704286542355]]}}, {"type": "Feature", "properties": {"segment_id": 1396629, "physicalid": "94749", "street_name": "MAYBERRY PROM", "borough": "staten_island", "direction": "TW", "total_row_ft": 52.2, "roadbed_ft": 37.9, "median_ft": 0.0, "left_sw_ft": 7.0, "right_sw_ft": 7.3}, "geometry": {"type": "LineString", "coordinates": [[-74.15821779238782, 40.52977107259868], [-74.15834769741124, 40.529667795929235]]}}, {"type": "Feature", "properties": {"segment_id": 1396630, "physicalid": "94749", "street_name": "MAYBERRY PROM", "borough": "staten_island", "direction": "TW", "total_row_ft": 51.3, "roadbed_ft": 38.2, "median_ft": 0.0, "left_sw_ft": 6.3, "right_sw_ft": 6.9}, "geometry": {"type": "LineString", "coordinates": [[-74.15816937029764, 40.529730289836024], [-74.15829716965158, 40.52962868726292]]}}, {"type": "Feature", "properties": {"segment_id": 1396631, "physicalid": "94749", "street_name": "MAYBERRY PROM", "borough": "staten_island", "direction": "TW", "total_row_ft": 51.3, "roadbed_ft": 38.3, "median_ft": 0.0, "left_sw_ft": 6.2, "right_sw_ft": 6.8}, "geometry": {"type": "LineString", "coordinates": [[-74.1581217176702, 40.52968889536603], [-74.15824959968714, 40.52958722712177]]}}, {"type": "Feature", "properties": {"segment_id": 1396632, "physicalid": "94749", "street_name": "MAYBERRY PROM", "borough": "staten_island", "direction": "TW", "total_row_ft": 51.5, "roadbed_ft": 38.3, "median_ft": 0.0, "left_sw_ft": 6.0, "right_sw_ft": 7.1}, "geometry": {"type": "LineString", "coordinates": [[-74.15807483665144, 40.52964688748345], [-74.15820310180943, 40.52954491468006]]}}, {"type": "Feature", "properties": {"segment_id": 1396633, "physicalid": "94749", "street_name": "MAYBERRY PROM", "borough": "staten_island", "direction": "TW", "total_row_ft": 81.7, "roadbed_ft": 38.8, "median_ft": 0.0, "left_sw_ft": 5.5, "right_sw_ft": 37.3}, "geometry": {"type": "LineString", "coordinates": [[-74.15802872993926, 40.52960426404428], [-74.1582321309972, 40.529442556882465]]}}, {"type": "Feature", "properties": {"segment_id": 1396634, "physicalid": "94750", "street_name": "MAYBERRY PROM", "borough": "staten_island", "direction": "TW", "total_row_ft": 104.2, "roadbed_ft": 81.9, "median_ft": 0.0, "left_sw_ft": 7.4, "right_sw_ft": 15.0}, "geometry": {"type": "LineString", "coordinates": [[-74.1600914896915, 40.5294076587854], [-74.1599024948748, 40.52920970825416]]}}, {"type": "Feature", "properties": {"segment_id": 1645929, "physicalid": "163452", "street_name": "WAKEFIELD RD", "borough": "staten_island", "direction": "TW", "total_row_ft": 62.5, "roadbed_ft": 32.5, "median_ft": 0.0, "left_sw_ft": 15.0, "right_sw_ft": 15.0}, "geometry": {"type": "LineString", "coordinates": [[-74.15762245736289, 40.529906806776815], [-74.15737370230262, 40.52963761729525]]}}, {"type": "Feature", "properties": {"segment_id": 1645930, "physicalid": "163452", "street_name": "WAKEFIELD RD", "borough": "staten_island", "direction": "TW", "total_row_ft": 60.3, "roadbed_ft": 30.3, "median_ft": 0.0, "left_sw_ft": 15.0, "right_sw_ft": 15.0}, "geometry": {"type": "LineString", "coordinates": [[-74.15756365873479, 40.52993844132414], [-74.15731490379358, 40.52966925171581]]}}, {"type": "Feature", "properties": {"segment_id": 1645931, "physicalid": "163452", "street_name": "WAKEFIELD RD", "borough": "staten_island", "direction": "TW", "total_row_ft": 60.0, "roadbed_ft": 30.0, "median_ft": 0.0, "left_sw_ft": 15.0, "right_sw_ft": 15.0}, "geometry": {"type": "LineString", "coordinates": [[-74.15750486005103, 40.52997007584125], [-74.15725610522887, 40.52970088610621]]}}, {"type": "Feature", "properties": {"segment_id": 1645932, "physicalid": "163452", "street_name": "WAKEFIELD RD", "borough": "staten_island", "direction": "TW", "total_row_ft": 59.6, "roadbed_ft": 29.6, "median_ft": 0.0, "left_sw_ft": 15.0, "right_sw_ft": 15.0}, "geometry": {"type": "LineString", "coordinates": [[-74.15744606131159, 40.53000171032821], [-74.15719730660852, 40.52973252046637]]}}, {"type": "Feature", "properties": {"segment_id": 1645933, "physicalid": "163452", "street_name": "WAKEFIELD RD", "borough": "staten_island", "direction": "TW", "total_row_ft": 59.2, "roadbed_ft": 29.2, "median_ft": 0.0, "left_sw_ft": 15.0, "right_sw_ft": 15.0}, "geometry": {"type": "LineString", "coordinates": [[-74.15738726251648, 40.53003334478497], [-74.15713850793252, 40.52976415479636]]}}, {"type": "Feature", "properties": {"segment_id": 1645934, "physicalid": "163452", "street_name": "WAKEFIELD RD", "borough": "staten_island", "direction": "TW", "total_row_ft": 58.8, "roadbed_ft": 28.8, "median_ft": 0.0, "left_sw_ft": 15.0, "right_sw_ft": 15.0}, "geometry": {"type": "LineString", "coordinates": [[-74.15732846366575, 40.53006497921151], [-74.15707970920086, 40.52979578909619]]}}, {"type": "Feature", "properties": {"segment_id": 1645935, "physicalid": "163452", "street_name": "WAKEFIELD RD", "borough": "staten_island", "direction": "TW", "total_row_ft": 58.9, "roadbed_ft": 28.9, "median_ft": 0.0, "left_sw_ft": 15.0, "right_sw_ft": 15.0}, "geometry": {"type": "LineString", "coordinates": [[-74.15726966475934, 40.53009661360788], [-74.15702091041352, 40.52982742336579]]}}, {"type": "Feature", "properties": {"segment_id": 1645936, "physicalid": "163452", "street_name": "WAKEFIELD RD", "borough": "staten_island", "direction": "TW", "total_row_ft": 59.2, "roadbed_ft": 29.2, "median_ft": 0.0, "left_sw_ft": 15.0, "right_sw_ft": 15.0}, "geometry": {"type": "LineString", "coordinates": [[-74.15721086579728, 40.53012824797405], [-74.15696211157054, 40.52985905760521]]}}]}