{"type": "FeatureCollection", "features": [{"type": "Feature", "properties": {"segment_id": 487541, "physicalid": "35073", "street_name": "TOMPKINS CT", "borough": "staten_island", "direction": "TW", "total_row_ft": 77.5, "roadbed_ft": 46.2, "median_ft": 0.0, "left_sw_ft": 16.0, "right_sw_ft": 15.3}, "geometry": {"type": "LineString", "coordinates": [[-74.12055881568179, 40.640365981322134], [-74.1208222251649, 40.64029527563904]]}}, {"type": "Feature", "properties": {"segment_id": 487542, "physicalid": "35073", "street_name": "TOMPKINS CT", "borough": "staten_island", "direction": "TW", "total_row_ft": 35.9, "roadbed_ft": 18.0, "median_ft": 0.0, "left_sw_ft": 8.8, "right_sw_ft": 9.0}, "geometry": {"type": "LineString", "coordinates": [[-74.12055541953399, 40.64030868877532], [-74.12067729114618, 40.640275975460696]]}}, {"type": "Feature", "properties": {"segment_id": 487543, "physicalid": "35073", "street_name": "TOMPKINS CT", "borough": "staten_island", "direction": "TW", "total_row_ft": 42.2, "roadbed_ft": 18.5, "median_ft": 0.0, "left_sw_ft": 7.4, "right_sw_ft": 16.3}, "geometry": {"type": "LineString", "coordinates": [[-74.12053052144925, 40.640257167861705], [-74.12073532531846, 40.64020219342042]]}}, {"type": "Feature", "properties": {"segment_id": 487544, "physicalid": "35073", "street_name": "TOMPKINS CT", "borough": "staten_island", "direction": "TW", "total_row_ft": 32.5, "roadbed_ft": 19.0, "median_ft": 0.0, "left_sw_ft": 6.6, "right_sw_ft": 6.9}, "geometry": {"type": "LineString", "coordinates": [[-74.12050645730979, 40.640205423102074], [-74.12076533971042, 40.64013593257141]]}}, {"type": "Feature", "properties": {"segment_id": 487545, "physicalid": "35073", "street_name": "TOMPKINS CT", "borough": "staten_island", "direction": "TW", "total_row_ft": 30.4, "roadbed_ft": 19.3, "median_ft": 0.0, "left_sw_ft": 6.1, "right_sw_ft": 5.0}, "geometry": {"type": "LineString", "coordinates": [[-74.1204823931771, 40.64015367834531], [-74.12058569379884, 40.64012594995698]]}}, {"type": "Feature", "properties": {"segment_id": 487546, "physicalid": "35073", "street_name": "TOMPKINS CT", "borough": "staten_island", "direction": "TW", "total_row_ft": 30.2, "roadbed_ft": 19.5, "median_ft": 0.0, "left_sw_ft": 5.6, "right_sw_ft": 5.0}, "geometry": {"type": "LineString", "coordinates": [[-74.12045832872424, 40.64010193367919], [-74.12056079898217, 40.64007442818369]]}}, {"type": "Feature", "properties": {"segment_id": 487547, "physicalid": "35073", "street_name": "TOMPKINS CT", "borough": "staten_island", "direction": "TW", "total_row_ft": 29.8, "roadbed_ft": 19.7, "median_ft": 0.0, "left_sw_ft": 5.2, "right_sw_ft": 4.9}, "geometry": {"type": "LineString", "coordinates": [[-74.12043426416402, 40.640050189046576], [-74.1205355239456, 40.64002300847544]]}}, {"type": "Feature", "properties": {"segment_id": 1226088, "physicalid": "84606", "street_name": "VAN ST", "borough": "staten_island", "direction": "TW", "total_row_ft": 129.2, "roadbed_ft": 75.7, "median_ft": 0.0, "left_sw_ft": 38.6, "right_sw_ft": 15.0}, "geometry": {"type": "LineString", "coordinates": [[-74.11982419124534, 40.640755222592425], [-74.12021300122534, 40.640652238516104]]}}, {"type": "Feature", "properties": {"segment_id": 1226089, "physicalid": "84606", "street_name": "VAN ST", "borough": "staten_island", "direction": "TW", "total_row_ft": 48.1, "roadbed_ft": 30.4, "median_ft": 0.0, "left_sw_ft": 8.7, "right_sw_ft": 9.1}, "geometry": {"type": "LineString", "coordinates": [[-74.11990391090119, 40.640675987836104], [-74.12018933328615, 40.64060038787322]]}}, {"type": "Feature", "properties": {"segment_id": 1609986, "physicalid": "142063", "street_name": "RICHMOND TER", "borough": "staten_island", "direction": "TW", "total_row_ft": 68.7, "roadbed_ft": 42.0, "median_ft": 0.0, "left_sw_ft": 14.8, "right_sw_ft": 11.9}, "geometry": {"type": "LineString", "coordinates": [[-74.12054275479898, 40.64028267283737], [-74.12075093145842, 40.64038473062686]]}}, {"type": "Feature", "properties": {"segment_id": 1609987, "physicalid": "142063", "street_name": "RICHMOND TER", "borough": "staten_island", "direction": "TW", "total_row_ft": 51.9, "roadbed_ft": 28.1, "median_ft": 0.0, "left_sw_ft": 13.6, "right_sw_ft": 10.1}, "geometry": {"type": "LineString", "coordinates": [[-74.12063163344538, 40.6402609635981], [-74.12078881766193, 40.64033802246002]]}}, {"type": "Feature", "properties": {"segment_id": 1609988, "physicalid": "142063", "street_name": "RICHMOND TER", "borough": "staten_island", "direction": "TW", "total_row_ft": 53.7, "roadbed_ft": 28.3, "median_ft": 0.0, "left_sw_ft": 15.7, "right_sw_ft": 9.8}, "geometry": {"type": "LineString", "coordinates": [[-74.120590272363, 40.64017540469489], [-74.12082571685792, 40.64029083043178]]}}, {"type": "Feature", "properties": {"segment_id": 1609989, "physicalid": "142063", "street_name": "RICHMOND TER", "borough": "staten_island", "direction": "TW", "total_row_ft": 45.1, "roadbed_ft": 28.3, "median_ft": 0.0, "left_sw_ft": 7.1, "right_sw_ft": 9.7}, "geometry": {"type": "LineString", "coordinates": [[-74.12072610636733, 40.64017671520235], [-74.12086281200413, 40.64024373448051]]}}, {"type": "Feature", "properties": {"segment_id": 1609990, "physicalid": "142063", "street_name": "RICHMOND TER", "borough": "staten_island", "direction": "TW", "total_row_ft": 44.7, "roadbed_ft": 28.4, "median_ft": 0.0, "left_sw_ft": 7.0, "right_sw_ft": 9.3}, "geometry": {"type": "LineString", "coordinates": [[-74.12076472792009, 40.64013036759414], [-74.12090008917708, 40.640196727780186]]}}, {"type": "Feature", "properties": {"segment_id": 1609991, "physicalid": "142063", "street_name": "RICHMOND TER", "borough": "staten_island", "direction": "TW", "total_row_ft": 44.1, "roadbed_ft": 28.7, "median_ft": 0.0, "left_sw_ft": 6.7, "right_sw_ft": 8.8}, "geometry": {"type": "LineString", "coordinates": [[-74.12080334941922, 40.64008401997272], [-74.12093706154891, 40.640149571666406]]}}, {"type": "Feature", "properties": {"segment_id": 1609992, "physicalid": "142063", "street_name": "RICHMOND TER", "borough": "staten_island", "direction": "TW", "total_row_ft": 43.6, "roadbed_ft": 28.1, "median_ft": 0.0, "left_sw_ft": 7.1, "right_sw_ft": 8.3}, "geometry": {"type": "LineString", "coordinates": [[-74.12084197086466, 40.6400376723381], [-74.12097399856917, 40.6401023982352]]}}, {"type": "Feature", "properties": {"segment_id": 1609993, "physicalid": "142063", "street_name": "RICHMOND TER", "borough": "staten_island", "direction": "TW", "total_row_ft": 42.6, "roadbed_ft": 28.4, "median_ft": 0.0, "left_sw_ft": 6.6, "right_sw_ft": 7.5}, "geometry": {"type": "LineString", "coordinates": [[-74.12088241048896, 40.63999221607098], [-74.12101134061314, 40.64005542337782]]}}, {"type": "Feature", "properties": {"segment_id": 1610020, "physicalid": "142065", "street_name": "RICHMOND TER", "borough": "staten_island", "direction": "TW", "total_row_ft": 96.6, "roadbed_ft": 73.2, "median_ft": 0.0, "left_sw_ft": 15.0, "right_sw_ft": 8.4}, "geometry": {"type": "LineString", "coordinates": [[-74.1199630961166, 40.64058248519608], [-74.12011260055239, 40.64077521259596]]}}, {"type": "Feature", "properties": {"segment_id": 1610021, "physicalid": "142065", "street_name": "RICHMOND TER", "borough": "staten_island", "direction": "TW", "total_row_ft": 45.5, "roadbed_ft": 27.1, "median_ft": 0.0, "left_sw_ft": 9.7, "right_sw_ft": 8.7}, "geometry": {"type": "LineString", "coordinates": [[-74.12002513846467, 40.64055455794552], [-74.12017409795783, 40.64074658262818]]}}, {"type": "Feature", "properties": {"segment_id": 1610022, "physicalid": "142065", "street_name": "RICHMOND TER", "borough": "staten_island", "direction": "TW", "total_row_ft": 43.6, "roadbed_ft": 26.4, "median_ft": 0.0, "left_sw_ft": 8.3, "right_sw_ft": 8.9}, "geometry": {"type": "LineString", "coordinates": [[-74.12015564930039, 40.64061489397167], [-74.12023559531049, 40.64071795262742]]}}, {"type": "Feature", "properties": {"segment_id": 1610023, "physicalid": "142065", "street_name": "RICHMOND TER", "borough": "staten_island", "direction": "TW", "total_row_ft": 43.3, "roadbed_ft": 25.8, "median_ft": 0.0, "left_sw_ft": 8.3, "right_sw_ft": 9.2}, "geometry": {"type": "LineString", "coordinates": [[-74.12021780575472, 40.64058711377722], [-74.12029709261037, 40.640689322593694]]}}, {"type": "Feature", "properties": {"segment_id": 1610024, "physicalid": "142065", "street_name": "RICHMOND TER", "borough": "staten_island", "direction": "TW", "total_row_ft": 43.2, "roadbed_ft": 25.4, "median_ft": 0.0, "left_sw_ft": 8.3, "right_sw_ft": 9.4}, "geometry": {"type": "LineString", "coordinates": [[-74.12027946650058, 40.64055869459677], [-74.12035858985749, 40.64066069252698]]}}, {"type": "Feature", "properties": {"segment_id": 1610025, "physicalid": "142065", "street_name": "RICHMOND TER", "borough": "staten_island", "direction": "TW", "total_row_ft": 44.2, "roadbed_ft": 24.3, "median_ft": 0.0, "left_sw_ft": 10.0, "right_sw_ft": 9.9}, "geometry": {"type": "LineString", "coordinates": [[-74.12033018581289, 40.64053005168882], [-74.12042517756025, 40.640627548556296]]}}, {"type": "Feature", "properties": {"segment_id": 1610026, "physicalid": "142065", "street_name": "RICHMOND TER", "borough": "staten_island", "direction": "TW", "total_row_ft": 44.9, "roadbed_ft": 26.0, "median_ft": 0.0, "left_sw_ft": 8.7, "right_sw_ft": 10.2}, "geometry": {"type": "LineString", "coordinates": [[-74.12038757773435, 40.64049684637463], [-74.12048398953064, 40.64059580065191]]}}, {"type": "Feature", "properties": {"segment_id": 1610027, "physicalid": "142065", "street_name": "RICHMOND TER", "borough": "staten_island", "direction": "TW", "total_row_ft": 46.2, "roadbed_ft": 27.9, "median_ft": 0.0, "left_sw_ft": 8.1, "right_sw_ft": 10.2}, "geometry": {"type": "LineString", "coordinates": [[-74.1204358316548, 40.640464448787725], [-74.12054627388962, 40.64055939454229]]}}, {"type": "Feature", "properties": {"segment_id": 1610028, "physicalid": "142065", "street_name": "RICHMOND TER", "borough": "staten_island", "direction": "TW", "total_row_ft": 47.4, "roadbed_ft": 28.2, "median_ft": 0.0, "left_sw_ft": 8.5, "right_sw_ft": 10.7}, "geometry": {"type": "LineString", "coordinates": [[-74.12048113229409, 40.6404298122731], [-74.12060507764093, 40.640519393670886]]}}, {"type": "Feature", "properties": {"segment_id": 1610029, "physicalid": "142065", "street_name": "RICHMOND TER", "borough": "staten_island", "direction": "TW", "total_row_ft": 47.7, "roadbed_ft": 27.3, "median_ft": 0.0, "left_sw_ft": 8.9, "right_sw_ft": 11.5}, "geometry": {"type": "LineString", "coordinates": [[-74.12052510670304, 40.6403942187074], [-74.12065951473853, 40.64047575773982]]}}]}