{"type": "FeatureCollection", "features": [{"type": "Feature", "properties": {"segment_id": 1268785, "physicalid": "87023", "street_name": "TARLTON ST", "borough": "staten_island", "direction": "TW", "total_row_ft": 56.0, "roadbed_ft": 26.0, "median_ft": 0.0, "left_sw_ft": 15.0, "right_sw_ft": 15.0}, "geometry": {"type": "LineString", "coordinates": [[-74.11248528833171, 40.55008189160796], [-74.11282064512045, 40.54987440375152]]}}, {"type": "Feature", "properties": {"segment_id": 1268786, "physicalid": "87023", "street_name": "TARLTON ST", "borough": "staten_island", "direction": "TW", "total_row_ft": 69.8, "roadbed_ft": 39.8, "median_ft": 0.0, "left_sw_ft": 15.0, "right_sw_ft": 15.0}, "geometry": {"type": "LineString", "coordinates": [[-74.11243995344572, 40.550039256742934], [-74.11277531016124, 40.54983176901814]]}}, {"type": "Feature", "properties": {"segment_id": 1268787, "physicalid": "87023", "street_name": "TARLTON ST", "borough": "staten_island", "direction": "TW", "total_row_ft": 97.6, "roadbed_ft": 67.6, "median_ft": 0.0, "left_sw_ft": 15.0, "right_sw_ft": 15.0}, "geometry": {"type": "LineString", "coordinates": [[-74.11239461861756, 40.549996621859876], [-74.1127299752599, 40.54978913426672]]}}]}