{"type": "FeatureCollection", "features": [{"type": "Feature", "properties": {"segment_id": 1581402, "physicalid": "123590", "street_name": "BUFFALO ST", "borough": "staten_island", "direction": "TW", "total_row_ft": 65.5, "roadbed_ft": 36.3, "median_ft": 0.0, "left_sw_ft": 14.2, "right_sw_ft": 15.0}, "geometry": {"type": "LineString", "coordinates": [[-74.12988765846022, 40.53850354680057], [-74.13021852982962, 40.53858597922746]]}}, {"type": "Feature", "properties": {"segment_id": 1581403, "physicalid": "123590", "street_name": "BUFFALO ST", "borough": "staten_island", "direction": "TW", "total_row_ft": 76.4, "roadbed_ft": 48.0, "median_ft": 0.0, "left_sw_ft": 13.4, "right_sw_ft": 15.0}, "geometry": {"type": "LineString", "coordinates": [[-74.12990995317793, 40.53847227442473], [-74.13023541871968, 40.538496005038354]]}}, {"type": "Feature", "properties": {"segment_id": 1581404, "physicalid": "123590", "street_name": "BUFFALO ST", "borough": "staten_island", "direction": "TW", "total_row_ft": 75.7, "roadbed_ft": 48.8, "median_ft": 0.0, "left_sw_ft": 11.9, "right_sw_ft": 15.0}, "geometry": {"type": "LineString", "coordinates": [[-74.12993686255702, 40.53841909011441], [-74.13024226408753, 40.53844135777694]]}}, {"type": "Feature", "properties": {"segment_id": 1581405, "physicalid": "123590", "street_name": "BUFFALO ST", "borough": "staten_island", "direction": "TW", "total_row_ft": 51.4, "roadbed_ft": 24.6, "median_ft": 0.0, "left_sw_ft": 11.8, "right_sw_ft": 15.0}, "geometry": {"type": "LineString", "coordinates": [[-74.12995091756649, 40.53836496853749], [-74.13024910944418, 40.538386710514914]]}}, {"type": "Feature", "properties": {"segment_id": 1581406, "physicalid": "123590", "street_name": "BUFFALO ST", "borough": "staten_island", "direction": "TW", "total_row_ft": 51.5, "roadbed_ft": 24.7, "median_ft": 0.0, "left_sw_ft": 11.9, "right_sw_ft": 15.0}, "geometry": {"type": "LineString", "coordinates": [[-74.12995667431247, 40.53831024190069], [-74.13025595478963, 40.538332063252206]]}}, {"type": "Feature", "properties": {"segment_id": 1581407, "physicalid": "123590", "street_name": "BUFFALO ST", "borough": "staten_island", "direction": "TW", "total_row_ft": 51.8, "roadbed_ft": 24.9, "median_ft": 0.0, "left_sw_ft": 11.9, "right_sw_ft": 15.0}, "geometry": {"type": "LineString", "coordinates": [[-74.1299604235102, 40.53825536888556], [-74.13026280012392, 40.53827741598885]]}}, {"type": "Feature", "properties": {"segment_id": 1581408, "physicalid": "123590", "street_name": "BUFFALO ST", "borough": "staten_island", "direction": "TW", "total_row_ft": 51.5, "roadbed_ft": 24.7, "median_ft": 0.0, "left_sw_ft": 11.8, "right_sw_ft": 15.0}, "geometry": {"type": "LineString", "coordinates": [[-74.1299642739997, 40.53820050325609], [-74.13026964544697, 40.53822276872488]]}}, {"type": "Feature", "properties": {"segment_id": 1581409, "physicalid": "123590", "street_name": "BUFFALO ST", "borough": "staten_island", "direction": "TW", "total_row_ft": 51.3, "roadbed_ft": 24.5, "median_ft": 0.0, "left_sw_ft": 11.8, "right_sw_ft": 15.0}, "geometry": {"type": "LineString", "coordinates": [[-74.1299681245249, 40.538145637629356], [-74.13027649075886, 40.53816812146025]]}}, {"type": "Feature", "properties": {"segment_id": 1581410, "physicalid": "123590", "street_name": "BUFFALO ST", "borough": "staten_island", "direction": "TW", "total_row_ft": 99.1, "roadbed_ft": 69.1, "median_ft": 0.0, "left_sw_ft": 15.0, "right_sw_ft": 15.0}, "geometry": {"type": "LineString", "coordinates": [[-74.12985356845189, 40.538082138424485], [-74.13028333605953, 40.53811347419498]]}}, {"type": "Feature", "properties": {"segment_id": 1581411, "physicalid": "123590", "street_name": "BUFFALO ST", "borough": "staten_island", "direction": "TW", "total_row_ft": 87.7, "roadbed_ft": 57.7, "median_ft": 0.0, "left_sw_ft": 15.0, "right_sw_ft": 15.0}, "geometry": {"type": "LineString", "coordinates": [[-74.12986041408959, 40.53802749118406], [-74.13029018134903, 40.538058826929074]]}}, {"type": "Feature", "properties": {"segment_id": 1581412, "physicalid": "123590", "street_name": "BUFFALO ST", "borough": "staten_island", "direction": "TW", "total_row_ft": 48.5, "roadbed_ft": 24.4, "median_ft": 0.0, "left_sw_ft": 9.1, "right_sw_ft": 15.0}, "geometry": {"type": "LineString", "coordinates": [[-74.12999048615421, 40.537981828955544], [-74.13029702662732, 40.53800417966251]]}}, {"type": "Feature", "properties": {"segment_id": 1581413, "physicalid": "123590", "street_name": "BUFFALO ST", "borough": "staten_island", "direction": "TW", "total_row_ft": 49.7, "roadbed_ft": 24.1, "median_ft": 0.0, "left_sw_ft": 10.6, "right_sw_ft": 15.0}, "geometry": {"type": "LineString", "coordinates": [[-74.13000041950811, 40.53792740685344], [-74.13030387189443, 40.537949532395295]]}}, {"type": "Feature", "properties": {"segment_id": 1581414, "physicalid": "123590", "street_name": "BUFFALO ST", "borough": "staten_island", "direction": "TW", "total_row_ft": 51.0, "roadbed_ft": 24.5, "median_ft": 0.0, "left_sw_ft": 11.5, "right_sw_ft": 15.0}, "geometry": {"type": "LineString", "coordinates": [[-74.13001762501406, 40.537873514993244], [-74.13031071715032, 40.53789488512744]]}}, {"type": "Feature", "properties": {"segment_id": 1581415, "physicalid": "123590", "street_name": "BUFFALO ST", "borough": "staten_island", "direction": "TW", "total_row_ft": 52.5, "roadbed_ft": 25.1, "median_ft": 0.0, "left_sw_ft": 12.4, "right_sw_ft": 15.0}, "geometry": {"type": "LineString", "coordinates": [[-74.13004243070634, 40.53782017729115], [-74.13031756239504, 40.537840237858944]]}}, {"type": "Feature", "properties": {"segment_id": 1581416, "physicalid": "123590", "street_name": "BUFFALO ST", "borough": "staten_island", "direction": "TW", "total_row_ft": 51.1, "roadbed_ft": 27.2, "median_ft": 0.0, "left_sw_ft": 8.8, "right_sw_ft": 15.0}, "geometry": {"type": "LineString", "coordinates": [[-74.13009093210398, 40.537746736964294], [-74.13030850182179, 40.53788748425689]]}}, {"type": "Feature", "properties": {"segment_id": 1581417, "physicalid": "123590", "street_name": "BUFFALO ST", "borough": "staten_island", "direction": "TW", "total_row_ft": 103.7, "roadbed_ft": 73.7, "median_ft": 0.0, "left_sw_ft": 15.0, "right_sw_ft": 15.0}, "geometry": {"type": "LineString", "coordinates": [[-74.13002575116127, 40.53763259657165], [-74.13035503629852, 40.53784561360546]]}}, {"type": "Feature", "properties": {"segment_id": 1581418, "physicalid": "123590", "street_name": "BUFFALO ST", "borough": "staten_island", "direction": "TW", "total_row_ft": 81.8, "roadbed_ft": 51.8, "median_ft": 0.0, "left_sw_ft": 15.0, "right_sw_ft": 15.0}, "geometry": {"type": "LineString", "coordinates": [[-74.13007228563767, 40.53759072603397], [-74.13040157071694, 40.53780374293504]]}}, {"type": "Feature", "properties": {"segment_id": 1581419, "physicalid": "123590", "street_name": "BUFFALO ST", "borough": "staten_island", "direction": "TW", "total_row_ft": 49.3, "roadbed_ft": 28.2, "median_ft": 0.0, "left_sw_ft": 6.1, "right_sw_ft": 15.0}, "geometry": {"type": "LineString", "coordinates": [[-74.13022478835748, 40.53761740735964], [-74.13044810507705, 40.53776187224563]]}}, {"type": "Feature", "properties": {"segment_id": 1581420, "physicalid": "123590", "street_name": "BUFFALO ST", "borough": "staten_island", "direction": "TW", "total_row_ft": 49.2, "roadbed_ft": 22.3, "median_ft": 0.0, "left_sw_ft": 11.9, "right_sw_ft": 15.0}, "geometry": {"type": "LineString", "coordinates": [[-74.13027195827843, 40.53757594790287], [-74.13049463937885, 40.5377200015372]]}}, {"type": "Feature", "properties": {"segment_id": 1581421, "physicalid": "123590", "street_name": "BUFFALO ST", "borough": "staten_island", "direction": "TW", "total_row_ft": 49.1, "roadbed_ft": 22.1, "median_ft": 0.0, "left_sw_ft": 12.0, "right_sw_ft": 15.0}, "geometry": {"type": "LineString", "coordinates": [[-74.13031907514154, 40.5375344541409], [-74.13054117362235, 40.53767813080979]]}}, {"type": "Feature", "properties": {"segment_id": 1581422, "physicalid": "123590", "street_name": "BUFFALO ST", "borough": "staten_island", "direction": "TW", "total_row_ft": 49.1, "roadbed_ft": 22.8, "median_ft": 0.0, "left_sw_ft": 11.3, "right_sw_ft": 15.0}, "geometry": {"type": "LineString", "coordinates": [[-74.13036614991725, 40.537492933170675], [-74.13058770780754, 40.53763626006335]]}}, {"type": "Feature", "properties": {"segment_id": 1581423, "physicalid": "123590", "street_name": "BUFFALO ST", "borough": "staten_island", "direction": "TW", "total_row_ft": 49.0, "roadbed_ft": 22.8, "median_ft": 0.0, "left_sw_ft": 11.1, "right_sw_ft": 15.0}, "geometry": {"type": "LineString", "coordinates": [[-74.13041315706488, 40.53745136846979], [-74.13063424193442, 40.53759438929796]]}}, {"type": "Feature", "properties": {"segment_id": 1581424, "physicalid": "123590", "street_name": "BUFFALO ST", "borough": "staten_island", "direction": "TW", "total_row_ft": 48.8, "roadbed_ft": 22.9, "median_ft": 0.0, "left_sw_ft": 11.0, "right_sw_ft": 15.0}, "geometry": {"type": "LineString", "coordinates": [[-74.1304601358836, 40.53740978546119], [-74.13068077600299, 40.537552518513564]]}}, {"type": "Feature", "properties": {"segment_id": 1581425, "physicalid": "123590", "street_name": "BUFFALO ST", "borough": "staten_island", "direction": "TW", "total_row_ft": 48.7, "roadbed_ft": 22.9, "median_ft": 0.0, "left_sw_ft": 10.8, "right_sw_ft": 15.0}, "geometry": {"type": "LineString", "coordinates": [[-74.13050703285528, 40.537368149523644], [-74.13072731001326, 40.53751064771013]]}}, {"type": "Feature", "properties": {"segment_id": 1581426, "physicalid": "123590", "street_name": "BUFFALO ST", "borough": "staten_island", "direction": "TW", "total_row_ft": 48.6, "roadbed_ft": 22.9, "median_ft": 0.0, "left_sw_ft": 10.8, "right_sw_ft": 15.0}, "geometry": {"type": "LineString", "coordinates": [[-74.1305539155804, 40.537326504388446], [-74.1307738439652, 40.537468776887714]]}}, {"type": "Feature", "properties": {"segment_id": 1581427, "physicalid": "123590", "street_name": "BUFFALO ST", "borough": "staten_island", "direction": "TW", "total_row_ft": 48.6, "roadbed_ft": 22.7, "median_ft": 0.0, "left_sw_ft": 10.8, "right_sw_ft": 15.0}, "geometry": {"type": "LineString", "coordinates": [[-74.13060070319776, 40.53728479774598], [-74.13082037785884, 40.53742690604633]]}}, {"type": "Feature", "properties": {"segment_id": 1581428, "physicalid": "123590", "street_name": "BUFFALO ST", "borough": "staten_island", "direction": "TW", "total_row_ft": 48.5, "roadbed_ft": 22.6, "median_ft": 0.0, "left_sw_ft": 10.9, "right_sw_ft": 15.0}, "geometry": {"type": "LineString", "coordinates": [[-74.13064747665261, 40.537243081960305], [-74.13086691169417, 40.537385035185906]]}}, {"type": "Feature", "properties": {"segment_id": 1581429, "physicalid": "123590", "street_name": "BUFFALO ST", "borough": "staten_island", "direction": "TW", "total_row_ft": 48.5, "roadbed_ft": 22.5, "median_ft": 0.0, "left_sw_ft": 11.0, "right_sw_ft": 15.0}, "geometry": {"type": "LineString", "coordinates": [[-74.13069416816599, 40.537201313184845], [-74.13091344547121, 40.5373431643065]]}}, {"type": "Feature", "properties": {"segment_id": 1581430, "physicalid": "123590", "street_name": "BUFFALO ST", "borough": "staten_island", "direction": "TW", "total_row_ft": 48.7, "roadbed_ft": 22.6, "median_ft": 0.0, "left_sw_ft": 11.1, "right_sw_ft": 15.0}, "geometry": {"type": "LineString", "coordinates": [[-74.13074069351273, 40.53715943693401], [-74.13095997918992, 40.5373012934081]]}}, {"type": "Feature", "properties": {"segment_id": 1581431, "physicalid": "123590", "street_name": "BUFFALO ST", "borough": "staten_island", "direction": "TW", "total_row_ft": 49.1, "roadbed_ft": 23.2, "median_ft": 0.0, "left_sw_ft": 10.9, "right_sw_ft": 15.0}, "geometry": {"type": "LineString", "coordinates": [[-74.13078717570063, 40.537117532782204], [-74.13100651285033, 40.5372594224907]]}}, {"type": "Feature", "properties": {"segment_id": 1581432, "physicalid": "123590", "street_name": "BUFFALO ST", "borough": "staten_island", "direction": "TW", "total_row_ft": 49.5, "roadbed_ft": 23.8, "median_ft": 0.0, "left_sw_ft": 10.7, "right_sw_ft": 15.0}, "geometry": {"type": "LineString", "coordinates": [[-74.13083372179311, 40.53707566998933], [-74.13105304645244, 40.53721755155429]]}}, {"type": "Feature", "properties": {"segment_id": 1581433, "physicalid": "123590", "street_name": "BUFFALO ST", "borough": "staten_island", "direction": "TW", "total_row_ft": 49.8, "roadbed_ft": 24.3, "median_ft": 0.0, "left_sw_ft": 10.5, "right_sw_ft": 15.0}, "geometry": {"type": "LineString", "coordinates": [[-74.1308802244751, 40.53703377913274], [-74.13109957999623, 40.537175680598914]]}}, {"type": "Feature", "properties": {"segment_id": 1581434, "physicalid": "123590", "street_name": "BUFFALO ST", "borough": "staten_island", "direction": "TW", "total_row_ft": 49.8, "roadbed_ft": 24.1, "median_ft": 0.0, "left_sw_ft": 10.6, "right_sw_ft": 15.0}, "geometry": {"type": "LineString", "coordinates": [[-74.13092663114259, 40.53699182618277], [-74.13114611348172, 40.53713380962449]]}}, {"type": "Feature", "properties": {"segment_id": 1581435, "physicalid": "123590", "street_name": "BUFFALO ST", "borough": "staten_island", "direction": "TW", "total_row_ft": 49.8, "roadbed_ft": 24.0, "median_ft": 0.0, "left_sw_ft": 10.8, "right_sw_ft": 15.0}, "geometry": {"type": "LineString", "coordinates": [[-74.13097303775182, 40.53694987321388], [-74.1311926469089, 40.53709193863112]]}}, {"type": "Feature", "properties": {"segment_id": 1581436, "physicalid": "123590", "street_name": "BUFFALO ST", "borough": "staten_island", "direction": "TW", "total_row_ft": 49.9, "roadbed_ft": 23.8, "median_ft": 0.0, "left_sw_ft": 11.1, "right_sw_ft": 15.0}, "geometry": {"type": "LineString", "coordinates": [[-74.13101944430277, 40.536907920226085], [-74.13123918027776, 40.53705006761872]]}}, {"type": "Feature", "properties": {"segment_id": 1581437, "physicalid": "123590", "street_name": "BUFFALO ST", "borough": "staten_island", "direction": "TW", "total_row_ft": 53.7, "roadbed_ft": 23.7, "median_ft": 0.0, "left_sw_ft": 15.0, "right_sw_ft": 15.0}, "geometry": {"type": "LineString", "coordinates": [[-74.13095642961069, 40.53679518220856], [-74.13128571358833, 40.53700819658732]]}}, {"type": "Feature", "properties": {"segment_id": 1581438, "physicalid": "123590", "street_name": "BUFFALO ST", "borough": "staten_island", "direction": "TW", "total_row_ft": 50.4, "roadbed_ft": 23.8, "median_ft": 0.0, "left_sw_ft": 11.6, "right_sw_ft": 15.0}, "geometry": {"type": "LineString", "coordinates": [[-74.13111127534611, 40.536823379010634], [-74.13133224684059, 40.53696632553694]]}}, {"type": "Feature", "properties": {"segment_id": 1581439, "physicalid": "123590", "street_name": "BUFFALO ST", "borough": "staten_island", "direction": "TW", "total_row_ft": 50.4, "roadbed_ft": 23.9, "median_ft": 0.0, "left_sw_ft": 11.5, "right_sw_ft": 15.0}, "geometry": {"type": "LineString", "coordinates": [[-74.13115819481345, 40.53678175788632], [-74.13137878003454, 40.536924454467574]]}}, {"type": "Feature", "properties": {"segment_id": 1581440, "physicalid": "123590", "street_name": "BUFFALO ST", "borough": "staten_island", "direction": "TW", "total_row_ft": 50.4, "roadbed_ft": 24.1, "median_ft": 0.0, "left_sw_ft": 11.3, "right_sw_ft": 15.0}, "geometry": {"type": "LineString", "coordinates": [[-74.13120511422237, 40.53674013674271], [-74.13142531317018, 40.536882583379175]]}}, {"type": "Feature", "properties": {"segment_id": 1581441, "physicalid": "123590", "street_name": "BUFFALO ST", "borough": "staten_island", "direction": "TW", "total_row_ft": 50.3, "roadbed_ft": 24.2, "median_ft": 0.0, "left_sw_ft": 11.1, "right_sw_ft": 15.0}, "geometry": {"type": "LineString", "coordinates": [[-74.1312520222159, 40.536698508232966], [-74.13147184624752, 40.536840712271804]]}}, {"type": "Feature", "properties": {"segment_id": 1581442, "physicalid": "123590", "street_name": "BUFFALO ST", "borough": "staten_island", "direction": "TW", "total_row_ft": 50.3, "roadbed_ft": 24.3, "median_ft": 0.0, "left_sw_ft": 11.0, "right_sw_ft": 15.0}, "geometry": {"type": "LineString", "coordinates": [[-74.13129892438565, 40.536656875974316], [-74.13151837926655, 40.53679884114544]]}}, {"type": "Feature", "properties": {"segment_id": 1581443, "physicalid": "123590", "street_name": "BUFFALO ST", "borough": "staten_island", "direction": "TW", "total_row_ft": 50.3, "roadbed_ft": 24.5, "median_ft": 0.0, "left_sw_ft": 10.8, "right_sw_ft": 15.0}, "geometry": {"type": "LineString", "coordinates": [[-74.13134582649697, 40.53661524369639], [-74.13156491222726, 40.536756970000056]]}}, {"type": "Feature", "properties": {"segment_id": 1581444, "physicalid": "123590", "street_name": "BUFFALO ST", "borough": "staten_island", "direction": "TW", "total_row_ft": 50.3, "roadbed_ft": 24.6, "median_ft": 0.0, "left_sw_ft": 10.7, "right_sw_ft": 15.0}, "geometry": {"type": "LineString", "coordinates": [[-74.13139272854987, 40.536573611399135], [-74.13161144512969, 40.53671509883567]]}}, {"type": "Feature", "properties": {"segment_id": 1581445, "physicalid": "123590", "street_name": "BUFFALO ST", "borough": "staten_island", "direction": "TW", "total_row_ft": 50.2, "roadbed_ft": 24.6, "median_ft": 0.0, "left_sw_ft": 10.6, "right_sw_ft": 15.0}, "geometry": {"type": "LineString", "coordinates": [[-74.13143963054432, 40.53653197908258], [-74.13165797797376, 40.536673227652344]]}}, {"type": "Feature", "properties": {"segment_id": 1581446, "physicalid": "123590", "street_name": "BUFFALO ST", "borough": "staten_island", "direction": "TW", "total_row_ft": 50.2, "roadbed_ft": 24.7, "median_ft": 0.0, "left_sw_ft": 10.5, "right_sw_ft": 15.0}, "geometry": {"type": "LineString", "coordinates": [[-74.13148653248034, 40.53649034674677], [-74.13170451075959, 40.536631356449945]]}}, {"type": "Feature", "properties": {"segment_id": 1581447, "physicalid": "123590", "street_name": "BUFFALO ST", "borough": "staten_island", "direction": "TW", "total_row_ft": 50.2, "roadbed_ft": 24.8, "median_ft": 0.0, "left_sw_ft": 10.4, "right_sw_ft": 15.0}, "geometry": {"type": "LineString", "coordinates": [[-74.13153332012571, 40.53644864049481], [-74.13175104348709, 40.53658948522858]]}}, {"type": "Feature", "properties": {"segment_id": 1581448, "physicalid": "123590", "street_name": "BUFFALO ST", "borough": "staten_island", "direction": "TW", "total_row_ft": 50.4, "roadbed_ft": 24.9, "median_ft": 0.0, "left_sw_ft": 10.5, "right_sw_ft": 15.0}, "geometry": {"type": "LineString", "coordinates": [[-74.13157984323837, 40.536406763135325], [-74.13179757615627, 40.53654761398821]]}}, {"type": "Feature", "properties": {"segment_id": 1581449, "physicalid": "123590", "street_name": "BUFFALO ST", "borough": "staten_island", "direction": "TW", "total_row_ft": 50.6, "roadbed_ft": 25.1, "median_ft": 0.0, "left_sw_ft": 10.5, "right_sw_ft": 15.0}, "geometry": {"type": "LineString", "coordinates": [[-74.1316263662927, 40.53636488575681], [-74.13184410876715, 40.53650574272886]]}}, {"type": "Feature", "properties": {"segment_id": 1581450, "physicalid": "123590", "street_name": "BUFFALO ST", "borough": "staten_island", "direction": "TW", "total_row_ft": 50.8, "roadbed_ft": 24.9, "median_ft": 0.0, "left_sw_ft": 10.9, "right_sw_ft": 15.0}, "geometry": {"type": "LineString", "coordinates": [[-74.13167288928875, 40.536323008359325], [-74.13189064131973, 40.53646387145052]]}}, {"type": "Feature", "properties": {"segment_id": 1581451, "physicalid": "123590", "street_name": "BUFFALO ST", "borough": "staten_island", "direction": "TW", "total_row_ft": 51.0, "roadbed_ft": 24.8, "median_ft": 0.0, "left_sw_ft": 11.3, "right_sw_ft": 15.0}, "geometry": {"type": "LineString", "coordinates": [[-74.1317194122265, 40.536281130942854], [-74.13193717381398, 40.536422000153145]]}}, {"type": "Feature", "properties": {"segment_id": 1581452, "physicalid": "123590", "street_name": "BUFFALO ST", "borough": "staten_island", "direction": "TW", "total_row_ft": 50.7, "roadbed_ft": 24.0, "median_ft": 0.0, "left_sw_ft": 11.6, "right_sw_ft": 15.0}, "geometry": {"type": "LineString", "coordinates": [[-74.13176593510595, 40.53623925350738], [-74.13198370624995, 40.5363801288368]]}}, {"type": "Feature", "properties": {"segment_id": 1581453, "physicalid": "123590", "street_name": "BUFFALO ST", "borough": "staten_island", "direction": "TW", "total_row_ft": 50.1, "roadbed_ft": 23.1, "median_ft": 0.0, "left_sw_ft": 12.0, "right_sw_ft": 15.0}, "geometry": {"type": "LineString", "coordinates": [[-74.13181245792707, 40.53619737605292], [-74.1320302386276, 40.53633825750146]]}}, {"type": "Feature", "properties": {"segment_id": 1581454, "physicalid": "123590", "street_name": "BUFFALO ST", "borough": "staten_island", "direction": "TW", "total_row_ft": 49.6, "roadbed_ft": 22.5, "median_ft": 0.0, "left_sw_ft": 12.1, "right_sw_ft": 15.0}, "geometry": {"type": "LineString", "coordinates": [[-74.1318589806899, 40.53615549857948], [-74.13207677094697, 40.536296386147136]]}}, {"type": "Feature", "properties": {"segment_id": 1581455, "physicalid": "123590", "street_name": "BUFFALO ST", "borough": "staten_island", "direction": "TW", "total_row_ft": 52.1, "roadbed_ft": 22.1, "median_ft": 0.0, "left_sw_ft": 15.0, "right_sw_ft": 15.0}, "geometry": {"type": "LineString", "coordinates": [[-74.13179402027413, 40.53604150278455], [-74.132123303208, 40.53625451477378]]}}, {"type": "Feature", "properties": {"segment_id": 1581456, "physicalid": "123590", "street_name": "BUFFALO ST", "borough": "staten_island", "direction": "TW", "total_row_ft": 89.3, "roadbed_ft": 22.1, "median_ft": 0.0, "left_sw_ft": 52.2, "right_sw_ft": 15.0}, "geometry": {"type": "LineString", "coordinates": [[-74.13184055253485, 40.53599963152497], [-74.13216983541074, 40.53621264338144]]}}, {"type": "Feature", "properties": {"segment_id": 1581457, "physicalid": "123590", "street_name": "BUFFALO ST", "borough": "staten_island", "direction": "TW", "total_row_ft": 48.0, "roadbed_ft": 22.7, "median_ft": 0.0, "left_sw_ft": 10.4, "right_sw_ft": 15.0}, "geometry": {"type": "LineString", "coordinates": [[-74.13200024816665, 40.53603096547142], [-74.13221636755517, 40.53617077197009]]}}, {"type": "Feature", "properties": {"segment_id": 1581458, "physicalid": "123590", "street_name": "BUFFALO ST", "borough": "staten_island", "direction": "TW", "total_row_ft": 49.9, "roadbed_ft": 23.5, "median_ft": 0.0, "left_sw_ft": 11.4, "right_sw_ft": 15.0}, "geometry": {"type": "LineString", "coordinates": [[-74.13204230509334, 40.53598619913723], [-74.1322628996413, 40.53612890053979]]}}, {"type": "Feature", "properties": {"segment_id": 1581459, "physicalid": "123590", "street_name": "BUFFALO ST", "borough": "staten_island", "direction": "TW", "total_row_ft": 52.5, "roadbed_ft": 25.3, "median_ft": 0.0, "left_sw_ft": 12.2, "right_sw_ft": 15.0}, "geometry": {"type": "LineString", "coordinates": [[-74.13208291547357, 40.535940497057844], [-74.13230943166911, 40.536087029090446]]}}, {"type": "Feature", "properties": {"segment_id": 1581460, "physicalid": "123590", "street_name": "BUFFALO ST", "borough": "staten_island", "direction": "TW", "total_row_ft": 54.0, "roadbed_ft": 26.8, "median_ft": 0.0, "left_sw_ft": 12.3, "right_sw_ft": 15.0}, "geometry": {"type": "LineString", "coordinates": [[-74.13210650839461, 40.535912578569366], [-74.13238670878533, 40.53599569860923]]}}, {"type": "Feature", "properties": {"segment_id": 1581461, "physicalid": "123590", "street_name": "BUFFALO ST", "borough": "staten_island", "direction": "TW", "total_row_ft": 53.8, "roadbed_ft": 27.6, "median_ft": 0.0, "left_sw_ft": 11.2, "right_sw_ft": 15.0}, "geometry": {"type": "LineString", "coordinates": [[-74.13214389375175, 40.53586476907892], [-74.13241278279261, 40.53594453363742]]}}, {"type": "Feature", "properties": {"segment_id": 1581462, "physicalid": "123590", "street_name": "BUFFALO ST", "borough": "staten_island", "direction": "TW", "total_row_ft": 54.2, "roadbed_ft": 28.7, "median_ft": 0.0, "left_sw_ft": 10.5, "right_sw_ft": 15.0}, "geometry": {"type": "LineString", "coordinates": [[-74.13217703657918, 40.53581570106134], [-74.13243885675996, 40.53589336865948]]}}, {"type": "Feature", "properties": {"segment_id": 1581463, "physicalid": "123590", "street_name": "BUFFALO ST", "borough": "staten_island", "direction": "TW", "total_row_ft": 61.3, "roadbed_ft": 36.2, "median_ft": 0.0, "left_sw_ft": 10.1, "right_sw_ft": 15.0}, "geometry": {"type": "LineString", "coordinates": [[-74.13220605225247, 40.53576540874382], [-74.13246493068739, 40.53584220367539]]}}, {"type": "Feature", "properties": {"segment_id": 1581464, "physicalid": "123590", "street_name": "BUFFALO ST", "borough": "staten_island", "direction": "TW", "total_row_ft": 75.9, "roadbed_ft": 50.8, "median_ft": 0.0, "left_sw_ft": 10.1, "right_sw_ft": 15.0}, "geometry": {"type": "LineString", "coordinates": [[-74.13223095621275, 40.53571389670773], [-74.13249100457489, 40.535791038685204]]}}, {"type": "Feature", "properties": {"segment_id": 1734959, "physicalid": "185813", "street_name": "CROOKES POINT RD", "borough": "staten_island", "direction": "TW", "total_row_ft": 72.2, "roadbed_ft": 47.6, "median_ft": 0.0, "left_sw_ft": 9.6, "right_sw_ft": 15.0}, "geometry": {"type": "LineString", "coordinates": [[-74.13227967377028, 40.53560699593142], [-74.132544725062, 40.535685622581695]]}}, {"type": "Feature", "properties": {"segment_id": 1734960, "physicalid": "185813", "street_name": "CROOKES POINT RD", "borough": "staten_island", "direction": "TW", "total_row_ft": 52.2, "roadbed_ft": 27.4, "median_ft": 0.0, "left_sw_ft": 9.8, "right_sw_ft": 15.0}, "geometry": {"type": "LineString", "coordinates": [[-74.13230413793747, 40.53555535344652], [-74.13257079899748, 40.535634457623225]]}}, {"type": "Feature", "properties": {"segment_id": 1734961, "physicalid": "185813", "street_name": "CROOKES POINT RD", "borough": "staten_island", "direction": "TW", "total_row_ft": 51.4, "roadbed_ft": 26.1, "median_ft": 0.0, "left_sw_ft": 10.3, "right_sw_ft": 15.0}, "geometry": {"type": "LineString", "coordinates": [[-74.13232927256287, 40.53550390985779], [-74.13259687289302, 40.53558329265862]]}}, {"type": "Feature", "properties": {"segment_id": 1734962, "physicalid": "185813", "street_name": "CROOKES POINT RD", "borough": "staten_island", "direction": "TW", "total_row_ft": 50.6, "roadbed_ft": 25.9, "median_ft": 0.0, "left_sw_ft": 9.7, "right_sw_ft": 15.0}, "geometry": {"type": "LineString", "coordinates": [[-74.13236010094407, 40.53545415531799], [-74.13262294674865, 40.535532127687894]]}}, {"type": "Feature", "properties": {"segment_id": 1734963, "physicalid": "185813", "street_name": "CROOKES POINT RD", "borough": "staten_island", "direction": "TW", "total_row_ft": 49.9, "roadbed_ft": 25.1, "median_ft": 0.0, "left_sw_ft": 9.8, "right_sw_ft": 15.0}, "geometry": {"type": "LineString", "coordinates": [[-74.13239442444926, 40.5354054376056], [-74.13264902056436, 40.53548096271105]]}}, {"type": "Feature", "properties": {"segment_id": 1734964, "physicalid": "185813", "street_name": "CROOKES POINT RD", "borough": "staten_island", "direction": "TW", "total_row_ft": 49.5, "roadbed_ft": 24.5, "median_ft": 0.0, "left_sw_ft": 9.9, "right_sw_ft": 15.0}, "geometry": {"type": "LineString", "coordinates": [[-74.13244153463235, 40.53534624164714], [-74.1326420942675, 40.53548383983833]]}}, {"type": "Feature", "properties": {"segment_id": 1734965, "physicalid": "185813", "street_name": "CROOKES POINT RD", "borough": "staten_island", "direction": "TW", "total_row_ft": 48.2, "roadbed_ft": 23.6, "median_ft": 0.0, "left_sw_ft": 9.7, "right_sw_ft": 15.0}, "geometry": {"type": "LineString", "coordinates": [[-74.13248314780768, 40.53530096456723], [-74.13269020411157, 40.53544301988142]]}}, {"type": "Feature", "properties": {"segment_id": 1734966, "physicalid": "185813", "street_name": "CROOKES POINT RD", "borough": "staten_island", "direction": "TW", "total_row_ft": 47.0, "roadbed_ft": 22.5, "median_ft": 0.0, "left_sw_ft": 9.5, "right_sw_ft": 15.0}, "geometry": {"type": "LineString", "coordinates": [[-74.13252801261676, 40.53525791836915], [-74.13273831389688, 40.53540219990423]]}}, {"type": "Feature", "properties": {"segment_id": 1734967, "physicalid": "185813", "street_name": "CROOKES POINT RD", "borough": "staten_island", "direction": "TW", "total_row_ft": 46.7, "roadbed_ft": 21.8, "median_ft": 0.0, "left_sw_ft": 9.9, "right_sw_ft": 15.0}, "geometry": {"type": "LineString", "coordinates": [[-74.13257454227531, 40.53521601440093], [-74.13278642362339, 40.53536137990675]]}}, {"type": "Feature", "properties": {"segment_id": 1734968, "physicalid": "185813", "street_name": "CROOKES POINT RD", "borough": "staten_island", "direction": "TW", "total_row_ft": 47.8, "roadbed_ft": 22.2, "median_ft": 0.0, "left_sw_ft": 10.6, "right_sw_ft": 15.0}, "geometry": {"type": "LineString", "coordinates": [[-74.13262170823899, 40.53517454700514], [-74.13283453329113, 40.535320559889016]]}}, {"type": "Feature", "properties": {"segment_id": 1734969, "physicalid": "185813", "street_name": "CROOKES POINT RD", "borough": "staten_island", "direction": "TW", "total_row_ft": 48.3, "roadbed_ft": 22.5, "median_ft": 0.0, "left_sw_ft": 10.8, "right_sw_ft": 15.0}, "geometry": {"type": "LineString", "coordinates": [[-74.13267028836854, 40.535134049849795], [-74.13288264290014, 40.53527973985096]]}}, {"type": "Feature", "properties": {"segment_id": 1734970, "physicalid": "185813", "street_name": "CROOKES POINT RD", "borough": "staten_island", "direction": "TW", "total_row_ft": 48.2, "roadbed_ft": 22.8, "median_ft": 0.0, "left_sw_ft": 10.4, "right_sw_ft": 15.0}, "geometry": {"type": "LineString", "coordinates": [[-74.13272054510092, 40.5350947029839], [-74.13293075245036, 40.535238919792626]]}}, {"type": "Feature", "properties": {"segment_id": 1734971, "physicalid": "185813", "street_name": "CROOKES POINT RD", "borough": "staten_island", "direction": "TW", "total_row_ft": 47.8, "roadbed_ft": 22.9, "median_ft": 0.0, "left_sw_ft": 9.9, "right_sw_ft": 15.0}, "geometry": {"type": "LineString", "coordinates": [[-74.13277112375503, 40.53505557699775], [-74.13297886194182, 40.53519809971398]]}}, {"type": "Feature", "properties": {"segment_id": 1734972, "physicalid": "185813", "street_name": "CROOKES POINT RD", "borough": "staten_island", "direction": "TW", "total_row_ft": 47.4, "roadbed_ft": 22.7, "median_ft": 0.0, "left_sw_ft": 9.7, "right_sw_ft": 15.0}, "geometry": {"type": "LineString", "coordinates": [[-74.13282093126627, 40.53501592197111], [-74.13302697137448, 40.5351572796151]]}}, {"type": "Feature", "properties": {"segment_id": 1734973, "physicalid": "185813", "street_name": "CROOKES POINT RD", "borough": "staten_island", "direction": "TW", "total_row_ft": 47.3, "roadbed_ft": 22.5, "median_ft": 0.0, "left_sw_ft": 9.8, "right_sw_ft": 15.0}, "geometry": {"type": "LineString", "coordinates": [[-74.1328698093298, 40.53497562929661], [-74.13307508074843, 40.53511645949586]]}}, {"type": "Feature", "properties": {"segment_id": 1734974, "physicalid": "185813", "street_name": "CROOKES POINT RD", "borough": "staten_island", "direction": "TW", "total_row_ft": 46.2, "roadbed_ft": 21.0, "median_ft": 0.0, "left_sw_ft": 10.2, "right_sw_ft": 15.0}, "geometry": {"type": "LineString", "coordinates": [[-74.13291783399815, 40.53493475115255], [-74.13312319006357, 40.53507563935635]]}}, {"type": "Feature", "properties": {"segment_id": 1734975, "physicalid": "185813", "street_name": "CROOKES POINT RD", "borough": "staten_island", "direction": "TW", "total_row_ft": 45.3, "roadbed_ft": 19.7, "median_ft": 0.0, "left_sw_ft": 10.6, "right_sw_ft": 15.0}, "geometry": {"type": "LineString", "coordinates": [[-74.1329658402222, 40.53489386037449], [-74.13317129931993, 40.535034819196596]]}}, {"type": "Feature", "properties": {"segment_id": 1734976, "physicalid": "185813", "street_name": "CROOKES POINT RD", "borough": "staten_island", "direction": "TW", "total_row_ft": 44.9, "roadbed_ft": 19.1, "median_ft": 0.0, "left_sw_ft": 10.8, "right_sw_ft": 15.0}, "geometry": {"type": "LineString", "coordinates": [[-74.13301458634481, 40.534853477238435], [-74.13321940851755, 40.53499399901651]]}}, {"type": "Feature", "properties": {"segment_id": 1734977, "physicalid": "185813", "street_name": "CROOKES POINT RD", "borough": "staten_island", "direction": "TW", "total_row_ft": 44.7, "roadbed_ft": 18.7, "median_ft": 0.0, "left_sw_ft": 11.0, "right_sw_ft": 15.0}, "geometry": {"type": "LineString", "coordinates": [[-74.13306304739052, 40.534812898539485], [-74.13326751765642, 40.534953178816124]]}}, {"type": "Feature", "properties": {"segment_id": 1734978, "physicalid": "185813", "street_name": "CROOKES POINT RD", "borough": "staten_island", "direction": "TW", "total_row_ft": 44.8, "roadbed_ft": 18.5, "median_ft": 0.0, "left_sw_ft": 11.3, "right_sw_ft": 15.0}, "geometry": {"type": "LineString", "coordinates": [[-74.13311134846705, 40.534772210110454], [-74.1333156267365, 40.534912358595484]]}}, {"type": "Feature", "properties": {"segment_id": 1734979, "physicalid": "185813", "street_name": "CROOKES POINT RD", "borough": "staten_island", "direction": "TW", "total_row_ft": 45.0, "roadbed_ft": 18.5, "median_ft": 0.0, "left_sw_ft": 11.5, "right_sw_ft": 15.0}, "geometry": {"type": "LineString", "coordinates": [[-74.13315948861025, 40.53473141129], [-74.13336373575778, 40.53487153835456]]}}, {"type": "Feature", "properties": {"segment_id": 1734980, "physicalid": "185813", "street_name": "CROOKES POINT RD", "borough": "staten_island", "direction": "TW", "total_row_ft": 44.9, "roadbed_ft": 18.6, "median_ft": 0.0, "left_sw_ft": 11.4, "right_sw_ft": 15.0}, "geometry": {"type": "LineString", "coordinates": [[-74.1332085401392, 40.53469123776232], [-74.13341184472033, 40.53483071809331]]}}, {"type": "Feature", "properties": {"segment_id": 1734981, "physicalid": "185813", "street_name": "CROOKES POINT RD", "borough": "staten_island", "direction": "TW", "total_row_ft": 44.9, "roadbed_ft": 18.6, "median_ft": 0.0, "left_sw_ft": 11.2, "right_sw_ft": 15.0}, "geometry": {"type": "LineString", "coordinates": [[-74.13325759517991, 40.534651065623216], [-74.13345995184156, 40.53478990057767]]}}, {"type": "Feature", "properties": {"segment_id": 1734982, "physicalid": "185813", "street_name": "CROOKES POINT RD", "borough": "staten_island", "direction": "TW", "total_row_ft": 44.8, "roadbed_ft": 18.7, "median_ft": 0.0, "left_sw_ft": 11.1, "right_sw_ft": 15.0}, "geometry": {"type": "LineString", "coordinates": [[-74.13330664945492, 40.53461089404177], [-74.13350806165016, 40.5347490809369]]}}, {"type": "Feature", "properties": {"segment_id": 1734983, "physicalid": "185813", "street_name": "CROOKES POINT RD", "borough": "staten_island", "direction": "TW", "total_row_ft": 44.8, "roadbed_ft": 18.8, "median_ft": 0.0, "left_sw_ft": 11.0, "right_sw_ft": 15.0}, "geometry": {"type": "LineString", "coordinates": [[-74.13335570367096, 40.53457072243924], [-74.13355617139997, 40.534708261275874]]}}, {"type": "Feature", "properties": {"segment_id": 1734984, "physicalid": "185813", "street_name": "CROOKES POINT RD", "borough": "staten_island", "direction": "TW", "total_row_ft": 44.8, "roadbed_ft": 19.5, "median_ft": 0.0, "left_sw_ft": 10.3, "right_sw_ft": 15.0}, "geometry": {"type": "LineString", "coordinates": [[-74.13340475782803, 40.534530550815624], [-74.13360428109102, 40.53466744159455]]}}, {"type": "Feature", "properties": {"segment_id": 1734985, "physicalid": "185813", "street_name": "CROOKES POINT RD", "borough": "staten_island", "direction": "TW", "total_row_ft": 45.1, "roadbed_ft": 20.2, "median_ft": 0.0, "left_sw_ft": 9.9, "right_sw_ft": 15.0}, "geometry": {"type": "LineString", "coordinates": [[-74.13345265508691, 40.53448958547366], [-74.13365239072328, 40.53462662189297]]}}, {"type": "Feature", "properties": {"segment_id": 1734986, "physicalid": "185813", "street_name": "CROOKES POINT RD", "borough": "staten_island", "direction": "TW", "total_row_ft": 45.4, "roadbed_ft": 20.7, "median_ft": 0.0, "left_sw_ft": 9.8, "right_sw_ft": 15.0}, "geometry": {"type": "LineString", "coordinates": [[-74.13349904004846, 40.534447582578366], [-74.13370050029681, 40.53458580217106]]}}, {"type": "Feature", "properties": {"segment_id": 1734987, "physicalid": "185813", "street_name": "CROOKES POINT RD", "borough": "staten_island", "direction": "TW", "total_row_ft": 45.9, "roadbed_ft": 21.3, "median_ft": 0.0, "left_sw_ft": 9.7, "right_sw_ft": 15.0}, "geometry": {"type": "LineString", "coordinates": [[-74.13354420137942, 40.53440474018263], [-74.13374860981152, 40.5345449824289]]}}, {"type": "Feature", "properties": {"segment_id": 1734988, "physicalid": "185813", "street_name": "CROOKES POINT RD", "borough": "staten_island", "direction": "TW", "total_row_ft": 46.3, "roadbed_ft": 21.5, "median_ft": 0.0, "left_sw_ft": 9.9, "right_sw_ft": 15.0}, "geometry": {"type": "LineString", "coordinates": [[-74.13358498588512, 40.534364514858694], [-74.13380620658417, 40.5344914326151]]}}, {"type": "Feature", "properties": {"segment_id": 1734989, "physicalid": "185813", "street_name": "CROOKES POINT RD", "borough": "staten_island", "direction": "TW", "total_row_ft": 46.9, "roadbed_ft": 21.7, "median_ft": 0.0, "left_sw_ft": 10.1, "right_sw_ft": 15.0}, "geometry": {"type": "LineString", "coordinates": [[-74.1336279122419, 40.53432045792247], [-74.13384944832784, 40.53444755657513]]}}, {"type": "Feature", "properties": {"segment_id": 1734990, "physicalid": "185813", "street_name": "CROOKES POINT RD", "borough": "staten_island", "direction": "TW", "total_row_ft": 47.8, "roadbed_ft": 22.1, "median_ft": 0.0, "left_sw_ft": 10.7, "right_sw_ft": 15.0}, "geometry": {"type": "LineString", "coordinates": [[-74.13366983969598, 40.534275827914826], [-74.13389269001472, 40.534403680518714]]}}, {"type": "Feature", "properties": {"segment_id": 1734991, "physicalid": "185813", "street_name": "CROOKES POINT RD", "borough": "staten_island", "direction": "TW", "total_row_ft": 48.8, "roadbed_ft": 22.5, "median_ft": 0.0, "left_sw_ft": 11.2, "right_sw_ft": 15.0}, "geometry": {"type": "LineString", "coordinates": [[-74.13371193125259, 40.534231292072235], [-74.13393593164484, 40.53435980444587]]}}, {"type": "Feature", "properties": {"segment_id": 1734992, "physicalid": "185813", "street_name": "CROOKES POINT RD", "borough": "staten_island", "direction": "TW", "total_row_ft": 49.5, "roadbed_ft": 23.0, "median_ft": 0.0, "left_sw_ft": 11.4, "right_sw_ft": 15.0}, "geometry": {"type": "LineString", "coordinates": [[-74.133754550197, 40.53418705881751], [-74.1339791732182, 40.534315928356584]]}}, {"type": "Feature", "properties": {"segment_id": 1734993, "physicalid": "185813", "street_name": "CROOKES POINT RD", "borough": "staten_island", "direction": "TW", "total_row_ft": 49.3, "roadbed_ft": 23.2, "median_ft": 0.0, "left_sw_ft": 11.1, "right_sw_ft": 15.0}, "geometry": {"type": "LineString", "coordinates": [[-74.13379769637933, 40.53414312806436], [-74.13402241473473, 40.534272052250884]]}}, {"type": "Feature", "properties": {"segment_id": 1734994, "physicalid": "185813", "street_name": "CROOKES POINT RD", "borough": "staten_island", "direction": "TW", "total_row_ft": 48.7, "roadbed_ft": 23.1, "median_ft": 0.0, "left_sw_ft": 10.7, "right_sw_ft": 15.0}, "geometry": {"type": "LineString", "coordinates": [[-74.1338412593548, 40.53409943797158], [-74.1340656586377, 40.53422817246507]]}}, {"type": "Feature", "properties": {"segment_id": 1734995, "physicalid": "185813", "street_name": "CROOKES POINT RD", "borough": "staten_island", "direction": "TW", "total_row_ft": 48.7, "roadbed_ft": 22.8, "median_ft": 0.0, "left_sw_ft": 10.8, "right_sw_ft": 15.0}, "geometry": {"type": "LineString", "coordinates": [[-74.13388295539406, 40.53405467532543], [-74.13410889862705, 40.53418429551545]]}}, {"type": "Feature", "properties": {"segment_id": 1734996, "physicalid": "185813", "street_name": "CROOKES POINT RD", "borough": "staten_island", "direction": "TW", "total_row_ft": 48.6, "roadbed_ft": 22.7, "median_ft": 0.0, "left_sw_ft": 10.9, "right_sw_ft": 15.0}, "geometry": {"type": "LineString", "coordinates": [[-74.13392517402923, 40.53401021250233], [-74.13415213855959, 40.53414041854944]]}}, {"type": "Feature", "properties": {"segment_id": 1734997, "physicalid": "185813", "street_name": "CROOKES POINT RD", "borough": "staten_island", "direction": "TW", "total_row_ft": 48.5, "roadbed_ft": 22.8, "median_ft": 0.0, "left_sw_ft": 10.7, "right_sw_ft": 15.0}, "geometry": {"type": "LineString", "coordinates": [[-74.13396788948955, 40.53396603471769], [-74.1341953784354, 40.53409654156691]]}}, {"type": "Feature", "properties": {"segment_id": 1734998, "physicalid": "185813", "street_name": "CROOKES POINT RD", "borough": "staten_island", "direction": "TW", "total_row_ft": 48.3, "roadbed_ft": 22.7, "median_ft": 0.0, "left_sw_ft": 10.6, "right_sw_ft": 15.0}, "geometry": {"type": "LineString", "coordinates": [[-74.1340111013988, 40.53392214175532], [-74.13423861825441, 40.53405266456798]]}}, {"type": "Feature", "properties": {"segment_id": 1734999, "physicalid": "185813", "street_name": "CROOKES POINT RD", "borough": "staten_island", "direction": "TW", "total_row_ft": 48.1, "roadbed_ft": 22.6, "median_ft": 0.0, "left_sw_ft": 10.5, "right_sw_ft": 15.0}, "geometry": {"type": "LineString", "coordinates": [[-74.13405453563543, 40.53387837635516], [-74.13428185801664, 40.53400878755265]]}}, {"type": "Feature", "properties": {"segment_id": 1735000, "physicalid": "185813", "street_name": "CROOKES POINT RD", "borough": "staten_island", "direction": "TW", "total_row_ft": 48.1, "roadbed_ft": 22.6, "median_ft": 0.0, "left_sw_ft": 10.5, "right_sw_ft": 15.0}, "geometry": {"type": "LineString", "coordinates": [[-74.13409756872417, 40.53383438083825], [-74.13432509772213, 40.53396491052084]]}}, {"type": "Feature", "properties": {"segment_id": 1735001, "physicalid": "185813", "street_name": "CROOKES POINT RD", "borough": "staten_island", "direction": "TW", "total_row_ft": 48.0, "roadbed_ft": 22.6, "median_ft": 0.0, "left_sw_ft": 10.4, "right_sw_ft": 15.0}, "geometry": {"type": "LineString", "coordinates": [[-74.13414196474267, 40.53378982349459], [-74.134365777987, 40.53392379891091]]}}, {"type": "Feature", "properties": {"segment_id": 1735002, "physicalid": "185813", "street_name": "CROOKES POINT RD", "borough": "staten_island", "direction": "TW", "total_row_ft": 48.0, "roadbed_ft": 22.9, "median_ft": 0.0, "left_sw_ft": 10.1, "right_sw_ft": 15.0}, "geometry": {"type": "LineString", "coordinates": [[-74.13418599785508, 40.5337464067639], [-74.13441018958851, 40.533880608693146]]}}, {"type": "Feature", "properties": {"segment_id": 1735003, "physicalid": "185813", "street_name": "CROOKES POINT RD", "borough": "staten_island", "direction": "TW", "total_row_ft": 48.5, "roadbed_ft": 23.6, "median_ft": 0.0, "left_sw_ft": 9.9, "right_sw_ft": 15.0}, "geometry": {"type": "LineString", "coordinates": [[-74.13423047360762, 40.53370325501722], [-74.13445460113269, 40.53383741845798]]}}, {"type": "Feature", "properties": {"segment_id": 1735004, "physicalid": "185813", "street_name": "CROOKES POINT RD", "borough": "staten_island", "direction": "TW", "total_row_ft": 49.0, "roadbed_ft": 24.3, "median_ft": 0.0, "left_sw_ft": 9.7, "right_sw_ft": 15.0}, "geometry": {"type": "LineString", "coordinates": [[-74.13427664638459, 40.53366111913495], [-74.13449901261941, 40.53379422820552]]}}, {"type": "Feature", "properties": {"segment_id": 1735005, "physicalid": "185813", "street_name": "CROOKES POINT RD", "borough": "staten_island", "direction": "TW", "total_row_ft": 49.3, "roadbed_ft": 25.0, "median_ft": 0.0, "left_sw_ft": 9.4, "right_sw_ft": 15.0}, "geometry": {"type": "LineString", "coordinates": [[-74.134324323432, 40.53361988373227], [-74.13454342404877, 40.53375103793575]]}}, {"type": "Feature", "properties": {"segment_id": 1735006, "physicalid": "185813", "street_name": "CROOKES POINT RD", "borough": "staten_island", "direction": "TW", "total_row_ft": 49.7, "roadbed_ft": 25.6, "median_ft": 0.0, "left_sw_ft": 9.1, "right_sw_ft": 15.0}, "geometry": {"type": "LineString", "coordinates": [[-74.13437255199719, 40.53357897848585], [-74.13458783542067, 40.53370784764867]]}}, {"type": "Feature", "properties": {"segment_id": 1735007, "physicalid": "185813", "street_name": "CROOKES POINT RD", "borough": "staten_island", "direction": "TW", "total_row_ft": 50.1, "roadbed_ft": 26.0, "median_ft": 0.0, "left_sw_ft": 9.1, "right_sw_ft": 15.0}, "geometry": {"type": "LineString", "coordinates": [[-74.13442114383778, 40.533538290712585], [-74.13463224673526, 40.53366465734424]]}}, {"type": "Feature", "properties": {"segment_id": 1735008, "physicalid": "185813", "street_name": "CROOKES POINT RD", "borough": "staten_island", "direction": "TW", "total_row_ft": 50.7, "roadbed_ft": 26.0, "median_ft": 0.0, "left_sw_ft": 9.6, "right_sw_ft": 15.0}, "geometry": {"type": "LineString", "coordinates": [[-74.13447003898007, 40.53349778451156], [-74.1346766579924, 40.533621467022485]]}}, {"type": "Feature", "properties": {"segment_id": 1735009, "physicalid": "185813", "street_name": "CROOKES POINT RD", "borough": "staten_island", "direction": "TW", "total_row_ft": 51.0, "roadbed_ft": 25.9, "median_ft": 0.0, "left_sw_ft": 10.0, "right_sw_ft": 15.0}, "geometry": {"type": "LineString", "coordinates": [[-74.13452010641112, 40.53345798006117], [-74.13472106919212, 40.533578276683436]]}}, {"type": "Feature", "properties": {"segment_id": 1735010, "physicalid": "185813", "street_name": "CROOKES POINT RD", "borough": "staten_island", "direction": "TW", "total_row_ft": 50.8, "roadbed_ft": 25.5, "median_ft": 0.0, "left_sw_ft": 10.4, "right_sw_ft": 15.0}, "geometry": {"type": "LineString", "coordinates": [[-74.13457780104754, 40.53341427758836], [-74.13473858983929, 40.533569692106326]]}}, {"type": "Feature", "properties": {"segment_id": 1735011, "physicalid": "185813", "street_name": "CROOKES POINT RD", "borough": "staten_island", "direction": "TW", "total_row_ft": 50.6, "roadbed_ft": 25.0, "median_ft": 0.0, "left_sw_ft": 10.6, "right_sw_ft": 15.0}, "geometry": {"type": "LineString", "coordinates": [[-74.13462964905234, 40.53337579224927], [-74.13479506450393, 40.5335356786674]]}}, {"type": "Feature", "properties": {"segment_id": 1735012, "physicalid": "185813", "street_name": "CROOKES POINT RD", "borough": "staten_island", "direction": "TW", "total_row_ft": 50.3, "roadbed_ft": 24.1, "median_ft": 0.0, "left_sw_ft": 11.2, "right_sw_ft": 15.0}, "geometry": {"type": "LineString", "coordinates": [[-74.13468178235973, 40.53333758271128], [-74.13485153911105, 40.53350166520067]]}}, {"type": "Feature", "properties": {"segment_id": 1735013, "physicalid": "185813", "street_name": "CROOKES POINT RD", "borough": "staten_island", "direction": "TW", "total_row_ft": 49.5, "roadbed_ft": 23.2, "median_ft": 0.0, "left_sw_ft": 11.3, "right_sw_ft": 15.0}, "geometry": {"type": "LineString", "coordinates": [[-74.13473501931423, 40.53330043996669], [-74.13490801366073, 40.53346765170602]]}}, {"type": "Feature", "properties": {"segment_id": 1735014, "physicalid": "185813", "street_name": "CROOKES POINT RD", "borough": "staten_island", "direction": "TW", "total_row_ft": 48.5, "roadbed_ft": 22.2, "median_ft": 0.0, "left_sw_ft": 11.2, "right_sw_ft": 15.0}, "geometry": {"type": "LineString", "coordinates": [[-74.1347891797304, 40.53326418985029], [-74.1349644881529, 40.533433638183546]]}}, {"type": "Feature", "properties": {"segment_id": 1735015, "physicalid": "185813", "street_name": "CROOKES POINT RD", "borough": "staten_island", "direction": "TW", "total_row_ft": 47.3, "roadbed_ft": 21.6, "median_ft": 0.0, "left_sw_ft": 10.7, "right_sw_ft": 15.0}, "geometry": {"type": "LineString", "coordinates": [[-74.13484168540084, 40.533230724792716], [-74.1350282118241, 40.533392777220854]]}}, {"type": "Feature", "properties": {"segment_id": 1735016, "physicalid": "185813", "street_name": "CROOKES POINT RD", "borough": "staten_island", "direction": "TW", "total_row_ft": 46.4, "roadbed_ft": 21.2, "median_ft": 0.0, "left_sw_ft": 10.3, "right_sw_ft": 15.0}, "geometry": {"type": "LineString", "coordinates": [[-74.13489655631028, 40.53319520398667], [-74.13508227277698, 40.533356552616766]]}}, {"type": "Feature", "properties": {"segment_id": 1735017, "physicalid": "185813", "street_name": "CROOKES POINT RD", "borough": "staten_island", "direction": "TW", "total_row_ft": 45.8, "roadbed_ft": 20.8, "median_ft": 0.0, "left_sw_ft": 10.0, "right_sw_ft": 15.0}, "geometry": {"type": "LineString", "coordinates": [[-74.1349510126814, 40.53315932305722], [-74.13513633367126, 40.533320327987106]]}}, {"type": "Feature", "properties": {"segment_id": 1735018, "physicalid": "185813", "street_name": "CROOKES POINT RD", "borough": "staten_island", "direction": "TW", "total_row_ft": 45.5, "roadbed_ft": 20.5, "median_ft": 0.0, "left_sw_ft": 9.9, "right_sw_ft": 15.0}, "geometry": {"type": "LineString", "coordinates": [[-74.13500505482688, 40.533123082276795], [-74.1351903945069, 40.5332841033319]]}}, {"type": "Feature", "properties": {"segment_id": 1735019, "physicalid": "185813", "street_name": "CROOKES POINT RD", "borough": "staten_island", "direction": "TW", "total_row_ft": 45.5, "roadbed_ft": 20.3, "median_ft": 0.0, "left_sw_ft": 10.2, "right_sw_ft": 15.0}, "geometry": {"type": "LineString", "coordinates": [[-74.13505840547116, 40.53308624075158], [-74.13524445528398, 40.533247878651125]]}}, {"type": "Feature", "properties": {"segment_id": 1735020, "physicalid": "185813", "street_name": "CROOKES POINT RD", "borough": "staten_island", "direction": "TW", "total_row_ft": 45.7, "roadbed_ft": 20.2, "median_ft": 0.0, "left_sw_ft": 10.6, "right_sw_ft": 15.0}, "geometry": {"type": "LineString", "coordinates": [[-74.13510843815445, 40.53305061598228], [-74.13530576127829, 40.53320488153033]]}}, {"type": "Feature", "properties": {"segment_id": 1735021, "physicalid": "185813", "street_name": "CROOKES POINT RD", "borough": "staten_island", "direction": "TW", "total_row_ft": 46.0, "roadbed_ft": 20.4, "median_ft": 0.0, "left_sw_ft": 10.6, "right_sw_ft": 15.0}, "geometry": {"type": "LineString", "coordinates": [[-74.13516106080381, 40.53301315853206], [-74.13535725226299, 40.53316653925938]]}}, {"type": "Feature", "properties": {"segment_id": 1735022, "physicalid": "185813", "street_name": "CROOKES POINT RD", "borough": "staten_island", "direction": "TW", "total_row_ft": 46.3, "roadbed_ft": 20.6, "median_ft": 0.0, "left_sw_ft": 10.7, "right_sw_ft": 15.0}, "geometry": {"type": "LineString", "coordinates": [[-74.13521368799785, 40.532975704656714], [-74.13540874318865, 40.533128196965194]]}}, {"type": "Feature", "properties": {"segment_id": 1735023, "physicalid": "185813", "street_name": "CROOKES POINT RD", "borough": "staten_island", "direction": "TW", "total_row_ft": 46.7, "roadbed_ft": 21.0, "median_ft": 0.0, "left_sw_ft": 10.7, "right_sw_ft": 15.0}, "geometry": {"type": "LineString", "coordinates": [[-74.13526632164532, 40.532938255848514], [-74.13546023405524, 40.5330898546478]]}}, {"type": "Feature", "properties": {"segment_id": 1735024, "physicalid": "185813", "street_name": "CROOKES POINT RD", "borough": "staten_island", "direction": "TW", "total_row_ft": 47.7, "roadbed_ft": 21.8, "median_ft": 0.0, "left_sw_ft": 10.9, "right_sw_ft": 15.0}, "geometry": {"type": "LineString", "coordinates": [[-74.13531744323576, 40.53289962494778], [-74.13551172486274, 40.533051512307225]]}}, {"type": "Feature", "properties": {"segment_id": 1735025, "physicalid": "185813", "street_name": "CROOKES POINT RD", "borough": "staten_island", "direction": "TW", "total_row_ft": 48.7, "roadbed_ft": 22.7, "median_ft": 0.0, "left_sw_ft": 11.0, "right_sw_ft": 15.0}, "geometry": {"type": "LineString", "coordinates": [[-74.13536586253265, 40.53286249498057], [-74.13557048379471, 40.53300649018323]]}}, {"type": "Feature", "properties": {"segment_id": 1735026, "physicalid": "185813", "street_name": "CROOKES POINT RD", "borough": "staten_island", "direction": "TW", "total_row_ft": 49.4, "roadbed_ft": 23.0, "median_ft": 0.0, "left_sw_ft": 11.3, "right_sw_ft": 15.0}, "geometry": {"type": "LineString", "coordinates": [[-74.1354161936848, 40.53282323356595], [-74.13561926329501, 40.5329661367702]]}}, {"type": "Feature", "properties": {"segment_id": 1735027, "physicalid": "185813", "street_name": "CROOKES POINT RD", "borough": "staten_island", "direction": "TW", "total_row_ft": 50.0, "roadbed_ft": 23.1, "median_ft": 0.0, "left_sw_ft": 11.9, "right_sw_ft": 15.0}, "geometry": {"type": "LineString", "coordinates": [[-74.13546533735455, 40.532783136518766], [-74.13566804273646, 40.53292578333629]]}}, {"type": "Feature", "properties": {"segment_id": 1735028, "physicalid": "185813", "street_name": "CROOKES POINT RD", "borough": "staten_island", "direction": "TW", "total_row_ft": 50.5, "roadbed_ft": 23.6, "median_ft": 0.0, "left_sw_ft": 11.9, "right_sw_ft": 15.0}, "geometry": {"type": "LineString", "coordinates": [[-74.1355144809653, 40.53274303945044], [-74.135716822119, 40.53288542988153]]}}, {"type": "Feature", "properties": {"segment_id": 1735029, "physicalid": "185813", "street_name": "CROOKES POINT RD", "borough": "staten_island", "direction": "TW", "total_row_ft": 50.9, "roadbed_ft": 23.9, "median_ft": 0.0, "left_sw_ft": 12.1, "right_sw_ft": 15.0}, "geometry": {"type": "LineString", "coordinates": [[-74.13556327762014, 40.532702698243746], [-74.13576560144263, 40.532845076405906]]}}, {"type": "Feature", "properties": {"segment_id": 1735030, "physicalid": "185813", "street_name": "CROOKES POINT RD", "borough": "staten_island", "direction": "TW", "total_row_ft": 51.4, "roadbed_ft": 23.9, "median_ft": 0.0, "left_sw_ft": 12.5, "right_sw_ft": 15.0}, "geometry": {"type": "LineString", "coordinates": [[-74.13560927468261, 40.53266367150154], [-74.13582170369146, 40.532798113783485]]}}, {"type": "Feature", "properties": {"segment_id": 1735031, "physicalid": "185813", "street_name": "CROOKES POINT RD", "borough": "staten_island", "direction": "TW", "total_row_ft": 51.4, "roadbed_ft": 23.8, "median_ft": 0.0, "left_sw_ft": 12.6, "right_sw_ft": 15.0}, "geometry": {"type": "LineString", "coordinates": [[-74.13565742239719, 40.532622819944876], [-74.1358676376083, 40.53275586109407]]}}, {"type": "Feature", "properties": {"segment_id": 1735032, "physicalid": "185813", "street_name": "CROOKES POINT RD", "borough": "staten_island", "direction": "TW", "total_row_ft": 51.4, "roadbed_ft": 23.7, "median_ft": 0.0, "left_sw_ft": 12.7, "right_sw_ft": 15.0}, "geometry": {"type": "LineString", "coordinates": [[-74.13570519411434, 40.53258173044294], [-74.13591357146707, 40.532713608386146]]}}, {"type": "Feature", "properties": {"segment_id": 1735033, "physicalid": "185813", "street_name": "CROOKES POINT RD", "borough": "staten_island", "direction": "TW", "total_row_ft": 51.5, "roadbed_ft": 23.5, "median_ft": 0.0, "left_sw_ft": 13.0, "right_sw_ft": 15.0}, "geometry": {"type": "LineString", "coordinates": [[-74.13575253217009, 40.53254036650155], [-74.13595950526776, 40.53267135565969]]}}, {"type": "Feature", "properties": {"segment_id": 1735034, "physicalid": "185813", "street_name": "CROOKES POINT RD", "borough": "staten_island", "direction": "TW", "total_row_ft": 51.6, "roadbed_ft": 23.3, "median_ft": 0.0, "left_sw_ft": 13.3, "right_sw_ft": 15.0}, "geometry": {"type": "LineString", "coordinates": [[-74.13579987016726, 40.53249900254053], [-74.13600543901038, 40.53262910291472]]}}, {"type": "Feature", "properties": {"segment_id": 1735035, "physicalid": "185813", "street_name": "CROOKES POINT RD", "borough": "staten_island", "direction": "TW", "total_row_ft": 52.0, "roadbed_ft": 23.3, "median_ft": 0.0, "left_sw_ft": 13.7, "right_sw_ft": 15.0}, "geometry": {"type": "LineString", "coordinates": [[-74.13584720810584, 40.53245763855987], [-74.13605137269491, 40.532586850151226]]}}, {"type": "Feature", "properties": {"segment_id": 1735036, "physicalid": "185813", "street_name": "CROOKES POINT RD", "borough": "staten_island", "direction": "TW", "total_row_ft": 13.8, "roadbed_ft": 0.0, "median_ft": 0.0, "left_sw_ft": 12.6, "right_sw_ft": 1.2}, "geometry": {"type": "LineString", "coordinates": [[-74.13589236545515, 40.532417327596875], [-74.1359320633397, 40.53243987874207]]}}, {"type": "Feature", "properties": {"segment_id": 1735037, "physicalid": "185813", "street_name": "CROOKES POINT RD", "borough": "staten_island", "direction": "TW", "total_row_ft": 13.3, "roadbed_ft": 0.0, "median_ft": 0.0, "left_sw_ft": 11.3, "right_sw_ft": 2.0}, "geometry": {"type": "LineString", "coordinates": [[-74.13593897725197, 40.532375365961464], [-74.13597722409781, 40.53239709280635]]}}, {"type": "Feature", "properties": {"segment_id": 1735038, "physicalid": "185813", "street_name": "CROOKES POINT RD", "borough": "staten_island", "direction": "TW", "total_row_ft": 12.1, "roadbed_ft": 0.0, "median_ft": 0.0, "left_sw_ft": 10.2, "right_sw_ft": 1.9}, "geometry": {"type": "LineString", "coordinates": [[-74.13598505911574, 40.5323331033017], [-74.13601991880768, 40.532352906001606]]}}, {"type": "Feature", "properties": {"segment_id": 1735039, "physicalid": "185813", "street_name": "CROOKES POINT RD", "borough": "staten_island", "direction": "TW", "total_row_ft": 46.2, "roadbed_ft": 19.8, "median_ft": 0.0, "left_sw_ft": 11.4, "right_sw_ft": 15.0}, "geometry": {"type": "LineString", "coordinates": [[-74.13602350607042, 40.532286503502526], [-74.13623061269887, 40.532404153942494]]}}, {"type": "Feature", "properties": {"segment_id": 1735040, "physicalid": "185813", "street_name": "CROOKES POINT RD", "borough": "staten_island", "direction": "TW", "total_row_ft": 47.3, "roadbed_ft": 25.1, "median_ft": 0.0, "left_sw_ft": 7.3, "right_sw_ft": 15.0}, "geometry": {"type": "LineString", "coordinates": [[-74.13604691850908, 40.53223136307959], [-74.13627357881924, 40.53236012131494]]}}, {"type": "Feature", "properties": {"segment_id": 1735041, "physicalid": "185813", "street_name": "CROOKES POINT RD", "borough": "staten_island", "direction": "TW", "total_row_ft": 64.1, "roadbed_ft": 34.1, "median_ft": 0.0, "left_sw_ft": 15.0, "right_sw_ft": 15.0}, "geometry": {"type": "LineString", "coordinates": [[-74.13594480120426, 40.5321386069405], [-74.1363280520995, 40.53229019849885]]}}, {"type": "Feature", "properties": {"segment_id": 1735042, "physicalid": "185813", "street_name": "CROOKES POINT RD", "borough": "staten_island", "direction": "TW", "total_row_ft": 97.0, "roadbed_ft": 67.0, "median_ft": 0.0, "left_sw_ft": 15.0, "right_sw_ft": 15.0}, "geometry": {"type": "LineString", "coordinates": [[-74.13597791435095, 40.53208987027429], [-74.13636116504183, 40.53224146172266]]}}, {"type": "Feature", "properties": {"segment_id": 1735043, "physicalid": "185813", "street_name": "CROOKES POINT RD", "borough": "staten_island", "direction": "TW", "total_row_ft": 95.9, "roadbed_ft": 65.9, "median_ft": 0.0, "left_sw_ft": 15.0, "right_sw_ft": 15.0}, "geometry": {"type": "LineString", "coordinates": [[-74.13601102744933, 40.53204113359836], [-74.13639427793589, 40.53219272493671]]}}, {"type": "Feature", "properties": {"segment_id": 1735044, "physicalid": "185813", "street_name": "CROOKES POINT RD", "borough": "staten_island", "direction": "TW", "total_row_ft": 95.3, "roadbed_ft": 65.3, "median_ft": 0.0, "left_sw_ft": 15.0, "right_sw_ft": 15.0}, "geometry": {"type": "LineString", "coordinates": [[-74.13604414049946, 40.53199239691266], [-74.13642739078163, 40.53214398814107]]}}, {"type": "Feature", "properties": {"segment_id": 1735045, "physicalid": "185813", "street_name": "CROOKES POINT RD", "borough": "staten_island", "direction": "TW", "total_row_ft": 95.2, "roadbed_ft": 65.2, "median_ft": 0.0, "left_sw_ft": 15.0, "right_sw_ft": 15.0}, "geometry": {"type": "LineString", "coordinates": [[-74.13607725350128, 40.53194366021724], [-74.1364605035791, 40.5320952513357]]}}, {"type": "Feature", "properties": {"segment_id": 1735046, "physicalid": "185813", "street_name": "CROOKES POINT RD", "borough": "staten_island", "direction": "TW", "total_row_ft": 95.3, "roadbed_ft": 65.3, "median_ft": 0.0, "left_sw_ft": 15.0, "right_sw_ft": 15.0}, "geometry": {"type": "LineString", "coordinates": [[-74.13611036645479, 40.53189492351211], [-74.13649361632828, 40.532046514520545]]}}, {"type": "Feature", "properties": {"segment_id": 1735047, "physicalid": "185813", "street_name": "CROOKES POINT RD", "borough": "staten_island", "direction": "TW", "total_row_ft": 95.4, "roadbed_ft": 65.4, "median_ft": 0.0, "left_sw_ft": 15.0, "right_sw_ft": 15.0}, "geometry": {"type": "LineString", "coordinates": [[-74.13614347936006, 40.531846186797175], [-74.13652672902913, 40.531997777695715]]}}, {"type": "Feature", "properties": {"segment_id": 1735048, "physicalid": "185813", "street_name": "CROOKES POINT RD", "borough": "staten_island", "direction": "TW", "total_row_ft": 95.5, "roadbed_ft": 65.5, "median_ft": 0.0, "left_sw_ft": 15.0, "right_sw_ft": 15.0}, "geometry": {"type": "LineString", "coordinates": [[-74.136176592217, 40.53179745007255], [-74.13655984168173, 40.53194904086112]]}}, {"type": "Feature", "properties": {"segment_id": 1735049, "physicalid": "185813", "street_name": "CROOKES POINT RD", "borough": "staten_island", "direction": "TW", "total_row_ft": 95.6, "roadbed_ft": 65.6, "median_ft": 0.0, "left_sw_ft": 15.0, "right_sw_ft": 15.0}, "geometry": {"type": "LineString", "coordinates": [[-74.13620970502564, 40.53174871333824], [-74.13659295428604, 40.53190030401676]]}}, {"type": "Feature", "properties": {"segment_id": 1735050, "physicalid": "185813", "street_name": "CROOKES POINT RD", "borough": "staten_island", "direction": "TW", "total_row_ft": 95.9, "roadbed_ft": 65.9, "median_ft": 0.0, "left_sw_ft": 15.0, "right_sw_ft": 15.0}, "geometry": {"type": "LineString", "coordinates": [[-74.13624281778603, 40.5316999765941], [-74.13662606684203, 40.53185156716273]]}}, {"type": "Feature", "properties": {"segment_id": 1735051, "physicalid": "185813", "street_name": "CROOKES POINT RD", "borough": "staten_island", "direction": "TW", "total_row_ft": 96.5, "roadbed_ft": 66.5, "median_ft": 0.0, "left_sw_ft": 15.0, "right_sw_ft": 15.0}, "geometry": {"type": "LineString", "coordinates": [[-74.1362759304981, 40.53165123984029], [-74.13665917934975, 40.531802830298936]]}}, {"type": "Feature", "properties": {"segment_id": 1735052, "physicalid": "185813", "street_name": "CROOKES POINT RD", "borough": "staten_island", "direction": "TW", "total_row_ft": 97.7, "roadbed_ft": 67.7, "median_ft": 0.0, "left_sw_ft": 15.0, "right_sw_ft": 15.0}, "geometry": {"type": "LineString", "coordinates": [[-74.13630904316186, 40.53160250307674], [-74.1366922918092, 40.53175409342537]]}}, {"type": "Feature", "properties": {"segment_id": 1735053, "physicalid": "185813", "street_name": "CROOKES POINT RD", "borough": "staten_island", "direction": "TW", "total_row_ft": 99.4, "roadbed_ft": 69.4, "median_ft": 0.0, "left_sw_ft": 15.0, "right_sw_ft": 15.0}, "geometry": {"type": "LineString", "coordinates": [[-74.13634215577738, 40.53155376630342], [-74.1367254042203, 40.53170535654216]]}}, {"type": "Feature", "properties": {"segment_id": 1735054, "physicalid": "185813", "street_name": "CROOKES POINT RD", "borough": "staten_island", "direction": "TW", "total_row_ft": 101.5, "roadbed_ft": 71.5, "median_ft": 0.0, "left_sw_ft": 15.0, "right_sw_ft": 15.0}, "geometry": {"type": "LineString", "coordinates": [[-74.13637526834455, 40.53150502952042], [-74.13675851658317, 40.53165661964912]]}}, {"type": "Feature", "properties": {"segment_id": 1735055, "physicalid": "185813", "street_name": "CROOKES POINT RD", "borough": "staten_island", "direction": "TW", "total_row_ft": 89.3, "roadbed_ft": 74.1, "median_ft": 0.0, "left_sw_ft": 0.1, "right_sw_ft": 15.0}, "geometry": {"type": "LineString", "coordinates": [[-74.13640838086347, 40.531456292727654], [-74.13679162889774, 40.5316078827464]]}}, {"type": "Feature", "properties": {"segment_id": 1735056, "physicalid": "185813", "street_name": "CROOKES POINT RD", "borough": "staten_island", "direction": "TW", "total_row_ft": 92.5, "roadbed_ft": 74.8, "median_ft": 0.0, "left_sw_ft": 2.7, "right_sw_ft": 15.0}, "geometry": {"type": "LineString", "coordinates": [[-74.13644149333412, 40.53140755592513], [-74.13682474116398, 40.53155914583395]]}}, {"type": "Feature", "properties": {"segment_id": 1735057, "physicalid": "185813", "street_name": "CROOKES POINT RD", "borough": "staten_island", "direction": "TW", "total_row_ft": 96.2, "roadbed_ft": 75.9, "median_ft": 0.0, "left_sw_ft": 5.3, "right_sw_ft": 15.0}, "geometry": {"type": "LineString", "coordinates": [[-74.13647460575643, 40.531358819112924], [-74.13685785338197, 40.53151040891173]]}}, {"type": "Feature", "properties": {"segment_id": 1735058, "physicalid": "185813", "street_name": "CROOKES POINT RD", "borough": "staten_island", "direction": "TW", "total_row_ft": 100.4, "roadbed_ft": 77.5, "median_ft": 0.0, "left_sw_ft": 7.9, "right_sw_ft": 15.0}, "geometry": {"type": "LineString", "coordinates": [[-74.13650771813047, 40.53131008229098], [-74.13689096555166, 40.5314616719798]]}}, {"type": "Feature", "properties": {"segment_id": 1735059, "physicalid": "185813", "street_name": "CROOKES POINT RD", "borough": "staten_island", "direction": "TW", "total_row_ft": 105.1, "roadbed_ft": 79.6, "median_ft": 0.0, "left_sw_ft": 10.5, "right_sw_ft": 15.0}, "geometry": {"type": "LineString", "coordinates": [[-74.13654083045624, 40.53126134545925], [-74.13692407767302, 40.53141293503817]]}}, {"type": "Feature", "properties": {"segment_id": 1735060, "physicalid": "185813", "street_name": "CROOKES POINT RD", "borough": "staten_island", "direction": "TW", "total_row_ft": 109.2, "roadbed_ft": 81.1, "median_ft": 0.0, "left_sw_ft": 13.1, "right_sw_ft": 15.0}, "geometry": {"type": "LineString", "coordinates": [[-74.13657394273369, 40.53121260861784], [-74.13695718974616, 40.53136419808673]]}}, {"type": "Feature", "properties": {"segment_id": 1735061, "physicalid": "185813", "street_name": "CROOKES POINT RD", "borough": "staten_island", "direction": "TW", "total_row_ft": 112.0, "roadbed_ft": 81.4, "median_ft": 0.0, "left_sw_ft": 15.7, "right_sw_ft": 15.0}, "geometry": {"type": "LineString", "coordinates": [[-74.13660705496287, 40.53116387176667], [-74.13699030177096, 40.5313154611256]]}}]}