{"type": "FeatureCollection", "features": [{"type": "Feature", "properties": {"segment_id": 1683350, "physicalid": "171377", "street_name": "BUFFALO ST", "borough": "staten_island", "direction": "TW", "total_row_ft": 51.0, "roadbed_ft": 24.0, "median_ft": 0.0, "left_sw_ft": 12.0, "right_sw_ft": 15.0}, "geometry": {"type": "LineString", "coordinates": [[-74.12164024925247, 40.54997485301179], [-74.12198799851626, 40.549924978532744]]}}, {"type": "Feature", "properties": {"segment_id": 1683351, "physicalid": "171377", "street_name": "BUFFALO ST", "borough": "staten_island", "direction": "TW", "total_row_ft": 51.0, "roadbed_ft": 24.0, "median_ft": 0.0, "left_sw_ft": 12.0, "right_sw_ft": 15.0}, "geometry": {"type": "LineString", "coordinates": [[-74.12162700990767, 40.54992089371061], [-74.12197470016962, 40.54987102769475]]}}, {"type": "Feature", "properties": {"segment_id": 1683352, "physicalid": "171377", "street_name": "BUFFALO ST", "borough": "staten_island", "direction": "TW", "total_row_ft": 51.0, "roadbed_ft": 24.0, "median_ft": 0.0, "left_sw_ft": 12.0, "right_sw_ft": 15.0}, "geometry": {"type": "LineString", "coordinates": [[-74.12161377058428, 40.5498669344077], [-74.12196140184443, 40.54981707685495]]}}, {"type": "Feature", "properties": {"segment_id": 1683353, "physicalid": "171377", "street_name": "BUFFALO ST", "borough": "staten_island", "direction": "TW", "total_row_ft": 51.0, "roadbed_ft": 24.0, "median_ft": 0.0, "left_sw_ft": 12.0, "right_sw_ft": 15.0}, "geometry": {"type": "LineString", "coordinates": [[-74.12160003310551, 40.54981094468666], [-74.12194986011633, 40.549766163104955]]}}, {"type": "Feature", "properties": {"segment_id": 1683354, "physicalid": "171377", "street_name": "BUFFALO ST", "borough": "staten_island", "direction": "TW", "total_row_ft": 51.0, "roadbed_ft": 24.0, "median_ft": 0.0, "left_sw_ft": 12.0, "right_sw_ft": 15.0}, "geometry": {"type": "LineString", "coordinates": [[-74.12158689948697, 40.54975696208794], [-74.1219379492576, 40.549712023982806]]}}, {"type": "Feature", "properties": {"segment_id": 1683355, "physicalid": "171377", "street_name": "BUFFALO ST", "borough": "staten_island", "direction": "TW", "total_row_ft": 51.0, "roadbed_ft": 24.0, "median_ft": 0.0, "left_sw_ft": 12.0, "right_sw_ft": 15.0}, "geometry": {"type": "LineString", "coordinates": [[-74.12157506378077, 40.549702813345746], [-74.12192603841814, 40.5496578848591]]}}, {"type": "Feature", "properties": {"segment_id": 1683356, "physicalid": "171377", "street_name": "BUFFALO ST", "borough": "staten_island", "direction": "TW", "total_row_ft": 51.0, "roadbed_ft": 24.0, "median_ft": 0.0, "left_sw_ft": 12.0, "right_sw_ft": 15.0}, "geometry": {"type": "LineString", "coordinates": [[-74.12156322809373, 40.549648664602046], [-74.121914127598, 40.54960374573401]]}}, {"type": "Feature", "properties": {"segment_id": 1683357, "physicalid": "171377", "street_name": "BUFFALO ST", "borough": "staten_island", "direction": "TW", "total_row_ft": 51.0, "roadbed_ft": 24.0, "median_ft": 0.0, "left_sw_ft": 12.0, "right_sw_ft": 15.0}, "geometry": {"type": "LineString", "coordinates": [[-74.12155117316242, 40.54959351271521], [-74.12190258825623, 40.54955115112239]]}}, {"type": "Feature", "properties": {"segment_id": 1683358, "physicalid": "171377", "street_name": "BUFFALO ST", "borough": "staten_island", "direction": "TW", "total_row_ft": 51.0, "roadbed_ft": 24.0, "median_ft": 0.0, "left_sw_ft": 12.0, "right_sw_ft": 15.0}, "geometry": {"type": "LineString", "coordinates": [[-74.12153941201129, 40.5495393530218], [-74.12189135460474, 40.54949692784263]]}}, {"type": "Feature", "properties": {"segment_id": 1683359, "physicalid": "171377", "street_name": "BUFFALO ST", "borough": "staten_island", "direction": "TW", "total_row_ft": 51.0, "roadbed_ft": 24.0, "median_ft": 0.0, "left_sw_ft": 12.0, "right_sw_ft": 15.0}, "geometry": {"type": "LineString", "coordinates": [[-74.12152808010315, 40.549485141586494], [-74.12188012097147, 40.54944270456157]]}}, {"type": "Feature", "properties": {"segment_id": 1683360, "physicalid": "171377", "street_name": "BUFFALO ST", "borough": "staten_island", "direction": "TW", "total_row_ft": 51.0, "roadbed_ft": 24.0, "median_ft": 0.0, "left_sw_ft": 12.0, "right_sw_ft": 15.0}, "geometry": {"type": "LineString", "coordinates": [[-74.12151674821341, 40.54943093014987], [-74.12186888735644, 40.54938848127915]]}}, {"type": "Feature", "properties": {"segment_id": 1683361, "physicalid": "171377", "street_name": "BUFFALO ST", "borough": "staten_island", "direction": "TW", "total_row_ft": 51.0, "roadbed_ft": 24.0, "median_ft": 0.0, "left_sw_ft": 12.0, "right_sw_ft": 15.0}, "geometry": {"type": "LineString", "coordinates": [[-74.12150541634206, 40.54937671871182], [-74.12185765375963, 40.54933425799538]]}}, {"type": "Feature", "properties": {"segment_id": 1683362, "physicalid": "171377", "street_name": "BUFFALO ST", "borough": "staten_island", "direction": "TW", "total_row_ft": 51.0, "roadbed_ft": 24.0, "median_ft": 0.0, "left_sw_ft": 12.0, "right_sw_ft": 15.0}, "geometry": {"type": "LineString", "coordinates": [[-74.1214948500026, 40.5493224149943], [-74.12184642018106, 40.549280034710264]]}}, {"type": "Feature", "properties": {"segment_id": 1683363, "physicalid": "171377", "street_name": "BUFFALO ST", "borough": "staten_island", "direction": "TW", "total_row_ft": 51.0, "roadbed_ft": 24.0, "median_ft": 0.0, "left_sw_ft": 12.0, "right_sw_ft": 15.0}, "geometry": {"type": "LineString", "coordinates": [[-74.12148446538889, 40.54926565080354], [-74.12183715895233, 40.54922936298516]]}}, {"type": "Feature", "properties": {"segment_id": 1683364, "physicalid": "171377", "street_name": "BUFFALO ST", "borough": "staten_island", "direction": "TW", "total_row_ft": 51.0, "roadbed_ft": 24.0, "median_ft": 0.0, "left_sw_ft": 12.0, "right_sw_ft": 15.0}, "geometry": {"type": "LineString", "coordinates": [[-74.12147451880585, 40.54921128087675], [-74.12182753905397, 40.549174959447456]]}}, {"type": "Feature", "properties": {"segment_id": 1683365, "physicalid": "171377", "street_name": "BUFFALO ST", "borough": "staten_island", "direction": "TW", "total_row_ft": 51.0, "roadbed_ft": 24.0, "median_ft": 0.0, "left_sw_ft": 12.0, "right_sw_ft": 15.0}, "geometry": {"type": "LineString", "coordinates": [[-74.121464572239, 40.549156910948824], [-74.12181791917126, 40.54912055590871]]}}, {"type": "Feature", "properties": {"segment_id": 1683366, "physicalid": "171377", "street_name": "BUFFALO ST", "borough": "staten_island", "direction": "TW", "total_row_ft": 51.0, "roadbed_ft": 24.0, "median_ft": 0.0, "left_sw_ft": 12.0, "right_sw_ft": 15.0}, "geometry": {"type": "LineString", "coordinates": [[-74.12145514815548, 40.54910248726526], [-74.1218082993042, 40.54906615236885]]}}, {"type": "Feature", "properties": {"segment_id": 1683367, "physicalid": "171377", "street_name": "BUFFALO ST", "borough": "staten_island", "direction": "TW", "total_row_ft": 51.0, "roadbed_ft": 24.0, "median_ft": 0.0, "left_sw_ft": 12.0, "right_sw_ft": 15.0}, "geometry": {"type": "LineString", "coordinates": [[-74.12144733428892, 40.54904789791331], [-74.12179867945282, 40.54901174882797]]}}, {"type": "Feature", "properties": {"segment_id": 1683368, "physicalid": "171377", "street_name": "BUFFALO ST", "borough": "staten_island", "direction": "TW", "total_row_ft": 51.0, "roadbed_ft": 24.0, "median_ft": 0.0, "left_sw_ft": 12.0, "right_sw_ft": 15.0}, "geometry": {"type": "LineString", "coordinates": [[-74.12143918293556, 40.54899095071014], [-74.12179047783361, 40.548960972194834]]}}, {"type": "Feature", "properties": {"segment_id": 1683369, "physicalid": "171377", "street_name": "BUFFALO ST", "borough": "staten_island", "direction": "TW", "total_row_ft": 51.0, "roadbed_ft": 24.0, "median_ft": 0.0, "left_sw_ft": 12.0, "right_sw_ft": 15.0}, "geometry": {"type": "LineString", "coordinates": [[-74.12143137157082, 40.54893637865267], [-74.12178247659159, 40.54890641634085]]}}, {"type": "Feature", "properties": {"segment_id": 1683370, "physicalid": "171377", "street_name": "BUFFALO ST", "borough": "staten_island", "direction": "TW", "total_row_ft": 51.0, "roadbed_ft": 24.0, "median_ft": 0.0, "left_sw_ft": 12.0, "right_sw_ft": 15.0}, "geometry": {"type": "LineString", "coordinates": [[-74.12142356021886, 40.54888180659443], [-74.12177447536264, 40.54885186048603]]}}, {"type": "Feature", "properties": {"segment_id": 1683371, "physicalid": "171377", "street_name": "BUFFALO ST", "borough": "staten_island", "direction": "TW", "total_row_ft": 51.0, "roadbed_ft": 24.0, "median_ft": 0.0, "left_sw_ft": 12.0, "right_sw_ft": 15.0}, "geometry": {"type": "LineString", "coordinates": [[-74.12141579668146, 40.54882723045621], [-74.12176647414675, 40.54879730463044]]}}, {"type": "Feature", "properties": {"segment_id": 1683372, "physicalid": "171377", "street_name": "BUFFALO ST", "borough": "staten_island", "direction": "TW", "total_row_ft": 51.0, "roadbed_ft": 24.0, "median_ft": 0.0, "left_sw_ft": 12.0, "right_sw_ft": 15.0}, "geometry": {"type": "LineString", "coordinates": [[-74.121408077908, 40.548772650498364], [-74.12175847294394, 40.54874274877403]]}}, {"type": "Feature", "properties": {"segment_id": 1683373, "physicalid": "171377", "street_name": "BUFFALO ST", "borough": "staten_island", "direction": "TW", "total_row_ft": 51.0, "roadbed_ft": 24.0, "median_ft": 0.0, "left_sw_ft": 12.0, "right_sw_ft": 15.0}, "geometry": {"type": "LineString", "coordinates": [[-74.12140002712972, 40.54871572281656], [-74.12175133262683, 40.54869187781914]]}}, {"type": "Feature", "properties": {"segment_id": 1683374, "physicalid": "171377", "street_name": "BUFFALO ST", "borough": "staten_island", "direction": "TW", "total_row_ft": 51.0, "roadbed_ft": 24.0, "median_ft": 0.0, "left_sw_ft": 12.0, "right_sw_ft": 15.0}, "geometry": {"type": "LineString", "coordinates": [[-74.12139230708988, 40.54866113372024], [-74.1217449541312, 40.54863719766718]]}}, {"type": "Feature", "properties": {"segment_id": 1683375, "physicalid": "171377", "street_name": "BUFFALO ST", "borough": "staten_island", "direction": "TW", "total_row_ft": 51.0, "roadbed_ft": 24.0, "median_ft": 0.0, "left_sw_ft": 12.0, "right_sw_ft": 15.0}, "geometry": {"type": "LineString", "coordinates": [[-74.12138566238937, 40.54860647163664], [-74.12173857564599, 40.54858251751458]]}}, {"type": "Feature", "properties": {"segment_id": 1683376, "physicalid": "171377", "street_name": "BUFFALO ST", "borough": "staten_island", "direction": "TW", "total_row_ft": 51.0, "roadbed_ft": 24.0, "median_ft": 0.0, "left_sw_ft": 12.0, "right_sw_ft": 15.0}, "geometry": {"type": "LineString", "coordinates": [[-74.12138126907178, 40.548551656743186], [-74.12173219717124, 40.54852783736135]]}}, {"type": "Feature", "properties": {"segment_id": 1683377, "physicalid": "171377", "street_name": "BUFFALO ST", "borough": "staten_island", "direction": "TW", "total_row_ft": 51.0, "roadbed_ft": 24.0, "median_ft": 0.0, "left_sw_ft": 12.0, "right_sw_ft": 15.0}, "geometry": {"type": "LineString", "coordinates": [[-74.1213768757614, 40.54849684184927], [-74.1217258187069, 40.54847315720756]]}}, {"type": "Feature", "properties": {"segment_id": 1683378, "physicalid": "171377", "street_name": "BUFFALO ST", "borough": "staten_island", "direction": "TW", "total_row_ft": 51.0, "roadbed_ft": 24.0, "median_ft": 0.0, "left_sw_ft": 12.0, "right_sw_ft": 15.0}, "geometry": {"type": "LineString", "coordinates": [[-74.12137248245823, 40.54844202695498], [-74.12171944025303, 40.54841847705317]]}}, {"type": "Feature", "properties": {"segment_id": 1683379, "physicalid": "171377", "street_name": "BUFFALO ST", "borough": "staten_island", "direction": "TW", "total_row_ft": 51.0, "roadbed_ft": 24.0, "median_ft": 0.0, "left_sw_ft": 12.0, "right_sw_ft": 15.0}, "geometry": {"type": "LineString", "coordinates": [[-74.12136813399584, 40.54838777144672], [-74.12171256571582, 40.54836289928325]]}}, {"type": "Feature", "properties": {"segment_id": 1683380, "physicalid": "171377", "street_name": "BUFFALO ST", "borough": "staten_island", "direction": "TW", "total_row_ft": 51.0, "roadbed_ft": 24.0, "median_ft": 0.0, "left_sw_ft": 12.0, "right_sw_ft": 15.0}, "geometry": {"type": "LineString", "coordinates": [[-74.12136388989882, 40.548332936294194], [-74.12170578326744, 40.54830824742678]]}}, {"type": "Feature", "properties": {"segment_id": 1683381, "physicalid": "171377", "street_name": "BUFFALO ST", "borough": "staten_island", "direction": "TW", "total_row_ft": 51.0, "roadbed_ft": 24.0, "median_ft": 0.0, "left_sw_ft": 12.0, "right_sw_ft": 15.0}, "geometry": {"type": "LineString", "coordinates": [[-74.12135972980063, 40.54827373750305], [-74.12170051819679, 40.54826103303639]]}}, {"type": "Feature", "properties": {"segment_id": 1683382, "physicalid": "171377", "street_name": "BUFFALO ST", "borough": "staten_island", "direction": "TW", "total_row_ft": 51.0, "roadbed_ft": 24.0, "median_ft": 0.0, "left_sw_ft": 12.0, "right_sw_ft": 15.0}, "geometry": {"type": "LineString", "coordinates": [[-74.12135587755414, 40.548218919391935], [-74.12169700523111, 40.54820620227747]]}}, {"type": "Feature", "properties": {"segment_id": 1683383, "physicalid": "171377", "street_name": "BUFFALO ST", "borough": "staten_island", "direction": "TW", "total_row_ft": 51.2, "roadbed_ft": 24.2, "median_ft": 0.0, "left_sw_ft": 12.0, "right_sw_ft": 15.0}, "geometry": {"type": "LineString", "coordinates": [[-74.12135202531398, 40.54816410128043], [-74.12169349227119, 40.5481513715182]]}}, {"type": "Feature", "properties": {"segment_id": 1683384, "physicalid": "171377", "street_name": "BUFFALO ST", "borough": "staten_island", "direction": "TW", "total_row_ft": 52.0, "roadbed_ft": 25.0, "median_ft": 0.0, "left_sw_ft": 12.0, "right_sw_ft": 15.0}, "geometry": {"type": "LineString", "coordinates": [[-74.12134785173707, 40.5481048651132], [-74.12169202258806, 40.54810400390247]]}}, {"type": "Feature", "properties": {"segment_id": 1683385, "physicalid": "171377", "street_name": "BUFFALO ST", "borough": "staten_island", "direction": "TW", "total_row_ft": 50.4, "roadbed_ft": 23.4, "median_ft": 0.0, "left_sw_ft": 12.0, "right_sw_ft": 15.0}, "geometry": {"type": "LineString", "coordinates": [[-74.12134395826348, 40.54804997835065], [-74.12169178638042, 40.54804910799396]]}}, {"type": "Feature", "properties": {"segment_id": 1683386, "physicalid": "171377", "street_name": "BUFFALO ST", "borough": "staten_island", "direction": "TW", "total_row_ft": 49.6, "roadbed_ft": 22.6, "median_ft": 0.0, "left_sw_ft": 12.0, "right_sw_ft": 15.0}, "geometry": {"type": "LineString", "coordinates": [[-74.12134006479631, 40.54799509158771], [-74.12169155017318, 40.54799421208519]]}}, {"type": "Feature", "properties": {"segment_id": 1683387, "physicalid": "171377", "street_name": "BUFFALO ST", "borough": "staten_island", "direction": "TW", "total_row_ft": 49.2, "roadbed_ft": 22.1, "median_ft": 0.0, "left_sw_ft": 12.1, "right_sw_ft": 15.0}, "geometry": {"type": "LineString", "coordinates": [[-74.12133582371435, 40.54793530434659], [-74.1216938812074, 40.54794685700278]]}}, {"type": "Feature", "properties": {"segment_id": 1683388, "physicalid": "171377", "street_name": "BUFFALO ST", "borough": "staten_island", "direction": "TW", "total_row_ft": 49.2, "roadbed_ft": 22.2, "median_ft": 0.0, "left_sw_ft": 12.0, "right_sw_ft": 15.0}, "geometry": {"type": "LineString", "coordinates": [[-74.12133198566916, 40.547880235213626], [-74.12169692222396, 40.54789200983246]]}}, {"type": "Feature", "properties": {"segment_id": 1683389, "physicalid": "171377", "street_name": "BUFFALO ST", "borough": "staten_island", "direction": "TW", "total_row_ft": 49.8, "roadbed_ft": 22.6, "median_ft": 0.0, "left_sw_ft": 12.2, "right_sw_ft": 15.0}, "geometry": {"type": "LineString", "coordinates": [[-74.12132757886111, 40.547812339509086], [-74.1216988429155, 40.547854566085526]]}}, {"type": "Feature", "properties": {"segment_id": 1683390, "physicalid": "171377", "street_name": "BUFFALO ST", "borough": "staten_island", "direction": "TW", "total_row_ft": 49.6, "roadbed_ft": 22.3, "median_ft": 0.0, "left_sw_ft": 12.2, "right_sw_ft": 15.0}, "geometry": {"type": "LineString", "coordinates": [[-74.12132394961836, 40.54775642365126], [-74.12170945546596, 40.54780027007538]]}}, {"type": "Feature", "properties": {"segment_id": 1683391, "physicalid": "171377", "street_name": "BUFFALO ST", "borough": "staten_island", "direction": "TW", "total_row_ft": 50.2, "roadbed_ft": 22.6, "median_ft": 0.4, "left_sw_ft": 12.2, "right_sw_ft": 15.0}, "geometry": {"type": "LineString", "coordinates": [[-74.12132032038168, 40.54770050779306], [-74.12172006799918, 40.54774597406402]]}}, {"type": "Feature", "properties": {"segment_id": 1683392, "physicalid": "171377", "street_name": "BUFFALO ST", "borough": "staten_island", "direction": "TW", "total_row_ft": 51.9, "roadbed_ft": 23.2, "median_ft": 1.4, "left_sw_ft": 12.2, "right_sw_ft": 15.0}, "geometry": {"type": "LineString", "coordinates": [[-74.1213176654783, 40.54764470275386], [-74.12173068051513, 40.547691678051436]]}}, {"type": "Feature", "properties": {"segment_id": 1683393, "physicalid": "171377", "street_name": "BUFFALO ST", "borough": "staten_island", "direction": "TW", "total_row_ft": 51.6, "roadbed_ft": 23.8, "median_ft": 2.5, "left_sw_ft": 10.3, "right_sw_ft": 15.0}, "geometry": {"type": "LineString", "coordinates": [[-74.12132169661614, 40.547574991203035], [-74.1217414130531, 40.547652327960535]]}}, {"type": "Feature", "properties": {"segment_id": 1683394, "physicalid": "171377", "street_name": "BUFFALO ST", "borough": "staten_island", "direction": "TW", "total_row_ft": 46.6, "roadbed_ft": 24.3, "median_ft": 2.5, "left_sw_ft": 4.7, "right_sw_ft": 15.0}, "geometry": {"type": "LineString", "coordinates": [[-74.12133859381392, 40.547521629679785], [-74.12175830993529, 40.5475989663758]]}}, {"type": "Feature", "properties": {"segment_id": 1683395, "physicalid": "171377", "street_name": "BUFFALO ST", "borough": "staten_island", "direction": "TW", "total_row_ft": 58.0, "roadbed_ft": 24.8, "median_ft": 3.2, "left_sw_ft": 15.0, "right_sw_ft": 15.0}, "geometry": {"type": "LineString", "coordinates": [[-74.12135549098473, 40.54746826815374], [-74.12177520679046, 40.54754560478842]]}}, {"type": "Feature", "properties": {"segment_id": 1683396, "physicalid": "171377", "street_name": "BUFFALO ST", "borough": "staten_island", "direction": "TW", "total_row_ft": 59.0, "roadbed_ft": 25.4, "median_ft": 3.6, "left_sw_ft": 15.0, "right_sw_ft": 15.0}, "geometry": {"type": "LineString", "coordinates": [[-74.12137794886229, 40.54740072937551], [-74.1217868698719, 40.547506492702084]]}}, {"type": "Feature", "properties": {"segment_id": 1683397, "physicalid": "171377", "street_name": "BUFFALO ST", "borough": "staten_island", "direction": "TW", "total_row_ft": 60.5, "roadbed_ft": 25.9, "median_ft": 4.6, "left_sw_ft": 15.0, "right_sw_ft": 15.0}, "geometry": {"type": "LineString", "coordinates": [[-74.1214010568104, 40.54734874023606], [-74.12180997753842, 40.54745450348078]]}}, {"type": "Feature", "properties": {"segment_id": 1683398, "physicalid": "171377", "street_name": "BUFFALO ST", "borough": "staten_island", "direction": "TW", "total_row_ft": 61.2, "roadbed_ft": 26.5, "median_ft": 4.7, "left_sw_ft": 15.0, "right_sw_ft": 15.0}, "geometry": {"type": "LineString", "coordinates": [[-74.12142416472253, 40.547296751091736], [-74.12183308516899, 40.54740251425461]]}}, {"type": "Feature", "properties": {"segment_id": 1683399, "physicalid": "171377", "street_name": "BUFFALO ST", "borough": "staten_island", "direction": "TW", "total_row_ft": 62.6, "roadbed_ft": 27.1, "median_ft": 5.5, "left_sw_ft": 15.0, "right_sw_ft": 15.0}, "geometry": {"type": "LineString", "coordinates": [[-74.12144727259872, 40.54724476194251], [-74.12185619276359, 40.54735052502357]]}}, {"type": "Feature", "properties": {"segment_id": 1683400, "physicalid": "171377", "street_name": "BUFFALO ST", "borough": "staten_island", "direction": "TW", "total_row_ft": 64.4, "roadbed_ft": 27.7, "median_ft": 6.7, "left_sw_ft": 15.0, "right_sw_ft": 15.0}, "geometry": {"type": "LineString", "coordinates": [[-74.12148001781271, 40.5471796617641], [-74.12187474730436, 40.54731316052545]]}}, {"type": "Feature", "properties": {"segment_id": 1683401, "physicalid": "171377", "street_name": "BUFFALO ST", "borough": "staten_island", "direction": "TW", "total_row_ft": 65.0, "roadbed_ft": 28.3, "median_ft": 6.8, "left_sw_ft": 15.0, "right_sw_ft": 15.0}, "geometry": {"type": "LineString", "coordinates": [[-74.12150918545348, 40.54712947674927], [-74.12190391470695, 40.5472629754109]]}}, {"type": "Feature", "properties": {"segment_id": 1683402, "physicalid": "171377", "street_name": "BUFFALO ST", "borough": "staten_island", "direction": "TW", "total_row_ft": 66.0, "roadbed_ft": 28.8, "median_ft": 7.2, "left_sw_ft": 15.0, "right_sw_ft": 15.0}, "geometry": {"type": "LineString", "coordinates": [[-74.12153835305043, 40.54707929172681], [-74.12193308206571, 40.54721279028873]]}}, {"type": "Feature", "properties": {"segment_id": 1683403, "physicalid": "171377", "street_name": "BUFFALO ST", "borough": "staten_island", "direction": "TW", "total_row_ft": 67.1, "roadbed_ft": 29.3, "median_ft": 7.8, "left_sw_ft": 15.0, "right_sw_ft": 15.0}, "geometry": {"type": "LineString", "coordinates": [[-74.12156752060358, 40.54702910669673], [-74.12196224938066, 40.54716260515898]]}}, {"type": "Feature", "properties": {"segment_id": 1683404, "physicalid": "171377", "street_name": "BUFFALO ST", "borough": "staten_island", "direction": "TW", "total_row_ft": 67.8, "roadbed_ft": 29.8, "median_ft": 8.0, "left_sw_ft": 15.0, "right_sw_ft": 15.0}, "geometry": {"type": "LineString", "coordinates": [[-74.12161008427077, 40.5469673319326], [-74.12198733893523, 40.54712755520516]]}}, {"type": "Feature", "properties": {"segment_id": 1683405, "physicalid": "171377", "street_name": "BUFFALO ST", "borough": "staten_island", "direction": "TW", "total_row_ft": 69.1, "roadbed_ft": 30.3, "median_ft": 8.8, "left_sw_ft": 15.0, "right_sw_ft": 15.0}, "geometry": {"type": "LineString", "coordinates": [[-74.12164509069602, 40.54691936849192], [-74.12202234517363, 40.54707959165012]]}}, {"type": "Feature", "properties": {"segment_id": 1683406, "physicalid": "171377", "street_name": "BUFFALO ST", "borough": "staten_island", "direction": "TW", "total_row_ft": 70.4, "roadbed_ft": 31.0, "median_ft": 9.4, "left_sw_ft": 15.0, "right_sw_ft": 15.0}, "geometry": {"type": "LineString", "coordinates": [[-74.121680097071, 40.54687140504038], [-74.12205735136178, 40.5470316280842]]}}, {"type": "Feature", "properties": {"segment_id": 1683407, "physicalid": "171377", "street_name": "BUFFALO ST", "borough": "staten_island", "direction": "TW", "total_row_ft": 71.3, "roadbed_ft": 31.8, "median_ft": 9.5, "left_sw_ft": 15.0, "right_sw_ft": 15.0}, "geometry": {"type": "LineString", "coordinates": [[-74.1217263342773, 40.54681123479037], [-74.12208307946169, 40.54699679127159]]}}, {"type": "Feature", "properties": {"segment_id": 1683408, "physicalid": "171377", "street_name": "BUFFALO ST", "borough": "staten_island", "direction": "TW", "total_row_ft": 68.9, "roadbed_ft": 32.4, "median_ft": 6.5, "left_sw_ft": 15.0, "right_sw_ft": 15.0}, "geometry": {"type": "LineString", "coordinates": [[-74.12176687550624, 40.54676587879452], [-74.12212362056101, 40.54695143515053]]}}, {"type": "Feature", "properties": {"segment_id": 1683409, "physicalid": "171377", "street_name": "BUFFALO ST", "borough": "staten_island", "direction": "TW", "total_row_ft": 65.6, "roadbed_ft": 33.0, "median_ft": 2.6, "left_sw_ft": 15.0, "right_sw_ft": 15.0}, "geometry": {"type": "LineString", "coordinates": [[-74.12180741668013, 40.546720522784234], [-74.12216416160533, 40.54690607901499]]}}, {"type": "Feature", "properties": {"segment_id": 1683410, "physicalid": "171377", "street_name": "BUFFALO ST", "borough": "staten_island", "direction": "TW", "total_row_ft": 63.5, "roadbed_ft": 33.5, "median_ft": 0.0, "left_sw_ft": 15.0, "right_sw_ft": 15.0}, "geometry": {"type": "LineString", "coordinates": [[-74.12184795779896, 40.546675166759435], [-74.1222047025946, 40.54686072286494]]}}, {"type": "Feature", "properties": {"segment_id": 1683411, "physicalid": "171377", "street_name": "BUFFALO ST", "borough": "staten_island", "direction": "TW", "total_row_ft": 63.9, "roadbed_ft": 33.9, "median_ft": 0.0, "left_sw_ft": 15.0, "right_sw_ft": 15.0}, "geometry": {"type": "LineString", "coordinates": [[-74.12190308514472, 40.546619655233336], [-74.12223655132648, 40.546828893566556]]}}, {"type": "Feature", "properties": {"segment_id": 1683412, "physicalid": "171377", "street_name": "BUFFALO ST", "borough": "staten_island", "direction": "TW", "total_row_ft": 64.2, "roadbed_ft": 34.2, "median_ft": 0.0, "left_sw_ft": 15.0, "right_sw_ft": 15.0}, "geometry": {"type": "LineString", "coordinates": [[-74.12194880033256, 40.54657725878199], [-74.12228226644585, 40.5467864969832]]}}, {"type": "Feature", "properties": {"segment_id": 1683413, "physicalid": "171377", "street_name": "BUFFALO ST", "borough": "staten_island", "direction": "TW", "total_row_ft": 64.5, "roadbed_ft": 34.5, "median_ft": 0.0, "left_sw_ft": 15.0, "right_sw_ft": 15.0}, "geometry": {"type": "LineString", "coordinates": [[-74.12199451546235, 40.54653486231235], [-74.12232798150725, 40.546744100381495]]}}, {"type": "Feature", "properties": {"segment_id": 1683414, "physicalid": "171377", "street_name": "BUFFALO ST", "borough": "staten_island", "direction": "TW", "total_row_ft": 64.7, "roadbed_ft": 34.7, "median_ft": 0.0, "left_sw_ft": 15.0, "right_sw_ft": 15.0}, "geometry": {"type": "LineString", "coordinates": [[-74.12204891392724, 40.546484896313586], [-74.12236501312613, 40.546709273296614]]}}, {"type": "Feature", "properties": {"segment_id": 1683415, "physicalid": "171377", "street_name": "BUFFALO ST", "borough": "staten_island", "direction": "TW", "total_row_ft": 64.8, "roadbed_ft": 34.8, "median_ft": 0.0, "left_sw_ft": 15.0, "right_sw_ft": 15.0}, "geometry": {"type": "LineString", "coordinates": [[-74.1221035176975, 40.54644241989872], [-74.12241128297799, 40.54667344043418]]}}, {"type": "Feature", "properties": {"segment_id": 1683416, "physicalid": "171377", "street_name": "BUFFALO ST", "borough": "staten_island", "direction": "TW", "total_row_ft": 65.1, "roadbed_ft": 35.1, "median_ft": 0.0, "left_sw_ft": 15.0, "right_sw_ft": 15.0}, "geometry": {"type": "LineString", "coordinates": [[-74.12215399178505, 40.54640329093185], [-74.1224617570598, 40.546634311332824]]}}, {"type": "Feature", "properties": {"segment_id": 1683417, "physicalid": "171377", "street_name": "BUFFALO ST", "borough": "staten_island", "direction": "TW", "total_row_ft": 65.1, "roadbed_ft": 35.1, "median_ft": 0.0, "left_sw_ft": 15.0, "right_sw_ft": 15.0}, "geometry": {"type": "LineString", "coordinates": [[-74.12220446581347, 40.54636416194269], [-74.1225122310825, 40.54659518220911]]}}, {"type": "Feature", "properties": {"segment_id": 1683418, "physicalid": "171377", "street_name": "BUFFALO ST", "borough": "staten_island", "direction": "TW", "total_row_ft": 64.8, "roadbed_ft": 34.8, "median_ft": 0.0, "left_sw_ft": 15.0, "right_sw_ft": 15.0}, "geometry": {"type": "LineString", "coordinates": [[-74.12229219666334, 40.546307906162745], [-74.12253383562793, 40.54658087406296]]}}, {"type": "Feature", "properties": {"segment_id": 1683419, "physicalid": "171377", "street_name": "BUFFALO ST", "borough": "staten_island", "direction": "TW", "total_row_ft": 64.5, "roadbed_ft": 34.5, "median_ft": 0.0, "left_sw_ft": 15.0, "right_sw_ft": 15.0}, "geometry": {"type": "LineString", "coordinates": [[-74.12235183537801, 40.54627718437922], [-74.1225934744751, 40.546550152154644]]}}, {"type": "Feature", "properties": {"segment_id": 1683420, "physicalid": "171377", "street_name": "BUFFALO ST", "borough": "staten_island", "direction": "TW", "total_row_ft": 64.0, "roadbed_ft": 34.0, "median_ft": 0.0, "left_sw_ft": 15.0, "right_sw_ft": 15.0}, "geometry": {"type": "LineString", "coordinates": [[-74.12241147403783, 40.54624646256466], [-74.12265311326745, 40.54651943021526]]}}, {"type": "Feature", "properties": {"segment_id": 1683421, "physicalid": "171377", "street_name": "BUFFALO ST", "borough": "staten_island", "direction": "TW", "total_row_ft": 64.4, "roadbed_ft": 34.4, "median_ft": 0.0, "left_sw_ft": 15.0, "right_sw_ft": 15.0}, "geometry": {"type": "LineString", "coordinates": [[-74.12247111264278, 40.54621574071906], [-74.12271275200497, 40.54648870824482]]}}, {"type": "Feature", "properties": {"segment_id": 1683422, "physicalid": "171377", "street_name": "BUFFALO ST", "borough": "staten_island", "direction": "TW", "total_row_ft": 64.7, "roadbed_ft": 34.7, "median_ft": 0.0, "left_sw_ft": 15.0, "right_sw_ft": 15.0}, "geometry": {"type": "LineString", "coordinates": [[-74.12253075119293, 40.54618501884239], [-74.12277239068764, 40.54645798624334]]}}, {"type": "Feature", "properties": {"segment_id": 1683423, "physicalid": "171377", "street_name": "BUFFALO ST", "borough": "staten_island", "direction": "TW", "total_row_ft": 64.2, "roadbed_ft": 34.2, "median_ft": 0.0, "left_sw_ft": 15.0, "right_sw_ft": 15.0}, "geometry": {"type": "LineString", "coordinates": [[-74.12259038968826, 40.54615429693466], [-74.12283202931545, 40.54642726421082]]}}, {"type": "Feature", "properties": {"segment_id": 1683424, "physicalid": "171377", "street_name": "BUFFALO ST", "borough": "staten_island", "direction": "TW", "total_row_ft": 64.3, "roadbed_ft": 34.3, "median_ft": 0.0, "left_sw_ft": 15.0, "right_sw_ft": 15.0}, "geometry": {"type": "LineString", "coordinates": [[-74.12265002812873, 40.54612357499588], [-74.12289166788844, 40.546396542147235]]}}, {"type": "Feature", "properties": {"segment_id": 1683425, "physicalid": "171377", "street_name": "BUFFALO ST", "borough": "staten_island", "direction": "TW", "total_row_ft": 64.4, "roadbed_ft": 34.4, "median_ft": 0.0, "left_sw_ft": 15.0, "right_sw_ft": 15.0}, "geometry": {"type": "LineString", "coordinates": [[-74.12270966651433, 40.54609285302608], [-74.12295130640662, 40.546365820052586]]}}, {"type": "Feature", "properties": {"segment_id": 1683426, "physicalid": "171377", "street_name": "BUFFALO ST", "borough": "staten_island", "direction": "TW", "total_row_ft": 64.0, "roadbed_ft": 34.4, "median_ft": 11.1, "left_sw_ft": 15.0, "right_sw_ft": 3.5}, "geometry": {"type": "LineString", "coordinates": [[-74.12276930484514, 40.5460621310252], [-74.12297499330425, 40.54629448567527]]}}, {"type": "Feature", "properties": {"segment_id": 1683427, "physicalid": "171377", "street_name": "BUFFALO ST", "borough": "staten_island", "direction": "TW", "total_row_ft": 65.1, "roadbed_ft": 34.5, "median_ft": 12.1, "left_sw_ft": 15.0, "right_sw_ft": 3.5}, "geometry": {"type": "LineString", "coordinates": [[-74.12282894312109, 40.54603140899328], [-74.12303478091606, 40.54626393210509]]}}, {"type": "Feature", "properties": {"segment_id": 1683428, "physicalid": "171377", "street_name": "BUFFALO ST", "borough": "staten_island", "direction": "TW", "total_row_ft": 65.2, "roadbed_ft": 34.5, "median_ft": 12.2, "left_sw_ft": 15.0, "right_sw_ft": 3.5}, "geometry": {"type": "LineString", "coordinates": [[-74.12288858134218, 40.54600068693031], [-74.12309456847323, 40.5462333785037]]}}, {"type": "Feature", "properties": {"segment_id": 1683429, "physicalid": "171377", "street_name": "BUFFALO ST", "borough": "staten_island", "direction": "TW", "total_row_ft": 64.8, "roadbed_ft": 34.5, "median_ft": 11.9, "left_sw_ft": 15.0, "right_sw_ft": 3.5}, "geometry": {"type": "LineString", "coordinates": [[-74.12294821950849, 40.54596996483629], [-74.1231543559757, 40.54620282487114]]}}, {"type": "Feature", "properties": {"segment_id": 1683430, "physicalid": "171377", "street_name": "BUFFALO ST", "borough": "staten_island", "direction": "TW", "total_row_ft": 64.4, "roadbed_ft": 34.4, "median_ft": 11.4, "left_sw_ft": 15.0, "right_sw_ft": 3.5}, "geometry": {"type": "LineString", "coordinates": [[-74.12300785761992, 40.54593924271122], [-74.12321414342351, 40.54617227120733]]}}, {"type": "Feature", "properties": {"segment_id": 1683431, "physicalid": "171377", "street_name": "BUFFALO ST", "borough": "staten_island", "direction": "TW", "total_row_ft": 75.2, "roadbed_ft": 34.5, "median_ft": 10.7, "left_sw_ft": 15.0, "right_sw_ft": 15.0}, "geometry": {"type": "LineString", "coordinates": [[-74.12306749567651, 40.5459085205551], [-74.12330913636394, 40.54618148683272]]}}, {"type": "Feature", "properties": {"segment_id": 1683432, "physicalid": "171377", "street_name": "BUFFALO ST", "borough": "staten_island", "direction": "TW", "total_row_ft": 74.5, "roadbed_ft": 34.5, "median_ft": 10.0, "left_sw_ft": 15.0, "right_sw_ft": 15.0}, "geometry": {"type": "LineString", "coordinates": [[-74.12312713367828, 40.5458777983679], [-74.1233687744982, 40.54615076452076]]}}, {"type": "Feature", "properties": {"segment_id": 1683433, "physicalid": "171377", "street_name": "BUFFALO ST", "borough": "staten_island", "direction": "TW", "total_row_ft": 73.8, "roadbed_ft": 34.5, "median_ft": 9.3, "left_sw_ft": 15.0, "right_sw_ft": 15.0}, "geometry": {"type": "LineString", "coordinates": [[-74.12318677162523, 40.54584707614968], [-74.12342841257765, 40.54612004217771]]}}, {"type": "Feature", "properties": {"segment_id": 1683434, "physicalid": "171377", "street_name": "BUFFALO ST", "borough": "staten_island", "direction": "TW", "total_row_ft": 73.1, "roadbed_ft": 34.5, "median_ft": 8.6, "left_sw_ft": 15.0, "right_sw_ft": 15.0}, "geometry": {"type": "LineString", "coordinates": [[-74.12324640951728, 40.54581635390043], [-74.12348805060228, 40.54608931980359]]}}, {"type": "Feature", "properties": {"segment_id": 1683435, "physicalid": "171377", "street_name": "BUFFALO ST", "borough": "staten_island", "direction": "TW", "total_row_ft": 72.5, "roadbed_ft": 34.6, "median_ft": 7.9, "left_sw_ft": 15.0, "right_sw_ft": 15.0}, "geometry": {"type": "LineString", "coordinates": [[-74.12330604735453, 40.5457856316201], [-74.12354768857205, 40.54605859739848]]}}, {"type": "Feature", "properties": {"segment_id": 1683436, "physicalid": "171377", "street_name": "BUFFALO ST", "borough": "staten_island", "direction": "TW", "total_row_ft": 71.9, "roadbed_ft": 34.7, "median_ft": 7.2, "left_sw_ft": 15.0, "right_sw_ft": 15.0}, "geometry": {"type": "LineString", "coordinates": [[-74.12336568513696, 40.545754909308705], [-74.12360732648695, 40.546027874962284]]}}, {"type": "Feature", "properties": {"segment_id": 1683437, "physicalid": "171377", "street_name": "BUFFALO ST", "borough": "staten_island", "direction": "TW", "total_row_ft": 71.3, "roadbed_ft": 34.8, "median_ft": 6.5, "left_sw_ft": 15.0, "right_sw_ft": 15.0}, "geometry": {"type": "LineString", "coordinates": [[-74.12342532286452, 40.5457241869663], [-74.12366696434707, 40.54599715249505]]}}, {"type": "Feature", "properties": {"segment_id": 1683438, "physicalid": "171377", "street_name": "BUFFALO ST", "borough": "staten_island", "direction": "TW", "total_row_ft": 59.6, "roadbed_ft": 34.9, "median_ft": 5.8, "left_sw_ft": 15.0, "right_sw_ft": 3.8}, "geometry": {"type": "LineString", "coordinates": [[-74.12348496053725, 40.54569346459282], [-74.12368924604651, 40.545924231631325]]}}, {"type": "Feature", "properties": {"segment_id": 1683439, "physicalid": "171377", "street_name": "BUFFALO ST", "borough": "staten_island", "direction": "TW", "total_row_ft": 59.4, "roadbed_ft": 35.0, "median_ft": 5.2, "left_sw_ft": 15.0, "right_sw_ft": 4.2}, "geometry": {"type": "LineString", "coordinates": [[-74.12354459815518, 40.54566274218828], [-74.12374891726736, 40.54589354695345]]}}, {"type": "Feature", "properties": {"segment_id": 1683440, "physicalid": "171377", "street_name": "BUFFALO ST", "borough": "staten_island", "direction": "TW", "total_row_ft": 58.8, "roadbed_ft": 35.1, "median_ft": 4.5, "left_sw_ft": 15.0, "right_sw_ft": 4.2}, "geometry": {"type": "LineString", "coordinates": [[-74.12360423571825, 40.545632019752695], [-74.12380858876229, 40.545862862615984]]}}, {"type": "Feature", "properties": {"segment_id": 1683441, "physicalid": "171377", "street_name": "BUFFALO ST", "borough": "staten_island", "direction": "TW", "total_row_ft": 58.2, "roadbed_ft": 35.2, "median_ft": 3.8, "left_sw_ft": 15.0, "right_sw_ft": 4.2}, "geometry": {"type": "LineString", "coordinates": [[-74.12366387322643, 40.545601297286105], [-74.12386827267936, 40.54583219234163]]}}, {"type": "Feature", "properties": {"segment_id": 1683442, "physicalid": "171377", "street_name": "BUFFALO ST", "borough": "staten_island", "direction": "TW", "total_row_ft": 83.5, "roadbed_ft": 35.2, "median_ft": 3.1, "left_sw_ft": 15.0, "right_sw_ft": 30.2}, "geometry": {"type": "LineString", "coordinates": [[-74.12372351067985, 40.54557057478839], [-74.12392795654159, 40.545801522036186]]}}, {"type": "Feature", "properties": {"segment_id": 1683443, "physicalid": "171377", "street_name": "BUFFALO ST", "borough": "staten_island", "direction": "TW", "total_row_ft": 67.5, "roadbed_ft": 35.2, "median_ft": 2.3, "left_sw_ft": 15.0, "right_sw_ft": 15.0}, "geometry": {"type": "LineString", "coordinates": [[-74.1237831480784, 40.54553985225968], [-74.124024790356, 40.54581281703955]]}}, {"type": "Feature", "properties": {"segment_id": 1683444, "physicalid": "171377", "street_name": "BUFFALO ST", "borough": "staten_island", "direction": "TW", "total_row_ft": 66.5, "roadbed_ft": 35.2, "median_ft": 1.3, "left_sw_ft": 15.0, "right_sw_ft": 15.0}, "geometry": {"type": "LineString", "coordinates": [[-74.12384278542208, 40.5455091296999], [-74.12408442783224, 40.545782094354934]]}}, {"type": "Feature", "properties": {"segment_id": 1683445, "physicalid": "171377", "street_name": "BUFFALO ST", "borough": "staten_island", "direction": "TW", "total_row_ft": 65.5, "roadbed_ft": 35.2, "median_ft": 0.3, "left_sw_ft": 15.0, "right_sw_ft": 15.0}, "geometry": {"type": "LineString", "coordinates": [[-74.12390242271098, 40.54547840710906], [-74.12414406525362, 40.545751371639334]]}}, {"type": "Feature", "properties": {"segment_id": 1683446, "physicalid": "171377", "street_name": "BUFFALO ST", "borough": "staten_island", "direction": "TW", "total_row_ft": 65.1, "roadbed_ft": 35.1, "median_ft": 0.0, "left_sw_ft": 15.0, "right_sw_ft": 15.0}, "geometry": {"type": "LineString", "coordinates": [[-74.12396205994501, 40.54544768448719], [-74.12420370262016, 40.54572064889264]]}}, {"type": "Feature", "properties": {"segment_id": 1683447, "physicalid": "171377", "street_name": "BUFFALO ST", "borough": "staten_island", "direction": "TW", "total_row_ft": 65.1, "roadbed_ft": 35.1, "median_ft": 0.0, "left_sw_ft": 15.0, "right_sw_ft": 15.0}, "geometry": {"type": "LineString", "coordinates": [[-74.12402169712419, 40.54541696183426], [-74.1242633399319, 40.545689926114875]]}}, {"type": "Feature", "properties": {"segment_id": 1683448, "physicalid": "171377", "street_name": "BUFFALO ST", "borough": "staten_island", "direction": "TW", "total_row_ft": 65.2, "roadbed_ft": 35.2, "median_ft": 0.0, "left_sw_ft": 15.0, "right_sw_ft": 15.0}, "geometry": {"type": "LineString", "coordinates": [[-74.12408133424859, 40.54538623915028], [-74.12432297718874, 40.54565920330608]]}}, {"type": "Feature", "properties": {"segment_id": 1683449, "physicalid": "171377", "street_name": "BUFFALO ST", "borough": "staten_island", "direction": "TW", "total_row_ft": 66.6, "roadbed_ft": 36.6, "median_ft": 0.0, "left_sw_ft": 15.0, "right_sw_ft": 15.0}, "geometry": {"type": "LineString", "coordinates": [[-74.12414097131811, 40.54535551643526], [-74.12438261439078, 40.54562848046626]]}}, {"type": "Feature", "properties": {"segment_id": 1683450, "physicalid": "171377", "street_name": "BUFFALO ST", "borough": "staten_island", "direction": "TW", "total_row_ft": 68.0, "roadbed_ft": 38.0, "median_ft": 0.0, "left_sw_ft": 15.0, "right_sw_ft": 15.0}, "geometry": {"type": "LineString", "coordinates": [[-74.12420060833277, 40.54532479368919], [-74.12444225153801, 40.54559775759534]]}}, {"type": "Feature", "properties": {"segment_id": 1683451, "physicalid": "171377", "street_name": "BUFFALO ST", "borough": "staten_island", "direction": "TW", "total_row_ft": 69.3, "roadbed_ft": 39.3, "median_ft": 0.0, "left_sw_ft": 15.0, "right_sw_ft": 15.0}, "geometry": {"type": "LineString", "coordinates": [[-74.12426024529262, 40.54529407091208], [-74.12450188863036, 40.54556703469342]]}}, {"type": "Feature", "properties": {"segment_id": 1683452, "physicalid": "171377", "street_name": "BUFFALO ST", "borough": "staten_island", "direction": "TW", "total_row_ft": 70.9, "roadbed_ft": 40.9, "median_ft": 0.0, "left_sw_ft": 15.0, "right_sw_ft": 15.0}, "geometry": {"type": "LineString", "coordinates": [[-74.12431988219765, 40.54526334810389], [-74.12456152566787, 40.54553631176042]]}}, {"type": "Feature", "properties": {"segment_id": 1683453, "physicalid": "171377", "street_name": "BUFFALO ST", "borough": "staten_island", "direction": "TW", "total_row_ft": 72.8, "roadbed_ft": 42.8, "median_ft": 0.0, "left_sw_ft": 15.0, "right_sw_ft": 15.0}, "geometry": {"type": "LineString", "coordinates": [[-74.12437471050538, 40.545234535190886], [-74.12462519233102, 40.54550282224071]]}}, {"type": "Feature", "properties": {"segment_id": 1683454, "physicalid": "171377", "street_name": "BUFFALO ST", "borough": "staten_island", "direction": "TW", "total_row_ft": 74.3, "roadbed_ft": 44.3, "median_ft": 0.0, "left_sw_ft": 15.0, "right_sw_ft": 15.0}, "geometry": {"type": "LineString", "coordinates": [[-74.12443332559349, 40.545202688617636], [-74.12468380753509, 40.54547097554031]]}}, {"type": "Feature", "properties": {"segment_id": 1683455, "physicalid": "171377", "street_name": "BUFFALO ST", "borough": "staten_island", "direction": "TW", "total_row_ft": 75.2, "roadbed_ft": 45.2, "median_ft": 0.0, "left_sw_ft": 15.0, "right_sw_ft": 15.0}, "geometry": {"type": "LineString", "coordinates": [[-74.12448353469205, 40.54517551585957], [-74.12475066481572, 40.545434288140704]]}}, {"type": "Feature", "properties": {"segment_id": 1683456, "physicalid": "171377", "street_name": "BUFFALO ST", "borough": "staten_island", "direction": "TW", "total_row_ft": 75.5, "roadbed_ft": 45.5, "median_ft": 0.0, "left_sw_ft": 15.0, "right_sw_ft": 15.0}, "geometry": {"type": "LineString", "coordinates": [[-74.12454007096125, 40.5451415525679], [-74.12480720116805, 40.545400324718244]]}}, {"type": "Feature", "properties": {"segment_id": 1683457, "physicalid": "171377", "street_name": "BUFFALO ST", "borough": "staten_island", "direction": "TW", "total_row_ft": 75.9, "roadbed_ft": 45.9, "median_ft": 0.0, "left_sw_ft": 15.0, "right_sw_ft": 15.0}, "geometry": {"type": "LineString", "coordinates": [[-74.12459660717296, 40.545107589248296], [-74.12486373746293, 40.54536636126784]]}}, {"type": "Feature", "properties": {"segment_id": 1683458, "physicalid": "171377", "street_name": "BUFFALO ST", "borough": "staten_island", "direction": "TW", "total_row_ft": 76.0, "roadbed_ft": 46.0, "median_ft": 0.0, "left_sw_ft": 15.0, "right_sw_ft": 15.0}, "geometry": {"type": "LineString", "coordinates": [[-74.12464358758201, 40.54507726179401], [-74.12492674592318, 40.545325918511]]}}, {"type": "Feature", "properties": {"segment_id": 1683459, "physicalid": "171377", "street_name": "BUFFALO ST", "borough": "staten_island", "direction": "TW", "total_row_ft": 76.2, "roadbed_ft": 46.2, "median_ft": 0.0, "left_sw_ft": 15.0, "right_sw_ft": 15.0}, "geometry": {"type": "LineString", "coordinates": [[-74.12469791374346, 40.54504126059596], [-74.12498107213428, 40.54528991717969]]}}, {"type": "Feature", "properties": {"segment_id": 1683460, "physicalid": "171377", "street_name": "BUFFALO ST", "borough": "staten_island", "direction": "TW", "total_row_ft": 75.9, "roadbed_ft": 45.9, "median_ft": 0.0, "left_sw_ft": 15.0, "right_sw_ft": 15.0}, "geometry": {"type": "LineString", "coordinates": [[-74.12474372304791, 40.545009910072345], [-74.12504225231713, 40.545247874082804]]}}, {"type": "Feature", "properties": {"segment_id": 1683461, "physicalid": "171377", "street_name": "BUFFALO ST", "borough": "staten_island", "direction": "TW", "total_row_ft": 75.3, "roadbed_ft": 45.3, "median_ft": 0.0, "left_sw_ft": 15.0, "right_sw_ft": 15.0}, "geometry": {"type": "LineString", "coordinates": [[-74.1247957130398, 40.544971954547485], [-74.1250942423246, 40.54520991842352]]}}, {"type": "Feature", "properties": {"segment_id": 1683462, "physicalid": "171377", "street_name": "BUFFALO ST", "borough": "staten_island", "direction": "TW", "total_row_ft": 74.6, "roadbed_ft": 44.6, "median_ft": 0.0, "left_sw_ft": 15.0, "right_sw_ft": 15.0}, "geometry": {"type": "LineString", "coordinates": [[-74.12484032938735, 40.54493959497489], [-74.12515353643597, 40.54516631401126]]}}, {"type": "Feature", "properties": {"segment_id": 1683463, "physicalid": "171377", "street_name": "BUFFALO ST", "borough": "staten_island", "direction": "TW", "total_row_ft": 74.6, "roadbed_ft": 44.6, "median_ft": 0.0, "left_sw_ft": 15.0, "right_sw_ft": 15.0}, "geometry": {"type": "LineString", "coordinates": [[-74.12488986255424, 40.544899773244744], [-74.12520306958427, 40.545126492146736]]}}, {"type": "Feature", "properties": {"segment_id": 1683464, "physicalid": "171377", "street_name": "BUFFALO ST", "borough": "staten_island", "direction": "TW", "total_row_ft": 74.6, "roadbed_ft": 44.6, "median_ft": 0.0, "left_sw_ft": 15.0, "right_sw_ft": 15.0}, "geometry": {"type": "LineString", "coordinates": [[-74.12493939566212, 40.544859951493066], [-74.12525260267351, 40.54508667026072]]}}, {"type": "Feature", "properties": {"segment_id": 1683465, "physicalid": "171377", "street_name": "BUFFALO ST", "borough": "staten_island", "direction": "TW", "total_row_ft": 76.3, "roadbed_ft": 46.3, "median_ft": 0.0, "left_sw_ft": 15.0, "right_sw_ft": 15.0}, "geometry": {"type": "LineString", "coordinates": [[-74.1249802242361, 40.544824822594755], [-74.12530738192882, 40.545039770271046]]}}, {"type": "Feature", "properties": {"segment_id": 1683466, "physicalid": "171377", "street_name": "BUFFALO ST", "borough": "staten_island", "direction": "TW", "total_row_ft": 99.7, "roadbed_ft": 69.7, "median_ft": 0.0, "left_sw_ft": 15.0, "right_sw_ft": 15.0}, "geometry": {"type": "LineString", "coordinates": [[-74.12502718554838, 40.54478322707603], [-74.12535434318856, 40.5449981746192]]}}, {"type": "Feature", "properties": {"segment_id": 1683467, "physicalid": "171377", "street_name": "BUFFALO ST", "borough": "staten_island", "direction": "TW", "total_row_ft": 111.9, "roadbed_ft": 81.9, "median_ft": 0.0, "left_sw_ft": 15.0, "right_sw_ft": 15.0}, "geometry": {"type": "LineString", "coordinates": [[-74.12506869111259, 40.544745647027085], [-74.12540548291831, 40.54495175351756]]}}, {"type": "Feature", "properties": {"segment_id": 1683468, "physicalid": "171377", "street_name": "BUFFALO ST", "borough": "staten_island", "direction": "TW", "total_row_ft": 105.0, "roadbed_ft": 75.0, "median_ft": 0.0, "left_sw_ft": 15.0, "right_sw_ft": 15.0}, "geometry": {"type": "LineString", "coordinates": [[-74.12509845491562, 40.54471155404406], [-74.12545687273446, 40.54489521251336]]}}, {"type": "Feature", "properties": {"segment_id": 1683469, "physicalid": "171377", "street_name": "BUFFALO ST", "borough": "staten_island", "direction": "TW", "total_row_ft": 74.9, "roadbed_ft": 44.9, "median_ft": 0.0, "left_sw_ft": 15.0, "right_sw_ft": 15.0}, "geometry": {"type": "LineString", "coordinates": [[-74.12513858019275, 40.54466598395147], [-74.12549699787746, 40.54484964229621]]}}, {"type": "Feature", "properties": {"segment_id": 1683470, "physicalid": "171377", "street_name": "BUFFALO ST", "borough": "staten_island", "direction": "TW", "total_row_ft": 65.2, "roadbed_ft": 35.2, "median_ft": 0.0, "left_sw_ft": 15.0, "right_sw_ft": 15.0}, "geometry": {"type": "LineString", "coordinates": [[-74.12517870541517, 40.54462041384469], [-74.12553712296574, 40.544804072064856]]}}, {"type": "Feature", "properties": {"segment_id": 1683471, "physicalid": "171377", "street_name": "BUFFALO ST", "borough": "staten_island", "direction": "TW", "total_row_ft": 64.9, "roadbed_ft": 34.9, "median_ft": 0.0, "left_sw_ft": 15.0, "right_sw_ft": 15.0}, "geometry": {"type": "LineString", "coordinates": [[-74.12520709747925, 40.544585773847736], [-74.12558466045553, 40.54474555548627]]}}, {"type": "Feature", "properties": {"segment_id": 1683472, "physicalid": "171377", "street_name": "BUFFALO ST", "borough": "staten_island", "direction": "TW", "total_row_ft": 64.7, "roadbed_ft": 34.7, "median_ft": 0.0, "left_sw_ft": 15.0, "right_sw_ft": 15.0}, "geometry": {"type": "LineString", "coordinates": [[-74.1252420061636, 40.544537769488436], [-74.12561956895213, 40.544697551012824]]}}, {"type": "Feature", "properties": {"segment_id": 1683473, "physicalid": "171377", "street_name": "BUFFALO ST", "borough": "staten_island", "direction": "TW", "total_row_ft": 64.5, "roadbed_ft": 34.5, "median_ft": 0.0, "left_sw_ft": 15.0, "right_sw_ft": 15.0}, "geometry": {"type": "LineString", "coordinates": [[-74.12527691479784, 40.544489765118314], [-74.12565447739856, 40.544649546528596]]}}, {"type": "Feature", "properties": {"segment_id": 1683474, "physicalid": "171377", "street_name": "BUFFALO ST", "borough": "staten_island", "direction": "TW", "total_row_ft": 64.4, "roadbed_ft": 34.4, "median_ft": 0.0, "left_sw_ft": 15.0, "right_sw_ft": 15.0}, "geometry": {"type": "LineString", "coordinates": [[-74.12531182338188, 40.54444176073746], [-74.12568938579489, 40.544601542033526]]}}, {"type": "Feature", "properties": {"segment_id": 1683475, "physicalid": "171377", "street_name": "BUFFALO ST", "borough": "staten_island", "direction": "TW", "total_row_ft": 64.2, "roadbed_ft": 34.2, "median_ft": 0.0, "left_sw_ft": 15.0, "right_sw_ft": 15.0}, "geometry": {"type": "LineString", "coordinates": [[-74.1253335326465, 40.5444043995059], [-74.12572754506357, 40.5445390974751]]}}, {"type": "Feature", "properties": {"segment_id": 1683476, "physicalid": "171377", "street_name": "BUFFALO ST", "borough": "staten_island", "direction": "TW", "total_row_ft": 64.2, "roadbed_ft": 34.2, "median_ft": 0.0, "left_sw_ft": 15.0, "right_sw_ft": 15.0}, "geometry": {"type": "LineString", "coordinates": [[-74.12536296106694, 40.544354303567275], [-74.12575697324797, 40.544489001436055]]}}, {"type": "Feature", "properties": {"segment_id": 1683477, "physicalid": "171377", "street_name": "BUFFALO ST", "borough": "staten_island", "direction": "TW", "total_row_ft": 64.2, "roadbed_ft": 34.2, "median_ft": 0.0, "left_sw_ft": 15.0, "right_sw_ft": 15.0}, "geometry": {"type": "LineString", "coordinates": [[-74.12539238944326, 40.54430420762092], [-74.12578640138824, 40.54443890538926]]}}, {"type": "Feature", "properties": {"segment_id": 1683478, "physicalid": "171377", "street_name": "BUFFALO ST", "borough": "staten_island", "direction": "TW", "total_row_ft": 64.2, "roadbed_ft": 34.2, "median_ft": 0.0, "left_sw_ft": 15.0, "right_sw_ft": 15.0}, "geometry": {"type": "LineString", "coordinates": [[-74.12541275288037, 40.54426642259786], [-74.12582033339929, 40.54437511354296]]}}, {"type": "Feature", "properties": {"segment_id": 1683479, "physicalid": "171377", "street_name": "BUFFALO ST", "borough": "staten_island", "direction": "TW", "total_row_ft": 86.3, "roadbed_ft": 34.2, "median_ft": 0.0, "left_sw_ft": 41.9, "right_sw_ft": 10.2}, "geometry": {"type": "LineString", "coordinates": [[-74.12543649935077, 40.544214601443144], [-74.12584407959224, 40.54432329230441]]}}, {"type": "Feature", "properties": {"segment_id": 1683480, "physicalid": "171377", "street_name": "BUFFALO ST", "borough": "staten_island", "direction": "TW", "total_row_ft": 64.6, "roadbed_ft": 34.4, "median_ft": 0.2, "left_sw_ft": 15.0, "right_sw_ft": 15.0}, "geometry": {"type": "LineString", "coordinates": [[-74.12546024578432, 40.544162780283344], [-74.12586782574839, 40.544271471060725]]}}, {"type": "Feature", "properties": {"segment_id": 1683481, "physicalid": "171377", "street_name": "BUFFALO ST", "borough": "staten_island", "direction": "TW", "total_row_ft": 67.7, "roadbed_ft": 34.6, "median_ft": 3.1, "left_sw_ft": 15.0, "right_sw_ft": 15.0}, "geometry": {"type": "LineString", "coordinates": [[-74.12548399218107, 40.54411095911837], [-74.1258915718677, 40.54421964981191]]}}, {"type": "Feature", "properties": {"segment_id": 1683482, "physicalid": "171377", "street_name": "BUFFALO ST", "borough": "staten_island", "direction": "TW", "total_row_ft": 69.6, "roadbed_ft": 34.5, "median_ft": 5.1, "left_sw_ft": 15.0, "right_sw_ft": 15.0}, "geometry": {"type": "LineString", "coordinates": [[-74.1254971701635, 40.544071236500834], [-74.1259153228086, 40.54415328983294]]}}, {"type": "Feature", "properties": {"segment_id": 1683483, "physicalid": "171377", "street_name": "BUFFALO ST", "borough": "staten_island", "direction": "TW", "total_row_ft": 71.5, "roadbed_ft": 34.5, "median_ft": 7.0, "left_sw_ft": 15.0, "right_sw_ft": 15.0}, "geometry": {"type": "LineString", "coordinates": [[-74.12551509692246, 40.54401807099428], [-74.12593324925686, 40.54410012426153]]}}, {"type": "Feature", "properties": {"segment_id": 1683484, "physicalid": "171377", "street_name": "BUFFALO ST", "borough": "staten_island", "direction": "TW", "total_row_ft": 73.1, "roadbed_ft": 34.3, "median_ft": 8.8, "left_sw_ft": 15.0, "right_sw_ft": 15.0}, "geometry": {"type": "LineString", "coordinates": [[-74.12553302365286, 40.54396490548476], [-74.12595117567663, 40.544046958687034]]}}, {"type": "Feature", "properties": {"segment_id": 1683485, "physicalid": "171377", "street_name": "BUFFALO ST", "borough": "staten_island", "direction": "TW", "total_row_ft": 73.9, "roadbed_ft": 34.4, "median_ft": 9.5, "left_sw_ft": 15.0, "right_sw_ft": 15.0}, "geometry": {"type": "LineString", "coordinates": [[-74.12554235826676, 40.543930415640865], [-74.12597032128758, 40.54397402246543]]}}, {"type": "Feature", "properties": {"segment_id": 1683486, "physicalid": "171377", "street_name": "BUFFALO ST", "borough": "staten_island", "direction": "TW", "total_row_ft": 59.5, "roadbed_ft": 34.0, "median_ft": 9.0, "left_sw_ft": 1.4, "right_sw_ft": 15.0}, "geometry": {"type": "LineString", "coordinates": [[-74.12555188541674, 40.543876002660625], [-74.12597984809534, 40.543919609449794]]}}, {"type": "Feature", "properties": {"segment_id": 1683487, "physicalid": "171377", "street_name": "BUFFALO ST", "borough": "staten_island", "direction": "TW", "total_row_ft": 64.5, "roadbed_ft": 33.7, "median_ft": 8.6, "left_sw_ft": 7.1, "right_sw_ft": 15.0}, "geometry": {"type": "LineString", "coordinates": [[-74.12556141255122, 40.543821589679254], [-74.12598937488755, 40.54386519643317]]}}, {"type": "Feature", "properties": {"segment_id": 1683488, "physicalid": "171377", "street_name": "BUFFALO ST", "borough": "staten_island", "direction": "TW", "total_row_ft": 68.1, "roadbed_ft": 32.9, "median_ft": 8.6, "left_sw_ft": 11.6, "right_sw_ft": 15.0}, "geometry": {"type": "LineString", "coordinates": [[-74.12557411791616, 40.5437675005469], [-74.12599890166426, 40.54381078341552]]}}, {"type": "Feature", "properties": {"segment_id": 1683489, "physicalid": "171377", "street_name": "BUFFALO ST", "borough": "staten_island", "direction": "TW", "total_row_ft": 65.9, "roadbed_ft": 31.8, "median_ft": 7.6, "left_sw_ft": 11.5, "right_sw_ft": 15.0}, "geometry": {"type": "LineString", "coordinates": [[-74.1255982751015, 40.54371457830655], [-74.12600842842546, 40.54375637039679]]}}, {"type": "Feature", "properties": {"segment_id": 1683490, "physicalid": "171377", "street_name": "BUFFALO ST", "borough": "staten_island", "direction": "TW", "total_row_ft": 63.5, "roadbed_ft": 30.7, "median_ft": 6.4, "left_sw_ft": 11.4, "right_sw_ft": 15.0}, "geometry": {"type": "LineString", "coordinates": [[-74.12561811483462, 40.54366121613549], [-74.12601795517114, 40.54370195737708]]}}, {"type": "Feature", "properties": {"segment_id": 1683491, "physicalid": "171377", "street_name": "BUFFALO ST", "borough": "staten_island", "direction": "TW", "total_row_ft": 60.7, "roadbed_ft": 29.5, "median_ft": 5.1, "left_sw_ft": 11.1, "right_sw_ft": 15.0}, "geometry": {"type": "LineString", "coordinates": [[-74.12563427362839, 40.54360747889291], [-74.1260274819013, 40.54364754435632]]}}, {"type": "Feature", "properties": {"segment_id": 1683492, "physicalid": "171377", "street_name": "BUFFALO ST", "borough": "staten_island", "direction": "TW", "total_row_ft": 57.9, "roadbed_ft": 28.5, "median_ft": 3.9, "left_sw_ft": 10.5, "right_sw_ft": 15.0}, "geometry": {"type": "LineString", "coordinates": [[-74.12564685152326, 40.543553376773076], [-74.12603700861595, 40.54359313133453]]}}, {"type": "Feature", "properties": {"segment_id": 1683493, "physicalid": "171377", "street_name": "BUFFALO ST", "borough": "staten_island", "direction": "TW", "total_row_ft": 56.9, "roadbed_ft": 28.5, "median_ft": 3.1, "left_sw_ft": 10.2, "right_sw_ft": 15.0}, "geometry": {"type": "LineString", "coordinates": [[-74.12565592285696, 40.54349891735095], [-74.1260465353151, 40.54353871831171]]}}, {"type": "Feature", "properties": {"segment_id": 1683494, "physicalid": "171377", "street_name": "BUFFALO ST", "borough": "staten_island", "direction": "TW", "total_row_ft": 56.4, "roadbed_ft": 28.8, "median_ft": 2.3, "left_sw_ft": 10.3, "right_sw_ft": 15.0}, "geometry": {"type": "LineString", "coordinates": [[-74.1256639719906, 40.54344435377182], [-74.12605606199871, 40.543484305287855]]}}, {"type": "Feature", "properties": {"segment_id": 1683495, "physicalid": "171377", "street_name": "BUFFALO ST", "borough": "staten_island", "direction": "TW", "total_row_ft": 56.3, "roadbed_ft": 29.6, "median_ft": 1.5, "left_sw_ft": 10.3, "right_sw_ft": 15.0}, "geometry": {"type": "LineString", "coordinates": [[-74.1256720387347, 40.54338979198764], [-74.12606558866682, 40.54342989226299]]}}, {"type": "Feature", "properties": {"segment_id": 1683496, "physicalid": "171377", "street_name": "BUFFALO ST", "borough": "staten_island", "direction": "TW", "total_row_ft": 57.1, "roadbed_ft": 30.9, "median_ft": 0.9, "left_sw_ft": 10.4, "right_sw_ft": 15.0}, "geometry": {"type": "LineString", "coordinates": [[-74.12567983702795, 40.5433352028501], [-74.12607511531942, 40.543375479237035]]}}, {"type": "Feature", "properties": {"segment_id": 1683497, "physicalid": "171377", "street_name": "BUFFALO ST", "borough": "staten_island", "direction": "TW", "total_row_ft": 58.2, "roadbed_ft": 32.3, "median_ft": 0.3, "left_sw_ft": 10.6, "right_sw_ft": 15.0}, "geometry": {"type": "LineString", "coordinates": [[-74.12568719966252, 40.54328056932134], [-74.1260846419565, 40.543321066210126]]}}, {"type": "Feature", "properties": {"segment_id": 1683498, "physicalid": "171377", "street_name": "BUFFALO ST", "borough": "staten_island", "direction": "TW", "total_row_ft": 58.8, "roadbed_ft": 32.9, "median_ft": 0.0, "left_sw_ft": 10.9, "right_sw_ft": 15.0}, "geometry": {"type": "LineString", "coordinates": [[-74.1256942972998, 40.54322590879106], [-74.12609416857806, 40.54326665318216]]}}, {"type": "Feature", "properties": {"segment_id": 1683499, "physicalid": "171377", "street_name": "BUFFALO ST", "borough": "staten_island", "direction": "TW", "total_row_ft": 60.0, "roadbed_ft": 33.8, "median_ft": 0.0, "left_sw_ft": 11.3, "right_sw_ft": 15.0}, "geometry": {"type": "LineString", "coordinates": [[-74.12570112985156, 40.543171221250276], [-74.12610369518413, 40.543212240153146]]}}, {"type": "Feature", "properties": {"segment_id": 1683500, "physicalid": "171377", "street_name": "BUFFALO ST", "borough": "staten_island", "direction": "TW", "total_row_ft": 60.8, "roadbed_ft": 34.1, "median_ft": 0.0, "left_sw_ft": 11.7, "right_sw_ft": 15.0}, "geometry": {"type": "LineString", "coordinates": [[-74.12570760991603, 40.54311649779301], [-74.12611322177465, 40.543157827123146]]}}, {"type": "Feature", "properties": {"segment_id": 1683501, "physicalid": "171377", "street_name": "BUFFALO ST", "borough": "staten_island", "direction": "TW", "total_row_ft": 61.1, "roadbed_ft": 33.9, "median_ft": 0.0, "left_sw_ft": 12.1, "right_sw_ft": 15.0}, "geometry": {"type": "LineString", "coordinates": [[-74.12571285277244, 40.543061648270125], [-74.12612274834969, 40.54310341409209]]}}, {"type": "Feature", "properties": {"segment_id": 1683502, "physicalid": "171377", "street_name": "BUFFALO ST", "borough": "staten_island", "direction": "TW", "total_row_ft": 60.8, "roadbed_ft": 33.8, "median_ft": 0.0, "left_sw_ft": 12.0, "right_sw_ft": 15.0}, "geometry": {"type": "LineString", "coordinates": [[-74.1257149431111, 40.54300647751963], [-74.1261322749092, 40.54304900105996]]}}, {"type": "Feature", "properties": {"segment_id": 1683503, "physicalid": "171377", "street_name": "BUFFALO ST", "borough": "staten_island", "direction": "TW", "total_row_ft": 69.2, "roadbed_ft": 43.0, "median_ft": 0.0, "left_sw_ft": 11.1, "right_sw_ft": 15.0}, "geometry": {"type": "LineString", "coordinates": [[-74.1257138445929, 40.54295098183801], [-74.12614180145319, 40.54299458802688]]}}, {"type": "Feature", "properties": {"segment_id": 1683504, "physicalid": "171377", "street_name": "BUFFALO ST", "borough": "staten_island", "direction": "TW", "total_row_ft": 99.6, "roadbed_ft": 74.5, "median_ft": 0.0, "left_sw_ft": 10.1, "right_sw_ft": 15.0}, "geometry": {"type": "LineString", "coordinates": [[-74.12572337146362, 40.54289656883919], [-74.12615132798166, 40.54294017499276]]}}, {"type": "Feature", "properties": {"segment_id": 1683505, "physicalid": "171377", "street_name": "BUFFALO ST", "borough": "staten_island", "direction": "TW", "total_row_ft": 112.8, "roadbed_ft": 75.2, "median_ft": 0.0, "left_sw_ft": 22.6, "right_sw_ft": 15.0}, "geometry": {"type": "LineString", "coordinates": [[-74.12573289831883, 40.54284215583935], [-74.12616085449464, 40.54288576195754]]}}, {"type": "Feature", "properties": {"segment_id": 1683506, "physicalid": "171377", "street_name": "BUFFALO ST", "borough": "staten_island", "direction": "TW", "total_row_ft": 45.1, "roadbed_ft": 23.2, "median_ft": 0.0, "left_sw_ft": 6.9, "right_sw_ft": 15.0}, "geometry": {"type": "LineString", "coordinates": [[-74.12574242515853, 40.54278774283845], [-74.1261703809921, 40.54283134892136]]}}, {"type": "Feature", "properties": {"segment_id": 1683507, "physicalid": "171377", "street_name": "BUFFALO ST", "borough": "staten_island", "direction": "TW", "total_row_ft": 52.8, "roadbed_ft": 22.8, "median_ft": 0.0, "left_sw_ft": 15.0, "right_sw_ft": 15.0}, "geometry": {"type": "LineString", "coordinates": [[-74.12575195198272, 40.54273332983652], [-74.12617990747403, 40.54277693588414]]}}, {"type": "Feature", "properties": {"segment_id": 1683508, "physicalid": "171377", "street_name": "BUFFALO ST", "borough": "staten_island", "direction": "TW", "total_row_ft": 53.0, "roadbed_ft": 23.0, "median_ft": 0.0, "left_sw_ft": 15.0, "right_sw_ft": 15.0}, "geometry": {"type": "LineString", "coordinates": [[-74.12576147879139, 40.542678916833616], [-74.12618943394047, 40.542722522845835]]}}, {"type": "Feature", "properties": {"segment_id": 1683509, "physicalid": "171377", "street_name": "BUFFALO ST", "borough": "staten_island", "direction": "TW", "total_row_ft": 52.8, "roadbed_ft": 22.8, "median_ft": 0.0, "left_sw_ft": 15.0, "right_sw_ft": 15.0}, "geometry": {"type": "LineString", "coordinates": [[-74.12577100558455, 40.5426245038296], [-74.12619896039138, 40.542668109806606]]}}, {"type": "Feature", "properties": {"segment_id": 1683510, "physicalid": "171377", "street_name": "BUFFALO ST", "borough": "staten_island", "direction": "TW", "total_row_ft": 52.8, "roadbed_ft": 22.8, "median_ft": 0.0, "left_sw_ft": 15.0, "right_sw_ft": 15.0}, "geometry": {"type": "LineString", "coordinates": [[-74.1257805323622, 40.54257009082459], [-74.12620848682677, 40.54261369676627]]}}, {"type": "Feature", "properties": {"segment_id": 1683511, "physicalid": "171377", "street_name": "BUFFALO ST", "borough": "staten_island", "direction": "TW", "total_row_ft": 52.9, "roadbed_ft": 22.9, "median_ft": 0.0, "left_sw_ft": 15.0, "right_sw_ft": 15.0}, "geometry": {"type": "LineString", "coordinates": [[-74.12579005912433, 40.54251567781859], [-74.12621801324666, 40.54255928372489]]}}, {"type": "Feature", "properties": {"segment_id": 1683512, "physicalid": "171377", "street_name": "BUFFALO ST", "borough": "staten_island", "direction": "TW", "total_row_ft": 52.5, "roadbed_ft": 22.5, "median_ft": 0.0, "left_sw_ft": 15.0, "right_sw_ft": 15.0}, "geometry": {"type": "LineString", "coordinates": [[-74.12579958587095, 40.54246126481149], [-74.12622753965103, 40.542504870682556]]}}, {"type": "Feature", "properties": {"segment_id": 1683513, "physicalid": "171377", "street_name": "BUFFALO ST", "borough": "staten_island", "direction": "TW", "total_row_ft": 52.6, "roadbed_ft": 22.6, "median_ft": 0.0, "left_sw_ft": 15.0, "right_sw_ft": 15.0}, "geometry": {"type": "LineString", "coordinates": [[-74.12580911260204, 40.54240685180341], [-74.12623706603988, 40.54245045763915]]}}, {"type": "Feature", "properties": {"segment_id": 1683514, "physicalid": "171377", "street_name": "BUFFALO ST", "borough": "staten_island", "direction": "TW", "total_row_ft": 52.4, "roadbed_ft": 22.4, "median_ft": 0.0, "left_sw_ft": 15.0, "right_sw_ft": 15.0}, "geometry": {"type": "LineString", "coordinates": [[-74.12583313122849, 40.54232583665158], [-74.12624492569145, 40.542424824525156]]}}, {"type": "Feature", "properties": {"segment_id": 1683515, "physicalid": "171377", "street_name": "BUFFALO ST", "borough": "staten_island", "direction": "TW", "total_row_ft": 39.4, "roadbed_ft": 22.4, "median_ft": 0.0, "left_sw_ft": 2.0, "right_sw_ft": 15.0}, "geometry": {"type": "LineString", "coordinates": [[-74.12585475718687, 40.54227347818604], [-74.1262665513592, 40.542372465982545]]}}, {"type": "Feature", "properties": {"segment_id": 1683516, "physicalid": "171377", "street_name": "BUFFALO ST", "borough": "staten_island", "direction": "TW", "total_row_ft": 43.8, "roadbed_ft": 22.5, "median_ft": 0.0, "left_sw_ft": 6.2, "right_sw_ft": 15.0}, "geometry": {"type": "LineString", "coordinates": [[-74.12587638311136, 40.542221119716245], [-74.12628817699307, 40.5423201074356]]}}, {"type": "Feature", "properties": {"segment_id": 1683517, "physicalid": "171377", "street_name": "BUFFALO ST", "borough": "staten_island", "direction": "TW", "total_row_ft": 47.9, "roadbed_ft": 22.6, "median_ft": 0.0, "left_sw_ft": 10.3, "right_sw_ft": 15.0}, "geometry": {"type": "LineString", "coordinates": [[-74.12590626380835, 40.54215782387246], [-74.12630710976408, 40.54228020135352]]}}, {"type": "Feature", "properties": {"segment_id": 1683518, "physicalid": "171377", "street_name": "BUFFALO ST", "borough": "staten_island", "direction": "TW", "total_row_ft": 50.1, "roadbed_ft": 22.7, "median_ft": 0.0, "left_sw_ft": 12.4, "right_sw_ft": 15.0}, "geometry": {"type": "LineString", "coordinates": [[-74.12593467152494, 40.54210736780507], [-74.126333845298, 40.542229234753805]]}}, {"type": "Feature", "properties": {"segment_id": 1683519, "physicalid": "171377", "street_name": "BUFFALO ST", "borough": "staten_island", "direction": "TW", "total_row_ft": 50.1, "roadbed_ft": 22.7, "median_ft": 0.0, "left_sw_ft": 12.5, "right_sw_ft": 15.0}, "geometry": {"type": "LineString", "coordinates": [[-74.12597023550369, 40.54205909655173], [-74.12636058079116, 40.542178268147694]]}}, {"type": "Feature", "properties": {"segment_id": 1683520, "physicalid": "171377", "street_name": "BUFFALO ST", "borough": "staten_island", "direction": "TW", "total_row_ft": 50.1, "roadbed_ft": 22.7, "median_ft": 0.0, "left_sw_ft": 12.4, "right_sw_ft": 15.0}, "geometry": {"type": "LineString", "coordinates": [[-74.12601281181301, 40.54200083512845], [-74.1263833973176, 40.54213959568424]]}}, {"type": "Feature", "properties": {"segment_id": 1683521, "physicalid": "171377", "street_name": "BUFFALO ST", "borough": "staten_island", "direction": "TW", "total_row_ft": 50.1, "roadbed_ft": 22.6, "median_ft": 0.0, "left_sw_ft": 12.5, "right_sw_ft": 15.0}, "geometry": {"type": "LineString", "coordinates": [[-74.12604789939519, 40.541952821191245], [-74.12641510249858, 40.542090315222325]]}}, {"type": "Feature", "properties": {"segment_id": 1683522, "physicalid": "171377", "street_name": "BUFFALO ST", "borough": "staten_island", "direction": "TW", "total_row_ft": 50.1, "roadbed_ft": 22.6, "median_ft": 0.0, "left_sw_ft": 12.5, "right_sw_ft": 15.0}, "geometry": {"type": "LineString", "coordinates": [[-74.12608298692695, 40.54190480724314], [-74.12644680763285, 40.542041034751456]]}}, {"type": "Feature", "properties": {"segment_id": 1683523, "physicalid": "171377", "street_name": "BUFFALO ST", "borough": "staten_island", "direction": "TW", "total_row_ft": 50.0, "roadbed_ft": 22.5, "median_ft": 0.0, "left_sw_ft": 12.5, "right_sw_ft": 15.0}, "geometry": {"type": "LineString", "coordinates": [[-74.12612495547182, 40.54184737717844], [-74.12647337660248, 40.54200377709975]]}}, {"type": "Feature", "properties": {"segment_id": 1683524, "physicalid": "171377", "street_name": "BUFFALO ST", "borough": "staten_island", "direction": "TW", "total_row_ft": 49.9, "roadbed_ft": 22.4, "median_ft": 0.0, "left_sw_ft": 12.5, "right_sw_ft": 15.0}, "geometry": {"type": "LineString", "coordinates": [[-74.12616004531621, 40.54179943428215], [-74.12650986835851, 40.54195646346187]]}}, {"type": "Feature", "properties": {"segment_id": 1683525, "physicalid": "171377", "street_name": "BUFFALO ST", "borough": "staten_island", "direction": "TW", "total_row_ft": 49.7, "roadbed_ft": 22.3, "median_ft": 0.0, "left_sw_ft": 12.4, "right_sw_ft": 15.0}, "geometry": {"type": "LineString", "coordinates": [[-74.12619544041488, 40.541751628421395], [-74.1265463600629, 40.54190914981217]]}}, {"type": "Feature", "properties": {"segment_id": 1683526, "physicalid": "171377", "street_name": "BUFFALO ST", "borough": "staten_island", "direction": "TW", "total_row_ft": 49.8, "roadbed_ft": 22.1, "median_ft": 0.0, "left_sw_ft": 12.7, "right_sw_ft": 15.0}, "geometry": {"type": "LineString", "coordinates": [[-74.12623869358657, 40.541694402351794], [-74.12657655991218, 40.541873512333005]]}}, {"type": "Feature", "properties": {"segment_id": 1683527, "physicalid": "171377", "street_name": "BUFFALO ST", "borough": "staten_island", "direction": "TW", "total_row_ft": 49.5, "roadbed_ft": 22.0, "median_ft": 0.0, "left_sw_ft": 12.5, "right_sw_ft": 15.0}, "geometry": {"type": "LineString", "coordinates": [[-74.12627735425957, 40.54164804844173], [-74.12661762209046, 40.541828431459905]]}}, {"type": "Feature", "properties": {"segment_id": 1683528, "physicalid": "171377", "street_name": "BUFFALO ST", "borough": "staten_island", "direction": "TW", "total_row_ft": 48.8, "roadbed_ft": 21.8, "median_ft": 0.0, "left_sw_ft": 12.0, "right_sw_ft": 15.0}, "geometry": {"type": "LineString", "coordinates": [[-74.12631863070457, 40.54160308122903], [-74.12665868421338, 40.54178335057194]]}}, {"type": "Feature", "properties": {"segment_id": 1683529, "physicalid": "171377", "street_name": "BUFFALO ST", "borough": "staten_island", "direction": "TW", "total_row_ft": 48.6, "roadbed_ft": 21.6, "median_ft": 0.0, "left_sw_ft": 12.0, "right_sw_ft": 15.0}, "geometry": {"type": "LineString", "coordinates": [[-74.12637624025625, 40.541550339972844], [-74.12669064010902, 40.54175197795431]]}}, {"type": "Feature", "properties": {"segment_id": 1683530, "physicalid": "171377", "street_name": "BUFFALO ST", "borough": "staten_island", "direction": "TW", "total_row_ft": 48.2, "roadbed_ft": 21.3, "median_ft": 0.0, "left_sw_ft": 11.9, "right_sw_ft": 15.0}, "geometry": {"type": "LineString", "coordinates": [[-74.12642583521058, 40.54151042988072], [-74.12673694469258, 40.54170995750885]]}}, {"type": "Feature", "properties": {"segment_id": 1683531, "physicalid": "171377", "street_name": "BUFFALO ST", "borough": "staten_island", "direction": "TW", "total_row_ft": 47.8, "roadbed_ft": 21.1, "median_ft": 0.0, "left_sw_ft": 11.8, "right_sw_ft": 15.0}, "geometry": {"type": "LineString", "coordinates": [[-74.1264754301057, 40.54147051976704], [-74.12678324921791, 40.541667937044586]]}}, {"type": "Feature", "properties": {"segment_id": 1683532, "physicalid": "171377", "street_name": "BUFFALO ST", "borough": "staten_island", "direction": "TW", "total_row_ft": 47.8, "roadbed_ft": 21.2, "median_ft": 0.0, "left_sw_ft": 11.6, "right_sw_ft": 15.0}, "geometry": {"type": "LineString", "coordinates": [[-74.12652504672319, 40.54143062360135], [-74.12682955368503, 40.54162591656146]]}}, {"type": "Feature", "properties": {"segment_id": 1683533, "physicalid": "171377", "street_name": "BUFFALO ST", "borough": "staten_island", "direction": "TW", "total_row_ft": 48.3, "roadbed_ft": 22.0, "median_ft": 0.0, "left_sw_ft": 11.4, "right_sw_ft": 15.0}, "geometry": {"type": "LineString", "coordinates": [[-74.12657491589553, 40.54139088942667], [-74.12687585809387, 40.54158389605957]]}}, {"type": "Feature", "properties": {"segment_id": 1683534, "physicalid": "171377", "street_name": "BUFFALO ST", "borough": "staten_island", "direction": "TW", "total_row_ft": 48.8, "roadbed_ft": 22.7, "median_ft": 0.0, "left_sw_ft": 11.1, "right_sw_ft": 15.0}, "geometry": {"type": "LineString", "coordinates": [[-74.12662478500853, 40.54135115523023], [-74.12692216244452, 40.541541875538854]]}}, {"type": "Feature", "properties": {"segment_id": 1683535, "physicalid": "171377", "street_name": "BUFFALO ST", "borough": "staten_island", "direction": "TW", "total_row_ft": 48.6, "roadbed_ft": 22.6, "median_ft": 0.0, "left_sw_ft": 11.0, "right_sw_ft": 15.0}, "geometry": {"type": "LineString", "coordinates": [[-74.12667465406221, 40.54131142101202], [-74.12696846673693, 40.54149985499929]]}}, {"type": "Feature", "properties": {"segment_id": 1683536, "physicalid": "171377", "street_name": "BUFFALO ST", "borough": "staten_island", "direction": "TW", "total_row_ft": 48.5, "roadbed_ft": 22.5, "median_ft": 0.0, "left_sw_ft": 11.0, "right_sw_ft": 15.0}, "geometry": {"type": "LineString", "coordinates": [[-74.12672452305664, 40.54127168677197], [-74.12701477097107, 40.54145783444096]]}}, {"type": "Feature", "properties": {"segment_id": 1683537, "physicalid": "171377", "street_name": "BUFFALO ST", "borough": "staten_island", "direction": "TW", "total_row_ft": 48.3, "roadbed_ft": 22.4, "median_ft": 0.0, "left_sw_ft": 11.0, "right_sw_ft": 15.0}, "geometry": {"type": "LineString", "coordinates": [[-74.12677439199173, 40.54123195251016], [-74.12706107514701, 40.541415813863786]]}}, {"type": "Feature", "properties": {"segment_id": 1683538, "physicalid": "171377", "street_name": "BUFFALO ST", "borough": "staten_island", "direction": "TW", "total_row_ft": 48.2, "roadbed_ft": 22.3, "median_ft": 0.0, "left_sw_ft": 10.9, "right_sw_ft": 15.0}, "geometry": {"type": "LineString", "coordinates": [[-74.12682427912532, 40.54119222993607], [-74.12710737926473, 40.54137379326781]]}}, {"type": "Feature", "properties": {"segment_id": 1683539, "physicalid": "171377", "street_name": "BUFFALO ST", "borough": "staten_island", "direction": "TW", "total_row_ft": 48.0, "roadbed_ft": 22.2, "median_ft": 0.0, "left_sw_ft": 10.8, "right_sw_ft": 15.0}, "geometry": {"type": "LineString", "coordinates": [[-74.12687432597559, 40.54115260981124], [-74.12715368332421, 40.54133177265301]]}}, {"type": "Feature", "properties": {"segment_id": 1683540, "physicalid": "171377", "street_name": "BUFFALO ST", "borough": "staten_island", "direction": "TW", "total_row_ft": 47.9, "roadbed_ft": 22.2, "median_ft": 0.0, "left_sw_ft": 10.7, "right_sw_ft": 15.0}, "geometry": {"type": "LineString", "coordinates": [[-74.1269243727665, 40.541112989664526], [-74.12719998732548, 40.54128975201939]]}}, {"type": "Feature", "properties": {"segment_id": 1683541, "physicalid": "171377", "street_name": "BUFFALO ST", "borough": "staten_island", "direction": "TW", "total_row_ft": 47.9, "roadbed_ft": 22.3, "median_ft": 0.0, "left_sw_ft": 10.6, "right_sw_ft": 15.0}, "geometry": {"type": "LineString", "coordinates": [[-74.1269744194981, 40.54107336949583], [-74.12724629126846, 40.54124773136697]]}}, {"type": "Feature", "properties": {"segment_id": 1683542, "physicalid": "171377", "street_name": "BUFFALO ST", "borough": "staten_island", "direction": "TW", "total_row_ft": 47.9, "roadbed_ft": 22.3, "median_ft": 0.0, "left_sw_ft": 10.6, "right_sw_ft": 15.0}, "geometry": {"type": "LineString", "coordinates": [[-74.12702446617034, 40.54103374930519], [-74.12729259515325, 40.54120571069575]]}}, {"type": "Feature", "properties": {"segment_id": 1683543, "physicalid": "171377", "street_name": "BUFFALO ST", "borough": "staten_island", "direction": "TW", "total_row_ft": 48.0, "roadbed_ft": 22.4, "median_ft": 0.0, "left_sw_ft": 10.6, "right_sw_ft": 15.0}, "geometry": {"type": "LineString", "coordinates": [[-74.12707451278322, 40.540994129092645], [-74.12733889897983, 40.541163690005654]]}}, {"type": "Feature", "properties": {"segment_id": 1683544, "physicalid": "171377", "street_name": "BUFFALO ST", "borough": "staten_island", "direction": "TW", "total_row_ft": 48.0, "roadbed_ft": 22.5, "median_ft": 0.0, "left_sw_ft": 10.6, "right_sw_ft": 15.0}, "geometry": {"type": "LineString", "coordinates": [[-74.1271245593368, 40.54095450885812], [-74.12738520274812, 40.54112166929681]]}}, {"type": "Feature", "properties": {"segment_id": 1683545, "physicalid": "171377", "street_name": "BUFFALO ST", "borough": "staten_island", "direction": "TW", "total_row_ft": 48.2, "roadbed_ft": 22.5, "median_ft": 0.0, "left_sw_ft": 10.7, "right_sw_ft": 15.0}, "geometry": {"type": "LineString", "coordinates": [[-74.12717432143982, 40.54091470621023], [-74.12743150645822, 40.541079648569145]]}}, {"type": "Feature", "properties": {"segment_id": 1683546, "physicalid": "171377", "street_name": "BUFFALO ST", "borough": "staten_island", "direction": "TW", "total_row_ft": 48.6, "roadbed_ft": 22.5, "median_ft": 0.0, "left_sw_ft": 11.1, "right_sw_ft": 15.0}, "geometry": {"type": "LineString", "coordinates": [[-74.12722334637174, 40.54087443080154], [-74.1274778101101, 40.541037627822625]]}}, {"type": "Feature", "properties": {"segment_id": 1683547, "physicalid": "171377", "street_name": "BUFFALO ST", "borough": "staten_island", "direction": "TW", "total_row_ft": 59.4, "roadbed_ft": 22.6, "median_ft": 0.0, "left_sw_ft": 21.8, "right_sw_ft": 15.0}, "geometry": {"type": "LineString", "coordinates": [[-74.12727237123669, 40.54083415536672], [-74.12752411370371, 40.54099560705731]]}}, {"type": "Feature", "properties": {"segment_id": 1683548, "physicalid": "171377", "street_name": "BUFFALO ST", "borough": "staten_island", "direction": "TW", "total_row_ft": 58.6, "roadbed_ft": 22.7, "median_ft": 0.0, "left_sw_ft": 20.9, "right_sw_ft": 15.0}, "geometry": {"type": "LineString", "coordinates": [[-74.12732139603368, 40.54079387990517], [-74.1275704172391, 40.540953586273204]]}}, {"type": "Feature", "properties": {"segment_id": 1683549, "physicalid": "171377", "street_name": "BUFFALO ST", "borough": "staten_island", "direction": "TW", "total_row_ft": 57.8, "roadbed_ft": 22.8, "median_ft": 0.0, "left_sw_ft": 20.0, "right_sw_ft": 15.0}, "geometry": {"type": "LineString", "coordinates": [[-74.12737042077157, 40.54075360442256], [-74.12761672071628, 40.540911565470275]]}}, {"type": "Feature", "properties": {"segment_id": 1683550, "physicalid": "171377", "street_name": "BUFFALO ST", "borough": "staten_island", "direction": "TW", "total_row_ft": 57.0, "roadbed_ft": 22.8, "median_ft": 0.0, "left_sw_ft": 19.1, "right_sw_ft": 15.0}, "geometry": {"type": "LineString", "coordinates": [[-74.12741944545037, 40.54071332891889], [-74.12766302413522, 40.540869544648515]]}}, {"type": "Feature", "properties": {"segment_id": 1683551, "physicalid": "171377", "street_name": "BUFFALO ST", "borough": "staten_island", "direction": "TW", "total_row_ft": 56.3, "roadbed_ft": 22.9, "median_ft": 0.0, "left_sw_ft": 18.4, "right_sw_ft": 15.0}, "geometry": {"type": "LineString", "coordinates": [[-74.12746803337917, 40.540672773327685], [-74.12770932749595, 40.54082752380792]]}}, {"type": "Feature", "properties": {"segment_id": 1683552, "physicalid": "171377", "street_name": "BUFFALO ST", "borough": "staten_island", "direction": "TW", "total_row_ft": 56.0, "roadbed_ft": 23.0, "median_ft": 0.0, "left_sw_ft": 18.1, "right_sw_ft": 15.0}, "geometry": {"type": "LineString", "coordinates": [[-74.12751553275226, 40.540631519621755], [-74.12775563079839, 40.54078550294857]]}}, {"type": "Feature", "properties": {"segment_id": 1683553, "physicalid": "171377", "street_name": "BUFFALO ST", "borough": "staten_island", "direction": "TW", "total_row_ft": 55.8, "roadbed_ft": 23.1, "median_ft": 0.0, "left_sw_ft": 17.7, "right_sw_ft": 15.0}, "geometry": {"type": "LineString", "coordinates": [[-74.12756303206669, 40.54059026589603], [-74.12780193404264, 40.54074348207037]]}}, {"type": "Feature", "properties": {"segment_id": 1683554, "physicalid": "171377", "street_name": "BUFFALO ST", "borough": "staten_island", "direction": "TW", "total_row_ft": 55.5, "roadbed_ft": 23.1, "median_ft": 0.0, "left_sw_ft": 17.4, "right_sw_ft": 15.0}, "geometry": {"type": "LineString", "coordinates": [[-74.12761053132245, 40.540549012150535], [-74.12784823722869, 40.54070146117334]]}}, {"type": "Feature", "properties": {"segment_id": 1683555, "physicalid": "171377", "street_name": "BUFFALO ST", "borough": "staten_island", "direction": "TW", "total_row_ft": 55.2, "roadbed_ft": 23.3, "median_ft": 0.0, "left_sw_ft": 17.0, "right_sw_ft": 15.0}, "geometry": {"type": "LineString", "coordinates": [[-74.1276580305196, 40.540507758385225], [-74.12789454035645, 40.540659440257556]]}}, {"type": "Feature", "properties": {"segment_id": 1683556, "physicalid": "171377", "street_name": "BUFFALO ST", "borough": "staten_island", "direction": "TW", "total_row_ft": 55.0, "roadbed_ft": 23.5, "median_ft": 0.0, "left_sw_ft": 16.5, "right_sw_ft": 15.0}, "geometry": {"type": "LineString", "coordinates": [[-74.1277054562145, 40.540466457498106], [-74.127940843426, 40.54061741932291]]}}, {"type": "Feature", "properties": {"segment_id": 1683557, "physicalid": "171377", "street_name": "BUFFALO ST", "borough": "staten_island", "direction": "TW", "total_row_ft": 55.1, "roadbed_ft": 23.6, "median_ft": 0.0, "left_sw_ft": 16.5, "right_sw_ft": 15.0}, "geometry": {"type": "LineString", "coordinates": [[-74.12775183774042, 40.54042448696548], [-74.12798714643735, 40.540575398369434]]}}, {"type": "Feature", "properties": {"segment_id": 1683558, "physicalid": "171377", "street_name": "BUFFALO ST", "borough": "staten_island", "direction": "TW", "total_row_ft": 55.3, "roadbed_ft": 23.8, "median_ft": 0.0, "left_sw_ft": 16.4, "right_sw_ft": 15.0}, "geometry": {"type": "LineString", "coordinates": [[-74.12779821920807, 40.54038251641397], [-74.12803344939043, 40.5405333773972]]}}, {"type": "Feature", "properties": {"segment_id": 1683559, "physicalid": "171377", "street_name": "BUFFALO ST", "borough": "staten_island", "direction": "TW", "total_row_ft": 55.4, "roadbed_ft": 24.0, "median_ft": 0.0, "left_sw_ft": 16.4, "right_sw_ft": 15.0}, "geometry": {"type": "LineString", "coordinates": [[-74.12784460061748, 40.540340545843584], [-74.1280797522853, 40.540491356406136]]}}, {"type": "Feature", "properties": {"segment_id": 1683560, "physicalid": "171377", "street_name": "BUFFALO ST", "borough": "staten_island", "direction": "TW", "total_row_ft": 55.5, "roadbed_ft": 24.2, "median_ft": 0.0, "left_sw_ft": 16.3, "right_sw_ft": 15.0}, "geometry": {"type": "LineString", "coordinates": [[-74.1278909819686, 40.54029857525434], [-74.12812605512194, 40.54044933539623]]}}, {"type": "Feature", "properties": {"segment_id": 1683561, "physicalid": "171377", "street_name": "BUFFALO ST", "borough": "staten_island", "direction": "TW", "total_row_ft": 55.7, "roadbed_ft": 24.3, "median_ft": 0.0, "left_sw_ft": 16.3, "right_sw_ft": 15.0}, "geometry": {"type": "LineString", "coordinates": [[-74.1279373632615, 40.5402566046462], [-74.12817235790034, 40.54040731436754]]}}, {"type": "Feature", "properties": {"segment_id": 1683562, "physicalid": "171377", "street_name": "BUFFALO ST", "borough": "staten_island", "direction": "TW", "total_row_ft": 55.8, "roadbed_ft": 24.4, "median_ft": 0.0, "left_sw_ft": 16.4, "right_sw_ft": 15.0}, "geometry": {"type": "LineString", "coordinates": [[-74.1279837444961, 40.5402146340192], [-74.12821866062055, 40.54036529332]]}}, {"type": "Feature", "properties": {"segment_id": 1683563, "physicalid": "171377", "street_name": "BUFFALO ST", "borough": "staten_island", "direction": "TW", "total_row_ft": 55.8, "roadbed_ft": 24.2, "median_ft": 0.0, "left_sw_ft": 16.6, "right_sw_ft": 15.0}, "geometry": {"type": "LineString", "coordinates": [[-74.12803012567248, 40.540172663373326], [-74.12826496328248, 40.5403232722537]]}}, {"type": "Feature", "properties": {"segment_id": 1683564, "physicalid": "171377", "street_name": "BUFFALO ST", "borough": "staten_island", "direction": "TW", "total_row_ft": 55.5, "roadbed_ft": 23.8, "median_ft": 0.0, "left_sw_ft": 16.7, "right_sw_ft": 15.0}, "geometry": {"type": "LineString", "coordinates": [[-74.12807689367592, 40.54013094083136], [-74.1283112658862, 40.54028125116857]]}}, {"type": "Feature", "properties": {"segment_id": 1683565, "physicalid": "171377", "street_name": "BUFFALO ST", "borough": "staten_island", "direction": "TW", "total_row_ft": 55.4, "roadbed_ft": 23.5, "median_ft": 0.0, "left_sw_ft": 17.0, "right_sw_ft": 15.0}, "geometry": {"type": "LineString", "coordinates": [[-74.12812366804113, 40.5400892223877], [-74.12835756843171, 40.54023923006459]]}}, {"type": "Feature", "properties": {"segment_id": 1683566, "physicalid": "171377", "street_name": "BUFFALO ST", "borough": "staten_island", "direction": "TW", "total_row_ft": 55.6, "roadbed_ft": 23.3, "median_ft": 0.0, "left_sw_ft": 17.3, "right_sw_ft": 15.0}, "geometry": {"type": "LineString", "coordinates": [[-74.12817044234794, 40.54004750392481], [-74.12840387091894, 40.540197208941834]]}}, {"type": "Feature", "properties": {"segment_id": 1683567, "physicalid": "171377", "street_name": "BUFFALO ST", "borough": "staten_island", "direction": "TW", "total_row_ft": 55.8, "roadbed_ft": 23.2, "median_ft": 0.0, "left_sw_ft": 17.5, "right_sw_ft": 15.0}, "geometry": {"type": "LineString", "coordinates": [[-74.12821721659635, 40.540005785442744], [-74.12845017334797, 40.54015518780025]]}}, {"type": "Feature", "properties": {"segment_id": 1683568, "physicalid": "171377", "street_name": "BUFFALO ST", "borough": "staten_island", "direction": "TW", "total_row_ft": 55.9, "roadbed_ft": 23.2, "median_ft": 0.0, "left_sw_ft": 17.7, "right_sw_ft": 15.0}, "geometry": {"type": "LineString", "coordinates": [[-74.12826399078637, 40.53996406694147], [-74.12849647571879, 40.54011316663987]]}}]}