{"type": "FeatureCollection", "features": [{"type": "Feature", "properties": {"segment_id": 625471, "physicalid": "44985", "street_name": "RICHMOND TER", "borough": "staten_island", "direction": "TW", "total_row_ft": 42.4, "roadbed_ft": 29.3, "median_ft": 0.0, "left_sw_ft": 6.3, "right_sw_ft": 6.9}, "geometry": {"type": "LineString", "coordinates": [[-74.18002545367095, 40.6407646761072], [-74.18002757375103, 40.64088109709164]]}}, {"type": "Feature", "properties": {"segment_id": 625472, "physicalid": "44985", "street_name": "RICHMOND TER", "borough": "staten_island", "direction": "TW", "total_row_ft": 42.7, "roadbed_ft": 30.0, "median_ft": 0.0, "left_sw_ft": 6.0, "right_sw_ft": 6.7}, "geometry": {"type": "LineString", "coordinates": [[-74.18009746241847, 40.64076120600414], [-74.1800995958083, 40.640878350933754]]}}, {"type": "Feature", "properties": {"segment_id": 625473, "physicalid": "44985", "street_name": "RICHMOND TER", "borough": "staten_island", "direction": "TW", "total_row_ft": 43.1, "roadbed_ft": 30.2, "median_ft": 0.0, "left_sw_ft": 6.2, "right_sw_ft": 6.6}, "geometry": {"type": "LineString", "coordinates": [[-74.18016947115851, 40.64075773585599], [-74.1801716263794, 40.64087607252588]]}}, {"type": "Feature", "properties": {"segment_id": 625474, "physicalid": "44985", "street_name": "RICHMOND TER", "borough": "staten_island", "direction": "TW", "total_row_ft": 51.8, "roadbed_ft": 30.1, "median_ft": 0.0, "left_sw_ft": 6.7, "right_sw_ft": 15.0}, "geometry": {"type": "LineString", "coordinates": [[-74.18024147989105, 40.64075426566276], [-74.18024573856242, 40.6409880821934]]}}, {"type": "Feature", "properties": {"segment_id": 625475, "physicalid": "44985", "street_name": "RICHMOND TER", "borough": "staten_island", "direction": "TW", "total_row_ft": 52.0, "roadbed_ft": 29.9, "median_ft": 0.0, "left_sw_ft": 7.1, "right_sw_ft": 15.0}, "geometry": {"type": "LineString", "coordinates": [[-74.18031348861611, 40.64075079542443], [-74.18031779687728, 40.64098732060121]]}}, {"type": "Feature", "properties": {"segment_id": 625476, "physicalid": "44985", "street_name": "RICHMOND TER", "borough": "staten_island", "direction": "TW", "total_row_ft": 59.7, "roadbed_ft": 29.7, "median_ft": 0.0, "left_sw_ft": 15.0, "right_sw_ft": 15.0}, "geometry": {"type": "LineString", "coordinates": [[-74.18038385593067, 40.64065721638385], [-74.18038985519048, 40.64098655896386]]}}, {"type": "Feature", "properties": {"segment_id": 625477, "physicalid": "44985", "street_name": "RICHMOND TER", "borough": "staten_island", "direction": "TW", "total_row_ft": 58.9, "roadbed_ft": 28.9, "median_ft": 0.0, "left_sw_ft": 15.0, "right_sw_ft": 15.0}, "geometry": {"type": "LineString", "coordinates": [[-74.18045591388665, 40.64065645470509], [-74.18046191350204, 40.64098579728135]]}}, {"type": "Feature", "properties": {"segment_id": 625478, "physicalid": "44985", "street_name": "RICHMOND TER", "borough": "staten_island", "direction": "TW", "total_row_ft": 58.0, "roadbed_ft": 28.0, "median_ft": 0.0, "left_sw_ft": 15.0, "right_sw_ft": 15.0}, "geometry": {"type": "LineString", "coordinates": [[-74.18052797184099, 40.640655692981184], [-74.18053397181197, 40.64098503555372]]}}, {"type": "Feature", "properties": {"segment_id": 625479, "physicalid": "44985", "street_name": "RICHMOND TER", "borough": "staten_island", "direction": "TW", "total_row_ft": 57.1, "roadbed_ft": 27.1, "median_ft": 0.0, "left_sw_ft": 15.0, "right_sw_ft": 15.0}, "geometry": {"type": "LineString", "coordinates": [[-74.18060002979368, 40.64065493121212], [-74.18060603012025, 40.64098427378093]]}}, {"type": "Feature", "properties": {"segment_id": 625480, "physicalid": "44985", "street_name": "RICHMOND TER", "borough": "staten_island", "direction": "TW", "total_row_ft": 56.5, "roadbed_ft": 26.5, "median_ft": 0.0, "left_sw_ft": 15.0, "right_sw_ft": 15.0}, "geometry": {"type": "LineString", "coordinates": [[-74.18067208774471, 40.64065416939788], [-74.18067808842686, 40.640983511962965]]}}, {"type": "Feature", "properties": {"segment_id": 625481, "physicalid": "44985", "street_name": "RICHMOND TER", "borough": "staten_island", "direction": "TW", "total_row_ft": 55.2, "roadbed_ft": 25.2, "median_ft": 0.0, "left_sw_ft": 15.0, "right_sw_ft": 15.0}, "geometry": {"type": "LineString", "coordinates": [[-74.18074414569412, 40.6406534075385], [-74.18075014673184, 40.64098275009986]]}}, {"type": "Feature", "properties": {"segment_id": 625482, "physicalid": "44985", "street_name": "RICHMOND TER", "borough": "staten_island", "direction": "TW", "total_row_ft": 54.5, "roadbed_ft": 24.5, "median_ft": 0.0, "left_sw_ft": 15.0, "right_sw_ft": 15.0}, "geometry": {"type": "LineString", "coordinates": [[-74.18092914511244, 40.6406823266581], [-74.18070508050897, 40.64096402718983]]}}, {"type": "Feature", "properties": {"segment_id": 625483, "physicalid": "44985", "street_name": "RICHMOND TER", "borough": "staten_island", "direction": "TW", "total_row_ft": 54.9, "roadbed_ft": 24.9, "median_ft": 0.0, "left_sw_ft": 15.0, "right_sw_ft": 15.0}, "geometry": {"type": "LineString", "coordinates": [[-74.1809907794045, 40.64071077352566], [-74.1807667149657, 40.64099247417658]]}}, {"type": "Feature", "properties": {"segment_id": 625484, "physicalid": "44985", "street_name": "RICHMOND TER", "borough": "staten_island", "direction": "TW", "total_row_ft": 57.1, "roadbed_ft": 27.1, "median_ft": 0.0, "left_sw_ft": 15.0, "right_sw_ft": 15.0}, "geometry": {"type": "LineString", "coordinates": [[-74.1810524137491, 40.64073922036008], [-74.18082834947496, 40.641020921130206]]}}, {"type": "Feature", "properties": {"segment_id": 625485, "physicalid": "44985", "street_name": "RICHMOND TER", "borough": "staten_island", "direction": "TW", "total_row_ft": 57.8, "roadbed_ft": 27.8, "median_ft": 0.0, "left_sw_ft": 15.0, "right_sw_ft": 15.0}, "geometry": {"type": "LineString", "coordinates": [[-74.18111404814623, 40.640767667161356], [-74.18088998403682, 40.641049368050716]]}}, {"type": "Feature", "properties": {"segment_id": 625486, "physicalid": "44985", "street_name": "RICHMOND TER", "borough": "staten_island", "direction": "TW", "total_row_ft": 57.0, "roadbed_ft": 27.0, "median_ft": 0.0, "left_sw_ft": 15.0, "right_sw_ft": 15.0}, "geometry": {"type": "LineString", "coordinates": [[-74.18117568259593, 40.640796113929554], [-74.1809516186512, 40.64107781493809]]}}, {"type": "Feature", "properties": {"segment_id": 625487, "physicalid": "44985", "street_name": "RICHMOND TER", "borough": "staten_island", "direction": "TW", "total_row_ft": 56.3, "roadbed_ft": 26.3, "median_ft": 0.0, "left_sw_ft": 15.0, "right_sw_ft": 15.0}, "geometry": {"type": "LineString", "coordinates": [[-74.18123731709817, 40.64082456066458], [-74.18101325331816, 40.64110626179235]]}}, {"type": "Feature", "properties": {"segment_id": 625488, "physicalid": "44985", "street_name": "RICHMOND TER", "borough": "staten_island", "direction": "TW", "total_row_ft": 56.2, "roadbed_ft": 26.2, "median_ft": 0.0, "left_sw_ft": 15.0, "right_sw_ft": 15.0}, "geometry": {"type": "LineString", "coordinates": [[-74.18129895165299, 40.64085300736651], [-74.18107488803763, 40.64113470861349]]}}, {"type": "Feature", "properties": {"segment_id": 625489, "physicalid": "44985", "street_name": "RICHMOND TER", "borough": "staten_island", "direction": "TW", "total_row_ft": 56.1, "roadbed_ft": 26.1, "median_ft": 0.0, "left_sw_ft": 15.0, "right_sw_ft": 15.0}, "geometry": {"type": "LineString", "coordinates": [[-74.18136058626035, 40.6408814540353], [-74.18113652280967, 40.64116315540151]]}}, {"type": "Feature", "properties": {"segment_id": 625490, "physicalid": "44985", "street_name": "RICHMOND TER", "borough": "staten_island", "direction": "TW", "total_row_ft": 56.1, "roadbed_ft": 26.1, "median_ft": 0.0, "left_sw_ft": 15.0, "right_sw_ft": 15.0}, "geometry": {"type": "LineString", "coordinates": [[-74.18142222092025, 40.64090990067098], [-74.18119815763426, 40.6411916021564]]}}, {"type": "Feature", "properties": {"segment_id": 625491, "physicalid": "44985", "street_name": "RICHMOND TER", "borough": "staten_island", "direction": "TW", "total_row_ft": 56.1, "roadbed_ft": 26.1, "median_ft": 0.0, "left_sw_ft": 15.0, "right_sw_ft": 15.0}, "geometry": {"type": "LineString", "coordinates": [[-74.1814838556327, 40.64093834727353], [-74.1812597925114, 40.64122004887816]]}}, {"type": "Feature", "properties": {"segment_id": 625492, "physicalid": "44985", "street_name": "RICHMOND TER", "borough": "staten_island", "direction": "TW", "total_row_ft": 55.9, "roadbed_ft": 25.9, "median_ft": 0.0, "left_sw_ft": 15.0, "right_sw_ft": 15.0}, "geometry": {"type": "LineString", "coordinates": [[-74.18154549039772, 40.64096679384296], [-74.18132142744109, 40.64124849556678]]}}, {"type": "Feature", "properties": {"segment_id": 625493, "physicalid": "44985", "street_name": "RICHMOND TER", "borough": "staten_island", "direction": "TW", "total_row_ft": 55.7, "roadbed_ft": 25.7, "median_ft": 0.0, "left_sw_ft": 15.0, "right_sw_ft": 15.0}, "geometry": {"type": "LineString", "coordinates": [[-74.18160712521528, 40.64099524037927], [-74.18138306242335, 40.64127694222229]]}}, {"type": "Feature", "properties": {"segment_id": 625494, "physicalid": "44985", "street_name": "RICHMOND TER", "borough": "staten_island", "direction": "TW", "total_row_ft": 55.6, "roadbed_ft": 25.6, "median_ft": 0.0, "left_sw_ft": 15.0, "right_sw_ft": 15.0}, "geometry": {"type": "LineString", "coordinates": [[-74.18166876008542, 40.64102368688245], [-74.18144469745812, 40.641305388844664]]}}, {"type": "Feature", "properties": {"segment_id": 625495, "physicalid": "44985", "street_name": "RICHMOND TER", "borough": "staten_island", "direction": "TW", "total_row_ft": 55.4, "roadbed_ft": 25.4, "median_ft": 0.0, "left_sw_ft": 15.0, "right_sw_ft": 15.0}, "geometry": {"type": "LineString", "coordinates": [[-74.18173039500809, 40.64105213335252], [-74.18150633254545, 40.641333835433954]]}}, {"type": "Feature", "properties": {"segment_id": 625496, "physicalid": "44985", "street_name": "RICHMOND TER", "borough": "staten_island", "direction": "TW", "total_row_ft": 55.1, "roadbed_ft": 25.1, "median_ft": 0.0, "left_sw_ft": 15.0, "right_sw_ft": 15.0}, "geometry": {"type": "LineString", "coordinates": [[-74.1817920299833, 40.64108057978944], [-74.18156796768535, 40.64136228199006]]}}, {"type": "Feature", "properties": {"segment_id": 625497, "physicalid": "44985", "street_name": "RICHMOND TER", "borough": "staten_island", "direction": "TW", "total_row_ft": 55.1, "roadbed_ft": 25.1, "median_ft": 0.0, "left_sw_ft": 15.0, "right_sw_ft": 15.0}, "geometry": {"type": "LineString", "coordinates": [[-74.18185366501106, 40.64110902619325], [-74.1816296028778, 40.64139072851308]]}}, {"type": "Feature", "properties": {"segment_id": 625498, "physicalid": "44985", "street_name": "RICHMOND TER", "borough": "staten_island", "direction": "TW", "total_row_ft": 55.2, "roadbed_ft": 25.2, "median_ft": 0.0, "left_sw_ft": 15.0, "right_sw_ft": 15.0}, "geometry": {"type": "LineString", "coordinates": [[-74.18191530009136, 40.64113747256392], [-74.18169123812284, 40.64141917500299]]}}, {"type": "Feature", "properties": {"segment_id": 625499, "physicalid": "44985", "street_name": "RICHMOND TER", "borough": "staten_island", "direction": "TW", "total_row_ft": 55.3, "roadbed_ft": 25.3, "median_ft": 0.0, "left_sw_ft": 15.0, "right_sw_ft": 15.0}, "geometry": {"type": "LineString", "coordinates": [[-74.18197693522424, 40.64116591890147], [-74.18175287342041, 40.64144762145974]]}}, {"type": "Feature", "properties": {"segment_id": 625500, "physicalid": "44985", "street_name": "RICHMOND TER", "borough": "staten_island", "direction": "TW", "total_row_ft": 55.4, "roadbed_ft": 25.4, "median_ft": 0.0, "left_sw_ft": 15.0, "right_sw_ft": 15.0}, "geometry": {"type": "LineString", "coordinates": [[-74.18203857040965, 40.641194365205905], [-74.18181450877051, 40.641476067883396]]}}, {"type": "Feature", "properties": {"segment_id": 625501, "physicalid": "44985", "street_name": "RICHMOND TER", "borough": "staten_island", "direction": "TW", "total_row_ft": 55.5, "roadbed_ft": 25.5, "median_ft": 0.0, "left_sw_ft": 15.0, "right_sw_ft": 15.0}, "geometry": {"type": "LineString", "coordinates": [[-74.18210020564763, 40.6412228114772], [-74.18187614417316, 40.641504514273905]]}}, {"type": "Feature", "properties": {"segment_id": 625502, "physicalid": "44985", "street_name": "RICHMOND TER", "borough": "staten_island", "direction": "TW", "total_row_ft": 55.6, "roadbed_ft": 25.6, "median_ft": 0.0, "left_sw_ft": 15.0, "right_sw_ft": 15.0}, "geometry": {"type": "LineString", "coordinates": [[-74.18216184093815, 40.64125125771538], [-74.18193777962837, 40.64153296063129]]}}, {"type": "Feature", "properties": {"segment_id": 625503, "physicalid": "44985", "street_name": "RICHMOND TER", "borough": "staten_island", "direction": "TW", "total_row_ft": 55.7, "roadbed_ft": 25.7, "median_ft": 0.0, "left_sw_ft": 15.0, "right_sw_ft": 15.0}, "geometry": {"type": "LineString", "coordinates": [[-74.18222347628122, 40.64127970392045], [-74.18199941513613, 40.64156140695553]]}}, {"type": "Feature", "properties": {"segment_id": 625504, "physicalid": "44985", "street_name": "RICHMOND TER", "borough": "staten_island", "direction": "TW", "total_row_ft": 55.8, "roadbed_ft": 25.8, "median_ft": 0.0, "left_sw_ft": 15.0, "right_sw_ft": 15.0}, "geometry": {"type": "LineString", "coordinates": [[-74.18228511167685, 40.641308150092364], [-74.18206105069645, 40.641589853246685]]}}, {"type": "Feature", "properties": {"segment_id": 625505, "physicalid": "44985", "street_name": "RICHMOND TER", "borough": "staten_island", "direction": "TW", "total_row_ft": 56.5, "roadbed_ft": 26.5, "median_ft": 0.0, "left_sw_ft": 15.0, "right_sw_ft": 15.0}, "geometry": {"type": "LineString", "coordinates": [[-74.18234674712502, 40.641336596231184], [-74.18212268630933, 40.6416182995047]]}}, {"type": "Feature", "properties": {"segment_id": 625506, "physicalid": "44985", "street_name": "RICHMOND TER", "borough": "staten_island", "direction": "TW", "total_row_ft": 57.1, "roadbed_ft": 27.1, "median_ft": 0.0, "left_sw_ft": 15.0, "right_sw_ft": 15.0}, "geometry": {"type": "LineString", "coordinates": [[-74.18240838262575, 40.64136504233685], [-74.18218432197474, 40.641646745729595]]}}, {"type": "Feature", "properties": {"segment_id": 625507, "physicalid": "44985", "street_name": "RICHMOND TER", "borough": "staten_island", "direction": "TW", "total_row_ft": 57.3, "roadbed_ft": 27.3, "median_ft": 0.0, "left_sw_ft": 15.0, "right_sw_ft": 15.0}, "geometry": {"type": "LineString", "coordinates": [[-74.18247001817905, 40.64139348840945], [-74.1822459576927, 40.64167519192135]]}}, {"type": "Feature", "properties": {"segment_id": 625508, "physicalid": "44985", "street_name": "RICHMOND TER", "borough": "staten_island", "direction": "TW", "total_row_ft": 57.6, "roadbed_ft": 27.6, "median_ft": 0.0, "left_sw_ft": 15.0, "right_sw_ft": 15.0}, "geometry": {"type": "LineString", "coordinates": [[-74.18253165378488, 40.64142193444887], [-74.18230759346321, 40.641703638079996]]}}, {"type": "Feature", "properties": {"segment_id": 625509, "physicalid": "44985", "street_name": "RICHMOND TER", "borough": "staten_island", "direction": "TW", "total_row_ft": 57.8, "roadbed_ft": 27.8, "median_ft": 0.0, "left_sw_ft": 15.0, "right_sw_ft": 15.0}, "geometry": {"type": "LineString", "coordinates": [[-74.18259328944326, 40.641450380455176], [-74.18236922928628, 40.64173208420551]]}}, {"type": "Feature", "properties": {"segment_id": 625510, "physicalid": "44985", "street_name": "RICHMOND TER", "borough": "staten_island", "direction": "TW", "total_row_ft": 58.0, "roadbed_ft": 28.0, "median_ft": 0.0, "left_sw_ft": 15.0, "right_sw_ft": 15.0}, "geometry": {"type": "LineString", "coordinates": [[-74.18265492515418, 40.64147882642835], [-74.18243086516193, 40.64176053029789]]}}, {"type": "Feature", "properties": {"segment_id": 625511, "physicalid": "44985", "street_name": "RICHMOND TER", "borough": "staten_island", "direction": "TW", "total_row_ft": 58.2, "roadbed_ft": 28.2, "median_ft": 0.0, "left_sw_ft": 15.0, "right_sw_ft": 15.0}, "geometry": {"type": "LineString", "coordinates": [[-74.18271656091765, 40.641507272368415], [-74.18249250109011, 40.64178897635717]]}}, {"type": "Feature", "properties": {"segment_id": 625512, "physicalid": "44985", "street_name": "RICHMOND TER", "borough": "staten_island", "direction": "TW", "total_row_ft": 58.5, "roadbed_ft": 28.5, "median_ft": 0.0, "left_sw_ft": 15.0, "right_sw_ft": 15.0}, "geometry": {"type": "LineString", "coordinates": [[-74.1827781967337, 40.64153571827536], [-74.18255413707084, 40.64181742238331]]}}, {"type": "Feature", "properties": {"segment_id": 625513, "physicalid": "44985", "street_name": "RICHMOND TER", "borough": "staten_island", "direction": "TW", "total_row_ft": 58.9, "roadbed_ft": 28.9, "median_ft": 0.0, "left_sw_ft": 15.0, "right_sw_ft": 15.0}, "geometry": {"type": "LineString", "coordinates": [[-74.18283983260228, 40.641564164149166], [-74.18261577310412, 40.641845868376315]]}}, {"type": "Feature", "properties": {"segment_id": 625514, "physicalid": "44985", "street_name": "RICHMOND TER", "borough": "staten_island", "direction": "TW", "total_row_ft": 59.2, "roadbed_ft": 29.2, "median_ft": 0.0, "left_sw_ft": 15.0, "right_sw_ft": 15.0}, "geometry": {"type": "LineString", "coordinates": [[-74.18290146852341, 40.641592609989814], [-74.18267740918996, 40.641874314336214]]}}, {"type": "Feature", "properties": {"segment_id": 625515, "physicalid": "44985", "street_name": "RICHMOND TER", "borough": "staten_island", "direction": "TW", "total_row_ft": 59.6, "roadbed_ft": 29.6, "median_ft": 0.0, "left_sw_ft": 15.0, "right_sw_ft": 15.0}, "geometry": {"type": "LineString", "coordinates": [[-74.18296310449712, 40.641621055797394], [-74.18273904532835, 40.64190276026295]]}}, {"type": "Feature", "properties": {"segment_id": 625516, "physicalid": "44985", "street_name": "RICHMOND TER", "borough": "staten_island", "direction": "TW", "total_row_ft": 59.9, "roadbed_ft": 29.9, "median_ft": 0.0, "left_sw_ft": 15.0, "right_sw_ft": 15.0}, "geometry": {"type": "LineString", "coordinates": [[-74.18302474052335, 40.64164950157182], [-74.18280068151928, 40.641931206156606]]}}, {"type": "Feature", "properties": {"segment_id": 625517, "physicalid": "44985", "street_name": "RICHMOND TER", "borough": "staten_island", "direction": "TW", "total_row_ft": 60.3, "roadbed_ft": 30.3, "median_ft": 0.0, "left_sw_ft": 15.0, "right_sw_ft": 15.0}, "geometry": {"type": "LineString", "coordinates": [[-74.18308637660215, 40.64167794731311], [-74.18286231776277, 40.64195965201711]]}}, {"type": "Feature", "properties": {"segment_id": 625518, "physicalid": "44985", "street_name": "RICHMOND TER", "borough": "staten_island", "direction": "TW", "total_row_ft": 60.7, "roadbed_ft": 30.7, "median_ft": 0.0, "left_sw_ft": 15.0, "right_sw_ft": 15.0}, "geometry": {"type": "LineString", "coordinates": [[-74.18314801273348, 40.6417063930213], [-74.18292395405881, 40.6419880978445]]}}, {"type": "Feature", "properties": {"segment_id": 625519, "physicalid": "44985", "street_name": "RICHMOND TER", "borough": "staten_island", "direction": "TW", "total_row_ft": 61.0, "roadbed_ft": 31.0, "median_ft": 0.0, "left_sw_ft": 15.0, "right_sw_ft": 15.0}, "geometry": {"type": "LineString", "coordinates": [[-74.1832096489174, 40.641734838696365], [-74.18298559040738, 40.642016543638746]]}}, {"type": "Feature", "properties": {"segment_id": 625520, "physicalid": "44985", "street_name": "RICHMOND TER", "borough": "staten_island", "direction": "TW", "total_row_ft": 60.9, "roadbed_ft": 30.9, "median_ft": 0.0, "left_sw_ft": 15.0, "right_sw_ft": 15.0}, "geometry": {"type": "LineString", "coordinates": [[-74.18327128515384, 40.641763284338296], [-74.18304722680854, 40.642044989399885]]}}, {"type": "Feature", "properties": {"segment_id": 625521, "physicalid": "44985", "street_name": "RICHMOND TER", "borough": "staten_island", "direction": "TW", "total_row_ft": 61.8, "roadbed_ft": 31.8, "median_ft": 0.0, "left_sw_ft": 15.0, "right_sw_ft": 15.0}, "geometry": {"type": "LineString", "coordinates": [[-74.18333292144284, 40.64179172994709], [-74.18310886326223, 40.642073435127905]]}}, {"type": "Feature", "properties": {"segment_id": 625522, "physicalid": "44985", "street_name": "RICHMOND TER", "borough": "staten_island", "direction": "TW", "total_row_ft": 63.2, "roadbed_ft": 33.2, "median_ft": 0.0, "left_sw_ft": 15.0, "right_sw_ft": 15.0}, "geometry": {"type": "LineString", "coordinates": [[-74.1833945577844, 40.641820175522774], [-74.18317049976848, 40.64210188082276]]}}, {"type": "Feature", "properties": {"segment_id": 625523, "physicalid": "44985", "street_name": "RICHMOND TER", "borough": "staten_island", "direction": "TW", "total_row_ft": 64.5, "roadbed_ft": 34.5, "median_ft": 0.0, "left_sw_ft": 15.0, "right_sw_ft": 15.0}, "geometry": {"type": "LineString", "coordinates": [[-74.18345619417848, 40.64184862106531], [-74.1832321363273, 40.64213032648453]]}}, {"type": "Feature", "properties": {"segment_id": 625524, "physicalid": "44985", "street_name": "RICHMOND TER", "borough": "staten_island", "direction": "TW", "total_row_ft": 66.5, "roadbed_ft": 36.5, "median_ft": 0.0, "left_sw_ft": 15.0, "right_sw_ft": 15.0}, "geometry": {"type": "LineString", "coordinates": [[-74.18351783062514, 40.64187706657473], [-74.18329377293865, 40.642158772113156]]}}, {"type": "Feature", "properties": {"segment_id": 625525, "physicalid": "44985", "street_name": "RICHMOND TER", "borough": "staten_island", "direction": "TW", "total_row_ft": 68.6, "roadbed_ft": 38.6, "median_ft": 0.0, "left_sw_ft": 15.0, "right_sw_ft": 15.0}, "geometry": {"type": "LineString", "coordinates": [[-74.18357946712433, 40.64190551205104], [-74.18335540960256, 40.64218721770868]]}}, {"type": "Feature", "properties": {"segment_id": 625526, "physicalid": "44985", "street_name": "RICHMOND TER", "borough": "staten_island", "direction": "TW", "total_row_ft": 69.7, "roadbed_ft": 39.7, "median_ft": 0.0, "left_sw_ft": 15.0, "right_sw_ft": 15.0}, "geometry": {"type": "LineString", "coordinates": [[-74.18364110367608, 40.64193395749421], [-74.18341704631901, 40.64221566327105]]}}, {"type": "Feature", "properties": {"segment_id": 625527, "physicalid": "44985", "street_name": "RICHMOND TER", "borough": "staten_island", "direction": "TW", "total_row_ft": 71.7, "roadbed_ft": 41.7, "median_ft": 0.0, "left_sw_ft": 15.0, "right_sw_ft": 15.0}, "geometry": {"type": "LineString", "coordinates": [[-74.18370274028038, 40.641962402904255], [-74.18347868308803, 40.64224410880031]]}}, {"type": "Feature", "properties": {"segment_id": 625528, "physicalid": "44985", "street_name": "RICHMOND TER", "borough": "staten_island", "direction": "TW", "total_row_ft": 74.8, "roadbed_ft": 44.8, "median_ft": 0.0, "left_sw_ft": 15.0, "right_sw_ft": 15.0}, "geometry": {"type": "LineString", "coordinates": [[-74.18376437693723, 40.641990848281175], [-74.18354031990958, 40.642272554296426]]}}, {"type": "Feature", "properties": {"segment_id": 625529, "physicalid": "44985", "street_name": "RICHMOND TER", "borough": "staten_island", "direction": "TW", "total_row_ft": 75.1, "roadbed_ft": 45.1, "median_ft": 0.0, "left_sw_ft": 15.0, "right_sw_ft": 15.0}, "geometry": {"type": "LineString", "coordinates": [[-74.18382601360015, 40.64201929360179], [-74.1836019568322, 40.642300999780076]]}}, {"type": "Feature", "properties": {"segment_id": 625530, "physicalid": "44985", "street_name": "RICHMOND TER", "borough": "staten_island", "direction": "TW", "total_row_ft": 75.0, "roadbed_ft": 45.0, "median_ft": 0.0, "left_sw_ft": 15.0, "right_sw_ft": 15.0}, "geometry": {"type": "LineString", "coordinates": [[-74.18388765037172, 40.642047738900395], [-74.18366359376846, 40.64232944519788]]}}, {"type": "Feature", "properties": {"segment_id": 625531, "physicalid": "44985", "street_name": "RICHMOND TER", "borough": "staten_island", "direction": "TW", "total_row_ft": 74.9, "roadbed_ft": 44.9, "median_ft": 0.0, "left_sw_ft": 15.0, "right_sw_ft": 15.0}, "geometry": {"type": "LineString", "coordinates": [[-74.18394991019785, 40.642076666433304], [-74.18372438217608, 40.642357690661576]]}}, {"type": "Feature", "properties": {"segment_id": 625532, "physicalid": "44985", "street_name": "RICHMOND TER", "borough": "staten_island", "direction": "TW", "total_row_ft": 74.5, "roadbed_ft": 44.5, "median_ft": 0.0, "left_sw_ft": 15.0, "right_sw_ft": 15.0}, "geometry": {"type": "LineString", "coordinates": [[-74.1840113978142, 40.64210529849175], [-74.18378586995466, 40.64238632283973]]}}, {"type": "Feature", "properties": {"segment_id": 625533, "physicalid": "44985", "street_name": "RICHMOND TER", "borough": "staten_island", "direction": "TW", "total_row_ft": 74.1, "roadbed_ft": 44.1, "median_ft": 0.0, "left_sw_ft": 15.0, "right_sw_ft": 15.0}, "geometry": {"type": "LineString", "coordinates": [[-74.18407288548337, 40.64213393051722], [-74.18384735778596, 40.64241495498488]]}}, {"type": "Feature", "properties": {"segment_id": 625534, "physicalid": "44985", "street_name": "RICHMOND TER", "borough": "staten_island", "direction": "TW", "total_row_ft": 73.5, "roadbed_ft": 43.5, "median_ft": 0.0, "left_sw_ft": 15.0, "right_sw_ft": 15.0}, "geometry": {"type": "LineString", "coordinates": [[-74.18413437320527, 40.64216256250974], [-74.18390884567005, 40.642443587097084]]}}, {"type": "Feature", "properties": {"segment_id": 625535, "physicalid": "44985", "street_name": "RICHMOND TER", "borough": "staten_island", "direction": "TW", "total_row_ft": 72.3, "roadbed_ft": 42.3, "median_ft": 0.0, "left_sw_ft": 15.0, "right_sw_ft": 15.0}, "geometry": {"type": "LineString", "coordinates": [[-74.18419586097994, 40.64219119446926], [-74.18397033360694, 40.642472219176334]]}}, {"type": "Feature", "properties": {"segment_id": 625536, "physicalid": "44985", "street_name": "RICHMOND TER", "borough": "staten_island", "direction": "TW", "total_row_ft": 72.5, "roadbed_ft": 42.5, "median_ft": 0.0, "left_sw_ft": 15.0, "right_sw_ft": 15.0}, "geometry": {"type": "LineString", "coordinates": [[-74.18425734880738, 40.64221982639583], [-74.18403182159656, 40.64250085122257]]}}, {"type": "Feature", "properties": {"segment_id": 625537, "physicalid": "44985", "street_name": "RICHMOND TER", "borough": "staten_island", "direction": "TW", "total_row_ft": 73.7, "roadbed_ft": 43.7, "median_ft": 0.0, "left_sw_ft": 15.0, "right_sw_ft": 15.0}, "geometry": {"type": "LineString", "coordinates": [[-74.1843188366876, 40.64224845828943], [-74.18409330963897, 40.64252948323588]]}}, {"type": "Feature", "properties": {"segment_id": 625538, "physicalid": "44985", "street_name": "RICHMOND TER", "borough": "staten_island", "direction": "TW", "total_row_ft": 74.8, "roadbed_ft": 44.8, "median_ft": 0.0, "left_sw_ft": 15.0, "right_sw_ft": 15.0}, "geometry": {"type": "LineString", "coordinates": [[-74.18438032462059, 40.642277090150074], [-74.18415479773414, 40.64255811521621]]}}, {"type": "Feature", "properties": {"segment_id": 625539, "physicalid": "44985", "street_name": "RICHMOND TER", "borough": "staten_island", "direction": "TW", "total_row_ft": 73.7, "roadbed_ft": 43.7, "median_ft": 0.0, "left_sw_ft": 15.0, "right_sw_ft": 15.0}, "geometry": {"type": "LineString", "coordinates": [[-74.18444181260634, 40.64230572197775], [-74.18421628588207, 40.642586747163584]]}}, {"type": "Feature", "properties": {"segment_id": 625540, "physicalid": "44985", "street_name": "RICHMOND TER", "borough": "staten_island", "direction": "TW", "total_row_ft": 73.5, "roadbed_ft": 43.5, "median_ft": 0.0, "left_sw_ft": 15.0, "right_sw_ft": 15.0}, "geometry": {"type": "LineString", "coordinates": [[-74.18450330064485, 40.64233435377245], [-74.1842777740828, 40.64261537907797]]}}, {"type": "Feature", "properties": {"segment_id": 625541, "physicalid": "44985", "street_name": "RICHMOND TER", "borough": "staten_island", "direction": "TW", "total_row_ft": 73.4, "roadbed_ft": 43.4, "median_ft": 0.0, "left_sw_ft": 15.0, "right_sw_ft": 15.0}, "geometry": {"type": "LineString", "coordinates": [[-74.18456478873613, 40.64236298553416], [-74.18433926233627, 40.64264401095941]]}}, {"type": "Feature", "properties": {"segment_id": 625542, "physicalid": "44985", "street_name": "RICHMOND TER", "borough": "staten_island", "direction": "TW", "total_row_ft": 73.2, "roadbed_ft": 43.2, "median_ft": 0.0, "left_sw_ft": 15.0, "right_sw_ft": 15.0}, "geometry": {"type": "LineString", "coordinates": [[-74.18462627688017, 40.64239161726294], [-74.18440075064252, 40.64267264280787]]}}, {"type": "Feature", "properties": {"segment_id": 625543, "physicalid": "44985", "street_name": "RICHMOND TER", "borough": "staten_island", "direction": "TW", "total_row_ft": 73.0, "roadbed_ft": 43.0, "median_ft": 0.0, "left_sw_ft": 15.0, "right_sw_ft": 15.0}, "geometry": {"type": "LineString", "coordinates": [[-74.18468776507702, 40.64242024895872], [-74.18446223900152, 40.64270127462334]]}}, {"type": "Feature", "properties": {"segment_id": 625544, "physicalid": "44985", "street_name": "RICHMOND TER", "borough": "staten_island", "direction": "TW", "total_row_ft": 72.9, "roadbed_ft": 42.9, "median_ft": 0.0, "left_sw_ft": 15.0, "right_sw_ft": 15.0}, "geometry": {"type": "LineString", "coordinates": [[-74.1847492533266, 40.642448880621565], [-74.1845237274133, 40.642729906405854]]}}, {"type": "Feature", "properties": {"segment_id": 625545, "physicalid": "44985", "street_name": "RICHMOND TER", "borough": "staten_island", "direction": "TW", "total_row_ft": 72.7, "roadbed_ft": 42.7, "median_ft": 0.0, "left_sw_ft": 15.0, "right_sw_ft": 15.0}, "geometry": {"type": "LineString", "coordinates": [[-74.18481074162895, 40.6424775122514], [-74.18458521587787, 40.64275853815543]]}}, {"type": "Feature", "properties": {"segment_id": 625546, "physicalid": "44985", "street_name": "RICHMOND TER", "borough": "staten_island", "direction": "TW", "total_row_ft": 72.5, "roadbed_ft": 42.5, "median_ft": 0.0, "left_sw_ft": 15.0, "right_sw_ft": 15.0}, "geometry": {"type": "LineString", "coordinates": [[-74.18487222998408, 40.64250614384831], [-74.18464670439519, 40.642787169872]]}}, {"type": "Feature", "properties": {"segment_id": 625547, "physicalid": "44985", "street_name": "RICHMOND TER", "borough": "staten_island", "direction": "TW", "total_row_ft": 72.3, "roadbed_ft": 42.3, "median_ft": 0.0, "left_sw_ft": 15.0, "right_sw_ft": 15.0}, "geometry": {"type": "LineString", "coordinates": [[-74.18493371839197, 40.642534775412216], [-74.1847081929653, 40.64281580155562]]}}, {"type": "Feature", "properties": {"segment_id": 625548, "physicalid": "44985", "street_name": "RICHMOND TER", "borough": "staten_island", "direction": "TW", "total_row_ft": 71.5, "roadbed_ft": 41.5, "median_ft": 0.0, "left_sw_ft": 15.0, "right_sw_ft": 15.0}, "geometry": {"type": "LineString", "coordinates": [[-74.18499520685263, 40.642563406943175], [-74.18476968158815, 40.64284443320626]]}}, {"type": "Feature", "properties": {"segment_id": 625549, "physicalid": "44985", "street_name": "RICHMOND TER", "borough": "staten_island", "direction": "TW", "total_row_ft": 70.7, "roadbed_ft": 40.7, "median_ft": 0.0, "left_sw_ft": 15.0, "right_sw_ft": 15.0}, "geometry": {"type": "LineString", "coordinates": [[-74.18505669536607, 40.642592038441165], [-74.18483117026378, 40.64287306482394]]}}, {"type": "Feature", "properties": {"segment_id": 625550, "physicalid": "44985", "street_name": "RICHMOND TER", "borough": "staten_island", "direction": "TW", "total_row_ft": 69.9, "roadbed_ft": 39.9, "median_ft": 0.0, "left_sw_ft": 15.0, "right_sw_ft": 15.0}, "geometry": {"type": "LineString", "coordinates": [[-74.18511818393229, 40.64262066990619], [-74.18489265899218, 40.64290169640865]]}}, {"type": "Feature", "properties": {"segment_id": 625551, "physicalid": "44985", "street_name": "RICHMOND TER", "borough": "staten_island", "direction": "TW", "total_row_ft": 69.3, "roadbed_ft": 39.3, "median_ft": 0.0, "left_sw_ft": 15.0, "right_sw_ft": 15.0}, "geometry": {"type": "LineString", "coordinates": [[-74.18517967255126, 40.64264930133825], [-74.18495414777337, 40.642930327960386]]}}, {"type": "Feature", "properties": {"segment_id": 625552, "physicalid": "44985", "street_name": "RICHMOND TER", "borough": "staten_island", "direction": "TW", "total_row_ft": 68.8, "roadbed_ft": 38.8, "median_ft": 0.0, "left_sw_ft": 15.0, "right_sw_ft": 15.0}, "geometry": {"type": "LineString", "coordinates": [[-74.18524116122299, 40.642677932737314], [-74.1850156366073, 40.64295895947917]]}}, {"type": "Feature", "properties": {"segment_id": 625553, "physicalid": "44985", "street_name": "RICHMOND TER", "borough": "staten_island", "direction": "TW", "total_row_ft": 68.3, "roadbed_ft": 38.3, "median_ft": 0.0, "left_sw_ft": 15.0, "right_sw_ft": 15.0}, "geometry": {"type": "LineString", "coordinates": [[-74.18530264994747, 40.64270656410341], [-74.18507712549405, 40.64298759096499]]}}, {"type": "Feature", "properties": {"segment_id": 625554, "physicalid": "44985", "street_name": "RICHMOND TER", "borough": "staten_island", "direction": "TW", "total_row_ft": 67.8, "roadbed_ft": 37.8, "median_ft": 0.0, "left_sw_ft": 15.0, "right_sw_ft": 15.0}, "geometry": {"type": "LineString", "coordinates": [[-74.18536413872478, 40.64273519543657], [-74.18513861443348, 40.643016222417835]]}}, {"type": "Feature", "properties": {"segment_id": 625555, "physicalid": "44985", "street_name": "RICHMOND TER", "borough": "staten_island", "direction": "TW", "total_row_ft": 67.4, "roadbed_ft": 37.4, "median_ft": 0.0, "left_sw_ft": 15.0, "right_sw_ft": 15.0}, "geometry": {"type": "LineString", "coordinates": [[-74.18542562755484, 40.64276382673673], [-74.18520010342573, 40.64304485383769]]}}, {"type": "Feature", "properties": {"segment_id": 625556, "physicalid": "44985", "street_name": "RICHMOND TER", "borough": "staten_island", "direction": "TW", "total_row_ft": 66.9, "roadbed_ft": 36.9, "median_ft": 0.0, "left_sw_ft": 15.0, "right_sw_ft": 15.0}, "geometry": {"type": "LineString", "coordinates": [[-74.18548711643763, 40.64279245800394], [-74.18526159247075, 40.64307348522459]]}}, {"type": "Feature", "properties": {"segment_id": 625557, "physicalid": "44985", "street_name": "RICHMOND TER", "borough": "staten_island", "direction": "TW", "total_row_ft": 66.2, "roadbed_ft": 36.2, "median_ft": 0.0, "left_sw_ft": 15.0, "right_sw_ft": 15.0}, "geometry": {"type": "LineString", "coordinates": [[-74.1855486053732, 40.642821089238176], [-74.18532308156857, 40.643102116578525]]}}, {"type": "Feature", "properties": {"segment_id": 625558, "physicalid": "44985", "street_name": "RICHMOND TER", "borough": "staten_island", "direction": "TW", "total_row_ft": 66.4, "roadbed_ft": 36.4, "median_ft": 0.0, "left_sw_ft": 15.0, "right_sw_ft": 15.0}, "geometry": {"type": "LineString", "coordinates": [[-74.18561009436158, 40.64284972043945], [-74.1853845707191, 40.643130747899484]]}}, {"type": "Feature", "properties": {"segment_id": 625559, "physicalid": "44985", "street_name": "RICHMOND TER", "borough": "staten_island", "direction": "TW", "total_row_ft": 68.6, "roadbed_ft": 38.6, "median_ft": 0.0, "left_sw_ft": 15.0, "right_sw_ft": 15.0}, "geometry": {"type": "LineString", "coordinates": [[-74.1856715834027, 40.64287835160776], [-74.18544605992241, 40.64315937918747]]}}, {"type": "Feature", "properties": {"segment_id": 625560, "physicalid": "44985", "street_name": "RICHMOND TER", "borough": "staten_island", "direction": "TW", "total_row_ft": 70.8, "roadbed_ft": 40.8, "median_ft": 0.0, "left_sw_ft": 15.0, "right_sw_ft": 15.0}, "geometry": {"type": "LineString", "coordinates": [[-74.18573307249659, 40.64290698274308], [-74.18550754917851, 40.64318801044249]]}}, {"type": "Feature", "properties": {"segment_id": 625561, "physicalid": "44985", "street_name": "RICHMOND TER", "borough": "staten_island", "direction": "TW", "total_row_ft": 30.0, "roadbed_ft": 0.0, "median_ft": 0.0, "left_sw_ft": 15.0, "right_sw_ft": 15.0}, "geometry": {"type": "LineString", "coordinates": [[-74.18579456164323, 40.642935613845445], [-74.18556903848739, 40.64321664166453]]}}, {"type": "Feature", "properties": {"segment_id": 625562, "physicalid": "44985", "street_name": "RICHMOND TER", "borough": "staten_island", "direction": "TW", "total_row_ft": 30.0, "roadbed_ft": 0.0, "median_ft": 0.0, "left_sw_ft": 15.0, "right_sw_ft": 15.0}, "geometry": {"type": "LineString", "coordinates": [[-74.18585605084266, 40.64296424491483], [-74.18563052784901, 40.64324527285363]]}}, {"type": "Feature", "properties": {"segment_id": 625563, "physicalid": "44985", "street_name": "RICHMOND TER", "borough": "staten_island", "direction": "TW", "total_row_ft": 30.0, "roadbed_ft": 0.0, "median_ft": 0.0, "left_sw_ft": 15.0, "right_sw_ft": 15.0}, "geometry": {"type": "LineString", "coordinates": [[-74.18591754009485, 40.64299287595125], [-74.18569201726342, 40.64327390400974]]}}, {"type": "Feature", "properties": {"segment_id": 625564, "physicalid": "44985", "street_name": "RICHMOND TER", "borough": "staten_island", "direction": "TW", "total_row_ft": 30.0, "roadbed_ft": 0.0, "median_ft": 0.0, "left_sw_ft": 15.0, "right_sw_ft": 15.0}, "geometry": {"type": "LineString", "coordinates": [[-74.18597902939983, 40.64302150695471], [-74.18575350673058, 40.6433025351329]]}}, {"type": "Feature", "properties": {"segment_id": 625565, "physicalid": "44985", "street_name": "RICHMOND TER", "borough": "staten_island", "direction": "TW", "total_row_ft": 30.0, "roadbed_ft": 0.0, "median_ft": 0.0, "left_sw_ft": 15.0, "right_sw_ft": 15.0}, "geometry": {"type": "LineString", "coordinates": [[-74.18604051875757, 40.643050137925194], [-74.18581499625051, 40.64333116622306]]}}, {"type": "Feature", "properties": {"segment_id": 625566, "physicalid": "44985", "street_name": "RICHMOND TER", "borough": "staten_island", "direction": "TW", "total_row_ft": 30.0, "roadbed_ft": 0.0, "median_ft": 0.0, "left_sw_ft": 15.0, "right_sw_ft": 15.0}, "geometry": {"type": "LineString", "coordinates": [[-74.18610200816805, 40.6430787688627], [-74.18587648582323, 40.64335979728027]]}}, {"type": "Feature", "properties": {"segment_id": 625567, "physicalid": "44985", "street_name": "RICHMOND TER", "borough": "staten_island", "direction": "TW", "total_row_ft": 30.0, "roadbed_ft": 0.0, "median_ft": 0.0, "left_sw_ft": 15.0, "right_sw_ft": 15.0}, "geometry": {"type": "LineString", "coordinates": [[-74.18616349763133, 40.64310739976726], [-74.18593797544871, 40.643388428304505]]}}]}