{"type": "FeatureCollection", "features": [{"type": "Feature", "properties": {"segment_id": 625330, "physicalid": "44981", "street_name": "RICHMOND TER", "borough": "staten_island", "direction": "TW", "total_row_ft": 47.7, "roadbed_ft": 34.2, "median_ft": 0.0, "left_sw_ft": 6.8, "right_sw_ft": 6.7}, "geometry": {"type": "LineString", "coordinates": [[-74.17004114475903, 40.64077605934852], [-74.17009168700376, 40.640901301779145]]}}, {"type": "Feature", "properties": {"segment_id": 625331, "physicalid": "44981", "street_name": "RICHMOND TER", "borough": "staten_island", "direction": "TW", "total_row_ft": 47.9, "roadbed_ft": 34.1, "median_ft": 0.0, "left_sw_ft": 6.8, "right_sw_ft": 7.0}, "geometry": {"type": "LineString", "coordinates": [[-74.17010971650775, 40.64075915584471], [-74.17016047226959, 40.64088492704592]]}}, {"type": "Feature", "properties": {"segment_id": 625332, "physicalid": "44981", "street_name": "RICHMOND TER", "borough": "staten_island", "direction": "TW", "total_row_ft": 48.1, "roadbed_ft": 33.9, "median_ft": 0.0, "left_sw_ft": 6.9, "right_sw_ft": 7.3}, "geometry": {"type": "LineString", "coordinates": [[-74.1701782789274, 40.64074222926886], [-74.17022920588917, 40.640868424377935]]}}, {"type": "Feature", "properties": {"segment_id": 625333, "physicalid": "44981", "street_name": "RICHMOND TER", "borough": "staten_island", "direction": "TW", "total_row_ft": 48.3, "roadbed_ft": 34.0, "median_ft": 0.0, "left_sw_ft": 6.6, "right_sw_ft": 7.6}, "geometry": {"type": "LineString", "coordinates": [[-74.17024684131223, 40.640725302652115], [-74.17029793954191, 40.640851921835264]]}}, {"type": "Feature", "properties": {"segment_id": 625334, "physicalid": "44981", "street_name": "RICHMOND TER", "borough": "staten_island", "direction": "TW", "total_row_ft": 48.4, "roadbed_ft": 34.4, "median_ft": 0.0, "left_sw_ft": 6.1, "right_sw_ft": 8.0}, "geometry": {"type": "LineString", "coordinates": [[-74.17031540366229, 40.640708375994436], [-74.17036667314835, 40.640835419221034]]}}, {"type": "Feature", "properties": {"segment_id": 625335, "physicalid": "44982", "street_name": "RICHMOND TER", "borough": "staten_island", "direction": "TW", "total_row_ft": 98.6, "roadbed_ft": 76.1, "median_ft": 0.0, "left_sw_ft": 15.0, "right_sw_ft": 7.5}, "geometry": {"type": "LineString", "coordinates": [[-74.1703981685347, 40.640584399673514], [-74.17049924098099, 40.64080053277446]]}}, {"type": "Feature", "properties": {"segment_id": 625336, "physicalid": "44982", "street_name": "RICHMOND TER", "borough": "staten_island", "direction": "TW", "total_row_ft": 52.1, "roadbed_ft": 30.2, "median_ft": 0.0, "left_sw_ft": 15.0, "right_sw_ft": 6.9}, "geometry": {"type": "LineString", "coordinates": [[-74.1704660546726, 40.640565978298824], [-74.17056696932534, 40.64078177350661]]}}, {"type": "Feature", "properties": {"segment_id": 625337, "physicalid": "44982", "street_name": "RICHMOND TER", "borough": "staten_island", "direction": "TW", "total_row_ft": 51.5, "roadbed_ft": 30.3, "median_ft": 0.0, "left_sw_ft": 15.0, "right_sw_ft": 6.2}, "geometry": {"type": "LineString", "coordinates": [[-74.17053394077296, 40.64054755688404], [-74.17063450880381, 40.640762610413006]]}}, {"type": "Feature", "properties": {"segment_id": 625338, "physicalid": "44982", "street_name": "RICHMOND TER", "borough": "staten_island", "direction": "TW", "total_row_ft": 44.1, "roadbed_ft": 30.4, "median_ft": 0.0, "left_sw_ft": 8.6, "right_sw_ft": 5.1}, "geometry": {"type": "LineString", "coordinates": [[-74.17064822086634, 40.64062834386234], [-74.17070158897116, 40.64074246518243]]}}, {"type": "Feature", "properties": {"segment_id": 625339, "physicalid": "44982", "street_name": "RICHMOND TER", "borough": "staten_island", "direction": "TW", "total_row_ft": 43.4, "roadbed_ft": 30.0, "median_ft": 0.0, "left_sw_ft": 8.5, "right_sw_ft": 4.9}, "geometry": {"type": "LineString", "coordinates": [[-74.1707161750134, 40.64061006782164], [-74.17076866909798, 40.640722319912676]]}}, {"type": "Feature", "properties": {"segment_id": 625340, "physicalid": "44982", "street_name": "RICHMOND TER", "borough": "staten_island", "direction": "TW", "total_row_ft": 42.7, "roadbed_ft": 30.5, "median_ft": 0.0, "left_sw_ft": 7.9, "right_sw_ft": 4.3}, "geometry": {"type": "LineString", "coordinates": [[-74.17078412912323, 40.64059179174072], [-74.1708357491843, 40.64070217460373]]}}, {"type": "Feature", "properties": {"segment_id": 625341, "physicalid": "44982", "street_name": "RICHMOND TER", "borough": "staten_island", "direction": "TW", "total_row_ft": 42.4, "roadbed_ft": 30.2, "median_ft": 0.0, "left_sw_ft": 7.6, "right_sw_ft": 4.5}, "geometry": {"type": "LineString", "coordinates": [[-74.17085165543745, 40.640572600913686], [-74.17090286599793, 40.64068210787852]]}}, {"type": "Feature", "properties": {"segment_id": 625342, "physicalid": "44982", "street_name": "RICHMOND TER", "borough": "staten_island", "direction": "TW", "total_row_ft": 42.1, "roadbed_ft": 30.0, "median_ft": 0.0, "left_sw_ft": 7.6, "right_sw_ft": 4.5}, "geometry": {"type": "LineString", "coordinates": [[-74.17091913118662, 40.64055330200342], [-74.17097004640381, 40.64066217718347]]}}, {"type": "Feature", "properties": {"segment_id": 625343, "physicalid": "44982", "street_name": "RICHMOND TER", "borough": "staten_island", "direction": "TW", "total_row_ft": 41.9, "roadbed_ft": 28.6, "median_ft": 0.0, "left_sw_ft": 8.0, "right_sw_ft": 5.2}, "geometry": {"type": "LineString", "coordinates": [[-74.17098660689676, 40.64053400305352], [-74.17103722695889, 40.640642246854]]}}, {"type": "Feature", "properties": {"segment_id": 625344, "physicalid": "44982", "street_name": "RICHMOND TER", "borough": "staten_island", "direction": "TW", "total_row_ft": 42.0, "roadbed_ft": 28.1, "median_ft": 0.0, "left_sw_ft": 8.4, "right_sw_ft": 5.5}, "geometry": {"type": "LineString", "coordinates": [[-74.171054082457, 40.64051470382695], [-74.17110484464054, 40.640623251300426]]}}, {"type": "Feature", "properties": {"segment_id": 625345, "physicalid": "44982", "street_name": "RICHMOND TER", "borough": "staten_island", "direction": "TW", "total_row_ft": 42.4, "roadbed_ft": 27.9, "median_ft": 0.0, "left_sw_ft": 8.7, "right_sw_ft": 5.8}, "geometry": {"type": "LineString", "coordinates": [[-74.17112168325396, 40.64049567244434], [-74.17117295515841, 40.6406053096431]]}}, {"type": "Feature", "properties": {"segment_id": 625346, "physicalid": "44982", "street_name": "RICHMOND TER", "borough": "staten_island", "direction": "TW", "total_row_ft": 42.8, "roadbed_ft": 28.4, "median_ft": 0.0, "left_sw_ft": 9.0, "right_sw_ft": 5.4}, "geometry": {"type": "LineString", "coordinates": [[-74.17118928944664, 40.640476652642405], [-74.17124106563966, 40.6405873679454]]}}, {"type": "Feature", "properties": {"segment_id": 625347, "physicalid": "44983", "street_name": "RICHMOND TER", "borough": "staten_island", "direction": "TW", "total_row_ft": 103.2, "roadbed_ft": 73.2, "median_ft": 0.0, "left_sw_ft": 15.0, "right_sw_ft": 15.0}, "geometry": {"type": "LineString", "coordinates": [[-74.1712980858528, 40.64034837023114], [-74.17138266414968, 40.640671381779995]]}}, {"type": "Feature", "properties": {"segment_id": 625348, "physicalid": "44983", "street_name": "RICHMOND TER", "borough": "staten_island", "direction": "TW", "total_row_ft": 55.3, "roadbed_ft": 29.0, "median_ft": 0.0, "left_sw_ft": 11.2, "right_sw_ft": 15.0}, "geometry": {"type": "LineString", "coordinates": [[-74.17139084097492, 40.640421967821375], [-74.17145333691352, 40.640660643733725]]}}, {"type": "Feature", "properties": {"segment_id": 625349, "physicalid": "44983", "street_name": "RICHMOND TER", "borough": "staten_island", "direction": "TW", "total_row_ft": 54.6, "roadbed_ft": 28.9, "median_ft": 0.0, "left_sw_ft": 10.7, "right_sw_ft": 15.0}, "geometry": {"type": "LineString", "coordinates": [[-74.17146129733109, 40.64041040430946], [-74.17152400965458, 40.640649905644004]]}}, {"type": "Feature", "properties": {"segment_id": 625350, "physicalid": "44983", "street_name": "RICHMOND TER", "borough": "staten_island", "direction": "TW", "total_row_ft": 54.4, "roadbed_ft": 29.4, "median_ft": 0.0, "left_sw_ft": 10.0, "right_sw_ft": 15.0}, "geometry": {"type": "LineString", "coordinates": [[-74.17153175366282, 40.64039884075438], [-74.17159468237291, 40.640639167510855]]}}, {"type": "Feature", "properties": {"segment_id": 625351, "physicalid": "44983", "street_name": "RICHMOND TER", "borough": "staten_island", "direction": "TW", "total_row_ft": 54.4, "roadbed_ft": 29.9, "median_ft": 0.0, "left_sw_ft": 9.5, "right_sw_ft": 15.0}, "geometry": {"type": "LineString", "coordinates": [[-74.17160216711738, 40.64038711350016], [-74.17166535506851, 40.64062842933426]]}}, {"type": "Feature", "properties": {"segment_id": 625352, "physicalid": "44983", "street_name": "RICHMOND TER", "borough": "staten_island", "direction": "TW", "total_row_ft": 56.5, "roadbed_ft": 30.3, "median_ft": 0.0, "left_sw_ft": 11.3, "right_sw_ft": 15.0}, "geometry": {"type": "LineString", "coordinates": [[-74.17167095338753, 40.64036917205432], [-74.17173602774136, 40.64061769111419]]}}, {"type": "Feature", "properties": {"segment_id": 625353, "physicalid": "44983", "street_name": "RICHMOND TER", "borough": "staten_island", "direction": "TW", "total_row_ft": 55.7, "roadbed_ft": 30.2, "median_ft": 0.0, "left_sw_ft": 10.4, "right_sw_ft": 15.0}, "geometry": {"type": "LineString", "coordinates": [[-74.17174169198232, 40.640358686638564], [-74.17180670039144, 40.640606952850696]]}}, {"type": "Feature", "properties": {"segment_id": 625354, "physicalid": "44983", "street_name": "RICHMOND TER", "borough": "staten_island", "direction": "TW", "total_row_ft": 60.1, "roadbed_ft": 30.1, "median_ft": 0.0, "left_sw_ft": 15.0, "right_sw_ft": 15.0}, "geometry": {"type": "LineString", "coordinates": [[-74.17179279242245, 40.64027320335609], [-74.1718773730188, 40.640596214543756]]}}, {"type": "Feature", "properties": {"segment_id": 625355, "physicalid": "44983", "street_name": "RICHMOND TER", "borough": "staten_island", "direction": "TW", "total_row_ft": 60.0, "roadbed_ft": 30.0, "median_ft": 0.0, "left_sw_ft": 15.0, "right_sw_ft": 15.0}, "geometry": {"type": "LineString", "coordinates": [[-74.17186346469857, 40.64026246505729], [-74.1719480456234, 40.64058547619336]]}}, {"type": "Feature", "properties": {"segment_id": 625356, "physicalid": "44983", "street_name": "RICHMOND TER", "borough": "staten_island", "direction": "TW", "total_row_ft": 60.0, "roadbed_ft": 30.0, "median_ft": 0.0, "left_sw_ft": 15.0, "right_sw_ft": 15.0}, "geometry": {"type": "LineString", "coordinates": [[-74.17193413695193, 40.640251726715064], [-74.17201871820525, 40.64057473779952]]}}, {"type": "Feature", "properties": {"segment_id": 625357, "physicalid": "44983", "street_name": "RICHMOND TER", "borough": "staten_island", "direction": "TW", "total_row_ft": 60.0, "roadbed_ft": 30.0, "median_ft": 0.0, "left_sw_ft": 15.0, "right_sw_ft": 15.0}, "geometry": {"type": "LineString", "coordinates": [[-74.17200480918255, 40.64024098832938], [-74.17208939076438, 40.64056399936224]]}}, {"type": "Feature", "properties": {"segment_id": 625358, "physicalid": "44983", "street_name": "RICHMOND TER", "borough": "staten_island", "direction": "TW", "total_row_ft": 60.3, "roadbed_ft": 30.3, "median_ft": 0.0, "left_sw_ft": 15.0, "right_sw_ft": 15.0}, "geometry": {"type": "LineString", "coordinates": [[-74.17207548139041, 40.640230249900235], [-74.17216006330074, 40.64055326088151]]}}, {"type": "Feature", "properties": {"segment_id": 625359, "physicalid": "44983", "street_name": "RICHMOND TER", "borough": "staten_island", "direction": "TW", "total_row_ft": 60.7, "roadbed_ft": 30.7, "median_ft": 0.0, "left_sw_ft": 15.0, "right_sw_ft": 15.0}, "geometry": {"type": "LineString", "coordinates": [[-74.17214615357554, 40.640219511427674], [-74.17223073581435, 40.640542522357336]]}}, {"type": "Feature", "properties": {"segment_id": 625360, "physicalid": "44983", "street_name": "RICHMOND TER", "borough": "staten_island", "direction": "TW", "total_row_ft": 61.3, "roadbed_ft": 31.3, "median_ft": 0.0, "left_sw_ft": 15.0, "right_sw_ft": 15.0}, "geometry": {"type": "LineString", "coordinates": [[-74.17221682573793, 40.64020877291164], [-74.17230140830522, 40.640531783789726]]}}, {"type": "Feature", "properties": {"segment_id": 625361, "physicalid": "44983", "street_name": "RICHMOND TER", "borough": "staten_island", "direction": "TW", "total_row_ft": 62.4, "roadbed_ft": 32.4, "median_ft": 0.0, "left_sw_ft": 15.0, "right_sw_ft": 15.0}, "geometry": {"type": "LineString", "coordinates": [[-74.17228749787755, 40.64019803435219], [-74.17237208077336, 40.64052104517865]]}}, {"type": "Feature", "properties": {"segment_id": 625362, "physicalid": "44983", "street_name": "RICHMOND TER", "borough": "staten_island", "direction": "TW", "total_row_ft": 64.6, "roadbed_ft": 34.6, "median_ft": 0.0, "left_sw_ft": 15.0, "right_sw_ft": 15.0}, "geometry": {"type": "LineString", "coordinates": [[-74.17235816999444, 40.64018729574928], [-74.17244275321873, 40.640510306524135]]}}, {"type": "Feature", "properties": {"segment_id": 625363, "physicalid": "44983", "street_name": "RICHMOND TER", "borough": "staten_island", "direction": "TW", "total_row_ft": 66.9, "roadbed_ft": 36.9, "median_ft": 0.0, "left_sw_ft": 15.0, "right_sw_ft": 15.0}, "geometry": {"type": "LineString", "coordinates": [[-74.17242884208858, 40.64017655710292], [-74.17251342564136, 40.64049956782616]]}}, {"type": "Feature", "properties": {"segment_id": 625364, "physicalid": "44983", "street_name": "RICHMOND TER", "borough": "staten_island", "direction": "TW", "total_row_ft": 68.6, "roadbed_ft": 38.6, "median_ft": 0.0, "left_sw_ft": 15.0, "right_sw_ft": 15.0}, "geometry": {"type": "LineString", "coordinates": [[-74.17249951415997, 40.640165818413095], [-74.17258409804126, 40.64048882908477]]}}, {"type": "Feature", "properties": {"segment_id": 625365, "physicalid": "44983", "street_name": "RICHMOND TER", "borough": "staten_island", "direction": "TW", "total_row_ft": 69.7, "roadbed_ft": 39.7, "median_ft": 0.0, "left_sw_ft": 15.0, "right_sw_ft": 15.0}, "geometry": {"type": "LineString", "coordinates": [[-74.17257018620862, 40.64015507967985], [-74.17265477041839, 40.64047809029993]]}}, {"type": "Feature", "properties": {"segment_id": 625366, "physicalid": "44983", "street_name": "RICHMOND TER", "borough": "staten_island", "direction": "TW", "total_row_ft": 70.4, "roadbed_ft": 40.4, "median_ft": 0.0, "left_sw_ft": 15.0, "right_sw_ft": 15.0}, "geometry": {"type": "LineString", "coordinates": [[-74.1727981493349, 40.64017181986818], [-74.17256576278132, 40.64044957972684]]}}, {"type": "Feature", "properties": {"segment_id": 625367, "physicalid": "44983", "street_name": "RICHMOND TER", "borough": "staten_island", "direction": "TW", "total_row_ft": 66.9, "roadbed_ft": 36.9, "median_ft": 0.0, "left_sw_ft": 15.0, "right_sw_ft": 15.0}, "geometry": {"type": "LineString", "coordinates": [[-74.1728589209695, 40.64020132350682], [-74.17262653456615, 40.64047908348737]]}}, {"type": "Feature", "properties": {"segment_id": 625368, "physicalid": "44983", "street_name": "RICHMOND TER", "borough": "staten_island", "direction": "TW", "total_row_ft": 63.7, "roadbed_ft": 33.7, "median_ft": 0.0, "left_sw_ft": 15.0, "right_sw_ft": 15.0}, "geometry": {"type": "LineString", "coordinates": [[-74.17291969265784, 40.64023082711321], [-74.17268730640471, 40.64050858721567]]}}, {"type": "Feature", "properties": {"segment_id": 625369, "physicalid": "44983", "street_name": "RICHMOND TER", "borough": "staten_island", "direction": "TW", "total_row_ft": 60.6, "roadbed_ft": 30.6, "median_ft": 0.0, "left_sw_ft": 15.0, "right_sw_ft": 15.0}, "geometry": {"type": "LineString", "coordinates": [[-74.17298046439993, 40.64026033068741], [-74.17274807829702, 40.64053809091178]]}}, {"type": "Feature", "properties": {"segment_id": 625370, "physicalid": "44983", "street_name": "RICHMOND TER", "borough": "staten_island", "direction": "TW", "total_row_ft": 58.1, "roadbed_ft": 28.1, "median_ft": 0.0, "left_sw_ft": 15.0, "right_sw_ft": 15.0}, "geometry": {"type": "LineString", "coordinates": [[-74.17304123619577, 40.640289834229385], [-74.17280885024307, 40.64056759457568]]}}, {"type": "Feature", "properties": {"segment_id": 625371, "physicalid": "44983", "street_name": "RICHMOND TER", "borough": "staten_island", "direction": "TW", "total_row_ft": 56.9, "roadbed_ft": 26.9, "median_ft": 0.0, "left_sw_ft": 15.0, "right_sw_ft": 15.0}, "geometry": {"type": "LineString", "coordinates": [[-74.17310200804533, 40.64031933773917], [-74.17286962224286, 40.640597098207344]]}}, {"type": "Feature", "properties": {"segment_id": 625372, "physicalid": "44983", "street_name": "RICHMOND TER", "borough": "staten_island", "direction": "TW", "total_row_ft": 56.4, "roadbed_ft": 26.4, "median_ft": 0.0, "left_sw_ft": 15.0, "right_sw_ft": 15.0}, "geometry": {"type": "LineString", "coordinates": [[-74.17316277994865, 40.6403488412167], [-74.17293039429639, 40.640626601806794]]}}, {"type": "Feature", "properties": {"segment_id": 625373, "physicalid": "44983", "street_name": "RICHMOND TER", "borough": "staten_island", "direction": "TW", "total_row_ft": 56.0, "roadbed_ft": 26.0, "median_ft": 0.0, "left_sw_ft": 15.0, "right_sw_ft": 15.0}, "geometry": {"type": "LineString", "coordinates": [[-74.1732235519057, 40.64037834466207], [-74.17299116640363, 40.640656105374035]]}}, {"type": "Feature", "properties": {"segment_id": 625374, "physicalid": "44983", "street_name": "RICHMOND TER", "borough": "staten_island", "direction": "TW", "total_row_ft": 55.9, "roadbed_ft": 25.9, "median_ft": 0.0, "left_sw_ft": 15.0, "right_sw_ft": 15.0}, "geometry": {"type": "LineString", "coordinates": [[-74.17328432391648, 40.64040784807518], [-74.17305193856467, 40.640685608909095]]}}, {"type": "Feature", "properties": {"segment_id": 625375, "physicalid": "44983", "street_name": "RICHMOND TER", "borough": "staten_island", "direction": "TW", "total_row_ft": 56.0, "roadbed_ft": 26.0, "median_ft": 0.0, "left_sw_ft": 15.0, "right_sw_ft": 15.0}, "geometry": {"type": "LineString", "coordinates": [[-74.173345095981, 40.6404373514561], [-74.1731127107794, 40.640715112411925]]}}, {"type": "Feature", "properties": {"segment_id": 625376, "physicalid": "44983", "street_name": "RICHMOND TER", "borough": "staten_island", "direction": "TW", "total_row_ft": 55.9, "roadbed_ft": 25.9, "median_ft": 0.0, "left_sw_ft": 15.0, "right_sw_ft": 15.0}, "geometry": {"type": "LineString", "coordinates": [[-74.17340586809928, 40.6404668548048], [-74.1731734830479, 40.64074461588251]]}}, {"type": "Feature", "properties": {"segment_id": 625377, "physicalid": "44983", "street_name": "RICHMOND TER", "borough": "staten_island", "direction": "TW", "total_row_ft": 55.7, "roadbed_ft": 25.7, "median_ft": 0.0, "left_sw_ft": 15.0, "right_sw_ft": 15.0}, "geometry": {"type": "LineString", "coordinates": [[-74.1734666402713, 40.640496358121275], [-74.17323425537015, 40.640774119320916]]}}, {"type": "Feature", "properties": {"segment_id": 625378, "physicalid": "44983", "street_name": "RICHMOND TER", "borough": "staten_island", "direction": "TW", "total_row_ft": 55.6, "roadbed_ft": 25.6, "median_ft": 0.0, "left_sw_ft": 15.0, "right_sw_ft": 15.0}, "geometry": {"type": "LineString", "coordinates": [[-74.17352741249705, 40.640525861405564], [-74.17329502774612, 40.640803622727105]]}}, {"type": "Feature", "properties": {"segment_id": 625379, "physicalid": "44983", "street_name": "RICHMOND TER", "borough": "staten_island", "direction": "TW", "total_row_ft": 55.5, "roadbed_ft": 25.5, "median_ft": 0.0, "left_sw_ft": 15.0, "right_sw_ft": 15.0}, "geometry": {"type": "LineString", "coordinates": [[-74.17358818477655, 40.64055536465764], [-74.17335580017583, 40.64083312610107]]}}, {"type": "Feature", "properties": {"segment_id": 625380, "physicalid": "44983", "street_name": "RICHMOND TER", "borough": "staten_island", "direction": "TW", "total_row_ft": 55.2, "roadbed_ft": 25.2, "median_ft": 0.0, "left_sw_ft": 15.0, "right_sw_ft": 15.0}, "geometry": {"type": "LineString", "coordinates": [[-74.17364895710976, 40.64058486787748], [-74.17341657265929, 40.64086262944283]]}}, {"type": "Feature", "properties": {"segment_id": 625381, "physicalid": "44983", "street_name": "RICHMOND TER", "borough": "staten_island", "direction": "TW", "total_row_ft": 54.8, "roadbed_ft": 24.8, "median_ft": 0.0, "left_sw_ft": 15.0, "right_sw_ft": 15.0}, "geometry": {"type": "LineString", "coordinates": [[-74.17370972949675, 40.640614371065105], [-74.17347734519649, 40.640892132752384]]}}, {"type": "Feature", "properties": {"segment_id": 625382, "physicalid": "44983", "street_name": "RICHMOND TER", "borough": "staten_island", "direction": "TW", "total_row_ft": 54.4, "roadbed_ft": 24.4, "median_ft": 0.0, "left_sw_ft": 15.0, "right_sw_ft": 15.0}, "geometry": {"type": "LineString", "coordinates": [[-74.17377050193745, 40.640643874220544], [-74.17353811778743, 40.6409216360297]]}}, {"type": "Feature", "properties": {"segment_id": 625383, "physicalid": "44983", "street_name": "RICHMOND TER", "borough": "staten_island", "direction": "TW", "total_row_ft": 54.0, "roadbed_ft": 24.0, "median_ft": 0.0, "left_sw_ft": 15.0, "right_sw_ft": 15.0}, "geometry": {"type": "LineString", "coordinates": [[-74.1738312744319, 40.640673377343745], [-74.1735988904321, 40.64095113927481]]}}, {"type": "Feature", "properties": {"segment_id": 625384, "physicalid": "44983", "street_name": "RICHMOND TER", "borough": "staten_island", "direction": "TW", "total_row_ft": 53.5, "roadbed_ft": 23.5, "median_ft": 0.0, "left_sw_ft": 15.0, "right_sw_ft": 15.0}, "geometry": {"type": "LineString", "coordinates": [[-74.17389204698011, 40.64070288043476], [-74.17365966313051, 40.64098064248771]]}}, {"type": "Feature", "properties": {"segment_id": 625385, "physicalid": "44983", "street_name": "RICHMOND TER", "borough": "staten_island", "direction": "TW", "total_row_ft": 52.7, "roadbed_ft": 22.7, "median_ft": 0.0, "left_sw_ft": 15.0, "right_sw_ft": 15.0}, "geometry": {"type": "LineString", "coordinates": [[-74.17395281958203, 40.640732383493535], [-74.17372043588269, 40.64101014566842]]}}, {"type": "Feature", "properties": {"segment_id": 625386, "physicalid": "44983", "street_name": "RICHMOND TER", "borough": "staten_island", "direction": "TW", "total_row_ft": 52.1, "roadbed_ft": 22.1, "median_ft": 0.0, "left_sw_ft": 15.0, "right_sw_ft": 15.0}, "geometry": {"type": "LineString", "coordinates": [[-74.1740135922377, 40.64076188652011], [-74.1737812086886, 40.64103964881691]]}}, {"type": "Feature", "properties": {"segment_id": 625387, "physicalid": "44983", "street_name": "RICHMOND TER", "borough": "staten_island", "direction": "TW", "total_row_ft": 52.3, "roadbed_ft": 22.3, "median_ft": 0.0, "left_sw_ft": 15.0, "right_sw_ft": 15.0}, "geometry": {"type": "LineString", "coordinates": [[-74.17407436494712, 40.64079138951447], [-74.17384198154824, 40.641069151933166]]}}, {"type": "Feature", "properties": {"segment_id": 625388, "physicalid": "44983", "street_name": "RICHMOND TER", "borough": "staten_island", "direction": "TW", "total_row_ft": 52.8, "roadbed_ft": 22.8, "median_ft": 0.0, "left_sw_ft": 15.0, "right_sw_ft": 15.0}, "geometry": {"type": "LineString", "coordinates": [[-74.17407542372936, 40.6407860954522], [-74.17397716342673, 40.64110685224063]]}}, {"type": "Feature", "properties": {"segment_id": 625389, "physicalid": "44983", "street_name": "RICHMOND TER", "borough": "staten_island", "direction": "TW", "total_row_ft": 53.4, "roadbed_ft": 23.4, "median_ft": 0.0, "left_sw_ft": 15.0, "right_sw_ft": 15.0}, "geometry": {"type": "LineString", "coordinates": [[-74.1741456033311, 40.640798570375004], [-74.17404734334742, 40.64111932722296]]}}, {"type": "Feature", "properties": {"segment_id": 625390, "physicalid": "44983", "street_name": "RICHMOND TER", "borough": "staten_island", "direction": "TW", "total_row_ft": 54.1, "roadbed_ft": 24.1, "median_ft": 0.0, "left_sw_ft": 15.0, "right_sw_ft": 15.0}, "geometry": {"type": "LineString", "coordinates": [[-74.17421578295908, 40.640811045254935], [-74.17411752329437, 40.641131802162406]]}}, {"type": "Feature", "properties": {"segment_id": 625391, "physicalid": "44983", "street_name": "RICHMOND TER", "borough": "staten_island", "direction": "TW", "total_row_ft": 88.9, "roadbed_ft": 24.6, "median_ft": 0.0, "left_sw_ft": 49.3, "right_sw_ft": 15.0}, "geometry": {"type": "LineString", "coordinates": [[-74.1742859626133, 40.64082352009201], [-74.17418770326758, 40.64114427705903]]}}, {"type": "Feature", "properties": {"segment_id": 625392, "physicalid": "44983", "street_name": "RICHMOND TER", "borough": "staten_island", "direction": "TW", "total_row_ft": 61.7, "roadbed_ft": 24.7, "median_ft": 0.0, "left_sw_ft": 22.0, "right_sw_ft": 15.0}, "geometry": {"type": "LineString", "coordinates": [[-74.17435614229375, 40.640835994886274], [-74.17425788326702, 40.64115675191281]]}}, {"type": "Feature", "properties": {"segment_id": 625393, "physicalid": "44983", "street_name": "RICHMOND TER", "borough": "staten_island", "direction": "TW", "total_row_ft": 61.8, "roadbed_ft": 24.7, "median_ft": 0.0, "left_sw_ft": 22.1, "right_sw_ft": 15.0}, "geometry": {"type": "LineString", "coordinates": [[-74.17442632200044, 40.64084846963767], [-74.1743280632927, 40.641169226723726]]}}, {"type": "Feature", "properties": {"segment_id": 625394, "physicalid": "44983", "street_name": "RICHMOND TER", "borough": "staten_island", "direction": "TW", "total_row_ft": 61.7, "roadbed_ft": 24.5, "median_ft": 0.0, "left_sw_ft": 22.2, "right_sw_ft": 15.0}, "geometry": {"type": "LineString", "coordinates": [[-74.17449650173339, 40.6408609443462], [-74.17439824334461, 40.641181701491796]]}}, {"type": "Feature", "properties": {"segment_id": 625395, "physicalid": "44983", "street_name": "RICHMOND TER", "borough": "staten_island", "direction": "TW", "total_row_ft": 44.3, "roadbed_ft": 24.4, "median_ft": 0.0, "left_sw_ft": 4.9, "right_sw_ft": 15.0}, "geometry": {"type": "LineString", "coordinates": [[-74.17456668149256, 40.6408734190119], [-74.1744684234228, 40.64119417621703]]}}, {"type": "Feature", "properties": {"segment_id": 625396, "physicalid": "44983", "street_name": "RICHMOND TER", "borough": "staten_island", "direction": "TW", "total_row_ft": 54.4, "roadbed_ft": 24.4, "median_ft": 0.0, "left_sw_ft": 15.0, "right_sw_ft": 15.0}, "geometry": {"type": "LineString", "coordinates": [[-74.17463686127799, 40.640885893634774], [-74.17453860352718, 40.64120665089942]]}}, {"type": "Feature", "properties": {"segment_id": 625397, "physicalid": "44983", "street_name": "RICHMOND TER", "borough": "staten_island", "direction": "TW", "total_row_ft": 54.4, "roadbed_ft": 24.4, "median_ft": 0.0, "left_sw_ft": 15.0, "right_sw_ft": 15.0}, "geometry": {"type": "LineString", "coordinates": [[-74.17470704108965, 40.6408983682148], [-74.17460878365782, 40.641219125538946]]}}, {"type": "Feature", "properties": {"segment_id": 625398, "physicalid": "44983", "street_name": "RICHMOND TER", "borough": "staten_island", "direction": "TW", "total_row_ft": 43.0, "roadbed_ft": 24.5, "median_ft": 0.0, "left_sw_ft": 3.5, "right_sw_ft": 15.0}, "geometry": {"type": "LineString", "coordinates": [[-74.17477722092751, 40.64091084275193], [-74.17467896381473, 40.64123160013563]]}}, {"type": "Feature", "properties": {"segment_id": 625399, "physicalid": "44983", "street_name": "RICHMOND TER", "borough": "staten_island", "direction": "TW", "total_row_ft": 48.8, "roadbed_ft": 24.6, "median_ft": 0.0, "left_sw_ft": 9.2, "right_sw_ft": 15.0}, "geometry": {"type": "LineString", "coordinates": [[-74.17484740079168, 40.640923317246255], [-74.17474914399783, 40.64124407468946]]}}, {"type": "Feature", "properties": {"segment_id": 625400, "physicalid": "44983", "street_name": "RICHMOND TER", "borough": "staten_island", "direction": "TW", "total_row_ft": 54.9, "roadbed_ft": 24.9, "median_ft": 0.0, "left_sw_ft": 15.0, "right_sw_ft": 15.0}, "geometry": {"type": "LineString", "coordinates": [[-74.17491758068205, 40.64093579169773], [-74.17481932420719, 40.64125654920046]]}}, {"type": "Feature", "properties": {"segment_id": 625401, "physicalid": "44983", "street_name": "RICHMOND TER", "borough": "staten_island", "direction": "TW", "total_row_ft": 55.1, "roadbed_ft": 25.1, "median_ft": 0.0, "left_sw_ft": 15.0, "right_sw_ft": 15.0}, "geometry": {"type": "LineString", "coordinates": [[-74.17498776059867, 40.64094826610635], [-74.1748895044428, 40.641269023668606]]}}, {"type": "Feature", "properties": {"segment_id": 625402, "physicalid": "44983", "street_name": "RICHMOND TER", "borough": "staten_island", "direction": "TW", "total_row_ft": 55.3, "roadbed_ft": 25.3, "median_ft": 0.0, "left_sw_ft": 15.0, "right_sw_ft": 15.0}, "geometry": {"type": "LineString", "coordinates": [[-74.17505794054152, 40.64096074047212], [-74.17495968470466, 40.64128149809391]]}}, {"type": "Feature", "properties": {"segment_id": 625403, "physicalid": "44983", "street_name": "RICHMOND TER", "borough": "staten_island", "direction": "TW", "total_row_ft": 44.6, "roadbed_ft": 25.4, "median_ft": 0.0, "left_sw_ft": 15.0, "right_sw_ft": 4.2}, "geometry": {"type": "LineString", "coordinates": [[-74.1751281205106, 40.64097321479506], [-74.17506357448603, 40.64118392732117]]}}, {"type": "Feature", "properties": {"segment_id": 625404, "physicalid": "44983", "street_name": "RICHMOND TER", "borough": "staten_island", "direction": "TW", "total_row_ft": 44.5, "roadbed_ft": 25.6, "median_ft": 0.0, "left_sw_ft": 15.0, "right_sw_ft": 4.0}, "geometry": {"type": "LineString", "coordinates": [[-74.17519830050594, 40.64098568907513], [-74.1751339779308, 40.64119567286666]]}}, {"type": "Feature", "properties": {"segment_id": 625405, "physicalid": "44983", "street_name": "RICHMOND TER", "borough": "staten_island", "direction": "TW", "total_row_ft": 44.6, "roadbed_ft": 25.8, "median_ft": 0.0, "left_sw_ft": 15.0, "right_sw_ft": 3.8}, "geometry": {"type": "LineString", "coordinates": [[-74.17526848052752, 40.64099816331235], [-74.17520438140033, 40.64120741836903]]}}, {"type": "Feature", "properties": {"segment_id": 625406, "physicalid": "44983", "street_name": "RICHMOND TER", "borough": "staten_island", "direction": "TW", "total_row_ft": 45.0, "roadbed_ft": 26.2, "median_ft": 0.0, "left_sw_ft": 15.0, "right_sw_ft": 3.8}, "geometry": {"type": "LineString", "coordinates": [[-74.17533866057535, 40.641010637506746], [-74.17527478489464, 40.64121916382827]]}}, {"type": "Feature", "properties": {"segment_id": 625407, "physicalid": "44983", "street_name": "RICHMOND TER", "borough": "staten_island", "direction": "TW", "total_row_ft": 45.5, "roadbed_ft": 26.1, "median_ft": 0.0, "left_sw_ft": 15.0, "right_sw_ft": 4.4}, "geometry": {"type": "LineString", "coordinates": [[-74.17539570321448, 40.641017658335485], [-74.17534946060104, 40.64123162197172]]}}, {"type": "Feature", "properties": {"segment_id": 625408, "physicalid": "44983", "street_name": "RICHMOND TER", "borough": "staten_island", "direction": "TW", "total_row_ft": 46.0, "roadbed_ft": 26.2, "median_ft": 0.0, "left_sw_ft": 15.0, "right_sw_ft": 4.8}, "geometry": {"type": "LineString", "coordinates": [[-74.17546681130759, 40.64102657584448], [-74.1754200875857, 40.64124276661799]]}}, {"type": "Feature", "properties": {"segment_id": 625409, "physicalid": "44983", "street_name": "RICHMOND TER", "borough": "staten_island", "direction": "TW", "total_row_ft": 46.2, "roadbed_ft": 26.8, "median_ft": 0.0, "left_sw_ft": 15.0, "right_sw_ft": 4.5}, "geometry": {"type": "LineString", "coordinates": [[-74.17553791941967, 40.6410354933095], [-74.17549112999953, 40.6412519891353]]}}, {"type": "Feature", "properties": {"segment_id": 625410, "physicalid": "44983", "street_name": "RICHMOND TER", "borough": "staten_island", "direction": "TW", "total_row_ft": 47.0, "roadbed_ft": 27.5, "median_ft": 0.0, "left_sw_ft": 15.0, "right_sw_ft": 4.4}, "geometry": {"type": "LineString", "coordinates": [[-74.17559454051685, 40.64104159677234], [-74.17556713318994, 40.64126185589269]]}}, {"type": "Feature", "properties": {"segment_id": 625411, "physicalid": "44983", "street_name": "RICHMOND TER", "borough": "staten_island", "direction": "TW", "total_row_ft": 49.0, "roadbed_ft": 29.0, "median_ft": 0.0, "left_sw_ft": 15.0, "right_sw_ft": 5.0}, "geometry": {"type": "LineString", "coordinates": [[-74.17566628426603, 40.64104677686879], [-74.17563846926207, 40.64127031420811]]}}, {"type": "Feature", "properties": {"segment_id": 625412, "physicalid": "44983", "street_name": "RICHMOND TER", "borough": "staten_island", "direction": "TW", "total_row_ft": 48.4, "roadbed_ft": 29.3, "median_ft": 0.0, "left_sw_ft": 15.0, "right_sw_ft": 4.1}, "geometry": {"type": "LineString", "coordinates": [[-74.17573802802634, 40.64105195692049], [-74.1757105005282, 40.64127318561716]]}}, {"type": "Feature", "properties": {"segment_id": 625413, "physicalid": "44983", "street_name": "RICHMOND TER", "borough": "staten_island", "direction": "TW", "total_row_ft": 48.6, "roadbed_ft": 30.0, "median_ft": 0.0, "left_sw_ft": 15.0, "right_sw_ft": 3.6}, "geometry": {"type": "LineString", "coordinates": [[-74.1758097717978, 40.64105713692742], [-74.17578262451399, 40.64127531187216]]}}, {"type": "Feature", "properties": {"segment_id": 625414, "physicalid": "44983", "street_name": "RICHMOND TER", "borough": "staten_island", "direction": "TW", "total_row_ft": 49.1, "roadbed_ft": 30.5, "median_ft": 0.0, "left_sw_ft": 15.0, "right_sw_ft": 3.6}, "geometry": {"type": "LineString", "coordinates": [[-74.17586690076577, 40.64105869956314], [-74.17585952740409, 40.64127728410132]]}}, {"type": "Feature", "properties": {"segment_id": 625415, "physicalid": "44983", "street_name": "RICHMOND TER", "borough": "staten_island", "direction": "TW", "total_row_ft": 49.6, "roadbed_ft": 30.5, "median_ft": 0.0, "left_sw_ft": 15.0, "right_sw_ft": 4.1}, "geometry": {"type": "LineString", "coordinates": [[-74.17593894231538, 40.64106010964682], [-74.17593155444725, 40.64127913123916]]}}, {"type": "Feature", "properties": {"segment_id": 625416, "physicalid": "44983", "street_name": "RICHMOND TER", "borough": "staten_island", "direction": "TW", "total_row_ft": 50.5, "roadbed_ft": 31.0, "median_ft": 0.0, "left_sw_ft": 15.0, "right_sw_ft": 4.5}, "geometry": {"type": "LineString", "coordinates": [[-74.17601098386803, 40.64106151968538], [-74.17600361233171, 40.64128006409932]]}}, {"type": "Feature", "properties": {"segment_id": 625417, "physicalid": "44983", "street_name": "RICHMOND TER", "borough": "staten_island", "direction": "TW", "total_row_ft": 50.1, "roadbed_ft": 31.1, "median_ft": 0.0, "left_sw_ft": 15.0, "right_sw_ft": 4.0}, "geometry": {"type": "LineString", "coordinates": [[-74.17606813776393, 40.64106231303156], [-74.1760803493977, 40.64127774377781]]}}, {"type": "Feature", "properties": {"segment_id": 625418, "physicalid": "44983", "street_name": "RICHMOND TER", "borough": "staten_island", "direction": "TW", "total_row_ft": 49.7, "roadbed_ft": 31.0, "median_ft": 0.0, "left_sw_ft": 15.0, "right_sw_ft": 3.8}, "geometry": {"type": "LineString", "coordinates": [[-74.17614013600472, 40.64105994485111], [-74.17615235868476, 40.641275566364854]]}}, {"type": "Feature", "properties": {"segment_id": 625419, "physicalid": "44983", "street_name": "RICHMOND TER", "borough": "staten_island", "direction": "TW", "total_row_ft": 49.3, "roadbed_ft": 30.6, "median_ft": 0.0, "left_sw_ft": 15.0, "right_sw_ft": 3.7}, "geometry": {"type": "LineString", "coordinates": [[-74.17621213424036, 40.64105757662558], [-74.17622436796712, 40.64127338890679]]}}, {"type": "Feature", "properties": {"segment_id": 625420, "physicalid": "44983", "street_name": "RICHMOND TER", "borough": "staten_island", "direction": "TW", "total_row_ft": 48.9, "roadbed_ft": 30.0, "median_ft": 0.0, "left_sw_ft": 15.0, "right_sw_ft": 3.9}, "geometry": {"type": "LineString", "coordinates": [[-74.17628413247093, 40.641055208354956], [-74.17629637724478, 40.64127121140363]]}}, {"type": "Feature", "properties": {"segment_id": 625421, "physicalid": "44983", "street_name": "RICHMOND TER", "borough": "staten_island", "direction": "TW", "total_row_ft": 48.1, "roadbed_ft": 29.4, "median_ft": 0.0, "left_sw_ft": 15.0, "right_sw_ft": 3.7}, "geometry": {"type": "LineString", "coordinates": [[-74.17634110850408, 40.64105144610045], [-74.17637301478184, 40.64126795218237]]}}, {"type": "Feature", "properties": {"segment_id": 625422, "physicalid": "44983", "street_name": "RICHMOND TER", "borough": "staten_island", "direction": "TW", "total_row_ft": 46.7, "roadbed_ft": 28.6, "median_ft": 0.0, "left_sw_ft": 15.0, "right_sw_ft": 3.2}, "geometry": {"type": "LineString", "coordinates": [[-74.1764127239866, 40.64104532206935], [-74.17644495969432, 40.641264061960314]]}}, {"type": "Feature", "properties": {"segment_id": 625423, "physicalid": "44983", "street_name": "RICHMOND TER", "borough": "staten_island", "direction": "TW", "total_row_ft": 47.3, "roadbed_ft": 28.8, "median_ft": 0.0, "left_sw_ft": 15.0, "right_sw_ft": 3.5}, "geometry": {"type": "LineString", "coordinates": [[-74.176484339456, 40.641039197993656], [-74.17651690459843, 40.641260171693254]]}}, {"type": "Feature", "properties": {"segment_id": 625424, "physicalid": "44983", "street_name": "RICHMOND TER", "borough": "staten_island", "direction": "TW", "total_row_ft": 50.2, "roadbed_ft": 30.9, "median_ft": 0.0, "left_sw_ft": 15.0, "right_sw_ft": 4.4}, "geometry": {"type": "LineString", "coordinates": [[-74.17651719838183, 40.641038836979725], [-74.17660351140104, 40.64125545513677]]}}, {"type": "Feature", "properties": {"segment_id": 625425, "physicalid": "44983", "street_name": "RICHMOND TER", "borough": "staten_island", "direction": "TW", "total_row_ft": 52.5, "roadbed_ft": 32.8, "median_ft": 0.0, "left_sw_ft": 15.0, "right_sw_ft": 4.6}, "geometry": {"type": "LineString", "coordinates": [[-74.1765861571773, 40.64102289307477], [-74.1766758432355, 40.64124797587087]]}}, {"type": "Feature", "properties": {"segment_id": 625426, "physicalid": "44983", "street_name": "RICHMOND TER", "borough": "staten_island", "direction": "TW", "total_row_ft": 52.4, "roadbed_ft": 33.1, "median_ft": 0.0, "left_sw_ft": 15.0, "right_sw_ft": 4.3}, "geometry": {"type": "LineString", "coordinates": [[-74.1766551159398, 40.64100694912843], [-74.17674563402322, 40.64123411944055]]}}, {"type": "Feature", "properties": {"segment_id": 625427, "physicalid": "44983", "street_name": "RICHMOND TER", "borough": "staten_island", "direction": "TW", "total_row_ft": 51.7, "roadbed_ft": 32.7, "median_ft": 0.0, "left_sw_ft": 15.0, "right_sw_ft": 4.1}, "geometry": {"type": "LineString", "coordinates": [[-74.17672407466935, 40.640991005140705], [-74.17681429390177, 40.64121742485194]]}}, {"type": "Feature", "properties": {"segment_id": 625428, "physicalid": "44983", "street_name": "RICHMOND TER", "borough": "staten_island", "direction": "TW", "total_row_ft": 51.1, "roadbed_ft": 32.0, "median_ft": 0.0, "left_sw_ft": 15.0, "right_sw_ft": 4.1}, "geometry": {"type": "LineString", "coordinates": [[-74.17679303336597, 40.64097506111162], [-74.17688292657542, 40.64120066203386]]}}, {"type": "Feature", "properties": {"segment_id": 625429, "physicalid": "44983", "street_name": "RICHMOND TER", "borough": "staten_island", "direction": "TW", "total_row_ft": 50.4, "roadbed_ft": 31.6, "median_ft": 0.0, "left_sw_ft": 15.0, "right_sw_ft": 3.8}, "geometry": {"type": "LineString", "coordinates": [[-74.17686199202961, 40.64095911704112], [-74.17695150453251, 40.64118376194256]]}}, {"type": "Feature", "properties": {"segment_id": 625430, "physicalid": "44983", "street_name": "RICHMOND TER", "borough": "staten_island", "direction": "TW", "total_row_ft": 50.3, "roadbed_ft": 31.6, "median_ft": 0.0, "left_sw_ft": 15.0, "right_sw_ft": 3.7}, "geometry": {"type": "LineString", "coordinates": [[-74.1769309506603, 40.640943172929276], [-74.17702008229114, 40.64116686139934]]}}, {"type": "Feature", "properties": {"segment_id": 625431, "physicalid": "44983", "street_name": "RICHMOND TER", "borough": "staten_island", "direction": "TW", "total_row_ft": 50.5, "roadbed_ft": 31.8, "median_ft": 0.0, "left_sw_ft": 15.0, "right_sw_ft": 3.6}, "geometry": {"type": "LineString", "coordinates": [[-74.17699990925803, 40.640927228776036], [-74.1770886729972, 40.64114999339561]]}}, {"type": "Feature", "properties": {"segment_id": 625432, "physicalid": "44983", "street_name": "RICHMOND TER", "borough": "staten_island", "direction": "TW", "total_row_ft": 51.0, "roadbed_ft": 32.1, "median_ft": 0.0, "left_sw_ft": 15.0, "right_sw_ft": 3.9}, "geometry": {"type": "LineString", "coordinates": [[-74.17706886782283, 40.640911284581414], [-74.17715765299741, 40.64113410241841]]}}, {"type": "Feature", "properties": {"segment_id": 625433, "physicalid": "44983", "street_name": "RICHMOND TER", "borough": "staten_island", "direction": "TW", "total_row_ft": 51.0, "roadbed_ft": 31.8, "median_ft": 0.0, "left_sw_ft": 15.0, "right_sw_ft": 4.2}, "geometry": {"type": "LineString", "coordinates": [[-74.17713782635464, 40.640895340345416], [-74.17722663296479, 40.641118211399835]]}}, {"type": "Feature", "properties": {"segment_id": 625434, "physicalid": "44983", "street_name": "RICHMOND TER", "borough": "staten_island", "direction": "TW", "total_row_ft": 50.3, "roadbed_ft": 31.0, "median_ft": 0.0, "left_sw_ft": 15.0, "right_sw_ft": 4.3}, "geometry": {"type": "LineString", "coordinates": [[-74.17720678485352, 40.64087939606803], [-74.17729561288286, 40.6411023202986]]}}, {"type": "Feature", "properties": {"segment_id": 625435, "physicalid": "44983", "street_name": "RICHMOND TER", "borough": "staten_island", "direction": "TW", "total_row_ft": 49.6, "roadbed_ft": 30.2, "median_ft": 0.0, "left_sw_ft": 15.0, "right_sw_ft": 4.4}, "geometry": {"type": "LineString", "coordinates": [[-74.17727574331944, 40.640863451749276], [-74.17736459276276, 40.641086429142575]]}}, {"type": "Feature", "properties": {"segment_id": 625436, "physicalid": "44983", "street_name": "RICHMOND TER", "borough": "staten_island", "direction": "TW", "total_row_ft": 48.8, "roadbed_ft": 29.3, "median_ft": 0.0, "left_sw_ft": 15.0, "right_sw_ft": 4.5}, "geometry": {"type": "LineString", "coordinates": [[-74.17734470175239, 40.640847507389125], [-74.17743357260979, 40.641070537945176]]}}, {"type": "Feature", "properties": {"segment_id": 625437, "physicalid": "44983", "street_name": "RICHMOND TER", "borough": "staten_island", "direction": "TW", "total_row_ft": 48.1, "roadbed_ft": 28.7, "median_ft": 0.0, "left_sw_ft": 15.0, "right_sw_ft": 4.4}, "geometry": {"type": "LineString", "coordinates": [[-74.1774136601524, 40.64083156298762], [-74.1775026979662, 40.64105501195734]]}}, {"type": "Feature", "properties": {"segment_id": 625438, "physicalid": "44983", "street_name": "RICHMOND TER", "borough": "staten_island", "direction": "TW", "total_row_ft": 48.1, "roadbed_ft": 28.8, "median_ft": 0.0, "left_sw_ft": 15.0, "right_sw_ft": 4.3}, "geometry": {"type": "LineString", "coordinates": [[-74.17748261851946, 40.6408156185447], [-74.17757182970043, 40.64103950201432]]}}, {"type": "Feature", "properties": {"segment_id": 625439, "physicalid": "44983", "street_name": "RICHMOND TER", "borough": "staten_island", "direction": "TW", "total_row_ft": 49.9, "roadbed_ft": 30.4, "median_ft": 0.0, "left_sw_ft": 15.0, "right_sw_ft": 4.5}, "geometry": {"type": "LineString", "coordinates": [[-74.1775986522811, 40.64079592658742], [-74.17762194842342, 40.6410288065508]]}}, {"type": "Feature", "properties": {"segment_id": 625440, "physicalid": "44983", "street_name": "RICHMOND TER", "borough": "staten_island", "direction": "TW", "total_row_ft": 50.8, "roadbed_ft": 31.9, "median_ft": 0.0, "left_sw_ft": 15.0, "right_sw_ft": 3.9}, "geometry": {"type": "LineString", "coordinates": [[-74.17767050899725, 40.6407917555156], [-74.17769281084443, 40.641014693638056]]}}, {"type": "Feature", "properties": {"segment_id": 625441, "physicalid": "44983", "street_name": "RICHMOND TER", "borough": "staten_island", "direction": "TW", "total_row_ft": 49.2, "roadbed_ft": 30.3, "median_ft": 0.0, "left_sw_ft": 15.0, "right_sw_ft": 3.9}, "geometry": {"type": "LineString", "coordinates": [[-74.17774236570442, 40.64078758439887], [-74.17776395004506, 40.64100334774164]]}}, {"type": "Feature", "properties": {"segment_id": 625442, "physicalid": "44983", "street_name": "RICHMOND TER", "borough": "staten_island", "direction": "TW", "total_row_ft": 48.0, "roadbed_ft": 29.2, "median_ft": 0.0, "left_sw_ft": 15.0, "right_sw_ft": 3.8}, "geometry": {"type": "LineString", "coordinates": [[-74.17781422240262, 40.640783413237244], [-74.1778354579561, 40.640995687728484]]}}, {"type": "Feature", "properties": {"segment_id": 625443, "physicalid": "44983", "street_name": "RICHMOND TER", "borough": "staten_island", "direction": "TW", "total_row_ft": 48.1, "roadbed_ft": 29.0, "median_ft": 0.0, "left_sw_ft": 15.0, "right_sw_ft": 4.1}, "geometry": {"type": "LineString", "coordinates": [[-74.1778860790918, 40.64077924203072], [-74.17790734394063, 40.64099180707439]]}}, {"type": "Feature", "properties": {"segment_id": 625444, "physicalid": "44983", "street_name": "RICHMOND TER", "borough": "staten_island", "direction": "TW", "total_row_ft": 48.6, "roadbed_ft": 29.2, "median_ft": 0.0, "left_sw_ft": 15.0, "right_sw_ft": 4.4}, "geometry": {"type": "LineString", "coordinates": [[-74.17795793577204, 40.6407750707793], [-74.17797932229747, 40.640988849806824]]}}, {"type": "Feature", "properties": {"segment_id": 625445, "physicalid": "44983", "street_name": "RICHMOND TER", "borough": "staten_island", "direction": "TW", "total_row_ft": 49.1, "roadbed_ft": 29.5, "median_ft": 0.0, "left_sw_ft": 15.0, "right_sw_ft": 4.7}, "geometry": {"type": "LineString", "coordinates": [[-74.17802979244325, 40.640770899482945], [-74.17805129420137, 40.640985828055186]]}}, {"type": "Feature", "properties": {"segment_id": 625446, "physicalid": "44983", "street_name": "RICHMOND TER", "borough": "staten_island", "direction": "TW", "total_row_ft": 49.6, "roadbed_ft": 29.7, "median_ft": 0.0, "left_sw_ft": 15.0, "right_sw_ft": 4.9}, "geometry": {"type": "LineString", "coordinates": [[-74.17810164910551, 40.640766728141706], [-74.1781232660998, 40.64098280626932]]}}, {"type": "Feature", "properties": {"segment_id": 625447, "physicalid": "44983", "street_name": "RICHMOND TER", "borough": "staten_island", "direction": "TW", "total_row_ft": 50.2, "roadbed_ft": 29.9, "median_ft": 0.0, "left_sw_ft": 15.0, "right_sw_ft": 5.2}, "geometry": {"type": "LineString", "coordinates": [[-74.17817350575878, 40.640762556755575], [-74.17819525200666, 40.640979924526086]]}}, {"type": "Feature", "properties": {"segment_id": 625448, "physicalid": "44983", "street_name": "RICHMOND TER", "borough": "staten_island", "direction": "TW", "total_row_ft": 51.1, "roadbed_ft": 30.2, "median_ft": 0.0, "left_sw_ft": 15.0, "right_sw_ft": 5.8}, "geometry": {"type": "LineString", "coordinates": [[-74.17824536240306, 40.64075838532453], [-74.17826731232546, 40.64097778658493]]}}, {"type": "Feature", "properties": {"segment_id": 625449, "physicalid": "44983", "street_name": "RICHMOND TER", "borough": "staten_island", "direction": "TW", "total_row_ft": 52.1, "roadbed_ft": 30.6, "median_ft": 0.0, "left_sw_ft": 15.0, "right_sw_ft": 6.4}, "geometry": {"type": "LineString", "coordinates": [[-74.17831721903836, 40.64075421384856], [-74.17833937267437, 40.640975648945684]]}}, {"type": "Feature", "properties": {"segment_id": 625450, "physicalid": "44983", "street_name": "RICHMOND TER", "borough": "staten_island", "direction": "TW", "total_row_ft": 52.4, "roadbed_ft": 31.0, "median_ft": 0.0, "left_sw_ft": 15.0, "right_sw_ft": 6.3}, "geometry": {"type": "LineString", "coordinates": [[-74.17838907566468, 40.6407500423277], [-74.17841123118272, 40.64097149385298]]}}, {"type": "Feature", "properties": {"segment_id": 625451, "physicalid": "44983", "street_name": "RICHMOND TER", "borough": "staten_island", "direction": "TW", "total_row_ft": 52.4, "roadbed_ft": 31.4, "median_ft": 0.0, "left_sw_ft": 15.0, "right_sw_ft": 6.0}, "geometry": {"type": "LineString", "coordinates": [[-74.17846093228201, 40.64074587076196], [-74.17848303929621, 40.64096683509907]]}}, {"type": "Feature", "properties": {"segment_id": 625452, "physicalid": "44983", "street_name": "RICHMOND TER", "borough": "staten_island", "direction": "TW", "total_row_ft": 52.1, "roadbed_ft": 31.6, "median_ft": 0.0, "left_sw_ft": 15.0, "right_sw_ft": 5.5}, "geometry": {"type": "LineString", "coordinates": [[-74.17853278889035, 40.64074169915132], [-74.17855479111131, 40.64096161369409]]}}, {"type": "Feature", "properties": {"segment_id": 625453, "physicalid": "44983", "street_name": "RICHMOND TER", "borough": "staten_island", "direction": "TW", "total_row_ft": 51.6, "roadbed_ft": 31.6, "median_ft": 0.0, "left_sw_ft": 15.0, "right_sw_ft": 5.0}, "geometry": {"type": "LineString", "coordinates": [[-74.17860464548971, 40.64073752749575], [-74.1786265429152, 40.64095639224433]]}}, {"type": "Feature", "properties": {"segment_id": 625454, "physicalid": "44983", "street_name": "RICHMOND TER", "borough": "staten_island", "direction": "TW", "total_row_ft": 51.1, "roadbed_ft": 31.6, "median_ft": 0.0, "left_sw_ft": 15.0, "right_sw_ft": 4.5}, "geometry": {"type": "LineString", "coordinates": [[-74.17867650208008, 40.64073335579528], [-74.17869829470784, 40.6409511707498]]}}, {"type": "Feature", "properties": {"segment_id": 625455, "physicalid": "44983", "street_name": "RICHMOND TER", "borough": "staten_island", "direction": "TW", "total_row_ft": 51.4, "roadbed_ft": 31.6, "median_ft": 0.0, "left_sw_ft": 15.0, "right_sw_ft": 4.8}, "geometry": {"type": "LineString", "coordinates": [[-74.17874835866147, 40.64072918404991], [-74.1787702691279, 40.640948174428374]]}}, {"type": "Feature", "properties": {"segment_id": 625456, "physicalid": "44983", "street_name": "RICHMOND TER", "borough": "staten_island", "direction": "TW", "total_row_ft": 52.1, "roadbed_ft": 31.5, "median_ft": 0.0, "left_sw_ft": 15.0, "right_sw_ft": 5.6}, "geometry": {"type": "LineString", "coordinates": [[-74.17882021523388, 40.640725012259644], [-74.178842352748, 40.640946269542034]]}}, {"type": "Feature", "properties": {"segment_id": 625457, "physicalid": "44984", "street_name": "RICHMOND TER", "borough": "staten_island", "direction": "TW", "total_row_ft": 97.5, "roadbed_ft": 75.6, "median_ft": 0.0, "left_sw_ft": 15.0, "right_sw_ft": 6.9}, "geometry": {"type": "LineString", "coordinates": [[-74.17894992909888, 40.64071702637887], [-74.17897587552729, 40.640942740713875]]}}, {"type": "Feature", "properties": {"segment_id": 625458, "physicalid": "44984", "street_name": "RICHMOND TER", "borough": "staten_island", "direction": "TW", "total_row_ft": 45.5, "roadbed_ft": 31.0, "median_ft": 0.0, "left_sw_ft": 7.4, "right_sw_ft": 7.1}, "geometry": {"type": "LineString", "coordinates": [[-74.17903347529995, 40.640814504884716], [-74.17904777603694, 40.640938909139905]]}}, {"type": "Feature", "properties": {"segment_id": 625459, "physicalid": "44984", "street_name": "RICHMOND TER", "borough": "staten_island", "direction": "TW", "total_row_ft": 46.3, "roadbed_ft": 31.6, "median_ft": 0.0, "left_sw_ft": 7.6, "right_sw_ft": 7.1}, "geometry": {"type": "LineString", "coordinates": [[-74.17910508298195, 40.64080812717292], [-74.17911964987798, 40.64093484560116]]}}, {"type": "Feature", "properties": {"segment_id": 625460, "physicalid": "44984", "street_name": "RICHMOND TER", "borough": "staten_island", "direction": "TW", "total_row_ft": 47.0, "roadbed_ft": 32.3, "median_ft": 0.0, "left_sw_ft": 7.7, "right_sw_ft": 7.0}, "geometry": {"type": "LineString", "coordinates": [[-74.17917669065027, 40.64080174941651], [-74.17919146817906, 40.640930298953215]]}}, {"type": "Feature", "properties": {"segment_id": 625461, "physicalid": "44984", "street_name": "RICHMOND TER", "borough": "staten_island", "direction": "TW", "total_row_ft": 47.5, "roadbed_ft": 33.0, "median_ft": 0.0, "left_sw_ft": 7.7, "right_sw_ft": 6.7}, "geometry": {"type": "LineString", "coordinates": [[-74.17924829829667, 40.640795371543966], [-74.17926321519708, 40.640925132262105]]}}, {"type": "Feature", "properties": {"segment_id": 625462, "physicalid": "44984", "street_name": "RICHMOND TER", "borough": "staten_island", "direction": "TW", "total_row_ft": 47.8, "roadbed_ft": 33.5, "median_ft": 0.0, "left_sw_ft": 7.6, "right_sw_ft": 6.7}, "geometry": {"type": "LineString", "coordinates": [[-74.17931994585821, 40.64078934096136], [-74.179334962204, 40.64091996552634]]}}, {"type": "Feature", "properties": {"segment_id": 625463, "physicalid": "44984", "street_name": "RICHMOND TER", "borough": "staten_island", "direction": "TW", "total_row_ft": 47.7, "roadbed_ft": 33.9, "median_ft": 0.0, "left_sw_ft": 7.1, "right_sw_ft": 6.7}, "geometry": {"type": "LineString", "coordinates": [[-74.17939171260507, 40.64078434721151], [-74.17940670919982, 40.64091479874579]]}}, {"type": "Feature", "properties": {"segment_id": 625464, "physicalid": "44984", "street_name": "RICHMOND TER", "borough": "staten_island", "direction": "TW", "total_row_ft": 47.6, "roadbed_ft": 34.3, "median_ft": 0.0, "left_sw_ft": 6.7, "right_sw_ft": 6.7}, "geometry": {"type": "LineString", "coordinates": [[-74.17946347934121, 40.64077935341686], [-74.17947845618453, 40.64090963192051]]}}, {"type": "Feature", "properties": {"segment_id": 625465, "physicalid": "44984", "street_name": "RICHMOND TER", "borough": "staten_island", "direction": "TW", "total_row_ft": 47.6, "roadbed_ft": 34.5, "median_ft": 0.0, "left_sw_ft": 6.5, "right_sw_ft": 6.7}, "geometry": {"type": "LineString", "coordinates": [[-74.1795352460666, 40.64077435957743], [-74.17955021206772, 40.64090454255131]]}}, {"type": "Feature", "properties": {"segment_id": 625466, "physicalid": "44984", "street_name": "RICHMOND TER", "borough": "staten_island", "direction": "TW", "total_row_ft": 47.4, "roadbed_ft": 34.6, "median_ft": 0.0, "left_sw_ft": 6.0, "right_sw_ft": 6.7}, "geometry": {"type": "LineString", "coordinates": [[-74.17960708097019, 40.64076995883573], [-74.17962197298634, 40.64089949703295]]}}, {"type": "Feature", "properties": {"segment_id": 625467, "physicalid": "44984", "street_name": "RICHMOND TER", "borough": "staten_island", "direction": "TW", "total_row_ft": 47.1, "roadbed_ft": 35.2, "median_ft": 0.0, "left_sw_ft": 5.6, "right_sw_ft": 6.4}, "geometry": {"type": "LineString", "coordinates": [[-74.17967892134227, 40.64076560569907], [-74.1796937338941, 40.640894451469784]]}}, {"type": "Feature", "properties": {"segment_id": 625468, "physicalid": "44985", "street_name": "RICHMOND TER", "borough": "staten_island", "direction": "TW", "total_row_ft": 96.9, "roadbed_ft": 75.5, "median_ft": 0.0, "left_sw_ft": 15.0, "right_sw_ft": 6.4}, "geometry": {"type": "LineString", "coordinates": [[-74.17980739222362, 40.64066330818842], [-74.17981148422116, 40.640888054347236]]}}, {"type": "Feature", "properties": {"segment_id": 625469, "physicalid": "44985", "street_name": "RICHMOND TER", "borough": "staten_island", "direction": "TW", "total_row_ft": 41.0, "roadbed_ft": 27.9, "median_ft": 0.0, "left_sw_ft": 6.2, "right_sw_ft": 6.9}, "geometry": {"type": "LineString", "coordinates": [[-74.17988146306719, 40.64077309428374], [-74.17988351407337, 40.640885735521984]]}}, {"type": "Feature", "properties": {"segment_id": 625470, "physicalid": "44985", "street_name": "RICHMOND TER", "borough": "staten_island", "direction": "TW", "total_row_ft": 41.7, "roadbed_ft": 28.6, "median_ft": 0.0, "left_sw_ft": 6.2, "right_sw_ft": 6.9}, "geometry": {"type": "LineString", "coordinates": [[-74.1799534621794, 40.64076909422004], [-74.17995554391472, 40.64088341632938]]}}, {"type": "Feature", "properties": {"segment_id": 1242928, "physicalid": "85549", "street_name": "CATHERINE PL", "borough": "staten_island", "direction": "TW", "total_row_ft": 100.2, "roadbed_ft": 70.2, "median_ft": 0.0, "left_sw_ft": 15.0, "right_sw_ft": 15.0}, "geometry": {"type": "LineString", "coordinates": [[-74.17870078996127, 40.64083772465913], [-74.17913291172323, 40.640849336980494]]}}, {"type": "Feature", "properties": {"segment_id": 1242929, "physicalid": "85549", "street_name": "CATHERINE PL", "borough": "staten_island", "direction": "TW", "total_row_ft": 58.3, "roadbed_ft": 28.3, "median_ft": 0.0, "left_sw_ft": 15.0, "right_sw_ft": 15.0}, "geometry": {"type": "LineString", "coordinates": [[-74.17870333084205, 40.64078286307701], [-74.17913545224918, 40.640794475388894]]}}, {"type": "Feature", "properties": {"segment_id": 1242930, "physicalid": "85549", "street_name": "CATHERINE PL", "borough": "staten_island", "direction": "TW", "total_row_ft": 59.5, "roadbed_ft": 29.5, "median_ft": 0.0, "left_sw_ft": 15.0, "right_sw_ft": 15.0}, "geometry": {"type": "LineString", "coordinates": [[-74.17870587171865, 40.64072800149448], [-74.17913799277095, 40.64073961379689]]}}, {"type": "Feature", "properties": {"segment_id": 1242931, "physicalid": "85549", "street_name": "CATHERINE PL", "borough": "staten_island", "direction": "TW", "total_row_ft": 60.3, "roadbed_ft": 30.3, "median_ft": 0.0, "left_sw_ft": 15.0, "right_sw_ft": 15.0}, "geometry": {"type": "LineString", "coordinates": [[-74.17870841259109, 40.640673139911584], [-74.17914053328855, 40.64068475220452]]}}, {"type": "Feature", "properties": {"segment_id": 1242932, "physicalid": "85549", "street_name": "CATHERINE PL", "borough": "staten_island", "direction": "TW", "total_row_ft": 61.2, "roadbed_ft": 31.2, "median_ft": 0.0, "left_sw_ft": 15.0, "right_sw_ft": 15.0}, "geometry": {"type": "LineString", "coordinates": [[-74.17871095345934, 40.64061827832832], [-74.17914307380197, 40.64062989061174]]}}, {"type": "Feature", "properties": {"segment_id": 1242933, "physicalid": "85549", "street_name": "CATHERINE PL", "borough": "staten_island", "direction": "TW", "total_row_ft": 62.7, "roadbed_ft": 32.7, "median_ft": 0.0, "left_sw_ft": 15.0, "right_sw_ft": 15.0}, "geometry": {"type": "LineString", "coordinates": [[-74.17871349432342, 40.640563416744634], [-74.17914561431121, 40.640575029018585]]}}, {"type": "Feature", "properties": {"segment_id": 1242934, "physicalid": "85549", "street_name": "CATHERINE PL", "borough": "staten_island", "direction": "TW", "total_row_ft": 64.6, "roadbed_ft": 34.6, "median_ft": 0.0, "left_sw_ft": 15.0, "right_sw_ft": 15.0}, "geometry": {"type": "LineString", "coordinates": [[-74.17871603518333, 40.64050855516056], [-74.17914815481626, 40.64052016742505]]}}, {"type": "Feature", "properties": {"segment_id": 1242935, "physicalid": "85549", "street_name": "CATHERINE PL", "borough": "staten_island", "direction": "TW", "total_row_ft": 66.5, "roadbed_ft": 36.5, "median_ft": 0.0, "left_sw_ft": 15.0, "right_sw_ft": 15.0}, "geometry": {"type": "LineString", "coordinates": [[-74.17871857603903, 40.64045369357609], [-74.17915069531715, 40.64046530583112]]}}, {"type": "Feature", "properties": {"segment_id": 1242936, "physicalid": "85549", "street_name": "CATHERINE PL", "borough": "staten_island", "direction": "TW", "total_row_ft": 68.3, "roadbed_ft": 38.3, "median_ft": 0.0, "left_sw_ft": 15.0, "right_sw_ft": 15.0}, "geometry": {"type": "LineString", "coordinates": [[-74.17872111689059, 40.640398831991256], [-74.17915323581387, 40.640410444236814]]}}, {"type": "Feature", "properties": {"segment_id": 1242937, "physicalid": "85549", "street_name": "CATHERINE PL", "borough": "staten_island", "direction": "TW", "total_row_ft": 69.9, "roadbed_ft": 39.9, "median_ft": 0.0, "left_sw_ft": 15.0, "right_sw_ft": 15.0}, "geometry": {"type": "LineString", "coordinates": [[-74.17872365773793, 40.64034397040601], [-74.1791557763064, 40.6403555826421]]}}, {"type": "Feature", "properties": {"segment_id": 1242938, "physicalid": "85549", "street_name": "CATHERINE PL", "borough": "staten_island", "direction": "TW", "total_row_ft": 71.5, "roadbed_ft": 41.5, "median_ft": 0.0, "left_sw_ft": 15.0, "right_sw_ft": 15.0}, "geometry": {"type": "LineString", "coordinates": [[-74.17872619858113, 40.64028910882041], [-74.17915831679476, 40.640300721047005]]}}, {"type": "Feature", "properties": {"segment_id": 1242939, "physicalid": "85549", "street_name": "CATHERINE PL", "borough": "staten_island", "direction": "TW", "total_row_ft": 73.1, "roadbed_ft": 43.1, "median_ft": 0.0, "left_sw_ft": 15.0, "right_sw_ft": 15.0}, "geometry": {"type": "LineString", "coordinates": [[-74.17872873942014, 40.6402342472344], [-74.17916085727893, 40.64024585945151]]}}, {"type": "Feature", "properties": {"segment_id": 1242940, "physicalid": "85549", "street_name": "CATHERINE PL", "borough": "staten_island", "direction": "TW", "total_row_ft": 74.6, "roadbed_ft": 44.6, "median_ft": 0.0, "left_sw_ft": 15.0, "right_sw_ft": 15.0}, "geometry": {"type": "LineString", "coordinates": [[-74.17873128025496, 40.64017938564802], [-74.17916339775893, 40.64019099785566]]}}, {"type": "Feature", "properties": {"segment_id": 1242941, "physicalid": "85549", "street_name": "CATHERINE PL", "borough": "staten_island", "direction": "TW", "total_row_ft": 74.8, "roadbed_ft": 44.8, "median_ft": 0.0, "left_sw_ft": 15.0, "right_sw_ft": 15.0}, "geometry": {"type": "LineString", "coordinates": [[-74.17873382108561, 40.64012452406124], [-74.17916593823475, 40.640136136259414]]}}, {"type": "Feature", "properties": {"segment_id": 1242942, "physicalid": "85549", "street_name": "CATHERINE PL", "borough": "staten_island", "direction": "TW", "total_row_ft": 75.0, "roadbed_ft": 45.0, "median_ft": 0.0, "left_sw_ft": 15.0, "right_sw_ft": 15.0}, "geometry": {"type": "LineString", "coordinates": [[-74.17873636191209, 40.64006966247406], [-74.17916847870639, 40.64008127466275]]}}, {"type": "Feature", "properties": {"segment_id": 1242943, "physicalid": "85549", "street_name": "CATHERINE PL", "borough": "staten_island", "direction": "TW", "total_row_ft": 75.1, "roadbed_ft": 45.1, "median_ft": 0.0, "left_sw_ft": 15.0, "right_sw_ft": 15.0}, "geometry": {"type": "LineString", "coordinates": [[-74.1787389027344, 40.64001480088651], [-74.17917101917385, 40.640026413065726]]}}, {"type": "Feature", "properties": {"segment_id": 1510882, "physicalid": "101855", "street_name": "FEDERAL PL", "borough": "staten_island", "direction": "TW", "total_row_ft": 109.5, "roadbed_ft": 75.3, "median_ft": 0.0, "left_sw_ft": 19.1, "right_sw_ft": 15.0}, "geometry": {"type": "LineString", "coordinates": [[-74.17029493412434, 40.64071342951457], [-74.1706352674477, 40.64071001853735]]}}, {"type": "Feature", "properties": {"segment_id": 1510883, "physicalid": "101855", "street_name": "FEDERAL PL", "borough": "staten_island", "direction": "TW", "total_row_ft": 30.3, "roadbed_ft": 23.9, "median_ft": 0.0, "left_sw_ft": 5.1, "right_sw_ft": 1.3}, "geometry": {"type": "LineString", "coordinates": [[-74.17035637216816, 40.64065791336342], [-74.17063431922517, 40.64065512757464]]}}, {"type": "Feature", "properties": {"segment_id": 1510884, "physicalid": "101855", "street_name": "FEDERAL PL", "borough": "staten_island", "direction": "TW", "total_row_ft": 44.1, "roadbed_ft": 23.8, "median_ft": 0.0, "left_sw_ft": 5.4, "right_sw_ft": 15.0}, "geometry": {"type": "LineString", "coordinates": [[-74.17035433141756, 40.6406030333492], [-74.1706333710042, 40.64060023661159]]}}, {"type": "Feature", "properties": {"segment_id": 1510885, "physicalid": "101855", "street_name": "FEDERAL PL", "borough": "staten_island", "direction": "TW", "total_row_ft": 44.2, "roadbed_ft": 23.6, "median_ft": 0.0, "left_sw_ft": 5.6, "right_sw_ft": 15.0}, "geometry": {"type": "LineString", "coordinates": [[-74.17035229067032, 40.6405481533346], [-74.17063242278479, 40.64054534564819]]}}, {"type": "Feature", "properties": {"segment_id": 1510886, "physicalid": "101855", "street_name": "FEDERAL PL", "borough": "staten_island", "direction": "TW", "total_row_ft": 44.2, "roadbed_ft": 23.5, "median_ft": 0.0, "left_sw_ft": 5.8, "right_sw_ft": 15.0}, "geometry": {"type": "LineString", "coordinates": [[-74.1703506568113, 40.640493269242036], [-74.17063147456695, 40.64049045468453]]}}, {"type": "Feature", "properties": {"segment_id": 1510887, "physicalid": "101855", "street_name": "FEDERAL PL", "borough": "staten_island", "direction": "TW", "total_row_ft": 44.2, "roadbed_ft": 23.3, "median_ft": 0.0, "left_sw_ft": 5.9, "right_sw_ft": 15.0}, "geometry": {"type": "LineString", "coordinates": [[-74.17034903775318, 40.64043838500085], [-74.17063052635066, 40.64043556372044]]}}, {"type": "Feature", "properties": {"segment_id": 1510888, "physicalid": "101855", "street_name": "FEDERAL PL", "borough": "staten_island", "direction": "TW", "total_row_ft": 44.4, "roadbed_ft": 23.4, "median_ft": 0.0, "left_sw_ft": 6.0, "right_sw_ft": 15.0}, "geometry": {"type": "LineString", "coordinates": [[-74.17034741859482, 40.640383500760315], [-74.17062957813593, 40.64038067275601]]}}, {"type": "Feature", "properties": {"segment_id": 1510889, "physicalid": "101855", "street_name": "FEDERAL PL", "borough": "staten_island", "direction": "TW", "total_row_ft": 35.2, "roadbed_ft": 23.5, "median_ft": 0.0, "left_sw_ft": 6.2, "right_sw_ft": 5.6}, "geometry": {"type": "LineString", "coordinates": [[-74.17034579901275, 40.640328616523696], [-74.17047264854831, 40.64032734523355]]}}, {"type": "Feature", "properties": {"segment_id": 1510890, "physicalid": "101855", "street_name": "FEDERAL PL", "borough": "staten_island", "direction": "TW", "total_row_ft": 35.2, "roadbed_ft": 23.6, "median_ft": 0.0, "left_sw_ft": 6.3, "right_sw_ft": 5.3}, "geometry": {"type": "LineString", "coordinates": [[-74.17034422169839, 40.640273731863154], [-74.17047109289278, 40.64027246035661]]}}, {"type": "Feature", "properties": {"segment_id": 1510891, "physicalid": "101855", "street_name": "FEDERAL PL", "borough": "staten_island", "direction": "TW", "total_row_ft": 35.5, "roadbed_ft": 23.7, "median_ft": 0.0, "left_sw_ft": 6.4, "right_sw_ft": 5.4}, "geometry": {"type": "LineString", "coordinates": [[-74.17034282314799, 40.640218845410814], [-74.17047057035056, 40.64021756512491]]}}, {"type": "Feature", "properties": {"segment_id": 1510892, "physicalid": "101855", "street_name": "FEDERAL PL", "borough": "staten_island", "direction": "TW", "total_row_ft": 35.7, "roadbed_ft": 23.8, "median_ft": 0.0, "left_sw_ft": 6.5, "right_sw_ft": 5.4}, "geometry": {"type": "LineString", "coordinates": [[-74.17034142451848, 40.640163958958944], [-74.17047004852627, 40.64016266988567]]}}, {"type": "Feature", "properties": {"segment_id": 1510893, "physicalid": "101855", "street_name": "FEDERAL PL", "borough": "staten_island", "direction": "TW", "total_row_ft": 35.9, "roadbed_ft": 23.9, "median_ft": 0.0, "left_sw_ft": 6.6, "right_sw_ft": 5.5}, "geometry": {"type": "LineString", "coordinates": [[-74.17034002656187, 40.64010907250002], [-74.17046952677238, 40.64010777464541]]}}, {"type": "Feature", "properties": {"segment_id": 1510894, "physicalid": "101855", "street_name": "FEDERAL PL", "borough": "staten_island", "direction": "TW", "total_row_ft": 36.2, "roadbed_ft": 24.0, "median_ft": 0.0, "left_sw_ft": 6.6, "right_sw_ft": 5.5}, "geometry": {"type": "LineString", "coordinates": [[-74.17033867709087, 40.640054185554845], [-74.17046903559329, 40.640052879098384]]}}, {"type": "Feature", "properties": {"segment_id": 1681235, "physicalid": "170958", "street_name": "WESTERN AVE", "borough": "staten_island", "direction": "TW", "total_row_ft": 126.0, "roadbed_ft": 82.2, "median_ft": 0.0, "left_sw_ft": 28.8, "right_sw_ft": 15.0}, "geometry": {"type": "LineString", "coordinates": [[-74.17957991444507, 40.640771605003636], [-74.17997731086358, 40.640806518490145]]}}, {"type": "Feature", "properties": {"segment_id": 1681236, "physicalid": "170958", "street_name": "WESTERN AVE", "borough": "staten_island", "direction": "TW", "total_row_ft": 45.9, "roadbed_ft": 30.2, "median_ft": 0.0, "left_sw_ft": 8.6, "right_sw_ft": 7.1}, "geometry": {"type": "LineString", "coordinates": [[-74.17969299103686, 40.640726279934015], [-74.1798574699858, 40.640740730341825]]}}, {"type": "Feature", "properties": {"segment_id": 1681237, "physicalid": "170958", "street_name": "WESTERN AVE", "borough": "staten_island", "direction": "TW", "total_row_ft": 45.6, "roadbed_ft": 30.3, "median_ft": 0.0, "left_sw_ft": 8.2, "right_sw_ft": 7.2}, "geometry": {"type": "LineString", "coordinates": [[-74.17970003288322, 40.6406716389843], [-74.17986319951723, 40.640685974100506]]}}, {"type": "Feature", "properties": {"segment_id": 1681238, "physicalid": "170958", "street_name": "WESTERN AVE", "borough": "staten_island", "direction": "TW", "total_row_ft": 45.2, "roadbed_ft": 30.3, "median_ft": 0.0, "left_sw_ft": 7.7, "right_sw_ft": 7.2}, "geometry": {"type": "LineString", "coordinates": [[-74.17970707520287, 40.640616998076474], [-74.17986892903924, 40.640631217858555]]}}, {"type": "Feature", "properties": {"segment_id": 1681239, "physicalid": "170958", "street_name": "WESTERN AVE", "borough": "staten_island", "direction": "TW", "total_row_ft": 44.9, "roadbed_ft": 30.3, "median_ft": 0.0, "left_sw_ft": 7.2, "right_sw_ft": 7.4}, "geometry": {"type": "LineString", "coordinates": [[-74.17971411751269, 40.640562357168], [-74.17987495846359, 40.64057648796475]]}}, {"type": "Feature", "properties": {"segment_id": 1681240, "physicalid": "170958", "street_name": "WESTERN AVE", "borough": "staten_island", "direction": "TW", "total_row_ft": 44.7, "roadbed_ft": 30.3, "median_ft": 0.0, "left_sw_ft": 6.8, "right_sw_ft": 7.5}, "geometry": {"type": "LineString", "coordinates": [[-74.17972115981095, 40.640507716258796], [-74.17988100545062, 40.64052175961412]]}}, {"type": "Feature", "properties": {"segment_id": 1681241, "physicalid": "170958", "street_name": "WESTERN AVE", "borough": "staten_island", "direction": "TW", "total_row_ft": 44.4, "roadbed_ft": 30.3, "median_ft": 0.0, "left_sw_ft": 6.4, "right_sw_ft": 7.7}, "geometry": {"type": "LineString", "coordinates": [[-74.17972803360385, 40.64045306054553], [-74.17988705242774, 40.64046703126285]]}}, {"type": "Feature", "properties": {"segment_id": 1681242, "physicalid": "170958", "street_name": "WESTERN AVE", "borough": "staten_island", "direction": "TW", "total_row_ft": 44.5, "roadbed_ft": 30.3, "median_ft": 0.0, "left_sw_ft": 6.2, "right_sw_ft": 7.9}, "geometry": {"type": "LineString", "coordinates": [[-74.17973394380188, 40.640398320174484], [-74.17989308063753, 40.640412301262984]]}}, {"type": "Feature", "properties": {"segment_id": 1681243, "physicalid": "170958", "street_name": "WESTERN AVE", "borough": "staten_island", "direction": "TW", "total_row_ft": 44.3, "roadbed_ft": 30.5, "median_ft": 0.0, "left_sw_ft": 6.1, "right_sw_ft": 7.7}, "geometry": {"type": "LineString", "coordinates": [[-74.1797398539902, 40.64034357980281], [-74.17989838230939, 40.640357507433315]]}}, {"type": "Feature", "properties": {"segment_id": 1681244, "physicalid": "170958", "street_name": "WESTERN AVE", "borough": "staten_island", "direction": "TW", "total_row_ft": 44.1, "roadbed_ft": 30.5, "median_ft": 0.0, "left_sw_ft": 6.2, "right_sw_ft": 7.5}, "geometry": {"type": "LineString", "coordinates": [[-74.17974576416883, 40.64028883943048], [-74.17990368397255, 40.64030271360306]]}}, {"type": "Feature", "properties": {"segment_id": 1681245, "physicalid": "170958", "street_name": "WESTERN AVE", "borough": "staten_island", "direction": "TW", "total_row_ft": 43.9, "roadbed_ft": 30.4, "median_ft": 0.0, "left_sw_ft": 6.3, "right_sw_ft": 7.2}, "geometry": {"type": "LineString", "coordinates": [[-74.17975167433775, 40.64023409905752], [-74.17990898596155, 40.64024791980161]]}}, {"type": "Feature", "properties": {"segment_id": 1681246, "physicalid": "170958", "street_name": "WESTERN AVE", "borough": "staten_island", "direction": "TW", "total_row_ft": 43.6, "roadbed_ft": 30.3, "median_ft": 0.0, "left_sw_ft": 6.3, "right_sw_ft": 7.0}, "geometry": {"type": "LineString", "coordinates": [[-74.17975804955049, 40.64017939954195], [-74.1799142880544, 40.6401931260095]]}}, {"type": "Feature", "properties": {"segment_id": 1681247, "physicalid": "170958", "street_name": "WESTERN AVE", "borough": "staten_island", "direction": "TW", "total_row_ft": 43.3, "roadbed_ft": 30.2, "median_ft": 0.0, "left_sw_ft": 6.2, "right_sw_ft": 6.9}, "geometry": {"type": "LineString", "coordinates": [[-74.17976481209742, 40.64012473405647], [-74.17991979198817, 40.64013834995032]]}}, {"type": "Feature", "properties": {"segment_id": 1681248, "physicalid": "170958", "street_name": "WESTERN AVE", "borough": "staten_island", "direction": "TW", "total_row_ft": 43.2, "roadbed_ft": 30.5, "median_ft": 0.0, "left_sw_ft": 6.1, "right_sw_ft": 6.5}, "geometry": {"type": "LineString", "coordinates": [[-74.17977157463326, 40.64007006857023], [-74.179926042164, 40.64008363945262]]}}, {"type": "Feature", "properties": {"segment_id": 1681249, "physicalid": "170958", "street_name": "WESTERN AVE", "borough": "staten_island", "direction": "TW", "total_row_ft": 42.9, "roadbed_ft": 31.2, "median_ft": 0.0, "left_sw_ft": 5.9, "right_sw_ft": 5.8}, "geometry": {"type": "LineString", "coordinates": [[-74.1797786850716, 40.64001543364977], [-74.17993229232957, 40.64002892895423]]}}, {"type": "Feature", "properties": {"segment_id": 1772434, "physicalid": "191872", "street_name": "HOLLAND AVE", "borough": "staten_island", "direction": "TW", "total_row_ft": 103.4, "roadbed_ft": 76.0, "median_ft": 0.0, "left_sw_ft": 12.4, "right_sw_ft": 15.0}, "geometry": {"type": "LineString", "coordinates": [[-74.17118403930114, 40.640478129679444], [-74.17150258509993, 40.64047388047576]]}}, {"type": "Feature", "properties": {"segment_id": 1772435, "physicalid": "191872", "street_name": "HOLLAND AVE", "borough": "staten_island", "direction": "TW", "total_row_ft": 72.9, "roadbed_ft": 29.5, "median_ft": 0.0, "left_sw_ft": 6.0, "right_sw_ft": 37.4}, "geometry": {"type": "LineString", "coordinates": [[-74.1712088233539, 40.64042289497612], [-74.17150132321287, 40.640418993176034]]}}, {"type": "Feature", "properties": {"segment_id": 1772436, "physicalid": "191872", "street_name": "HOLLAND AVE", "borough": "staten_island", "direction": "TW", "total_row_ft": 45.0, "roadbed_ft": 28.7, "median_ft": 0.0, "left_sw_ft": 6.2, "right_sw_ft": 10.1}, "geometry": {"type": "LineString", "coordinates": [[-74.17120679599066, 40.64036801788615], [-74.171369077827, 40.640365853221574]]}}, {"type": "Feature", "properties": {"segment_id": 1772437, "physicalid": "191872", "street_name": "HOLLAND AVE", "borough": "staten_island", "direction": "TW", "total_row_ft": 45.1, "roadbed_ft": 28.7, "median_ft": 0.0, "left_sw_ft": 6.5, "right_sw_ft": 10.0}, "geometry": {"type": "LineString", "coordinates": [[-74.17120476863076, 40.640313140795826], [-74.17136740155946, 40.64031097144884]]}}, {"type": "Feature", "properties": {"segment_id": 1772438, "physicalid": "191872", "street_name": "HOLLAND AVE", "borough": "staten_island", "direction": "TW", "total_row_ft": 45.2, "roadbed_ft": 28.7, "median_ft": 0.0, "left_sw_ft": 6.7, "right_sw_ft": 9.8}, "geometry": {"type": "LineString", "coordinates": [[-74.17120271473411, 40.64025826405908], [-74.17136572529466, 40.6402560896758]]}}, {"type": "Feature", "properties": {"segment_id": 1772439, "physicalid": "191872", "street_name": "HOLLAND AVE", "borough": "staten_island", "direction": "TW", "total_row_ft": 45.6, "roadbed_ft": 28.8, "median_ft": 0.0, "left_sw_ft": 7.0, "right_sw_ft": 9.8}, "geometry": {"type": "LineString", "coordinates": [[-74.17120042626098, 40.64020339045091], [-74.17136457031687, 40.64020120094863]]}}, {"type": "Feature", "properties": {"segment_id": 1772440, "physicalid": "191872", "street_name": "HOLLAND AVE", "borough": "staten_island", "direction": "TW", "total_row_ft": 45.9, "roadbed_ft": 28.8, "median_ft": 0.0, "left_sw_ft": 7.1, "right_sw_ft": 10.0}, "geometry": {"type": "LineString", "coordinates": [[-74.17119874169066, 40.64014850878737], [-74.17136401622047, 40.64014630420562]]}}, {"type": "Feature", "properties": {"segment_id": 1772441, "physicalid": "191872", "street_name": "HOLLAND AVE", "borough": "staten_island", "direction": "TW", "total_row_ft": 46.1, "roadbed_ft": 28.8, "median_ft": 0.0, "left_sw_ft": 7.1, "right_sw_ft": 10.2}, "geometry": {"type": "LineString", "coordinates": [[-74.1711973678889, 40.64009362297847], [-74.17136346212497, 40.640091407462265]]}}, {"type": "Feature", "properties": {"segment_id": 1772442, "physicalid": "191872", "street_name": "HOLLAND AVE", "borough": "staten_island", "direction": "TW", "total_row_ft": 46.3, "roadbed_ft": 28.8, "median_ft": 0.0, "left_sw_ft": 7.1, "right_sw_ft": 10.4}, "geometry": {"type": "LineString", "coordinates": [[-74.17119599475546, 40.6400387371603], [-74.17136290788504, 40.64003651072055]]}}]}