{"type": "FeatureCollection", "features": [{"type": "Feature", "properties": {"segment_id": 702260, "physicalid": "49850", "street_name": "WEST SHORE EXPY", "borough": "staten_island", "direction": "FT", "total_row_ft": 124.7, "roadbed_ft": 54.9, "median_ft": 39.8, "left_sw_ft": 15.0, "right_sw_ft": 15.0}, "geometry": {"type": "LineString", "coordinates": [[-74.19985976730393, 40.56005380426171], [-74.20018554512366, 40.560270032955806]]}}, {"type": "Feature", "properties": {"segment_id": 702261, "physicalid": "49850", "street_name": "WEST SHORE EXPY", "borough": "staten_island", "direction": "FT", "total_row_ft": 125.8, "roadbed_ft": 56.1, "median_ft": 39.7, "left_sw_ft": 15.0, "right_sw_ft": 15.0}, "geometry": {"type": "LineString", "coordinates": [[-74.19990701931764, 40.56001239367576], [-74.20023279708838, 40.56022862223659]]}}, {"type": "Feature", "properties": {"segment_id": 702262, "physicalid": "49850", "street_name": "WEST SHORE EXPY", "borough": "staten_island", "direction": "FT", "total_row_ft": 127.1, "roadbed_ft": 57.4, "median_ft": 39.7, "left_sw_ft": 15.0, "right_sw_ft": 15.0}, "geometry": {"type": "LineString", "coordinates": [[-74.19995427127276, 40.55997098307026], [-74.20028004899454, 40.56018721149779]]}}, {"type": "Feature", "properties": {"segment_id": 702263, "physicalid": "49850", "street_name": "WEST SHORE EXPY", "borough": "staten_island", "direction": "FT", "total_row_ft": 128.5, "roadbed_ft": 58.8, "median_ft": 39.6, "left_sw_ft": 15.0, "right_sw_ft": 15.0}, "geometry": {"type": "LineString", "coordinates": [[-74.2000015231693, 40.559929572445135], [-74.2003273008421, 40.56014580073943]]}}, {"type": "Feature", "properties": {"segment_id": 939118, "physicalid": "65634", "street_name": "W SERVICE RD", "borough": "staten_island", "direction": "FT", "total_row_ft": 67.8, "roadbed_ft": 37.8, "median_ft": 0.0, "left_sw_ft": 15.0, "right_sw_ft": 15.0}, "geometry": {"type": "LineString", "coordinates": [[-74.19987387338233, 40.560631877768685], [-74.2002003152947, 40.560847525561464]]}}, {"type": "Feature", "properties": {"segment_id": 939119, "physicalid": "65634", "street_name": "W SERVICE RD", "borough": "staten_island", "direction": "FT", "total_row_ft": 68.2, "roadbed_ft": 38.2, "median_ft": 0.0, "left_sw_ft": 15.0, "right_sw_ft": 15.0}, "geometry": {"type": "LineString", "coordinates": [[-74.19992099886359, 40.56059038312876], [-74.20024744072532, 40.56080603078839]]}}, {"type": "Feature", "properties": {"segment_id": 939120, "physicalid": "65634", "street_name": "W SERVICE RD", "borough": "staten_island", "direction": "FT", "total_row_ft": 68.0, "roadbed_ft": 38.0, "median_ft": 0.0, "left_sw_ft": 15.0, "right_sw_ft": 15.0}, "geometry": {"type": "LineString", "coordinates": [[-74.19996812428633, 40.560548888469384], [-74.20029456609741, 40.56076453599581]]}}, {"type": "Feature", "properties": {"segment_id": 939121, "physicalid": "65634", "street_name": "W SERVICE RD", "borough": "staten_island", "direction": "FT", "total_row_ft": 67.1, "roadbed_ft": 37.1, "median_ft": 0.0, "left_sw_ft": 15.0, "right_sw_ft": 15.0}, "geometry": {"type": "LineString", "coordinates": [[-74.20001524965052, 40.560507393790495], [-74.20034169141097, 40.56072304118377]]}}, {"type": "Feature", "properties": {"segment_id": 939122, "physicalid": "65634", "street_name": "W SERVICE RD", "borough": "staten_island", "direction": "FT", "total_row_ft": 66.1, "roadbed_ft": 36.1, "median_ft": 0.0, "left_sw_ft": 15.0, "right_sw_ft": 15.0}, "geometry": {"type": "LineString", "coordinates": [[-74.20006237495619, 40.56046589909213], [-74.20038881666598, 40.560681546352235]]}}, {"type": "Feature", "properties": {"segment_id": 939123, "physicalid": "65634", "street_name": "W SERVICE RD", "borough": "staten_island", "direction": "FT", "total_row_ft": 65.2, "roadbed_ft": 35.2, "median_ft": 0.0, "left_sw_ft": 15.0, "right_sw_ft": 15.0}, "geometry": {"type": "LineString", "coordinates": [[-74.2001095002033, 40.56042440437429], [-74.20043594186244, 40.560640051501224]]}}, {"type": "Feature", "properties": {"segment_id": 939124, "physicalid": "65634", "street_name": "W SERVICE RD", "borough": "staten_island", "direction": "FT", "total_row_ft": 64.2, "roadbed_ft": 34.2, "median_ft": 0.0, "left_sw_ft": 15.0, "right_sw_ft": 15.0}, "geometry": {"type": "LineString", "coordinates": [[-74.20015662539187, 40.560382909636964], [-74.20048306700038, 40.560598556630715]]}}, {"type": "Feature", "properties": {"segment_id": 939125, "physicalid": "65634", "street_name": "W SERVICE RD", "borough": "staten_island", "direction": "FT", "total_row_ft": 64.0, "roadbed_ft": 34.0, "median_ft": 0.0, "left_sw_ft": 15.0, "right_sw_ft": 15.0}, "geometry": {"type": "LineString", "coordinates": [[-74.20020375052191, 40.560341414880156], [-74.20053019207977, 40.56055706174073]]}}, {"type": "Feature", "properties": {"segment_id": 939126, "physicalid": "65634", "street_name": "W SERVICE RD", "borough": "staten_island", "direction": "FT", "total_row_ft": 64.0, "roadbed_ft": 34.0, "median_ft": 0.0, "left_sw_ft": 15.0, "right_sw_ft": 15.0}, "geometry": {"type": "LineString", "coordinates": [[-74.20025087559343, 40.56029992010383], [-74.2005773171006, 40.56051556683129]]}}, {"type": "Feature", "properties": {"segment_id": 939127, "physicalid": "65634", "street_name": "W SERVICE RD", "borough": "staten_island", "direction": "FT", "total_row_ft": 64.0, "roadbed_ft": 34.0, "median_ft": 0.0, "left_sw_ft": 15.0, "right_sw_ft": 15.0}, "geometry": {"type": "LineString", "coordinates": [[-74.20029800060635, 40.56025842530807], [-74.20062444206295, 40.56047407190232]]}}, {"type": "Feature", "properties": {"segment_id": 939128, "physicalid": "65634", "street_name": "W SERVICE RD", "borough": "staten_island", "direction": "FT", "total_row_ft": 63.9, "roadbed_ft": 33.9, "median_ft": 0.0, "left_sw_ft": 15.0, "right_sw_ft": 15.0}, "geometry": {"type": "LineString", "coordinates": [[-74.20034512556079, 40.560216930492786], [-74.20067156696669, 40.5604325769539]]}}, {"type": "Feature", "properties": {"segment_id": 939129, "physicalid": "65634", "street_name": "W SERVICE RD", "borough": "staten_island", "direction": "FT", "total_row_ft": 63.9, "roadbed_ft": 33.9, "median_ft": 0.0, "left_sw_ft": 15.0, "right_sw_ft": 15.0}, "geometry": {"type": "LineString", "coordinates": [[-74.20039225045664, 40.56017543565806], [-74.20071869181194, 40.56039108198597]]}}, {"type": "Feature", "properties": {"segment_id": 939130, "physicalid": "65634", "street_name": "W SERVICE RD", "borough": "staten_island", "direction": "FT", "total_row_ft": 63.8, "roadbed_ft": 33.8, "median_ft": 0.0, "left_sw_ft": 15.0, "right_sw_ft": 15.0}, "geometry": {"type": "LineString", "coordinates": [[-74.20043937529401, 40.560133940803816], [-74.20076581659862, 40.5603495869986]]}}, {"type": "Feature", "properties": {"segment_id": 939131, "physicalid": "65634", "street_name": "W SERVICE RD", "borough": "staten_island", "direction": "FT", "total_row_ft": 63.8, "roadbed_ft": 33.8, "median_ft": 0.0, "left_sw_ft": 15.0, "right_sw_ft": 15.0}, "geometry": {"type": "LineString", "coordinates": [[-74.20048650007278, 40.560092445930096], [-74.2008129413268, 40.5603080919917]]}}, {"type": "Feature", "properties": {"segment_id": 939132, "physicalid": "65634", "street_name": "W SERVICE RD", "borough": "staten_island", "direction": "FT", "total_row_ft": 63.8, "roadbed_ft": 33.8, "median_ft": 0.0, "left_sw_ft": 15.0, "right_sw_ft": 15.0}, "geometry": {"type": "LineString", "coordinates": [[-74.20053362479308, 40.5600509510369], [-74.2008600659964, 40.560266596965356]]}}, {"type": "Feature", "properties": {"segment_id": 939133, "physicalid": "65634", "street_name": "W SERVICE RD", "borough": "staten_island", "direction": "FT", "total_row_ft": 64.0, "roadbed_ft": 34.0, "median_ft": 0.0, "left_sw_ft": 15.0, "right_sw_ft": 15.0}, "geometry": {"type": "LineString", "coordinates": [[-74.20059240313267, 40.560004237968975], [-74.20090134252506, 40.5602343934681]]}}, {"type": "Feature", "properties": {"segment_id": 939134, "physicalid": "65634", "street_name": "W SERVICE RD", "borough": "staten_island", "direction": "FT", "total_row_ft": 63.9, "roadbed_ft": 33.9, "median_ft": 0.0, "left_sw_ft": 15.0, "right_sw_ft": 15.0}, "geometry": {"type": "LineString", "coordinates": [[-74.20064269849, 40.55996496774266], [-74.2009516378741, 40.56019512310721]]}}, {"type": "Feature", "properties": {"segment_id": 939135, "physicalid": "65634", "street_name": "W SERVICE RD", "borough": "staten_island", "direction": "FT", "total_row_ft": 63.9, "roadbed_ft": 33.9, "median_ft": 0.0, "left_sw_ft": 15.0, "right_sw_ft": 15.0}, "geometry": {"type": "LineString", "coordinates": [[-74.20069299378821, 40.55992569749415], [-74.20100193316398, 40.56015585272419]]}}, {"type": "Feature", "properties": {"segment_id": 939136, "physicalid": "65634", "street_name": "W SERVICE RD", "borough": "staten_island", "direction": "FT", "total_row_ft": 63.8, "roadbed_ft": 33.8, "median_ft": 0.0, "left_sw_ft": 15.0, "right_sw_ft": 15.0}, "geometry": {"type": "LineString", "coordinates": [[-74.20075558019698, 40.55987801867521], [-74.20104056796569, 40.5601254981414]]}}]}