{"type": "FeatureCollection", "features": [{"type": "Feature", "properties": {"segment_id": 815060, "physicalid": "57217", "street_name": "7 ST", "borough": "staten_island", "direction": "TW", "total_row_ft": 51.7, "roadbed_ft": 21.7, "median_ft": 0.0, "left_sw_ft": 15.0, "right_sw_ft": 15.0}, "geometry": {"type": "LineString", "coordinates": [[-74.20004174323253, 40.62536836379056], [-74.20033330652831, 40.625125183502]]}}, {"type": "Feature", "properties": {"segment_id": 815061, "physicalid": "57217", "street_name": "7 ST", "borough": "staten_island", "direction": "TW", "total_row_ft": 52.6, "roadbed_ft": 22.6, "median_ft": 0.0, "left_sw_ft": 15.0, "right_sw_ft": 15.0}, "geometry": {"type": "LineString", "coordinates": [[-74.1999885493975, 40.625331338520255], [-74.20028011272528, 40.62508815836564]]}}, {"type": "Feature", "properties": {"segment_id": 815062, "physicalid": "57217", "street_name": "7 ST", "borough": "staten_island", "direction": "TW", "total_row_ft": 30.0, "roadbed_ft": 0.0, "median_ft": 0.0, "left_sw_ft": 15.0, "right_sw_ft": 15.0}, "geometry": {"type": "LineString", "coordinates": [[-74.19993535562146, 40.62529431322518], [-74.20022691898131, 40.625051133204515]]}}, {"type": "Feature", "properties": {"segment_id": 815063, "physicalid": "57217", "street_name": "7 ST", "borough": "staten_island", "direction": "TW", "total_row_ft": 30.0, "roadbed_ft": 0.0, "median_ft": 0.0, "left_sw_ft": 15.0, "right_sw_ft": 15.0}, "geometry": {"type": "LineString", "coordinates": [[-74.19988216190443, 40.62525728790537], [-74.20017372529635, 40.62501410801865]]}}, {"type": "Feature", "properties": {"segment_id": 1127385, "physicalid": "78202", "street_name": "WATER ST", "borough": "staten_island", "direction": "TW", "total_row_ft": 43.0, "roadbed_ft": 13.0, "median_ft": 0.0, "left_sw_ft": 15.0, "right_sw_ft": 15.0}, "geometry": {"type": "LineString", "coordinates": [[-74.20001957631565, 40.625213401561176], [-74.20044857481186, 40.62525396644931]]}}, {"type": "Feature", "properties": {"segment_id": 1127386, "physicalid": "78202", "street_name": "WATER ST", "borough": "staten_island", "direction": "TW", "total_row_ft": 42.9, "roadbed_ft": 12.9, "median_ft": 0.0, "left_sw_ft": 15.0, "right_sw_ft": 15.0}, "geometry": {"type": "LineString", "coordinates": [[-74.20002844974147, 40.62515892368292], [-74.20045744789289, 40.62519948853816]]}}, {"type": "Feature", "properties": {"segment_id": 1127387, "physicalid": "78202", "street_name": "WATER ST", "borough": "staten_island", "direction": "TW", "total_row_ft": 42.8, "roadbed_ft": 12.8, "median_ft": 0.0, "left_sw_ft": 15.0, "right_sw_ft": 15.0}, "geometry": {"type": "LineString", "coordinates": [[-74.20003732315277, 40.62510444580369], [-74.20046632095944, 40.62514501062601]]}}, {"type": "Feature", "properties": {"segment_id": 1127388, "physicalid": "78202", "street_name": "WATER ST", "borough": "staten_island", "direction": "TW", "total_row_ft": 45.0, "roadbed_ft": 15.0, "median_ft": 0.0, "left_sw_ft": 15.0, "right_sw_ft": 15.0}, "geometry": {"type": "LineString", "coordinates": [[-74.20004619654961, 40.62504996792339], [-74.20047519401149, 40.625090532712875]]}}, {"type": "Feature", "properties": {"segment_id": 1127389, "physicalid": "78202", "street_name": "WATER ST", "borough": "staten_island", "direction": "TW", "total_row_ft": 47.0, "roadbed_ft": 17.0, "median_ft": 0.0, "left_sw_ft": 15.0, "right_sw_ft": 15.0}, "geometry": {"type": "LineString", "coordinates": [[-74.20005506993195, 40.62499549004214], [-74.20048406704908, 40.62503605479875]]}}, {"type": "Feature", "properties": {"segment_id": 1127390, "physicalid": "78202", "street_name": "WATER ST", "borough": "staten_island", "direction": "TW", "total_row_ft": 49.2, "roadbed_ft": 19.2, "median_ft": 0.0, "left_sw_ft": 15.0, "right_sw_ft": 15.0}, "geometry": {"type": "LineString", "coordinates": [[-74.20006394329981, 40.62494101215988], [-74.20049294007217, 40.62498157688361]]}}, {"type": "Feature", "properties": {"segment_id": 1127391, "physicalid": "78202", "street_name": "WATER ST", "borough": "staten_island", "direction": "TW", "total_row_ft": 49.6, "roadbed_ft": 19.6, "median_ft": 0.0, "left_sw_ft": 15.0, "right_sw_ft": 15.0}, "geometry": {"type": "LineString", "coordinates": [[-74.20007281665319, 40.62488653427662], [-74.20050181308078, 40.6249270989675]]}}, {"type": "Feature", "properties": {"segment_id": 1127392, "physicalid": "78202", "street_name": "WATER ST", "borough": "staten_island", "direction": "TW", "total_row_ft": 49.3, "roadbed_ft": 19.3, "median_ft": 0.0, "left_sw_ft": 15.0, "right_sw_ft": 15.0}, "geometry": {"type": "LineString", "coordinates": [[-74.20007511429233, 40.62485606580266], [-74.20050727898544, 40.62484823221341]]}}, {"type": "Feature", "properties": {"segment_id": 1127393, "physicalid": "78202", "street_name": "WATER ST", "borough": "staten_island", "direction": "TW", "total_row_ft": 48.1, "roadbed_ft": 18.1, "median_ft": 0.0, "left_sw_ft": 15.0, "right_sw_ft": 15.0}, "geometry": {"type": "LineString", "coordinates": [[-74.20007340094313, 40.62480118551844], [-74.20050556528109, 40.62479335193557]]}}, {"type": "Feature", "properties": {"segment_id": 1127394, "physicalid": "78202", "street_name": "WATER ST", "borough": "staten_island", "direction": "TW", "total_row_ft": 46.6, "roadbed_ft": 16.6, "median_ft": 0.0, "left_sw_ft": 15.0, "right_sw_ft": 15.0}, "geometry": {"type": "LineString", "coordinates": [[-74.20007168759675, 40.62474630523385], [-74.20050385157955, 40.6247384716574]]}}, {"type": "Feature", "properties": {"segment_id": 1127395, "physicalid": "78202", "street_name": "WATER ST", "borough": "staten_island", "direction": "TW", "total_row_ft": 45.7, "roadbed_ft": 15.7, "median_ft": 0.0, "left_sw_ft": 15.0, "right_sw_ft": 15.0}, "geometry": {"type": "LineString", "coordinates": [[-74.20006997425317, 40.624691424948935], [-74.20050213788085, 40.62468359137887]]}}, {"type": "Feature", "properties": {"segment_id": 1127396, "physicalid": "78202", "street_name": "WATER ST", "borough": "staten_island", "direction": "TW", "total_row_ft": 45.4, "roadbed_ft": 15.4, "median_ft": 0.0, "left_sw_ft": 15.0, "right_sw_ft": 15.0}, "geometry": {"type": "LineString", "coordinates": [[-74.20006826091242, 40.624636544663716], [-74.20050042418494, 40.62462871109996]]}}, {"type": "Feature", "properties": {"segment_id": 1127397, "physicalid": "78202", "street_name": "WATER ST", "borough": "staten_island", "direction": "TW", "total_row_ft": 45.0, "roadbed_ft": 15.0, "median_ft": 0.0, "left_sw_ft": 15.0, "right_sw_ft": 15.0}, "geometry": {"type": "LineString", "coordinates": [[-74.20006654757448, 40.62458166437807], [-74.20049871049184, 40.62457383082079]]}}, {"type": "Feature", "properties": {"segment_id": 1127398, "physicalid": "78202", "street_name": "WATER ST", "borough": "staten_island", "direction": "TW", "total_row_ft": 44.3, "roadbed_ft": 14.3, "median_ft": 0.0, "left_sw_ft": 15.0, "right_sw_ft": 15.0}, "geometry": {"type": "LineString", "coordinates": [[-74.20006483423936, 40.6245267840921], [-74.20049699680159, 40.62451895054123]]}}, {"type": "Feature", "properties": {"segment_id": 1127399, "physicalid": "78202", "street_name": "WATER ST", "borough": "staten_island", "direction": "TW", "total_row_ft": 44.4, "roadbed_ft": 14.4, "median_ft": 0.0, "left_sw_ft": 15.0, "right_sw_ft": 15.0}, "geometry": {"type": "LineString", "coordinates": [[-74.20006312090706, 40.62447190380581], [-74.20049528311414, 40.624464070261325]]}}, {"type": "Feature", "properties": {"segment_id": 1127400, "physicalid": "78202", "street_name": "WATER ST", "borough": "staten_island", "direction": "TW", "total_row_ft": 44.5, "roadbed_ft": 14.5, "median_ft": 0.0, "left_sw_ft": 15.0, "right_sw_ft": 15.0}, "geometry": {"type": "LineString", "coordinates": [[-74.20006140757758, 40.62441702351917], [-74.20049356942951, 40.62440918998107]]}}, {"type": "Feature", "properties": {"segment_id": 1127401, "physicalid": "78202", "street_name": "WATER ST", "borough": "staten_island", "direction": "TW", "total_row_ft": 44.7, "roadbed_ft": 14.7, "median_ft": 0.0, "left_sw_ft": 15.0, "right_sw_ft": 15.0}, "geometry": {"type": "LineString", "coordinates": [[-74.20005969425091, 40.62436214323219], [-74.2004918557477, 40.624354309700486]]}}, {"type": "Feature", "properties": {"segment_id": 1127402, "physicalid": "78202", "street_name": "WATER ST", "borough": "staten_island", "direction": "TW", "total_row_ft": 45.0, "roadbed_ft": 15.0, "median_ft": 0.0, "left_sw_ft": 15.0, "right_sw_ft": 15.0}, "geometry": {"type": "LineString", "coordinates": [[-74.20005798092707, 40.624307262944896], [-74.2004901420687, 40.62429942941952]]}}, {"type": "Feature", "properties": {"segment_id": 1127403, "physicalid": "78202", "street_name": "WATER ST", "borough": "staten_island", "direction": "TW", "total_row_ft": 45.3, "roadbed_ft": 15.3, "median_ft": 0.0, "left_sw_ft": 15.0, "right_sw_ft": 15.0}, "geometry": {"type": "LineString", "coordinates": [[-74.20005626760603, 40.62425238265721], [-74.20048842839253, 40.62424454913832]]}}, {"type": "Feature", "properties": {"segment_id": 1127404, "physicalid": "78202", "street_name": "WATER ST", "borough": "staten_island", "direction": "TW", "total_row_ft": 46.0, "roadbed_ft": 16.0, "median_ft": 0.0, "left_sw_ft": 15.0, "right_sw_ft": 15.0}, "geometry": {"type": "LineString", "coordinates": [[-74.20005455428782, 40.624197502369185], [-74.20048671471918, 40.624189668856694]]}}, {"type": "Feature", "properties": {"segment_id": 1127405, "physicalid": "78202", "street_name": "WATER ST", "borough": "staten_island", "direction": "TW", "total_row_ft": 46.8, "roadbed_ft": 16.8, "median_ft": 0.0, "left_sw_ft": 15.0, "right_sw_ft": 15.0}, "geometry": {"type": "LineString", "coordinates": [[-74.20005882122572, 40.62410244193059], [-74.20048046114167, 40.62417507804599]]}}, {"type": "Feature", "properties": {"segment_id": 1127406, "physicalid": "78202", "street_name": "WATER ST", "borough": "staten_island", "direction": "TW", "total_row_ft": 46.7, "roadbed_ft": 16.7, "median_ft": 0.0, "left_sw_ft": 15.0, "right_sw_ft": 15.0}, "geometry": {"type": "LineString", "coordinates": [[-74.20007470970859, 40.62404889763493], [-74.2004963493036, 40.62412153369237]]}}, {"type": "Feature", "properties": {"segment_id": 1127407, "physicalid": "78202", "street_name": "WATER ST", "borough": "staten_island", "direction": "TW", "total_row_ft": 45.9, "roadbed_ft": 15.9, "median_ft": 0.0, "left_sw_ft": 15.0, "right_sw_ft": 15.0}, "geometry": {"type": "LineString", "coordinates": [[-74.20009059816599, 40.62399535333671], [-74.20051223744004, 40.624067989336325]]}}, {"type": "Feature", "properties": {"segment_id": 1127408, "physicalid": "78202", "street_name": "WATER ST", "borough": "staten_island", "direction": "TW", "total_row_ft": 46.0, "roadbed_ft": 16.0, "median_ft": 0.0, "left_sw_ft": 15.0, "right_sw_ft": 15.0}, "geometry": {"type": "LineString", "coordinates": [[-74.20010648659789, 40.623941809036026], [-74.20052812555097, 40.62401444497778]]}}, {"type": "Feature", "properties": {"segment_id": 1127409, "physicalid": "78202", "street_name": "WATER ST", "borough": "staten_island", "direction": "TW", "total_row_ft": 46.0, "roadbed_ft": 16.0, "median_ft": 0.0, "left_sw_ft": 15.0, "right_sw_ft": 15.0}, "geometry": {"type": "LineString", "coordinates": [[-74.2001223750043, 40.6238882647328], [-74.2005440136364, 40.623960900616765]]}}, {"type": "Feature", "properties": {"segment_id": 1127410, "physicalid": "78202", "street_name": "WATER ST", "borough": "staten_island", "direction": "TW", "total_row_ft": 46.1, "roadbed_ft": 16.1, "median_ft": 0.0, "left_sw_ft": 15.0, "right_sw_ft": 15.0}, "geometry": {"type": "LineString", "coordinates": [[-74.20013826338521, 40.62383472042712], [-74.20055990169637, 40.623907356253206]]}}, {"type": "Feature", "properties": {"segment_id": 1127411, "physicalid": "78202", "street_name": "WATER ST", "borough": "staten_island", "direction": "TW", "total_row_ft": 48.2, "roadbed_ft": 18.2, "median_ft": 0.0, "left_sw_ft": 15.0, "right_sw_ft": 15.0}, "geometry": {"type": "LineString", "coordinates": [[-74.20015415174062, 40.62378117611894], [-74.20057578973082, 40.62385381188716]]}}, {"type": "Feature", "properties": {"segment_id": 1127412, "physicalid": "78202", "street_name": "WATER ST", "borough": "staten_island", "direction": "TW", "total_row_ft": 48.8, "roadbed_ft": 18.8, "median_ft": 0.0, "left_sw_ft": 15.0, "right_sw_ft": 15.0}, "geometry": {"type": "LineString", "coordinates": [[-74.20017004007056, 40.623727631808244], [-74.2005916777398, 40.623800267518625]]}}, {"type": "Feature", "properties": {"segment_id": 1127413, "physicalid": "78202", "street_name": "WATER ST", "borough": "staten_island", "direction": "TW", "total_row_ft": 65.3, "roadbed_ft": 35.3, "median_ft": 0.0, "left_sw_ft": 15.0, "right_sw_ft": 15.0}, "geometry": {"type": "LineString", "coordinates": [[-74.200185928375, 40.62367408749507], [-74.20060756572326, 40.62374672314758]]}}, {"type": "Feature", "properties": {"segment_id": 1127414, "physicalid": "78203", "street_name": "WATER ST", "borough": "staten_island", "direction": "TW", "total_row_ft": 54.0, "roadbed_ft": 24.0, "median_ft": 0.0, "left_sw_ft": 15.0, "right_sw_ft": 15.0}, "geometry": {"type": "LineString", "coordinates": [[-74.19989578704663, 40.626546957913774], [-74.20032603453562, 40.62657900101613]]}}, {"type": "Feature", "properties": {"segment_id": 1127415, "physicalid": "78203", "street_name": "WATER ST", "borough": "staten_island", "direction": "TW", "total_row_ft": 54.4, "roadbed_ft": 24.4, "median_ft": 0.0, "left_sw_ft": 15.0, "right_sw_ft": 15.0}, "geometry": {"type": "LineString", "coordinates": [[-74.19990279654075, 40.626492322520306], [-74.20033304368091, 40.6265243655966]]}}, {"type": "Feature", "properties": {"segment_id": 1127416, "physicalid": "78203", "street_name": "WATER ST", "borough": "staten_island", "direction": "TW", "total_row_ft": 51.6, "roadbed_ft": 21.6, "median_ft": 0.0, "left_sw_ft": 15.0, "right_sw_ft": 15.0}, "geometry": {"type": "LineString", "coordinates": [[-74.1999098060234, 40.62643768712612], [-74.20034005281471, 40.626469730176346]]}}, {"type": "Feature", "properties": {"segment_id": 1127417, "physicalid": "78203", "street_name": "WATER ST", "borough": "staten_island", "direction": "TW", "total_row_ft": 49.8, "roadbed_ft": 19.8, "median_ft": 0.0, "left_sw_ft": 15.0, "right_sw_ft": 15.0}, "geometry": {"type": "LineString", "coordinates": [[-74.19991681549457, 40.626383051731146], [-74.20034706193705, 40.626415094755345]]}}, {"type": "Feature", "properties": {"segment_id": 1127418, "physicalid": "78203", "street_name": "WATER ST", "borough": "staten_island", "direction": "TW", "total_row_ft": 49.8, "roadbed_ft": 19.8, "median_ft": 0.0, "left_sw_ft": 15.0, "right_sw_ft": 15.0}, "geometry": {"type": "LineString", "coordinates": [[-74.19992382495427, 40.62632841633544], [-74.20035407104791, 40.62636045933359]]}}, {"type": "Feature", "properties": {"segment_id": 1127419, "physicalid": "78203", "street_name": "WATER ST", "borough": "staten_island", "direction": "TW", "total_row_ft": 50.2, "roadbed_ft": 20.2, "median_ft": 0.0, "left_sw_ft": 15.0, "right_sw_ft": 15.0}, "geometry": {"type": "LineString", "coordinates": [[-74.19993083440248, 40.62627378093901], [-74.20036108014729, 40.62630582391111]]}}, {"type": "Feature", "properties": {"segment_id": 1127420, "physicalid": "78203", "street_name": "WATER ST", "borough": "staten_island", "direction": "TW", "total_row_ft": 50.2, "roadbed_ft": 20.2, "median_ft": 0.0, "left_sw_ft": 15.0, "right_sw_ft": 15.0}, "geometry": {"type": "LineString", "coordinates": [[-74.19993784383924, 40.6262191455418], [-74.20036808923518, 40.62625118848788]]}}, {"type": "Feature", "properties": {"segment_id": 1127421, "physicalid": "78203", "street_name": "WATER ST", "borough": "staten_island", "direction": "TW", "total_row_ft": 50.0, "roadbed_ft": 20.0, "median_ft": 0.0, "left_sw_ft": 15.0, "right_sw_ft": 15.0}, "geometry": {"type": "LineString", "coordinates": [[-74.19994485326448, 40.626164510143866], [-74.20037509831161, 40.626196553063885]]}}, {"type": "Feature", "properties": {"segment_id": 1127422, "physicalid": "78203", "street_name": "WATER ST", "borough": "staten_island", "direction": "TW", "total_row_ft": 49.6, "roadbed_ft": 19.6, "median_ft": 0.0, "left_sw_ft": 15.0, "right_sw_ft": 15.0}, "geometry": {"type": "LineString", "coordinates": [[-74.19995186267829, 40.6261098747452], [-74.20038210737657, 40.626141917639174]]}}, {"type": "Feature", "properties": {"segment_id": 1127423, "physicalid": "78203", "street_name": "WATER ST", "borough": "staten_island", "direction": "TW", "total_row_ft": 48.9, "roadbed_ft": 18.9, "median_ft": 0.0, "left_sw_ft": 15.0, "right_sw_ft": 15.0}, "geometry": {"type": "LineString", "coordinates": [[-74.19995887208059, 40.62605523934578], [-74.20038911643005, 40.62608728221371]]}}, {"type": "Feature", "properties": {"segment_id": 1127424, "physicalid": "78203", "street_name": "WATER ST", "borough": "staten_island", "direction": "TW", "total_row_ft": 47.9, "roadbed_ft": 17.9, "median_ft": 0.0, "left_sw_ft": 15.0, "right_sw_ft": 15.0}, "geometry": {"type": "LineString", "coordinates": [[-74.19996588147143, 40.62600060394562], [-74.20039612547205, 40.6260326467875]]}}, {"type": "Feature", "properties": {"segment_id": 1127425, "physicalid": "78203", "street_name": "WATER ST", "borough": "staten_island", "direction": "TW", "total_row_ft": 47.7, "roadbed_ft": 17.7, "median_ft": 0.0, "left_sw_ft": 15.0, "right_sw_ft": 15.0}, "geometry": {"type": "LineString", "coordinates": [[-74.19997289085079, 40.62594596854471], [-74.20040313450258, 40.62597801136056]]}}, {"type": "Feature", "properties": {"segment_id": 1127426, "physicalid": "78203", "street_name": "WATER ST", "borough": "staten_island", "direction": "TW", "total_row_ft": 47.4, "roadbed_ft": 17.4, "median_ft": 0.0, "left_sw_ft": 15.0, "right_sw_ft": 15.0}, "geometry": {"type": "LineString", "coordinates": [[-74.19997990021868, 40.625891333143066], [-74.20041014352164, 40.625923375932864]]}}, {"type": "Feature", "properties": {"segment_id": 1127427, "physicalid": "78203", "street_name": "WATER ST", "borough": "staten_island", "direction": "TW", "total_row_ft": 47.2, "roadbed_ft": 17.2, "median_ft": 0.0, "left_sw_ft": 15.0, "right_sw_ft": 15.0}, "geometry": {"type": "LineString", "coordinates": [[-74.19998690957509, 40.62583669774068], [-74.20041715252921, 40.62586874050443]]}}, {"type": "Feature", "properties": {"segment_id": 1127428, "physicalid": "78203", "street_name": "WATER ST", "borough": "staten_island", "direction": "TW", "total_row_ft": 47.4, "roadbed_ft": 17.4, "median_ft": 0.0, "left_sw_ft": 15.0, "right_sw_ft": 15.0}, "geometry": {"type": "LineString", "coordinates": [[-74.19999391892001, 40.625782062337535], [-74.20042416152532, 40.62581410507526]]}}, {"type": "Feature", "properties": {"segment_id": 1127429, "physicalid": "78203", "street_name": "WATER ST", "borough": "staten_island", "direction": "TW", "total_row_ft": 47.5, "roadbed_ft": 17.5, "median_ft": 0.0, "left_sw_ft": 15.0, "right_sw_ft": 15.0}, "geometry": {"type": "LineString", "coordinates": [[-74.20000092825349, 40.625727426933665], [-74.20043117050994, 40.625759469645324]]}}, {"type": "Feature", "properties": {"segment_id": 1127430, "physicalid": "78203", "street_name": "WATER ST", "borough": "staten_island", "direction": "TW", "total_row_ft": 47.6, "roadbed_ft": 17.6, "median_ft": 0.0, "left_sw_ft": 15.0, "right_sw_ft": 15.0}, "geometry": {"type": "LineString", "coordinates": [[-74.20000793757546, 40.62567279152906], [-74.2004381794831, 40.62570483421466]]}}, {"type": "Feature", "properties": {"segment_id": 1127431, "physicalid": "78203", "street_name": "WATER ST", "borough": "staten_island", "direction": "TW", "total_row_ft": 46.9, "roadbed_ft": 16.9, "median_ft": 0.0, "left_sw_ft": 15.0, "right_sw_ft": 15.0}, "geometry": {"type": "LineString", "coordinates": [[-74.20001494688597, 40.62561815612368], [-74.20044518844477, 40.625650198783234]]}}, {"type": "Feature", "properties": {"segment_id": 1127432, "physicalid": "78203", "street_name": "WATER ST", "borough": "staten_island", "direction": "TW", "total_row_ft": 46.4, "roadbed_ft": 16.4, "median_ft": 0.0, "left_sw_ft": 15.0, "right_sw_ft": 15.0}, "geometry": {"type": "LineString", "coordinates": [[-74.20002051695943, 40.62558330680741], [-74.20045269486741, 40.62557575052242]]}}, {"type": "Feature", "properties": {"segment_id": 1127433, "physicalid": "78203", "street_name": "WATER ST", "borough": "staten_island", "direction": "TW", "total_row_ft": 45.7, "roadbed_ft": 15.7, "median_ft": 0.0, "left_sw_ft": 15.0, "right_sw_ft": 15.0}, "geometry": {"type": "LineString", "coordinates": [[-74.20001886424991, 40.625528425447456], [-74.2004510418027, 40.62552086916866]]}}, {"type": "Feature", "properties": {"segment_id": 1127434, "physicalid": "78203", "street_name": "WATER ST", "borough": "staten_island", "direction": "TW", "total_row_ft": 45.1, "roadbed_ft": 15.1, "median_ft": 0.0, "left_sw_ft": 15.0, "right_sw_ft": 15.0}, "geometry": {"type": "LineString", "coordinates": [[-74.2000172115431, 40.62547354408717], [-74.20044938874071, 40.62546598781455]]}}, {"type": "Feature", "properties": {"segment_id": 1127435, "physicalid": "78203", "street_name": "WATER ST", "borough": "staten_island", "direction": "TW", "total_row_ft": 44.9, "roadbed_ft": 14.9, "median_ft": 0.0, "left_sw_ft": 15.0, "right_sw_ft": 15.0}, "geometry": {"type": "LineString", "coordinates": [[-74.20001555883901, 40.625418662726545], [-74.20044773568145, 40.62541110646009]]}}, {"type": "Feature", "properties": {"segment_id": 1127436, "physicalid": "78203", "street_name": "WATER ST", "borough": "staten_island", "direction": "TW", "total_row_ft": 44.6, "roadbed_ft": 14.6, "median_ft": 0.0, "left_sw_ft": 15.0, "right_sw_ft": 15.0}, "geometry": {"type": "LineString", "coordinates": [[-74.20001390613766, 40.62536378136559], [-74.2004460826249, 40.625356225105286]]}}, {"type": "Feature", "properties": {"segment_id": 1127465, "physicalid": "78204", "street_name": "WATER ST", "borough": "staten_island", "direction": "TW", "total_row_ft": 40.8, "roadbed_ft": 10.8, "median_ft": 0.0, "left_sw_ft": 15.0, "right_sw_ft": 15.0}, "geometry": {"type": "LineString", "coordinates": [[-74.1997886207561, 40.62729798902372], [-74.20021836273405, 40.62733378775462]]}}, {"type": "Feature", "properties": {"segment_id": 1127466, "physicalid": "78204", "street_name": "WATER ST", "borough": "staten_island", "direction": "TW", "total_row_ft": 43.0, "roadbed_ft": 13.0, "median_ft": 0.0, "left_sw_ft": 15.0, "right_sw_ft": 15.0}, "geometry": {"type": "LineString", "coordinates": [[-74.19979645186933, 40.627243418444536], [-74.20022619350013, 40.6272792171463]]}}, {"type": "Feature", "properties": {"segment_id": 1127467, "physicalid": "78204", "street_name": "WATER ST", "borough": "staten_island", "direction": "TW", "total_row_ft": 43.8, "roadbed_ft": 13.8, "median_ft": 0.0, "left_sw_ft": 15.0, "right_sw_ft": 15.0}, "geometry": {"type": "LineString", "coordinates": [[-74.19980428296977, 40.62718884786444], [-74.20023402425338, 40.627224646537194]]}}, {"type": "Feature", "properties": {"segment_id": 1127468, "physicalid": "78204", "street_name": "WATER ST", "borough": "staten_island", "direction": "TW", "total_row_ft": 56.3, "roadbed_ft": 26.3, "median_ft": 0.0, "left_sw_ft": 15.0, "right_sw_ft": 15.0}, "geometry": {"type": "LineString", "coordinates": [[-74.19981211405738, 40.62713427728354], [-74.20024185499383, 40.627170075927175]]}}, {"type": "Feature", "properties": {"segment_id": 1127469, "physicalid": "78204", "street_name": "WATER ST", "borough": "staten_island", "direction": "TW", "total_row_ft": 70.6, "roadbed_ft": 40.6, "median_ft": 0.0, "left_sw_ft": 15.0, "right_sw_ft": 15.0}, "geometry": {"type": "LineString", "coordinates": [[-74.19981994513222, 40.62707970670176], [-74.20024968572146, 40.62711550531638]]}}, {"type": "Feature", "properties": {"segment_id": 1127470, "physicalid": "78204", "street_name": "WATER ST", "borough": "staten_island", "direction": "TW", "total_row_ft": 75.6, "roadbed_ft": 45.6, "median_ft": 0.0, "left_sw_ft": 15.0, "right_sw_ft": 15.0}, "geometry": {"type": "LineString", "coordinates": [[-74.19982777619423, 40.62702513611914], [-74.20025751643631, 40.627060934704716]]}}, {"type": "Feature", "properties": {"segment_id": 1127471, "physicalid": "78204", "street_name": "WATER ST", "borough": "staten_island", "direction": "TW", "total_row_ft": 76.5, "roadbed_ft": 46.5, "median_ft": 0.0, "left_sw_ft": 15.0, "right_sw_ft": 15.0}, "geometry": {"type": "LineString", "coordinates": [[-74.19983560724343, 40.62697056553569], [-74.20026534713836, 40.62700636409213]]}}, {"type": "Feature", "properties": {"segment_id": 1127472, "physicalid": "78204", "street_name": "WATER ST", "borough": "staten_island", "direction": "TW", "total_row_ft": 51.6, "roadbed_ft": 21.6, "median_ft": 0.0, "left_sw_ft": 15.0, "right_sw_ft": 15.0}, "geometry": {"type": "LineString", "coordinates": [[-74.19984343827984, 40.62691599495133], [-74.20027317782757, 40.6269517934788]]}}, {"type": "Feature", "properties": {"segment_id": 1127473, "physicalid": "78204", "street_name": "WATER ST", "borough": "staten_island", "direction": "TW", "total_row_ft": 51.1, "roadbed_ft": 21.1, "median_ft": 0.0, "left_sw_ft": 15.0, "right_sw_ft": 15.0}, "geometry": {"type": "LineString", "coordinates": [[-74.19985126930342, 40.62686142436624], [-74.20028100850399, 40.62689722286453]]}}, {"type": "Feature", "properties": {"segment_id": 1127474, "physicalid": "78204", "street_name": "WATER ST", "borough": "staten_island", "direction": "TW", "total_row_ft": 50.9, "roadbed_ft": 20.9, "median_ft": 0.0, "left_sw_ft": 15.0, "right_sw_ft": 15.0}, "geometry": {"type": "LineString", "coordinates": [[-74.19985910031423, 40.62680685378017], [-74.20028883916763, 40.626842652249486]]}}, {"type": "Feature", "properties": {"segment_id": 1127475, "physicalid": "78204", "street_name": "WATER ST", "borough": "staten_island", "direction": "TW", "total_row_ft": 51.0, "roadbed_ft": 21.0, "median_ft": 0.0, "left_sw_ft": 15.0, "right_sw_ft": 15.0}, "geometry": {"type": "LineString", "coordinates": [[-74.1998669313122, 40.62675228319331], [-74.20029666981843, 40.626788081633556]]}}, {"type": "Feature", "properties": {"segment_id": 1127476, "physicalid": "78204", "street_name": "WATER ST", "borough": "staten_island", "direction": "TW", "total_row_ft": 51.0, "roadbed_ft": 21.0, "median_ft": 0.0, "left_sw_ft": 15.0, "right_sw_ft": 15.0}, "geometry": {"type": "LineString", "coordinates": [[-74.19987476229738, 40.62669771260562], [-74.20030450045644, 40.62673351101675]]}}, {"type": "Feature", "properties": {"segment_id": 1127477, "physicalid": "78204", "street_name": "WATER ST", "borough": "staten_island", "direction": "TW", "total_row_ft": 52.1, "roadbed_ft": 22.1, "median_ft": 0.0, "left_sw_ft": 15.0, "right_sw_ft": 15.0}, "geometry": {"type": "LineString", "coordinates": [[-74.19988259326976, 40.62664314201704], [-74.20031233108163, 40.62667894039917]]}}, {"type": "Feature", "properties": {"segment_id": 1424843, "physicalid": "96594", "street_name": "4 AVE", "borough": "staten_island", "direction": "TW", "total_row_ft": 48.3, "roadbed_ft": 18.3, "median_ft": 0.0, "left_sw_ft": 15.0, "right_sw_ft": 15.0}, "geometry": {"type": "LineString", "coordinates": [[-74.20002297276494, 40.62349296700039], [-74.20004582051203, 40.623821881508086]]}}, {"type": "Feature", "properties": {"segment_id": 1424844, "physicalid": "96594", "street_name": "4 AVE", "borough": "staten_island", "direction": "TW", "total_row_ft": 48.4, "roadbed_ft": 18.4, "median_ft": 0.0, "left_sw_ft": 15.0, "right_sw_ft": 15.0}, "geometry": {"type": "LineString", "coordinates": [[-74.20009491842015, 40.623490065513835], [-74.20011776652082, 40.62381898000734]]}}, {"type": "Feature", "properties": {"segment_id": 1424845, "physicalid": "96594", "street_name": "4 AVE", "borough": "staten_island", "direction": "TW", "total_row_ft": 48.4, "roadbed_ft": 18.4, "median_ft": 0.0, "left_sw_ft": 15.0, "right_sw_ft": 15.0}, "geometry": {"type": "LineString", "coordinates": [[-74.20016686406913, 40.62348716398228], [-74.20018971252333, 40.62381607846157]]}}, {"type": "Feature", "properties": {"segment_id": 1424846, "physicalid": "96594", "street_name": "4 AVE", "borough": "staten_island", "direction": "TW", "total_row_ft": 48.5, "roadbed_ft": 18.5, "median_ft": 0.0, "left_sw_ft": 15.0, "right_sw_ft": 15.0}, "geometry": {"type": "LineString", "coordinates": [[-74.20023880971186, 40.62348426240568], [-74.20026165851961, 40.623813176870776]]}}, {"type": "Feature", "properties": {"segment_id": 1424847, "physicalid": "96594", "street_name": "4 AVE", "borough": "staten_island", "direction": "TW", "total_row_ft": 54.7, "roadbed_ft": 24.7, "median_ft": 0.0, "left_sw_ft": 15.0, "right_sw_ft": 15.0}, "geometry": {"type": "LineString", "coordinates": [[-74.20031075534833, 40.623481360784055], [-74.20033360450961, 40.62381027523497]]}}, {"type": "Feature", "properties": {"segment_id": 1546861, "physicalid": "104244", "street_name": "2 AVE", "borough": "staten_island", "direction": "TW", "total_row_ft": 55.5, "roadbed_ft": 25.5, "median_ft": 0.0, "left_sw_ft": 15.0, "right_sw_ft": 15.0}, "geometry": {"type": "LineString", "coordinates": [[-74.19987547396899, 40.626554238592455], [-74.20020067720482, 40.62677125063459]]}}, {"type": "Feature", "properties": {"segment_id": 1675193, "physicalid": "169529", "street_name": "2 AVE", "borough": "staten_island", "direction": "TW", "total_row_ft": 71.3, "roadbed_ft": 41.3, "median_ft": 0.0, "left_sw_ft": 15.0, "right_sw_ft": 15.0}, "geometry": {"type": "LineString", "coordinates": [[-74.20005190001332, 40.626439214974305], [-74.20025483440436, 40.62673004266882]]}}, {"type": "Feature", "properties": {"segment_id": 1675194, "physicalid": "169529", "street_name": "2 AVE", "borough": "staten_island", "direction": "TW", "total_row_ft": 66.3, "roadbed_ft": 36.3, "median_ft": 0.0, "left_sw_ft": 15.0, "right_sw_ft": 15.0}, "geometry": {"type": "LineString", "coordinates": [[-74.2001155175317, 40.62641344519494], [-74.20031845212159, 40.62670427277798]]}}, {"type": "Feature", "properties": {"segment_id": 1675195, "physicalid": "169529", "street_name": "2 AVE", "borough": "staten_island", "direction": "TW", "total_row_ft": 34.0, "roadbed_ft": 4.0, "median_ft": 0.0, "left_sw_ft": 15.0, "right_sw_ft": 15.0}, "geometry": {"type": "LineString", "coordinates": [[-74.20017913500094, 40.62638767538035], [-74.2003820697897, 40.62667850285186]]}}, {"type": "Feature", "properties": {"segment_id": 1675196, "physicalid": "169529", "street_name": "2 AVE", "borough": "staten_island", "direction": "TW", "total_row_ft": 30.0, "roadbed_ft": 0.0, "median_ft": 0.0, "left_sw_ft": 15.0, "right_sw_ft": 15.0}, "geometry": {"type": "LineString", "coordinates": [[-74.20024275242105, 40.62636190553046], [-74.20044568740866, 40.626652732890484]]}}, {"type": "Feature", "properties": {"segment_id": 1675197, "physicalid": "169529", "street_name": "2 AVE", "borough": "staten_island", "direction": "TW", "total_row_ft": 30.0, "roadbed_ft": 0.0, "median_ft": 0.0, "left_sw_ft": 15.0, "right_sw_ft": 15.0}, "geometry": {"type": "LineString", "coordinates": [[-74.20030636979203, 40.62633613564532], [-74.20050930497852, 40.62662696289384]]}}, {"type": "Feature", "properties": {"segment_id": 1675198, "physicalid": "169529", "street_name": "2 AVE", "borough": "staten_island", "direction": "TW", "total_row_ft": 30.0, "roadbed_ft": 0.0, "median_ft": 0.0, "left_sw_ft": 15.0, "right_sw_ft": 15.0}, "geometry": {"type": "LineString", "coordinates": [[-74.20036998711389, 40.62631036572489], [-74.20057292249925, 40.626601192861905]]}}, {"type": "Feature", "properties": {"segment_id": 1675199, "physicalid": "169529", "street_name": "2 AVE", "borough": "staten_island", "direction": "TW", "total_row_ft": 30.0, "roadbed_ft": 0.0, "median_ft": 0.0, "left_sw_ft": 15.0, "right_sw_ft": 15.0}, "geometry": {"type": "LineString", "coordinates": [[-74.20043360438665, 40.62628459576919], [-74.20063653997082, 40.626575422794716]]}}, {"type": "Feature", "properties": {"segment_id": 1675200, "physicalid": "169529", "street_name": "2 AVE", "borough": "staten_island", "direction": "TW", "total_row_ft": 30.0, "roadbed_ft": 0.0, "median_ft": 0.0, "left_sw_ft": 15.0, "right_sw_ft": 15.0}, "geometry": {"type": "LineString", "coordinates": [[-74.20049722161023, 40.626258825778216], [-74.20070015739329, 40.62654965269225]]}}, {"type": "Feature", "properties": {"segment_id": 1675201, "physicalid": "169529", "street_name": "2 AVE", "borough": "staten_island", "direction": "TW", "total_row_ft": 30.0, "roadbed_ft": 0.0, "median_ft": 0.0, "left_sw_ft": 15.0, "right_sw_ft": 15.0}, "geometry": {"type": "LineString", "coordinates": [[-74.20056083878472, 40.62623305575198], [-74.20076377476661, 40.626523882554515]]}}, {"type": "Feature", "properties": {"segment_id": 1675202, "physicalid": "169529", "street_name": "2 AVE", "borough": "staten_island", "direction": "TW", "total_row_ft": 30.0, "roadbed_ft": 0.0, "median_ft": 0.0, "left_sw_ft": 15.0, "right_sw_ft": 15.0}, "geometry": {"type": "LineString", "coordinates": [[-74.20062445591007, 40.62620728569046], [-74.20082739209083, 40.6264981123815]]}}, {"type": "Feature", "properties": {"segment_id": 1675203, "physicalid": "169529", "street_name": "2 AVE", "borough": "staten_island", "direction": "TW", "total_row_ft": 30.0, "roadbed_ft": 0.0, "median_ft": 0.0, "left_sw_ft": 15.0, "right_sw_ft": 15.0}, "geometry": {"type": "LineString", "coordinates": [[-74.2006880729863, 40.62618151559367], [-74.2008910093659, 40.626472342173194]]}}, {"type": "Feature", "properties": {"segment_id": 1675204, "physicalid": "169529", "street_name": "2 AVE", "borough": "staten_island", "direction": "TW", "total_row_ft": 30.0, "roadbed_ft": 0.0, "median_ft": 0.0, "left_sw_ft": 15.0, "right_sw_ft": 15.0}, "geometry": {"type": "LineString", "coordinates": [[-74.2007516900134, 40.626155745461595], [-74.20095462659185, 40.62644657192963]]}}, {"type": "Feature", "properties": {"segment_id": 1675205, "physicalid": "169529", "street_name": "2 AVE", "borough": "staten_island", "direction": "TW", "total_row_ft": 30.0, "roadbed_ft": 0.0, "median_ft": 0.0, "left_sw_ft": 15.0, "right_sw_ft": 15.0}, "geometry": {"type": "LineString", "coordinates": [[-74.20081530699134, 40.6261299752943], [-74.20101824376871, 40.6264208016508]]}}]}