{"type": "FeatureCollection", "features": [{"type": "Feature", "properties": {"segment_id": 1550840, "physicalid": "104536", "street_name": "INDUSTRIAL LOOP", "borough": "staten_island", "direction": "FT", "total_row_ft": 45.5, "roadbed_ft": 31.5, "median_ft": 0.0, "left_sw_ft": 5.8, "right_sw_ft": 8.2}, "geometry": {"type": "LineString", "coordinates": [[-74.23097325876756, 40.550019297144914], [-74.23082398214743, 40.55007030869515]]}}, {"type": "Feature", "properties": {"segment_id": 1550841, "physicalid": "104536", "street_name": "INDUSTRIAL LOOP", "borough": "staten_island", "direction": "FT", "total_row_ft": 45.9, "roadbed_ft": 31.8, "median_ft": 0.0, "left_sw_ft": 5.8, "right_sw_ft": 8.2}, "geometry": {"type": "LineString", "coordinates": [[-74.2310036021106, 40.55006908126055], [-74.23085301387005, 40.550120541032214]]}}, {"type": "Feature", "properties": {"segment_id": 1550842, "physicalid": "104536", "street_name": "INDUSTRIAL LOOP", "borough": "staten_island", "direction": "FT", "total_row_ft": 53.0, "roadbed_ft": 32.7, "median_ft": 0.0, "left_sw_ft": 5.3, "right_sw_ft": 15.0}, "geometry": {"type": "LineString", "coordinates": [[-74.23103394549884, 40.55011886536791], [-74.2307569118453, 40.55021353450583]]}}, {"type": "Feature", "properties": {"segment_id": 1550843, "physicalid": "104536", "street_name": "INDUSTRIAL LOOP", "borough": "staten_island", "direction": "FT", "total_row_ft": 53.4, "roadbed_ft": 32.8, "median_ft": 0.0, "left_sw_ft": 5.6, "right_sw_ft": 15.0}, "geometry": {"type": "LineString", "coordinates": [[-74.23106428894545, 40.55016864946258], [-74.23078633482761, 40.55026363316098]]}}, {"type": "Feature", "properties": {"segment_id": 1550844, "physicalid": "104536", "street_name": "INDUSTRIAL LOOP", "borough": "staten_island", "direction": "FT", "total_row_ft": 53.7, "roadbed_ft": 33.1, "median_ft": 0.0, "left_sw_ft": 5.7, "right_sw_ft": 15.0}, "geometry": {"type": "LineString", "coordinates": [[-74.23109463245528, 40.55021843354288], [-74.23081575785406, 40.55031373180841]]}}, {"type": "Feature", "properties": {"segment_id": 1550845, "physicalid": "104536", "street_name": "INDUSTRIAL LOOP", "borough": "staten_island", "direction": "FT", "total_row_ft": 62.7, "roadbed_ft": 32.7, "median_ft": 0.0, "left_sw_ft": 15.0, "right_sw_ft": 15.0}, "geometry": {"type": "LineString", "coordinates": [[-74.23123924833324, 40.55022916768869], [-74.2308451809246, 40.55036383044806]]}}, {"type": "Feature", "properties": {"segment_id": 1550846, "physicalid": "104536", "street_name": "INDUSTRIAL LOOP", "borough": "staten_island", "direction": "FT", "total_row_ft": 62.5, "roadbed_ft": 32.5, "median_ft": 0.0, "left_sw_ft": 15.0, "right_sw_ft": 15.0}, "geometry": {"type": "LineString", "coordinates": [[-74.23126867168405, 40.55027926622017], [-74.2308746040393, 40.550413929080015]]}}, {"type": "Feature", "properties": {"segment_id": 1550847, "physicalid": "104536", "street_name": "INDUSTRIAL LOOP", "borough": "staten_island", "direction": "FT", "total_row_ft": 62.0, "roadbed_ft": 32.0, "median_ft": 0.0, "left_sw_ft": 15.0, "right_sw_ft": 15.0}, "geometry": {"type": "LineString", "coordinates": [[-74.23129809507901, 40.55032936474394], [-74.2309040271981, 40.550464027704216]]}}, {"type": "Feature", "properties": {"segment_id": 1550848, "physicalid": "104536", "street_name": "INDUSTRIAL LOOP", "borough": "staten_island", "direction": "FT", "total_row_ft": 60.6, "roadbed_ft": 30.6, "median_ft": 0.0, "left_sw_ft": 15.0, "right_sw_ft": 15.0}, "geometry": {"type": "LineString", "coordinates": [[-74.23132751851813, 40.55037946326001], [-74.230933450401, 40.550514126320614]]}}, {"type": "Feature", "properties": {"segment_id": 1550849, "physicalid": "104536", "street_name": "INDUSTRIAL LOOP", "borough": "staten_island", "direction": "FT", "total_row_ft": 60.0, "roadbed_ft": 30.0, "median_ft": 0.0, "left_sw_ft": 15.0, "right_sw_ft": 15.0}, "geometry": {"type": "LineString", "coordinates": [[-74.23135694200131, 40.55042956176829], [-74.23096287364807, 40.55056422492934]]}}, {"type": "Feature", "properties": {"segment_id": 1550850, "physicalid": "104536", "street_name": "INDUSTRIAL LOOP", "borough": "staten_island", "direction": "FT", "total_row_ft": 60.0, "roadbed_ft": 30.0, "median_ft": 0.0, "left_sw_ft": 15.0, "right_sw_ft": 15.0}, "geometry": {"type": "LineString", "coordinates": [[-74.23138636552864, 40.550479660268806], [-74.23099229693922, 40.55061432353029]]}}, {"type": "Feature", "properties": {"segment_id": 1550851, "physicalid": "104536", "street_name": "INDUSTRIAL LOOP", "borough": "staten_island", "direction": "FT", "total_row_ft": 60.0, "roadbed_ft": 30.0, "median_ft": 0.0, "left_sw_ft": 15.0, "right_sw_ft": 15.0}, "geometry": {"type": "LineString", "coordinates": [[-74.23141578910008, 40.550529758761606], [-74.23102172027451, 40.55066442212347]]}}, {"type": "Feature", "properties": {"segment_id": 1550852, "physicalid": "104536", "street_name": "INDUSTRIAL LOOP", "borough": "staten_island", "direction": "FT", "total_row_ft": 60.0, "roadbed_ft": 30.0, "median_ft": 0.0, "left_sw_ft": 15.0, "right_sw_ft": 15.0}, "geometry": {"type": "LineString", "coordinates": [[-74.23144521271568, 40.55057985724668], [-74.23105114365391, 40.55071452070888]]}}, {"type": "Feature", "properties": {"segment_id": 1550853, "physicalid": "104536", "street_name": "INDUSTRIAL LOOP", "borough": "staten_island", "direction": "FT", "total_row_ft": 60.4, "roadbed_ft": 30.4, "median_ft": 0.0, "left_sw_ft": 15.0, "right_sw_ft": 15.0}, "geometry": {"type": "LineString", "coordinates": [[-74.23147463637535, 40.550629955723956], [-74.23108056707746, 40.55076461928663]]}}, {"type": "Feature", "properties": {"segment_id": 1550854, "physicalid": "104536", "street_name": "INDUSTRIAL LOOP", "borough": "staten_island", "direction": "FT", "total_row_ft": 60.9, "roadbed_ft": 30.9, "median_ft": 0.0, "left_sw_ft": 15.0, "right_sw_ft": 15.0}, "geometry": {"type": "LineString", "coordinates": [[-74.23150406007917, 40.55068005419348], [-74.23110999054511, 40.55081471785659]]}}, {"type": "Feature", "properties": {"segment_id": 1550855, "physicalid": "104536", "street_name": "INDUSTRIAL LOOP", "borough": "staten_island", "direction": "FT", "total_row_ft": 61.3, "roadbed_ft": 31.3, "median_ft": 0.0, "left_sw_ft": 15.0, "right_sw_ft": 15.0}, "geometry": {"type": "LineString", "coordinates": [[-74.2315334838271, 40.550730152655305], [-74.23113941405688, 40.5508648164188]]}}, {"type": "Feature", "properties": {"segment_id": 1550856, "physicalid": "104536", "street_name": "INDUSTRIAL LOOP", "borough": "staten_island", "direction": "FT", "total_row_ft": 61.7, "roadbed_ft": 31.7, "median_ft": 0.0, "left_sw_ft": 15.0, "right_sw_ft": 15.0}, "geometry": {"type": "LineString", "coordinates": [[-74.23156290761918, 40.55078025110935], [-74.23116883761278, 40.55091491497326]]}}, {"type": "Feature", "properties": {"segment_id": 1550857, "physicalid": "104536", "street_name": "INDUSTRIAL LOOP", "borough": "staten_island", "direction": "FT", "total_row_ft": 61.8, "roadbed_ft": 31.8, "median_ft": 0.0, "left_sw_ft": 15.0, "right_sw_ft": 15.0}, "geometry": {"type": "LineString", "coordinates": [[-74.23159233145535, 40.55083034955565], [-74.23119826121281, 40.55096501351997]]}}, {"type": "Feature", "properties": {"segment_id": 1550858, "physicalid": "104536", "street_name": "INDUSTRIAL LOOP", "borough": "staten_island", "direction": "FT", "total_row_ft": 62.6, "roadbed_ft": 32.6, "median_ft": 0.0, "left_sw_ft": 15.0, "right_sw_ft": 15.0}, "geometry": {"type": "LineString", "coordinates": [[-74.23162175533565, 40.55088044799421], [-74.23122768485693, 40.55101511205894]]}}, {"type": "Feature", "properties": {"segment_id": 1550859, "physicalid": "104536", "street_name": "INDUSTRIAL LOOP", "borough": "staten_island", "direction": "FT", "total_row_ft": 63.4, "roadbed_ft": 33.4, "median_ft": 0.0, "left_sw_ft": 15.0, "right_sw_ft": 15.0}, "geometry": {"type": "LineString", "coordinates": [[-74.23165117926011, 40.550930546425064], [-74.2312571085452, 40.551065210590124]]}}, {"type": "Feature", "properties": {"segment_id": 1550860, "physicalid": "104536", "street_name": "INDUSTRIAL LOOP", "borough": "staten_island", "direction": "FT", "total_row_ft": 64.2, "roadbed_ft": 34.2, "median_ft": 0.0, "left_sw_ft": 15.0, "right_sw_ft": 15.0}, "geometry": {"type": "LineString", "coordinates": [[-74.23168060322864, 40.55098064484809], [-74.2312865322776, 40.55111530911365]]}}, {"type": "Feature", "properties": {"segment_id": 1550861, "physicalid": "104536", "street_name": "INDUSTRIAL LOOP", "borough": "staten_island", "direction": "FT", "total_row_ft": 65.1, "roadbed_ft": 35.1, "median_ft": 0.0, "left_sw_ft": 15.0, "right_sw_ft": 15.0}, "geometry": {"type": "LineString", "coordinates": [[-74.23171002724132, 40.55103074326342], [-74.2313159560541, 40.55116540762935]]}}, {"type": "Feature", "properties": {"segment_id": 1550862, "physicalid": "104536", "street_name": "INDUSTRIAL LOOP", "borough": "staten_island", "direction": "FT", "total_row_ft": 66.1, "roadbed_ft": 36.1, "median_ft": 0.0, "left_sw_ft": 15.0, "right_sw_ft": 15.0}, "geometry": {"type": "LineString", "coordinates": [[-74.23173945129811, 40.55108084167099], [-74.23134537987474, 40.55121550613734]]}}, {"type": "Feature", "properties": {"segment_id": 1550863, "physicalid": "104536", "street_name": "INDUSTRIAL LOOP", "borough": "staten_island", "direction": "FT", "total_row_ft": 67.6, "roadbed_ft": 37.6, "median_ft": 0.0, "left_sw_ft": 15.0, "right_sw_ft": 15.0}, "geometry": {"type": "LineString", "coordinates": [[-74.23176887539906, 40.551130940070834], [-74.23137480373947, 40.55126560463755]]}}, {"type": "Feature", "properties": {"segment_id": 1550864, "physicalid": "104536", "street_name": "INDUSTRIAL LOOP", "borough": "staten_island", "direction": "FT", "total_row_ft": 76.3, "roadbed_ft": 46.3, "median_ft": 0.0, "left_sw_ft": 15.0, "right_sw_ft": 15.0}, "geometry": {"type": "LineString", "coordinates": [[-74.23179829954408, 40.551181038462886], [-74.23140422764837, 40.551315703130065]]}}, {"type": "Feature", "properties": {"segment_id": 1550865, "physicalid": "104536", "street_name": "INDUSTRIAL LOOP", "borough": "staten_island", "direction": "FT", "total_row_ft": 108.1, "roadbed_ft": 78.1, "median_ft": 0.0, "left_sw_ft": 15.0, "right_sw_ft": 15.0}, "geometry": {"type": "LineString", "coordinates": [[-74.23182772373325, 40.551231136847214], [-74.23143365160136, 40.55136580161478]]}}, {"type": "Feature", "properties": {"segment_id": 1580641, "physicalid": "122990", "street_name": "DERICK CT", "borough": "staten_island", "direction": "TW", "total_row_ft": 73.9, "roadbed_ft": 43.9, "median_ft": 0.0, "left_sw_ft": 15.0, "right_sw_ft": 15.0}, "geometry": {"type": "LineString", "coordinates": [[-74.23188824174052, 40.55133534315751], [-74.2314921937782, 40.551466593119926]]}}, {"type": "Feature", "properties": {"segment_id": 1580642, "physicalid": "122990", "street_name": "DERICK CT", "borough": "staten_island", "direction": "TW", "total_row_ft": 65.7, "roadbed_ft": 35.7, "median_ft": 0.0, "left_sw_ft": 15.0, "right_sw_ft": 15.0}, "geometry": {"type": "LineString", "coordinates": [[-74.23191691988966, 40.55138569264518], [-74.23152087168522, 40.55151694270593]]}}, {"type": "Feature", "properties": {"segment_id": 1580643, "physicalid": "122990", "street_name": "DERICK CT", "borough": "staten_island", "direction": "TW", "total_row_ft": 66.1, "roadbed_ft": 36.1, "median_ft": 0.0, "left_sw_ft": 15.0, "right_sw_ft": 15.0}, "geometry": {"type": "LineString", "coordinates": [[-74.231945598082, 40.55143604212545], [-74.23154954963546, 40.551567292284574]]}}, {"type": "Feature", "properties": {"segment_id": 1580644, "physicalid": "122990", "street_name": "DERICK CT", "borough": "staten_island", "direction": "TW", "total_row_ft": 66.6, "roadbed_ft": 36.6, "median_ft": 0.0, "left_sw_ft": 15.0, "right_sw_ft": 15.0}, "geometry": {"type": "LineString", "coordinates": [[-74.23197427631759, 40.5514863915984], [-74.23157822762892, 40.551617641855806]]}}, {"type": "Feature", "properties": {"segment_id": 1580645, "physicalid": "122990", "street_name": "DERICK CT", "borough": "staten_island", "direction": "TW", "total_row_ft": 67.0, "roadbed_ft": 37.0, "median_ft": 0.0, "left_sw_ft": 15.0, "right_sw_ft": 15.0}, "geometry": {"type": "LineString", "coordinates": [[-74.2320029545964, 40.551536741063934], [-74.2316069056656, 40.551667991419684]]}}, {"type": "Feature", "properties": {"segment_id": 1580646, "physicalid": "122990", "street_name": "DERICK CT", "borough": "staten_island", "direction": "TW", "total_row_ft": 67.4, "roadbed_ft": 37.4, "median_ft": 0.0, "left_sw_ft": 15.0, "right_sw_ft": 15.0}, "geometry": {"type": "LineString", "coordinates": [[-74.2320316329184, 40.55158709052211], [-74.23163558374551, 40.551718340976194]]}}, {"type": "Feature", "properties": {"segment_id": 1580647, "physicalid": "122990", "street_name": "DERICK CT", "borough": "staten_island", "direction": "TW", "total_row_ft": 67.8, "roadbed_ft": 37.8, "median_ft": 0.0, "left_sw_ft": 15.0, "right_sw_ft": 15.0}, "geometry": {"type": "LineString", "coordinates": [[-74.23206031128363, 40.5516374399729], [-74.23166426186864, 40.55176869052537]]}}, {"type": "Feature", "properties": {"segment_id": 1580648, "physicalid": "122990", "street_name": "DERICK CT", "borough": "staten_island", "direction": "TW", "total_row_ft": 68.3, "roadbed_ft": 38.3, "median_ft": 0.0, "left_sw_ft": 15.0, "right_sw_ft": 15.0}, "geometry": {"type": "LineString", "coordinates": [[-74.23208898969209, 40.5516877894163], [-74.231692940035, 40.551819040067144]]}}, {"type": "Feature", "properties": {"segment_id": 1580649, "physicalid": "122990", "street_name": "DERICK CT", "borough": "staten_island", "direction": "TW", "total_row_ft": 68.7, "roadbed_ft": 38.7, "median_ft": 0.0, "left_sw_ft": 15.0, "right_sw_ft": 15.0}, "geometry": {"type": "LineString", "coordinates": [[-74.23211766814376, 40.551738138852336], [-74.23172161824458, 40.55186938960157]]}}, {"type": "Feature", "properties": {"segment_id": 1580650, "physicalid": "122990", "street_name": "DERICK CT", "borough": "staten_island", "direction": "TW", "total_row_ft": 69.0, "roadbed_ft": 39.0, "median_ft": 0.0, "left_sw_ft": 15.0, "right_sw_ft": 15.0}, "geometry": {"type": "LineString", "coordinates": [[-74.23214634663866, 40.551788488281026], [-74.23175029649737, 40.5519197391286]]}}, {"type": "Feature", "properties": {"segment_id": 1580651, "physicalid": "122990", "street_name": "DERICK CT", "borough": "staten_island", "direction": "TW", "total_row_ft": 69.1, "roadbed_ft": 39.1, "median_ft": 0.0, "left_sw_ft": 15.0, "right_sw_ft": 15.0}, "geometry": {"type": "LineString", "coordinates": [[-74.23217502517679, 40.55183883770235], [-74.23177897479336, 40.551970088648225]]}}, {"type": "Feature", "properties": {"segment_id": 1580652, "physicalid": "122990", "street_name": "DERICK CT", "borough": "staten_island", "direction": "TW", "total_row_ft": 69.2, "roadbed_ft": 39.2, "median_ft": 0.0, "left_sw_ft": 15.0, "right_sw_ft": 15.0}, "geometry": {"type": "LineString", "coordinates": [[-74.23220370375813, 40.551889187116295], [-74.23180765313259, 40.552020438160504]]}}, {"type": "Feature", "properties": {"segment_id": 1580653, "physicalid": "122990", "street_name": "DERICK CT", "borough": "staten_island", "direction": "TW", "total_row_ft": 69.3, "roadbed_ft": 39.3, "median_ft": 0.0, "left_sw_ft": 15.0, "right_sw_ft": 15.0}, "geometry": {"type": "LineString", "coordinates": [[-74.23223238238269, 40.55193953652284], [-74.23183633151504, 40.55207078766541]]}}, {"type": "Feature", "properties": {"segment_id": 1580654, "physicalid": "122990", "street_name": "DERICK CT", "borough": "staten_island", "direction": "TW", "total_row_ft": 69.3, "roadbed_ft": 39.3, "median_ft": 0.0, "left_sw_ft": 15.0, "right_sw_ft": 15.0}, "geometry": {"type": "LineString", "coordinates": [[-74.23226106105047, 40.55198988592203], [-74.23186500994072, 40.552121137162956]]}}, {"type": "Feature", "properties": {"segment_id": 1580655, "physicalid": "122990", "street_name": "DERICK CT", "borough": "staten_island", "direction": "TW", "total_row_ft": 69.4, "roadbed_ft": 39.4, "median_ft": 0.0, "left_sw_ft": 15.0, "right_sw_ft": 15.0}, "geometry": {"type": "LineString", "coordinates": [[-74.23228973976146, 40.5520402353138], [-74.23189368840963, 40.552171486653144]]}}, {"type": "Feature", "properties": {"segment_id": 1580656, "physicalid": "122990", "street_name": "DERICK CT", "borough": "staten_island", "direction": "TW", "total_row_ft": 69.4, "roadbed_ft": 39.4, "median_ft": 0.0, "left_sw_ft": 15.0, "right_sw_ft": 15.0}, "geometry": {"type": "LineString", "coordinates": [[-74.23231841851567, 40.55209058469825], [-74.23192236692175, 40.55222183613593]]}}, {"type": "Feature", "properties": {"segment_id": 1580657, "physicalid": "122990", "street_name": "DERICK CT", "borough": "staten_island", "direction": "TW", "total_row_ft": 69.4, "roadbed_ft": 39.4, "median_ft": 0.0, "left_sw_ft": 15.0, "right_sw_ft": 15.0}, "geometry": {"type": "LineString", "coordinates": [[-74.23234709731312, 40.5521409340753], [-74.23195104547708, 40.55227218561135]]}}, {"type": "Feature", "properties": {"segment_id": 1580658, "physicalid": "122990", "street_name": "DERICK CT", "borough": "staten_island", "direction": "TW", "total_row_ft": 69.5, "roadbed_ft": 39.5, "median_ft": 0.0, "left_sw_ft": 15.0, "right_sw_ft": 15.0}, "geometry": {"type": "LineString", "coordinates": [[-74.2323757761538, 40.55219128344501], [-74.23197972407563, 40.55232253507936]]}}, {"type": "Feature", "properties": {"segment_id": 1580659, "physicalid": "122990", "street_name": "DERICK CT", "borough": "staten_island", "direction": "TW", "total_row_ft": 69.5, "roadbed_ft": 39.5, "median_ft": 0.0, "left_sw_ft": 15.0, "right_sw_ft": 15.0}, "geometry": {"type": "LineString", "coordinates": [[-74.2324044550377, 40.552241632807345], [-74.23200840271741, 40.552372884540034]]}}, {"type": "Feature", "properties": {"segment_id": 1580660, "physicalid": "122990", "street_name": "DERICK CT", "borough": "staten_island", "direction": "TW", "total_row_ft": 69.5, "roadbed_ft": 39.5, "median_ft": 0.0, "left_sw_ft": 15.0, "right_sw_ft": 15.0}, "geometry": {"type": "LineString", "coordinates": [[-74.2324331339648, 40.55229198216228], [-74.23203708140241, 40.55242323399333]]}}, {"type": "Feature", "properties": {"segment_id": 1580661, "physicalid": "122990", "street_name": "DERICK CT", "borough": "staten_island", "direction": "TW", "total_row_ft": 69.6, "roadbed_ft": 39.6, "median_ft": 0.0, "left_sw_ft": 15.0, "right_sw_ft": 15.0}, "geometry": {"type": "LineString", "coordinates": [[-74.2324575149569, 40.55233408485153], [-74.23207128839172, 40.552481392014066]]}}, {"type": "Feature", "properties": {"segment_id": 1580662, "physicalid": "122990", "street_name": "DERICK CT", "borough": "staten_island", "direction": "TW", "total_row_ft": 71.0, "roadbed_ft": 41.0, "median_ft": 0.0, "left_sw_ft": 15.0, "right_sw_ft": 15.0}, "geometry": {"type": "LineString", "coordinates": [[-74.23248970206586, 40.55238318499634], [-74.23210347528786, 40.552530492266534]]}}, {"type": "Feature", "properties": {"segment_id": 1580663, "physicalid": "122990", "street_name": "DERICK CT", "borough": "staten_island", "direction": "TW", "total_row_ft": 83.4, "roadbed_ft": 53.4, "median_ft": 0.0, "left_sw_ft": 15.0, "right_sw_ft": 15.0}, "geometry": {"type": "LineString", "coordinates": [[-74.23252188922213, 40.55243228513192], [-74.23213566223129, 40.55257959250982]]}}, {"type": "Feature", "properties": {"segment_id": 1580664, "physicalid": "122990", "street_name": "DERICK CT", "borough": "staten_island", "direction": "TW", "total_row_ft": 98.7, "roadbed_ft": 68.7, "median_ft": 0.0, "left_sw_ft": 15.0, "right_sw_ft": 15.0}, "geometry": {"type": "LineString", "coordinates": [[-74.23255407642574, 40.55248138525834], [-74.232167849222, 40.55262869274382]]}}, {"type": "Feature", "properties": {"segment_id": 1580665, "physicalid": "122990", "street_name": "DERICK CT", "borough": "staten_island", "direction": "TW", "total_row_ft": 86.1, "roadbed_ft": 56.1, "median_ft": 0.0, "left_sw_ft": 15.0, "right_sw_ft": 15.0}, "geometry": {"type": "LineString", "coordinates": [[-74.23258626367661, 40.552530485375456], [-74.23220003626005, 40.552677792968666]]}}, {"type": "Feature", "properties": {"segment_id": 1580666, "physicalid": "122990", "street_name": "DERICK CT", "borough": "staten_island", "direction": "TW", "total_row_ft": 30.0, "roadbed_ft": 0.0, "median_ft": 0.0, "left_sw_ft": 15.0, "right_sw_ft": 15.0}, "geometry": {"type": "LineString", "coordinates": [[-74.23261845097483, 40.55257958548344], [-74.23223222334536, 40.552726893184214]]}}, {"type": "Feature", "properties": {"segment_id": 1580667, "physicalid": "122990", "street_name": "DERICK CT", "borough": "staten_island", "direction": "TW", "total_row_ft": 30.0, "roadbed_ft": 0.0, "median_ft": 0.0, "left_sw_ft": 15.0, "right_sw_ft": 15.0}, "geometry": {"type": "LineString", "coordinates": [[-74.23265063832031, 40.55262868558213], [-74.23226441047804, 40.552775993390604]]}}, {"type": "Feature", "properties": {"segment_id": 1580668, "physicalid": "122990", "street_name": "DERICK CT", "borough": "staten_island", "direction": "TW", "total_row_ft": 30.0, "roadbed_ft": 0.0, "median_ft": 0.0, "left_sw_ft": 15.0, "right_sw_ft": 15.0}, "geometry": {"type": "LineString", "coordinates": [[-74.23268282571314, 40.55267778567167], [-74.23229659765796, 40.552825093587714]]}}, {"type": "Feature", "properties": {"segment_id": 1580669, "physicalid": "122990", "street_name": "DERICK CT", "borough": "staten_island", "direction": "TW", "total_row_ft": 30.0, "roadbed_ft": 0.0, "median_ft": 0.0, "left_sw_ft": 15.0, "right_sw_ft": 15.0}, "geometry": {"type": "LineString", "coordinates": [[-74.23271501315324, 40.55272688575189], [-74.23232878488523, 40.55287419377566]]}}, {"type": "Feature", "properties": {"segment_id": 1580670, "physicalid": "122990", "street_name": "DERICK CT", "borough": "staten_island", "direction": "TW", "total_row_ft": 30.0, "roadbed_ft": 0.0, "median_ft": 0.0, "left_sw_ft": 15.0, "right_sw_ft": 15.0}, "geometry": {"type": "LineString", "coordinates": [[-74.23274720064067, 40.55277598582297], [-74.23236097215978, 40.55292329395432]]}}, {"type": "Feature", "properties": {"segment_id": 1580671, "physicalid": "122990", "street_name": "DERICK CT", "borough": "staten_island", "direction": "TW", "total_row_ft": 30.0, "roadbed_ft": 0.0, "median_ft": 0.0, "left_sw_ft": 15.0, "right_sw_ft": 15.0}, "geometry": {"type": "LineString", "coordinates": [[-74.2327793881754, 40.55282508588479], [-74.23239315948165, 40.552972394123785]]}}, {"type": "Feature", "properties": {"segment_id": 1580672, "physicalid": "122991", "street_name": "INDUSTRIAL LOOP", "borough": "staten_island", "direction": "FT", "total_row_ft": 115.7, "roadbed_ft": 85.7, "median_ft": 0.0, "left_sw_ft": 15.0, "right_sw_ft": 15.0}, "geometry": {"type": "LineString", "coordinates": [[-74.23160106984422, 40.551201479504805], [-74.23182816727778, 40.551481626351936]]}}, {"type": "Feature", "properties": {"segment_id": 1580673, "physicalid": "122991", "street_name": "INDUSTRIAL LOOP", "borough": "staten_island", "direction": "FT", "total_row_ft": 87.0, "roadbed_ft": 57.0, "median_ft": 0.0, "left_sw_ft": 15.0, "right_sw_ft": 15.0}, "geometry": {"type": "LineString", "coordinates": [[-74.2316622815344, 40.55117260864728], [-74.23188937912653, 40.55145275537403]]}}, {"type": "Feature", "properties": {"segment_id": 1580674, "physicalid": "122991", "street_name": "INDUSTRIAL LOOP", "borough": "staten_island", "direction": "FT", "total_row_ft": 68.0, "roadbed_ft": 38.0, "median_ft": 0.0, "left_sw_ft": 15.0, "right_sw_ft": 15.0}, "geometry": {"type": "LineString", "coordinates": [[-74.2317234931717, 40.55114373775707], [-74.23195059092235, 40.551423884363444]]}}, {"type": "Feature", "properties": {"segment_id": 1580675, "physicalid": "122991", "street_name": "INDUSTRIAL LOOP", "borough": "staten_island", "direction": "FT", "total_row_ft": 65.1, "roadbed_ft": 35.1, "median_ft": 0.0, "left_sw_ft": 15.0, "right_sw_ft": 15.0}, "geometry": {"type": "LineString", "coordinates": [[-74.23178470475612, 40.55111486683414], [-74.23201180266527, 40.55139501332013]]}}, {"type": "Feature", "properties": {"segment_id": 1580676, "physicalid": "122991", "street_name": "INDUSTRIAL LOOP", "borough": "staten_island", "direction": "FT", "total_row_ft": 65.2, "roadbed_ft": 35.2, "median_ft": 0.0, "left_sw_ft": 15.0, "right_sw_ft": 15.0}, "geometry": {"type": "LineString", "coordinates": [[-74.23184591628764, 40.55108599587852], [-74.23207301435528, 40.551366142244134]]}}, {"type": "Feature", "properties": {"segment_id": 1580677, "physicalid": "122991", "street_name": "INDUSTRIAL LOOP", "borough": "staten_island", "direction": "FT", "total_row_ft": 65.2, "roadbed_ft": 35.2, "median_ft": 0.0, "left_sw_ft": 15.0, "right_sw_ft": 15.0}, "geometry": {"type": "LineString", "coordinates": [[-74.23190712776626, 40.551057124890214], [-74.23213422599241, 40.55133727113546]]}}, {"type": "Feature", "properties": {"segment_id": 1580678, "physicalid": "122991", "street_name": "INDUSTRIAL LOOP", "borough": "staten_island", "direction": "FT", "total_row_ft": 64.1, "roadbed_ft": 34.1, "median_ft": 0.0, "left_sw_ft": 15.0, "right_sw_ft": 15.0}, "geometry": {"type": "LineString", "coordinates": [[-74.23196833919198, 40.551028253869205], [-74.23219543757665, 40.55130839999408]]}}, {"type": "Feature", "properties": {"segment_id": 1580679, "physicalid": "122991", "street_name": "INDUSTRIAL LOOP", "borough": "staten_island", "direction": "FT", "total_row_ft": 63.0, "roadbed_ft": 33.0, "median_ft": 0.0, "left_sw_ft": 15.0, "right_sw_ft": 15.0}, "geometry": {"type": "LineString", "coordinates": [[-74.2320295505648, 40.55099938281549], [-74.23225664910798, 40.55127952882]]}}, {"type": "Feature", "properties": {"segment_id": 1580680, "physicalid": "122991", "street_name": "INDUSTRIAL LOOP", "borough": "staten_island", "direction": "FT", "total_row_ft": 62.3, "roadbed_ft": 32.3, "median_ft": 0.0, "left_sw_ft": 15.0, "right_sw_ft": 15.0}, "geometry": {"type": "LineString", "coordinates": [[-74.23209076188472, 40.55097051172909], [-74.23231786058642, 40.55125065761321]]}}, {"type": "Feature", "properties": {"segment_id": 1580681, "physicalid": "122991", "street_name": "INDUSTRIAL LOOP", "borough": "staten_island", "direction": "FT", "total_row_ft": 61.9, "roadbed_ft": 31.9, "median_ft": 0.0, "left_sw_ft": 15.0, "right_sw_ft": 15.0}, "geometry": {"type": "LineString", "coordinates": [[-74.23215197315176, 40.55094164060998], [-74.23237907201197, 40.55122178637374]]}}, {"type": "Feature", "properties": {"segment_id": 1580682, "physicalid": "122991", "street_name": "INDUSTRIAL LOOP", "borough": "staten_island", "direction": "FT", "total_row_ft": 61.4, "roadbed_ft": 31.4, "median_ft": 0.0, "left_sw_ft": 15.0, "right_sw_ft": 15.0}, "geometry": {"type": "LineString", "coordinates": [[-74.23221318436586, 40.55091276945819], [-74.23244028338462, 40.55119291510155]]}}, {"type": "Feature", "properties": {"segment_id": 1580683, "physicalid": "122991", "street_name": "INDUSTRIAL LOOP", "borough": "staten_island", "direction": "FT", "total_row_ft": 61.0, "roadbed_ft": 31.0, "median_ft": 0.0, "left_sw_ft": 15.0, "right_sw_ft": 15.0}, "geometry": {"type": "LineString", "coordinates": [[-74.23227439552709, 40.5508838982737], [-74.23250149470437, 40.55116404379668]]}}, {"type": "Feature", "properties": {"segment_id": 1580684, "physicalid": "122991", "street_name": "INDUSTRIAL LOOP", "borough": "staten_island", "direction": "FT", "total_row_ft": 60.5, "roadbed_ft": 30.5, "median_ft": 0.0, "left_sw_ft": 15.0, "right_sw_ft": 15.0}, "geometry": {"type": "LineString", "coordinates": [[-74.23233560663542, 40.550855027056514], [-74.23256270597123, 40.55113517245911]]}}, {"type": "Feature", "properties": {"segment_id": 1580685, "physicalid": "122991", "street_name": "INDUSTRIAL LOOP", "borough": "staten_island", "direction": "FT", "total_row_ft": 60.9, "roadbed_ft": 30.9, "median_ft": 0.0, "left_sw_ft": 15.0, "right_sw_ft": 15.0}, "geometry": {"type": "LineString", "coordinates": [[-74.23239681769086, 40.55082615580663], [-74.23262391718515, 40.55110630108886]]}}, {"type": "Feature", "properties": {"segment_id": 1580686, "physicalid": "122991", "street_name": "INDUSTRIAL LOOP", "borough": "staten_island", "direction": "FT", "total_row_ft": 61.2, "roadbed_ft": 31.2, "median_ft": 0.0, "left_sw_ft": 15.0, "right_sw_ft": 15.0}, "geometry": {"type": "LineString", "coordinates": [[-74.23245802869343, 40.550797284524045], [-74.23268512834619, 40.55107742968591]]}}, {"type": "Feature", "properties": {"segment_id": 1580687, "physicalid": "122991", "street_name": "INDUSTRIAL LOOP", "borough": "staten_island", "direction": "FT", "total_row_ft": 104.1, "roadbed_ft": 74.1, "median_ft": 0.0, "left_sw_ft": 15.0, "right_sw_ft": 15.0}, "geometry": {"type": "LineString", "coordinates": [[-74.23251923964307, 40.55076841320877], [-74.23274633945434, 40.551048558250244]]}}, {"type": "Feature", "properties": {"segment_id": 1580688, "physicalid": "122991", "street_name": "INDUSTRIAL LOOP", "borough": "staten_island", "direction": "FT", "total_row_ft": 105.5, "roadbed_ft": 75.5, "median_ft": 0.0, "left_sw_ft": 15.0, "right_sw_ft": 15.0}, "geometry": {"type": "LineString", "coordinates": [[-74.2325804505398, 40.55073954186079], [-74.23280755050959, 40.551019686781906]]}}, {"type": "Feature", "properties": {"segment_id": 1647488, "physicalid": "163795", "street_name": "ZARELLI CT", "borough": "staten_island", "direction": "TW", "total_row_ft": 111.6, "roadbed_ft": 81.6, "median_ft": 0.0, "left_sw_ft": 15.0, "right_sw_ft": 15.0}, "geometry": {"type": "LineString", "coordinates": [[-74.23296269539748, 40.55082000680355], [-74.23257496404113, 40.55096498207899]]}}, {"type": "Feature", "properties": {"segment_id": 1647489, "physicalid": "163795", "street_name": "ZARELLI CT", "borough": "staten_island", "direction": "TW", "total_row_ft": 69.7, "roadbed_ft": 39.7, "median_ft": 0.0, "left_sw_ft": 15.0, "right_sw_ft": 15.0}, "geometry": {"type": "LineString", "coordinates": [[-74.23299437226294, 40.550869299374256], [-74.2326066406893, 40.551014274756064]]}}, {"type": "Feature", "properties": {"segment_id": 1647490, "physicalid": "163795", "street_name": "ZARELLI CT", "borough": "staten_island", "direction": "TW", "total_row_ft": 75.7, "roadbed_ft": 45.7, "median_ft": 0.0, "left_sw_ft": 15.0, "right_sw_ft": 15.0}, "geometry": {"type": "LineString", "coordinates": [[-74.23302604917515, 40.550918591936046], [-74.23263831738419, 40.55106356742419]]}}, {"type": "Feature", "properties": {"segment_id": 1647491, "physicalid": "163795", "street_name": "ZARELLI CT", "borough": "staten_island", "direction": "TW", "total_row_ft": 75.2, "roadbed_ft": 45.2, "median_ft": 0.0, "left_sw_ft": 15.0, "right_sw_ft": 15.0}, "geometry": {"type": "LineString", "coordinates": [[-74.23305772613408, 40.550967884488884], [-74.23266999412583, 40.5511128600834]]}}, {"type": "Feature", "properties": {"segment_id": 1647492, "physicalid": "163795", "street_name": "ZARELLI CT", "borough": "staten_island", "direction": "TW", "total_row_ft": 74.8, "roadbed_ft": 44.8, "median_ft": 0.0, "left_sw_ft": 15.0, "right_sw_ft": 15.0}, "geometry": {"type": "LineString", "coordinates": [[-74.23308940313979, 40.551017177032804], [-74.23270167091418, 40.55116215273362]]}}, {"type": "Feature", "properties": {"segment_id": 1647493, "physicalid": "163795", "street_name": "ZARELLI CT", "borough": "staten_island", "direction": "TW", "total_row_ft": 74.3, "roadbed_ft": 44.3, "median_ft": 0.0, "left_sw_ft": 15.0, "right_sw_ft": 15.0}, "geometry": {"type": "LineString", "coordinates": [[-74.23312108019218, 40.551066469567736], [-74.23273334774932, 40.55121144537498]]}}, {"type": "Feature", "properties": {"segment_id": 1647494, "physicalid": "163795", "street_name": "ZARELLI CT", "borough": "staten_island", "direction": "TW", "total_row_ft": 74.1, "roadbed_ft": 44.1, "median_ft": 0.0, "left_sw_ft": 15.0, "right_sw_ft": 15.0}, "geometry": {"type": "LineString", "coordinates": [[-74.23315275729134, 40.55111576209374], [-74.23276502463116, 40.55126073800735]]}}, {"type": "Feature", "properties": {"segment_id": 1647495, "physicalid": "163795", "street_name": "ZARELLI CT", "borough": "staten_island", "direction": "TW", "total_row_ft": 74.0, "roadbed_ft": 44.0, "median_ft": 0.0, "left_sw_ft": 15.0, "right_sw_ft": 15.0}, "geometry": {"type": "LineString", "coordinates": [[-74.23318443443722, 40.55116505461082], [-74.23279670155975, 40.55131003063078]]}}, {"type": "Feature", "properties": {"segment_id": 1647496, "physicalid": "163795", "street_name": "ZARELLI CT", "borough": "staten_island", "direction": "TW", "total_row_ft": 73.8, "roadbed_ft": 43.8, "median_ft": 0.0, "left_sw_ft": 15.0, "right_sw_ft": 15.0}, "geometry": {"type": "LineString", "coordinates": [[-74.23321611162986, 40.551214347118986], [-74.23282837853506, 40.551359323245286]]}}, {"type": "Feature", "properties": {"segment_id": 1647497, "physicalid": "163795", "street_name": "ZARELLI CT", "borough": "staten_island", "direction": "TW", "total_row_ft": 73.7, "roadbed_ft": 43.7, "median_ft": 0.0, "left_sw_ft": 15.0, "right_sw_ft": 15.0}, "geometry": {"type": "LineString", "coordinates": [[-74.23324778886924, 40.5512636396182], [-74.2328600555571, 40.551408615850804]]}}, {"type": "Feature", "properties": {"segment_id": 1647498, "physicalid": "163795", "street_name": "ZARELLI CT", "borough": "staten_island", "direction": "TW", "total_row_ft": 73.6, "roadbed_ft": 43.6, "median_ft": 0.0, "left_sw_ft": 15.0, "right_sw_ft": 15.0}, "geometry": {"type": "LineString", "coordinates": [[-74.23327946615531, 40.551312932108424], [-74.23289173262592, 40.55145790844746]]}}, {"type": "Feature", "properties": {"segment_id": 1647499, "physicalid": "163795", "street_name": "ZARELLI CT", "borough": "staten_island", "direction": "TW", "total_row_ft": 73.4, "roadbed_ft": 43.4, "median_ft": 0.0, "left_sw_ft": 15.0, "right_sw_ft": 15.0}, "geometry": {"type": "LineString", "coordinates": [[-74.23331114348815, 40.55136222458976], [-74.23292340974145, 40.55150720103515]]}}, {"type": "Feature", "properties": {"segment_id": 1647500, "physicalid": "163795", "street_name": "ZARELLI CT", "borough": "staten_island", "direction": "TW", "total_row_ft": 72.8, "roadbed_ft": 42.8, "median_ft": 0.0, "left_sw_ft": 15.0, "right_sw_ft": 15.0}, "geometry": {"type": "LineString", "coordinates": [[-74.23334282086773, 40.55141151706212], [-74.23295508690371, 40.551556493613894]]}}, {"type": "Feature", "properties": {"segment_id": 1647501, "physicalid": "163795", "street_name": "ZARELLI CT", "borough": "staten_island", "direction": "TW", "total_row_ft": 72.2, "roadbed_ft": 42.2, "median_ft": 0.0, "left_sw_ft": 15.0, "right_sw_ft": 15.0}, "geometry": {"type": "LineString", "coordinates": [[-74.23337449829407, 40.55146080952557], [-74.23298676411272, 40.551605786183664]]}}, {"type": "Feature", "properties": {"segment_id": 1647502, "physicalid": "163795", "street_name": "ZARELLI CT", "borough": "staten_island", "direction": "TW", "total_row_ft": 71.7, "roadbed_ft": 41.7, "median_ft": 0.0, "left_sw_ft": 15.0, "right_sw_ft": 15.0}, "geometry": {"type": "LineString", "coordinates": [[-74.23340617576713, 40.55151010198011], [-74.23301844136844, 40.551655078744496]]}}, {"type": "Feature", "properties": {"segment_id": 1647503, "physicalid": "163795", "street_name": "ZARELLI CT", "borough": "staten_island", "direction": "TW", "total_row_ft": 71.1, "roadbed_ft": 41.1, "median_ft": 0.0, "left_sw_ft": 15.0, "right_sw_ft": 15.0}, "geometry": {"type": "LineString", "coordinates": [[-74.23343785328692, 40.55155939442563], [-74.23305011867096, 40.55170437129646]]}}, {"type": "Feature", "properties": {"segment_id": 1647504, "physicalid": "163795", "street_name": "ZARELLI CT", "borough": "staten_island", "direction": "TW", "total_row_ft": 70.5, "roadbed_ft": 40.5, "median_ft": 0.0, "left_sw_ft": 15.0, "right_sw_ft": 15.0}, "geometry": {"type": "LineString", "coordinates": [[-74.23346953085343, 40.55160868686226], [-74.23308179602019, 40.551753663839435]]}}, {"type": "Feature", "properties": {"segment_id": 1647505, "physicalid": "163795", "street_name": "ZARELLI CT", "borough": "staten_island", "direction": "TW", "total_row_ft": 69.9, "roadbed_ft": 39.9, "median_ft": 0.0, "left_sw_ft": 15.0, "right_sw_ft": 15.0}, "geometry": {"type": "LineString", "coordinates": [[-74.2335012084667, 40.551657979289935], [-74.23311347341614, 40.55180295637348]]}}, {"type": "Feature", "properties": {"segment_id": 1647506, "physicalid": "163795", "street_name": "ZARELLI CT", "borough": "staten_island", "direction": "TW", "total_row_ft": 69.4, "roadbed_ft": 39.4, "median_ft": 0.0, "left_sw_ft": 15.0, "right_sw_ft": 15.0}, "geometry": {"type": "LineString", "coordinates": [[-74.23353288612671, 40.551707271708686], [-74.23314515085886, 40.55185224889856]]}}, {"type": "Feature", "properties": {"segment_id": 1647507, "physicalid": "163795", "street_name": "ZARELLI CT", "borough": "staten_island", "direction": "TW", "total_row_ft": 68.8, "roadbed_ft": 38.8, "median_ft": 0.0, "left_sw_ft": 15.0, "right_sw_ft": 15.0}, "geometry": {"type": "LineString", "coordinates": [[-74.23356456383348, 40.55175656411852], [-74.23317682834826, 40.551901541414665]]}}, {"type": "Feature", "properties": {"segment_id": 1647508, "physicalid": "163795", "street_name": "ZARELLI CT", "borough": "staten_island", "direction": "TW", "total_row_ft": 68.2, "roadbed_ft": 38.2, "median_ft": 0.0, "left_sw_ft": 15.0, "right_sw_ft": 15.0}, "geometry": {"type": "LineString", "coordinates": [[-74.23359624158695, 40.55180585651933], [-74.23320850588446, 40.55195083392194]]}}, {"type": "Feature", "properties": {"segment_id": 1647509, "physicalid": "163796", "street_name": "INDUSTRIAL LOOP", "borough": "staten_island", "direction": "FT", "total_row_ft": 63.9, "roadbed_ft": 33.9, "median_ft": 0.0, "left_sw_ft": 15.0, "right_sw_ft": 15.0}, "geometry": {"type": "LineString", "coordinates": [[-74.23270695712681, 40.550688276257766], [-74.23288188533631, 40.55098941576499]]}}, {"type": "Feature", "properties": {"segment_id": 1647510, "physicalid": "163796", "street_name": "INDUSTRIAL LOOP", "borough": "staten_island", "direction": "FT", "total_row_ft": 64.8, "roadbed_ft": 34.8, "median_ft": 0.0, "left_sw_ft": 15.0, "right_sw_ft": 15.0}, "geometry": {"type": "LineString", "coordinates": [[-74.23272505792558, 40.55068347899833], [-74.23299037032852, 40.55094335012953]]}}, {"type": "Feature", "properties": {"segment_id": 1647511, "physicalid": "163796", "street_name": "INDUSTRIAL LOOP", "borough": "staten_island", "direction": "FT", "total_row_ft": 63.8, "roadbed_ft": 33.8, "median_ft": 0.0, "left_sw_ft": 15.0, "right_sw_ft": 15.0}, "geometry": {"type": "LineString", "coordinates": [[-74.23278183897514, 40.55064974961018], [-74.233047151465, 40.550909620610916]]}}, {"type": "Feature", "properties": {"segment_id": 1647512, "physicalid": "163796", "street_name": "INDUSTRIAL LOOP", "borough": "staten_island", "direction": "FT", "total_row_ft": 61.5, "roadbed_ft": 31.5, "median_ft": 0.0, "left_sw_ft": 15.0, "right_sw_ft": 15.0}, "geometry": {"type": "LineString", "coordinates": [[-74.23279047728724, 40.5506389289969], [-74.23313353208542, 40.550838964148525]]}}, {"type": "Feature", "properties": {"segment_id": 1647513, "physicalid": "163796", "street_name": "INDUSTRIAL LOOP", "borough": "staten_island", "direction": "FT", "total_row_ft": 61.5, "roadbed_ft": 31.5, "median_ft": 0.0, "left_sw_ft": 15.0, "right_sw_ft": 15.0}, "geometry": {"type": "LineString", "coordinates": [[-74.23280473569172, 40.550631848578114], [-74.23320384880161, 40.55075757249409]]}}, {"type": "Feature", "properties": {"segment_id": 1647514, "physicalid": "163796", "street_name": "INDUSTRIAL LOOP", "borough": "staten_island", "direction": "FT", "total_row_ft": 60.3, "roadbed_ft": 30.3, "median_ft": 0.0, "left_sw_ft": 15.0, "right_sw_ft": 15.0}, "geometry": {"type": "LineString", "coordinates": [[-74.23283220607456, 40.55058110887044], [-74.23323131893306, 40.5507068326915]]}}, {"type": "Feature", "properties": {"segment_id": 1647515, "physicalid": "163796", "street_name": "INDUSTRIAL LOOP", "borough": "staten_island", "direction": "FT", "total_row_ft": 57.7, "roadbed_ft": 27.7, "median_ft": 0.0, "left_sw_ft": 15.0, "right_sw_ft": 15.0}, "geometry": {"type": "LineString", "coordinates": [[-74.23283702074072, 40.55056934477727], [-74.23326489182415, 40.55061371270932]]}}, {"type": "Feature", "properties": {"segment_id": 1647516, "physicalid": "163796", "street_name": "INDUSTRIAL LOOP", "borough": "staten_island", "direction": "FT", "total_row_ft": 56.7, "roadbed_ft": 26.7, "median_ft": 0.0, "left_sw_ft": 15.0, "right_sw_ft": 15.0}, "geometry": {"type": "LineString", "coordinates": [[-74.23284671514153, 40.55051494892117], [-74.23327458588307, 40.55055931681727]]}}, {"type": "Feature", "properties": {"segment_id": 1647517, "physicalid": "163796", "street_name": "INDUSTRIAL LOOP", "borough": "staten_island", "direction": "FT", "total_row_ft": 56.3, "roadbed_ft": 26.3, "median_ft": 0.0, "left_sw_ft": 15.0, "right_sw_ft": 15.0}, "geometry": {"type": "LineString", "coordinates": [[-74.23283998756162, 40.55050057333866], [-74.2332692092494, 40.55046459248091]]}}, {"type": "Feature", "properties": {"segment_id": 1647518, "physicalid": "163796", "street_name": "INDUSTRIAL LOOP", "borough": "staten_island", "direction": "FT", "total_row_ft": 57.3, "roadbed_ft": 27.3, "median_ft": 0.0, "left_sw_ft": 15.0, "right_sw_ft": 15.0}, "geometry": {"type": "LineString", "coordinates": [[-74.23284558377723, 40.55050893906814], [-74.23322551644682, 40.55035241423743]]}}, {"type": "Feature", "properties": {"segment_id": 1647519, "physicalid": "163796", "street_name": "INDUSTRIAL LOOP", "borough": "staten_island", "direction": "FT", "total_row_ft": 58.4, "roadbed_ft": 28.4, "median_ft": 0.0, "left_sw_ft": 15.0, "right_sw_ft": 15.0}, "geometry": {"type": "LineString", "coordinates": [[-74.23281138385462, 40.55046063749652], [-74.23319131632974, 40.55030411277836]]}}, {"type": "Feature", "properties": {"segment_id": 1647520, "physicalid": "163796", "street_name": "INDUSTRIAL LOOP", "borough": "staten_island", "direction": "FT", "total_row_ft": 59.9, "roadbed_ft": 29.9, "median_ft": 0.0, "left_sw_ft": 15.0, "right_sw_ft": 15.0}, "geometry": {"type": "LineString", "coordinates": [[-74.2327771839815, 40.55041233591454], [-74.23315711626208, 40.55025581130891]]}}, {"type": "Feature", "properties": {"segment_id": 1647521, "physicalid": "163796", "street_name": "INDUSTRIAL LOOP", "borough": "staten_island", "direction": "FT", "total_row_ft": 61.3, "roadbed_ft": 31.3, "median_ft": 0.0, "left_sw_ft": 15.0, "right_sw_ft": 15.0}, "geometry": {"type": "LineString", "coordinates": [[-74.23274298415782, 40.550364034322186], [-74.23312291624387, 40.55020750982906]]}}, {"type": "Feature", "properties": {"segment_id": 1647522, "physicalid": "163796", "street_name": "INDUSTRIAL LOOP", "borough": "staten_island", "direction": "FT", "total_row_ft": 62.3, "roadbed_ft": 32.3, "median_ft": 0.0, "left_sw_ft": 15.0, "right_sw_ft": 15.0}, "geometry": {"type": "LineString", "coordinates": [[-74.23270878438359, 40.55031573271943], [-74.23308871627509, 40.55015920833884]]}}, {"type": "Feature", "properties": {"segment_id": 1647523, "physicalid": "163796", "street_name": "INDUSTRIAL LOOP", "borough": "staten_island", "direction": "FT", "total_row_ft": 63.3, "roadbed_ft": 33.3, "median_ft": 0.0, "left_sw_ft": 15.0, "right_sw_ft": 15.0}, "geometry": {"type": "LineString", "coordinates": [[-74.23267458465881, 40.55026743110634], [-74.23305451635575, 40.55011090683823]]}}, {"type": "Feature", "properties": {"segment_id": 1647524, "physicalid": "163796", "street_name": "INDUSTRIAL LOOP", "borough": "staten_island", "direction": "FT", "total_row_ft": 63.6, "roadbed_ft": 33.6, "median_ft": 0.0, "left_sw_ft": 15.0, "right_sw_ft": 15.0}, "geometry": {"type": "LineString", "coordinates": [[-74.23264038498344, 40.550219129482834], [-74.23302031648589, 40.55006260532728]]}}, {"type": "Feature", "properties": {"segment_id": 1647525, "physicalid": "163796", "street_name": "INDUSTRIAL LOOP", "borough": "staten_island", "direction": "FT", "total_row_ft": 63.7, "roadbed_ft": 33.7, "median_ft": 0.0, "left_sw_ft": 15.0, "right_sw_ft": 15.0}, "geometry": {"type": "LineString", "coordinates": [[-74.23260618535757, 40.55017082784898], [-74.23298611666543, 40.550014303805895]]}}, {"type": "Feature", "properties": {"segment_id": 1647526, "physicalid": "163796", "street_name": "INDUSTRIAL LOOP", "borough": "staten_island", "direction": "FT", "total_row_ft": 63.7, "roadbed_ft": 33.7, "median_ft": 0.0, "left_sw_ft": 15.0, "right_sw_ft": 15.0}, "geometry": {"type": "LineString", "coordinates": [[-74.23257198578108, 40.5501225262047], [-74.23295191689446, 40.54996600227419]]}}, {"type": "Feature", "properties": {"segment_id": 1713108, "physicalid": "180690", "street_name": "JOHNSON ST", "borough": "staten_island", "direction": "TW", "total_row_ft": 30.0, "roadbed_ft": 0.0, "median_ft": 0.0, "left_sw_ft": 15.0, "right_sw_ft": 15.0}, "geometry": {"type": "LineString", "coordinates": [[-74.23459986351743, 40.54994649892313], [-74.23423313178797, 40.55012037874813]]}}, {"type": "Feature", "properties": {"segment_id": 1713109, "physicalid": "180690", "street_name": "JOHNSON ST", "borough": "staten_island", "direction": "TW", "total_row_ft": 30.0, "roadbed_ft": 0.0, "median_ft": 0.0, "left_sw_ft": 15.0, "right_sw_ft": 15.0}, "geometry": {"type": "LineString", "coordinates": [[-74.2346378554362, 40.549993122386496], [-74.23427112354972, 40.55016700233216]]}}, {"type": "Feature", "properties": {"segment_id": 1713110, "physicalid": "180690", "street_name": "JOHNSON ST", "borough": "staten_island", "direction": "TW", "total_row_ft": 30.0, "roadbed_ft": 0.0, "median_ft": 0.0, "left_sw_ft": 15.0, "right_sw_ft": 15.0}, "geometry": {"type": "LineString", "coordinates": [[-74.23467584740798, 40.55003974583712], [-74.23430911536447, 40.550213625903424]]}}, {"type": "Feature", "properties": {"segment_id": 1713111, "physicalid": "180690", "street_name": "JOHNSON ST", "borough": "staten_island", "direction": "TW", "total_row_ft": 30.0, "roadbed_ft": 0.0, "median_ft": 0.0, "left_sw_ft": 15.0, "right_sw_ft": 15.0}, "geometry": {"type": "LineString", "coordinates": [[-74.23471383943279, 40.55008636927497], [-74.23434710723225, 40.55026024946194]]}}, {"type": "Feature", "properties": {"segment_id": 1713112, "physicalid": "180690", "street_name": "JOHNSON ST", "borough": "staten_island", "direction": "TW", "total_row_ft": 30.0, "roadbed_ft": 0.0, "median_ft": 0.0, "left_sw_ft": 15.0, "right_sw_ft": 15.0}, "geometry": {"type": "LineString", "coordinates": [[-74.23475183151061, 40.550132992700085], [-74.23438509915306, 40.55030687300772]]}}, {"type": "Feature", "properties": {"segment_id": 1713113, "physicalid": "180690", "street_name": "JOHNSON ST", "borough": "staten_island", "direction": "TW", "total_row_ft": 30.0, "roadbed_ft": 0.0, "median_ft": 0.0, "left_sw_ft": 15.0, "right_sw_ft": 15.0}, "geometry": {"type": "LineString", "coordinates": [[-74.23478982364146, 40.55017961611246], [-74.23442309112687, 40.550353496540744]]}}, {"type": "Feature", "properties": {"segment_id": 1713114, "physicalid": "180690", "street_name": "JOHNSON ST", "borough": "staten_island", "direction": "TW", "total_row_ft": 30.0, "roadbed_ft": 0.0, "median_ft": 0.0, "left_sw_ft": 15.0, "right_sw_ft": 15.0}, "geometry": {"type": "LineString", "coordinates": [[-74.2348278158253, 40.55022623951206], [-74.23446108315373, 40.55040012006105]]}}, {"type": "Feature", "properties": {"segment_id": 1713115, "physicalid": "180690", "street_name": "JOHNSON ST", "borough": "staten_island", "direction": "TW", "total_row_ft": 30.0, "roadbed_ft": 0.0, "median_ft": 0.0, "left_sw_ft": 15.0, "right_sw_ft": 15.0}, "geometry": {"type": "LineString", "coordinates": [[-74.23486580806221, 40.55027286289896], [-74.23449907523356, 40.55044674356853]]}}, {"type": "Feature", "properties": {"segment_id": 1713116, "physicalid": "180690", "street_name": "JOHNSON ST", "borough": "staten_island", "direction": "TW", "total_row_ft": 30.0, "roadbed_ft": 0.0, "median_ft": 0.0, "left_sw_ft": 15.0, "right_sw_ft": 15.0}, "geometry": {"type": "LineString", "coordinates": [[-74.2349038003521, 40.550319486273075], [-74.23453706736645, 40.55049336706332]]}}, {"type": "Feature", "properties": {"segment_id": 1713117, "physicalid": "180690", "street_name": "JOHNSON ST", "borough": "staten_island", "direction": "TW", "total_row_ft": 30.0, "roadbed_ft": 0.0, "median_ft": 0.0, "left_sw_ft": 15.0, "right_sw_ft": 15.0}, "geometry": {"type": "LineString", "coordinates": [[-74.23494179269503, 40.55036610963446], [-74.23457505955234, 40.55053999054534]]}}, {"type": "Feature", "properties": {"segment_id": 1713118, "physicalid": "180690", "street_name": "JOHNSON ST", "borough": "staten_island", "direction": "TW", "total_row_ft": 30.0, "roadbed_ft": 0.0, "median_ft": 0.0, "left_sw_ft": 15.0, "right_sw_ft": 15.0}, "geometry": {"type": "LineString", "coordinates": [[-74.23497978509094, 40.55041273298304], [-74.23461305179127, 40.55058661401466]]}}, {"type": "Feature", "properties": {"segment_id": 1713119, "physicalid": "180690", "street_name": "JOHNSON ST", "borough": "staten_island", "direction": "TW", "total_row_ft": 30.0, "roadbed_ft": 0.0, "median_ft": 0.0, "left_sw_ft": 15.0, "right_sw_ft": 15.0}, "geometry": {"type": "LineString", "coordinates": [[-74.23501777753991, 40.55045935631895], [-74.23465104408317, 40.55063323747116]]}}, {"type": "Feature", "properties": {"segment_id": 1713120, "physicalid": "180690", "street_name": "JOHNSON ST", "borough": "staten_island", "direction": "TW", "total_row_ft": 30.0, "roadbed_ft": 0.0, "median_ft": 0.0, "left_sw_ft": 15.0, "right_sw_ft": 15.0}, "geometry": {"type": "LineString", "coordinates": [[-74.2350557700419, 40.55050597964206], [-74.23468903642814, 40.55067986091493]]}}, {"type": "Feature", "properties": {"segment_id": 1713121, "physicalid": "180690", "street_name": "JOHNSON ST", "borough": "staten_island", "direction": "TW", "total_row_ft": 30.0, "roadbed_ft": 0.0, "median_ft": 0.0, "left_sw_ft": 15.0, "right_sw_ft": 15.0}, "geometry": {"type": "LineString", "coordinates": [[-74.23509376259689, 40.550552602952436], [-74.2347270288261, 40.55072648434596]]}}, {"type": "Feature", "properties": {"segment_id": 1713122, "physicalid": "180690", "street_name": "JOHNSON ST", "borough": "staten_island", "direction": "TW", "total_row_ft": 30.0, "roadbed_ft": 0.0, "median_ft": 0.0, "left_sw_ft": 15.0, "right_sw_ft": 15.0}, "geometry": {"type": "LineString", "coordinates": [[-74.23513175520488, 40.55059922625002], [-74.23476502127711, 40.55077310776427]]}}, {"type": "Feature", "properties": {"segment_id": 1713123, "physicalid": "180690", "street_name": "JOHNSON ST", "borough": "staten_island", "direction": "TW", "total_row_ft": 30.0, "roadbed_ft": 0.0, "median_ft": 0.0, "left_sw_ft": 15.0, "right_sw_ft": 15.0}, "geometry": {"type": "LineString", "coordinates": [[-74.23516974786595, 40.55064584953494], [-74.2348030137811, 40.550819731169774]]}}, {"type": "Feature", "properties": {"segment_id": 1713124, "physicalid": "180690", "street_name": "JOHNSON ST", "borough": "staten_island", "direction": "TW", "total_row_ft": 30.0, "roadbed_ft": 0.0, "median_ft": 0.0, "left_sw_ft": 15.0, "right_sw_ft": 15.0}, "geometry": {"type": "LineString", "coordinates": [[-74.23520774058, 40.550692472807064], [-74.23484100633813, 40.55086635456255]]}}, {"type": "Feature", "properties": {"segment_id": 1713125, "physicalid": "180690", "street_name": "JOHNSON ST", "borough": "staten_island", "direction": "TW", "total_row_ft": 30.0, "roadbed_ft": 0.0, "median_ft": 0.0, "left_sw_ft": 15.0, "right_sw_ft": 15.0}, "geometry": {"type": "LineString", "coordinates": [[-74.23524573334709, 40.55073909606643], [-74.23487899894819, 40.55091297794259]]}}, {"type": "Feature", "properties": {"segment_id": 1713126, "physicalid": "180690", "street_name": "JOHNSON ST", "borough": "staten_island", "direction": "TW", "total_row_ft": 30.0, "roadbed_ft": 0.0, "median_ft": 0.0, "left_sw_ft": 15.0, "right_sw_ft": 15.0}, "geometry": {"type": "LineString", "coordinates": [[-74.23528372616717, 40.550785719313076], [-74.23491699161126, 40.55095960130988]]}}, {"type": "Feature", "properties": {"segment_id": 1713127, "physicalid": "180690", "street_name": "JOHNSON ST", "borough": "staten_island", "direction": "TW", "total_row_ft": 30.0, "roadbed_ft": 0.0, "median_ft": 0.0, "left_sw_ft": 15.0, "right_sw_ft": 15.0}, "geometry": {"type": "LineString", "coordinates": [[-74.2353217190403, 40.55083234254695], [-74.23495498432735, 40.5510062246644]]}}, {"type": "Feature", "properties": {"segment_id": 1713128, "physicalid": "180690", "street_name": "JOHNSON ST", "borough": "staten_island", "direction": "TW", "total_row_ft": 30.0, "roadbed_ft": 0.0, "median_ft": 0.0, "left_sw_ft": 15.0, "right_sw_ft": 15.0}, "geometry": {"type": "LineString", "coordinates": [[-74.23535971196644, 40.550878965768085], [-74.23499297709645, 40.55105284800618]]}}, {"type": "Feature", "properties": {"segment_id": 1713129, "physicalid": "180690", "street_name": "JOHNSON ST", "borough": "staten_island", "direction": "TW", "total_row_ft": 30.0, "roadbed_ft": 0.0, "median_ft": 0.0, "left_sw_ft": 15.0, "right_sw_ft": 15.0}, "geometry": {"type": "LineString", "coordinates": [[-74.23539770494558, 40.55092558897644], [-74.23503096991858, 40.55109947133521]]}}, {"type": "Feature", "properties": {"segment_id": 1713130, "physicalid": "180690", "street_name": "JOHNSON ST", "borough": "staten_island", "direction": "TW", "total_row_ft": 30.0, "roadbed_ft": 0.0, "median_ft": 0.0, "left_sw_ft": 15.0, "right_sw_ft": 15.0}, "geometry": {"type": "LineString", "coordinates": [[-74.23543569797776, 40.550972212172084], [-74.23506896279373, 40.55114609465149]]}}, {"type": "Feature", "properties": {"segment_id": 1713131, "physicalid": "180690", "street_name": "JOHNSON ST", "borough": "staten_island", "direction": "TW", "total_row_ft": 30.0, "roadbed_ft": 0.0, "median_ft": 0.0, "left_sw_ft": 15.0, "right_sw_ft": 15.0}, "geometry": {"type": "LineString", "coordinates": [[-74.23547369106296, 40.55101883535495], [-74.23510695572192, 40.55119271795502]]}}, {"type": "Feature", "properties": {"segment_id": 1713132, "physicalid": "180690", "street_name": "JOHNSON ST", "borough": "staten_island", "direction": "TW", "total_row_ft": 30.0, "roadbed_ft": 0.0, "median_ft": 0.0, "left_sw_ft": 15.0, "right_sw_ft": 15.0}, "geometry": {"type": "LineString", "coordinates": [[-74.23551168420119, 40.55106545852508], [-74.23514494870311, 40.551239341245804]]}}, {"type": "Feature", "properties": {"segment_id": 1713133, "physicalid": "180690", "street_name": "JOHNSON ST", "borough": "staten_island", "direction": "TW", "total_row_ft": 30.0, "roadbed_ft": 0.0, "median_ft": 0.0, "left_sw_ft": 15.0, "right_sw_ft": 15.0}, "geometry": {"type": "LineString", "coordinates": [[-74.23554967739241, 40.55111208168244], [-74.23518294173732, 40.551285964523835]]}}, {"type": "Feature", "properties": {"segment_id": 1713134, "physicalid": "180690", "street_name": "JOHNSON ST", "borough": "staten_island", "direction": "TW", "total_row_ft": 30.0, "roadbed_ft": 0.0, "median_ft": 0.0, "left_sw_ft": 15.0, "right_sw_ft": 15.0}, "geometry": {"type": "LineString", "coordinates": [[-74.23558767063668, 40.551158704827074], [-74.23522093482455, 40.551332587789126]]}}, {"type": "Feature", "properties": {"segment_id": 1713135, "physicalid": "180690", "street_name": "JOHNSON ST", "borough": "staten_island", "direction": "TW", "total_row_ft": 30.0, "roadbed_ft": 0.0, "median_ft": 0.0, "left_sw_ft": 15.0, "right_sw_ft": 15.0}, "geometry": {"type": "LineString", "coordinates": [[-74.23562566393396, 40.55120532795894], [-74.23525892796481, 40.55137921104164]]}}, {"type": "Feature", "properties": {"segment_id": 1713136, "physicalid": "180690", "street_name": "JOHNSON ST", "borough": "staten_island", "direction": "TW", "total_row_ft": 30.0, "roadbed_ft": 0.0, "median_ft": 0.0, "left_sw_ft": 15.0, "right_sw_ft": 15.0}, "geometry": {"type": "LineString", "coordinates": [[-74.23566365728428, 40.55125195107807], [-74.23529692115808, 40.55142583428143]]}}, {"type": "Feature", "properties": {"segment_id": 1713137, "physicalid": "180690", "street_name": "JOHNSON ST", "borough": "staten_island", "direction": "TW", "total_row_ft": 30.0, "roadbed_ft": 0.0, "median_ft": 0.0, "left_sw_ft": 15.0, "right_sw_ft": 15.0}, "geometry": {"type": "LineString", "coordinates": [[-74.2357016506876, 40.551298574184436], [-74.23533491440439, 40.55147245750845]]}}, {"type": "Feature", "properties": {"segment_id": 1713138, "physicalid": "180690", "street_name": "JOHNSON ST", "borough": "staten_island", "direction": "TW", "total_row_ft": 30.0, "roadbed_ft": 0.0, "median_ft": 0.0, "left_sw_ft": 15.0, "right_sw_ft": 15.0}, "geometry": {"type": "LineString", "coordinates": [[-74.23573964414393, 40.551345197278046], [-74.2353729077037, 40.55151908072272]]}}, {"type": "Feature", "properties": {"segment_id": 1713139, "physicalid": "180690", "street_name": "JOHNSON ST", "borough": "staten_island", "direction": "TW", "total_row_ft": 30.0, "roadbed_ft": 0.0, "median_ft": 0.0, "left_sw_ft": 15.0, "right_sw_ft": 15.0}, "geometry": {"type": "LineString", "coordinates": [[-74.2357776376533, 40.551391820358916], [-74.23541090105606, 40.55156570392427]]}}, {"type": "Feature", "properties": {"segment_id": 1713140, "physicalid": "180690", "street_name": "JOHNSON ST", "borough": "staten_island", "direction": "TW", "total_row_ft": 30.0, "roadbed_ft": 0.0, "median_ft": 0.0, "left_sw_ft": 15.0, "right_sw_ft": 15.0}, "geometry": {"type": "LineString", "coordinates": [[-74.23581563121569, 40.55143844342706], [-74.23544889446141, 40.55161232711302]]}}, {"type": "Feature", "properties": {"segment_id": 1713141, "physicalid": "180690", "street_name": "JOHNSON ST", "borough": "staten_island", "direction": "TW", "total_row_ft": 30.0, "roadbed_ft": 0.0, "median_ft": 0.0, "left_sw_ft": 15.0, "right_sw_ft": 15.0}, "geometry": {"type": "LineString", "coordinates": [[-74.2358536248311, 40.55148506648243], [-74.23548688791979, 40.55165895028905]]}}, {"type": "Feature", "properties": {"segment_id": 1713142, "physicalid": "180690", "street_name": "JOHNSON ST", "borough": "staten_island", "direction": "TW", "total_row_ft": 30.0, "roadbed_ft": 0.0, "median_ft": 0.0, "left_sw_ft": 15.0, "right_sw_ft": 15.0}, "geometry": {"type": "LineString", "coordinates": [[-74.23589161849954, 40.551531689525035], [-74.2355248814312, 40.551705573452324]]}}, {"type": "Feature", "properties": {"segment_id": 1713143, "physicalid": "180690", "street_name": "JOHNSON ST", "borough": "staten_island", "direction": "TW", "total_row_ft": 30.0, "roadbed_ft": 0.0, "median_ft": 0.0, "left_sw_ft": 15.0, "right_sw_ft": 15.0}, "geometry": {"type": "LineString", "coordinates": [[-74.23592961222099, 40.551578312554916], [-74.23556287499562, 40.55175219660286]]}}, {"type": "Feature", "properties": {"segment_id": 1713144, "physicalid": "180690", "street_name": "JOHNSON ST", "borough": "staten_island", "direction": "TW", "total_row_ft": 30.0, "roadbed_ft": 0.0, "median_ft": 0.0, "left_sw_ft": 15.0, "right_sw_ft": 15.0}, "geometry": {"type": "LineString", "coordinates": [[-74.23596760599546, 40.55162493557203], [-74.23560086861308, 40.55179881974063]]}}, {"type": "Feature", "properties": {"segment_id": 1713145, "physicalid": "180690", "street_name": "JOHNSON ST", "borough": "staten_island", "direction": "TW", "total_row_ft": 30.0, "roadbed_ft": 0.0, "median_ft": 0.0, "left_sw_ft": 15.0, "right_sw_ft": 15.0}, "geometry": {"type": "LineString", "coordinates": [[-74.23600559982295, 40.551671558576395], [-74.23563886228355, 40.551845442865655]]}}, {"type": "Feature", "properties": {"segment_id": 1713146, "physicalid": "180690", "street_name": "JOHNSON ST", "borough": "staten_island", "direction": "TW", "total_row_ft": 30.0, "roadbed_ft": 0.0, "median_ft": 0.0, "left_sw_ft": 15.0, "right_sw_ft": 15.0}, "geometry": {"type": "LineString", "coordinates": [[-74.23604359370347, 40.55171818156802], [-74.23567685600705, 40.55189206597794]]}}, {"type": "Feature", "properties": {"segment_id": 1713147, "physicalid": "180690", "street_name": "JOHNSON ST", "borough": "staten_island", "direction": "TW", "total_row_ft": 30.0, "roadbed_ft": 0.0, "median_ft": 0.0, "left_sw_ft": 15.0, "right_sw_ft": 15.0}, "geometry": {"type": "LineString", "coordinates": [[-74.236081587637, 40.551764804546885], [-74.23571484978356, 40.55193868907747]]}}]}