{"type": "FeatureCollection", "features": [{"type": "Feature", "properties": {"segment_id": 194075, "physicalid": "15213", "street_name": "MANHATTAN ST", "borough": "staten_island", "direction": "TW", "total_row_ft": 57.3, "roadbed_ft": 31.8, "median_ft": 0.0, "left_sw_ft": 15.0, "right_sw_ft": 10.5}, "geometry": {"type": "LineString", "coordinates": [[-74.2407102034084, 40.49998446986541], [-74.24101157418521, 40.499924052954825]]}}, {"type": "Feature", "properties": {"segment_id": 194076, "physicalid": "15213", "street_name": "MANHATTAN ST", "borough": "staten_island", "direction": "TW", "total_row_ft": 57.4, "roadbed_ft": 32.0, "median_ft": 0.0, "left_sw_ft": 15.0, "right_sw_ft": 10.4}, "geometry": {"type": "LineString", "coordinates": [[-74.24069193729487, 40.49993137386283], [-74.24099332905742, 40.499870952748225]]}}, {"type": "Feature", "properties": {"segment_id": 194077, "physicalid": "15213", "street_name": "MANHATTAN ST", "borough": "staten_island", "direction": "TW", "total_row_ft": 53.1, "roadbed_ft": 32.1, "median_ft": 0.0, "left_sw_ft": 10.2, "right_sw_ft": 10.8}, "geometry": {"type": "LineString", "coordinates": [[-74.2407915857457, 40.49985463920529], [-74.24097614101787, 40.49981764062441]]}}, {"type": "Feature", "properties": {"segment_id": 194078, "physicalid": "15213", "street_name": "MANHATTAN ST", "borough": "staten_island", "direction": "TW", "total_row_ft": 53.6, "roadbed_ft": 31.7, "median_ft": 0.0, "left_sw_ft": 10.1, "right_sw_ft": 11.8}, "geometry": {"type": "LineString", "coordinates": [[-74.24077276587983, 40.49980165422194], [-74.24095914748807, 40.4997642895089]]}}, {"type": "Feature", "properties": {"segment_id": 194079, "physicalid": "15213", "street_name": "MANHATTAN ST", "borough": "staten_island", "direction": "TW", "total_row_ft": 62.2, "roadbed_ft": 33.5, "median_ft": 0.0, "left_sw_ft": 16.0, "right_sw_ft": 12.7}, "geometry": {"type": "LineString", "coordinates": [[-74.24073015575736, 40.49975343854993], [-74.24094644984604, 40.49971007717721]]}}, {"type": "Feature", "properties": {"segment_id": 194080, "physicalid": "15214", "street_name": "MANHATTAN ST", "borough": "staten_island", "direction": "TW", "total_row_ft": 150.0, "roadbed_ft": 120.0, "median_ft": 0.0, "left_sw_ft": 15.0, "right_sw_ft": 15.0}, "geometry": {"type": "LineString", "coordinates": [[-74.24059895635712, 40.49966141493714], [-74.24101606487193, 40.49957712101802]]}}, {"type": "Feature", "properties": {"segment_id": 194081, "physicalid": "15214", "street_name": "MANHATTAN ST", "borough": "staten_island", "direction": "TW", "total_row_ft": 55.7, "roadbed_ft": 30.7, "median_ft": 0.0, "left_sw_ft": 12.3, "right_sw_ft": 12.7}, "geometry": {"type": "LineString", "coordinates": [[-74.2406937966454, 40.49958546121463], [-74.24088748981464, 40.4995463175478]]}}, {"type": "Feature", "properties": {"segment_id": 194082, "physicalid": "15214", "street_name": "MANHATTAN ST", "borough": "staten_island", "direction": "TW", "total_row_ft": 55.1, "roadbed_ft": 30.6, "median_ft": 0.0, "left_sw_ft": 11.6, "right_sw_ft": 12.9}, "geometry": {"type": "LineString", "coordinates": [[-74.24067848084428, 40.499531768892226], [-74.24086991368351, 40.49949308201627]]}}, {"type": "Feature", "properties": {"segment_id": 194083, "physicalid": "15214", "street_name": "MANHATTAN ST", "borough": "staten_island", "direction": "TW", "total_row_ft": 54.4, "roadbed_ft": 30.4, "median_ft": 0.0, "left_sw_ft": 10.8, "right_sw_ft": 13.2}, "geometry": {"type": "LineString", "coordinates": [[-74.24066316474031, 40.49947807663376], [-74.24085233758038, 40.49943984648188]]}}, {"type": "Feature", "properties": {"segment_id": 194084, "physicalid": "15214", "street_name": "MANHATTAN ST", "borough": "staten_island", "direction": "TW", "total_row_ft": 53.9, "roadbed_ft": 30.2, "median_ft": 0.0, "left_sw_ft": 10.2, "right_sw_ft": 13.5}, "geometry": {"type": "LineString", "coordinates": [[-74.24064729644914, 40.499424495969656], [-74.24083476150524, 40.49938661094461]]}}, {"type": "Feature", "properties": {"segment_id": 194085, "physicalid": "15214", "street_name": "MANHATTAN ST", "borough": "staten_island", "direction": "TW", "total_row_ft": 53.4, "roadbed_ft": 30.0, "median_ft": 0.0, "left_sw_ft": 9.7, "right_sw_ft": 13.7}, "geometry": {"type": "LineString", "coordinates": [[-74.24063122819783, 40.49937095571829], [-74.2408168565717, 40.49933344186974]]}}, {"type": "Feature", "properties": {"segment_id": 194086, "physicalid": "15214", "street_name": "MANHATTAN ST", "borough": "staten_island", "direction": "TW", "total_row_ft": 52.6, "roadbed_ft": 29.8, "median_ft": 0.0, "left_sw_ft": 9.2, "right_sw_ft": 13.7}, "geometry": {"type": "LineString", "coordinates": [[-74.24061515997226, 40.49931741546447], [-74.24079816190594, 40.49928043239629]]}}, {"type": "Feature", "properties": {"segment_id": 194087, "physicalid": "15214", "street_name": "MANHATTAN ST", "borough": "staten_island", "direction": "TW", "total_row_ft": 51.9, "roadbed_ft": 29.6, "median_ft": 0.0, "left_sw_ft": 8.7, "right_sw_ft": 13.7}, "geometry": {"type": "LineString", "coordinates": [[-74.24059909177242, 40.499263875208214], [-74.24077946726983, 40.49922742291957]]}}, {"type": "Feature", "properties": {"segment_id": 194088, "physicalid": "15214", "street_name": "MANHATTAN ST", "borough": "staten_island", "direction": "TW", "total_row_ft": 51.1, "roadbed_ft": 29.4, "median_ft": 0.0, "left_sw_ft": 8.1, "right_sw_ft": 13.6}, "geometry": {"type": "LineString", "coordinates": [[-74.24058302359833, 40.49921033494951], [-74.24076077266336, 40.49917441343962]]}}, {"type": "Feature", "properties": {"segment_id": 194089, "physicalid": "15214", "street_name": "MANHATTAN ST", "borough": "staten_island", "direction": "TW", "total_row_ft": 50.4, "roadbed_ft": 29.2, "median_ft": 0.0, "left_sw_ft": 7.6, "right_sw_ft": 13.6}, "geometry": {"type": "LineString", "coordinates": [[-74.24056695544995, 40.49915679468834], [-74.24074207808653, 40.49912140395643]]}}, {"type": "Feature", "properties": {"segment_id": 194090, "physicalid": "15214", "street_name": "MANHATTAN ST", "borough": "staten_island", "direction": "TW", "total_row_ft": 51.2, "roadbed_ft": 29.0, "median_ft": 0.0, "left_sw_ft": 8.1, "right_sw_ft": 14.1}, "geometry": {"type": "LineString", "coordinates": [[-74.24054747816822, 40.4991039433826], [-74.24072539970052, 40.499067987019984]]}}, {"type": "Feature", "properties": {"segment_id": 194091, "physicalid": "15214", "street_name": "MANHATTAN ST", "borough": "staten_island", "direction": "TW", "total_row_ft": 50.7, "roadbed_ft": 28.8, "median_ft": 0.0, "left_sw_ft": 8.9, "right_sw_ft": 13.0}, "geometry": {"type": "LineString", "coordinates": [[-74.24052678249326, 40.49905133830494], [-74.24070286593498, 40.499015753411584]]}}, {"type": "Feature", "properties": {"segment_id": 194092, "physicalid": "15214", "street_name": "MANHATTAN ST", "borough": "staten_island", "direction": "TW", "total_row_ft": 46.8, "roadbed_ft": 28.8, "median_ft": 0.0, "left_sw_ft": 9.7, "right_sw_ft": 8.4}, "geometry": {"type": "LineString", "coordinates": [[-74.24050608685423, 40.49899873322267], [-74.2406689230268, 40.4989658255004]]}}, {"type": "Feature", "properties": {"segment_id": 194093, "physicalid": "15214", "street_name": "MANHATTAN ST", "borough": "staten_island", "direction": "TW", "total_row_ft": 47.5, "roadbed_ft": 28.9, "median_ft": 0.0, "left_sw_ft": 10.3, "right_sw_ft": 8.3}, "geometry": {"type": "LineString", "coordinates": [[-74.24048539124774, 40.498946128136495], [-74.24065045581217, 40.498912770079976]]}}, {"type": "Feature", "properties": {"segment_id": 194094, "physicalid": "15214", "street_name": "MANHATTAN ST", "borough": "staten_island", "direction": "TW", "total_row_ft": 48.1, "roadbed_ft": 29.1, "median_ft": 0.0, "left_sw_ft": 10.8, "right_sw_ft": 8.3}, "geometry": {"type": "LineString", "coordinates": [[-74.24046469567381, 40.498893523046355], [-74.24063198862684, 40.498859714656405]]}}, {"type": "Feature", "properties": {"segment_id": 194095, "physicalid": "15214", "street_name": "MANHATTAN ST", "borough": "staten_island", "direction": "TW", "total_row_ft": 48.4, "roadbed_ft": 29.2, "median_ft": 0.0, "left_sw_ft": 11.0, "right_sw_ft": 8.2}, "geometry": {"type": "LineString", "coordinates": [[-74.24044537456182, 40.49884064019381], [-74.2406135572648, 40.49880665199597]]}}, {"type": "Feature", "properties": {"segment_id": 194096, "physicalid": "15214", "street_name": "MANHATTAN ST", "borough": "staten_island", "direction": "TW", "total_row_ft": 48.7, "roadbed_ft": 29.4, "median_ft": 0.0, "left_sw_ft": 11.1, "right_sw_ft": 8.2}, "geometry": {"type": "LineString", "coordinates": [[-74.24042607955376, 40.498787752068615], [-74.24059536320529, 40.49875354138145]]}}, {"type": "Feature", "properties": {"segment_id": 194097, "physicalid": "15214", "street_name": "MANHATTAN ST", "borough": "staten_island", "direction": "TW", "total_row_ft": 49.0, "roadbed_ft": 29.6, "median_ft": 0.0, "left_sw_ft": 11.3, "right_sw_ft": 8.2}, "geometry": {"type": "LineString", "coordinates": [[-74.24040678430362, 40.4987348639951], [-74.24057716917468, 40.49870043076383]]}}, {"type": "Feature", "properties": {"segment_id": 194098, "physicalid": "15214", "street_name": "MANHATTAN ST", "borough": "staten_island", "direction": "TW", "total_row_ft": 49.3, "roadbed_ft": 29.7, "median_ft": 0.0, "left_sw_ft": 11.4, "right_sw_ft": 8.2}, "geometry": {"type": "LineString", "coordinates": [[-74.24038748896692, 40.4986819759418], [-74.24055897528883, 40.49864732011973]]}}, {"type": "Feature", "properties": {"segment_id": 194099, "physicalid": "15214", "street_name": "MANHATTAN ST", "borough": "staten_island", "direction": "TW", "total_row_ft": 49.6, "roadbed_ft": 29.9, "median_ft": 0.0, "left_sw_ft": 11.6, "right_sw_ft": 8.2}, "geometry": {"type": "LineString", "coordinates": [[-74.24036828732099, 40.498629068957264], [-74.24054078143396, 40.49859420947215]]}}, {"type": "Feature", "properties": {"segment_id": 194100, "physicalid": "15214", "street_name": "MANHATTAN ST", "borough": "staten_island", "direction": "TW", "total_row_ft": 49.6, "roadbed_ft": 30.1, "median_ft": 0.0, "left_sw_ft": 11.4, "right_sw_ft": 8.2}, "geometry": {"type": "LineString", "coordinates": [[-74.24035024116556, 40.4985759284624], [-74.240522587608, 40.49854109882148]]}}, {"type": "Feature", "properties": {"segment_id": 194101, "physicalid": "15214", "street_name": "MANHATTAN ST", "borough": "staten_island", "direction": "TW", "total_row_ft": 49.4, "roadbed_ft": 30.2, "median_ft": 0.0, "left_sw_ft": 11.1, "right_sw_ft": 8.1}, "geometry": {"type": "LineString", "coordinates": [[-74.24033219503883, 40.498522787964504], [-74.24050402893504, 40.49848806190612]]}}, {"type": "Feature", "properties": {"segment_id": 194102, "physicalid": "15214", "street_name": "MANHATTAN ST", "borough": "staten_island", "direction": "TW", "total_row_ft": 49.3, "roadbed_ft": 30.5, "median_ft": 0.0, "left_sw_ft": 10.6, "right_sw_ft": 8.1}, "geometry": {"type": "LineString", "coordinates": [[-74.24031414898316, 40.49846964745504], [-74.24048540403976, 40.49843503837651]]}}, {"type": "Feature", "properties": {"segment_id": 204500, "physicalid": "15869", "street_name": "SWINNERTON ST", "borough": "staten_island", "direction": "TW", "total_row_ft": 55.1, "roadbed_ft": 29.9, "median_ft": 0.0, "left_sw_ft": 10.2, "right_sw_ft": 15.0}, "geometry": {"type": "LineString", "coordinates": [[-74.24462418877867, 40.50001003720004], [-74.24493025016525, 40.49994928519258]]}}, {"type": "Feature", "properties": {"segment_id": 204501, "physicalid": "15869", "street_name": "SWINNERTON ST", "borough": "staten_island", "direction": "TW", "total_row_ft": 55.9, "roadbed_ft": 33.4, "median_ft": 0.0, "left_sw_ft": 10.2, "right_sw_ft": 12.3}, "geometry": {"type": "LineString", "coordinates": [[-74.24460593285151, 40.49995693900744], [-74.24480049017609, 40.49991832023682]]}}, {"type": "Feature", "properties": {"segment_id": 204502, "physicalid": "15869", "street_name": "SWINNERTON ST", "borough": "staten_island", "direction": "TW", "total_row_ft": 55.9, "roadbed_ft": 33.2, "median_ft": 0.0, "left_sw_ft": 10.3, "right_sw_ft": 12.4}, "geometry": {"type": "LineString", "coordinates": [[-74.24458767695336, 40.49990384081179], [-74.24478212180115, 40.49986524436963]]}}, {"type": "Feature", "properties": {"segment_id": 204503, "physicalid": "15869", "street_name": "SWINNERTON ST", "borough": "staten_island", "direction": "TW", "total_row_ft": 55.8, "roadbed_ft": 33.1, "median_ft": 0.0, "left_sw_ft": 10.2, "right_sw_ft": 12.5}, "geometry": {"type": "LineString", "coordinates": [[-74.2445694210842, 40.49985074261301], [-74.24476375345539, 40.4998121684993]]}}, {"type": "Feature", "properties": {"segment_id": 204504, "physicalid": "15869", "street_name": "SWINNERTON ST", "borough": "staten_island", "direction": "TW", "total_row_ft": 55.8, "roadbed_ft": 29.7, "median_ft": 0.0, "left_sw_ft": 10.2, "right_sw_ft": 15.9}, "geometry": {"type": "LineString", "coordinates": [[-74.24455116524402, 40.49979764441114], [-74.24474538513877, 40.49975909262589]]}}, {"type": "Feature", "properties": {"segment_id": 204505, "physicalid": "15869", "street_name": "SWINNERTON ST", "borough": "staten_island", "direction": "TW", "total_row_ft": 55.8, "roadbed_ft": 33.7, "median_ft": 0.0, "left_sw_ft": 10.1, "right_sw_ft": 11.9}, "geometry": {"type": "LineString", "coordinates": [[-74.24453290943285, 40.499744546206216], [-74.24472701789823, 40.49970601654149]]}}, {"type": "Feature", "properties": {"segment_id": 204506, "physicalid": "15869", "street_name": "SWINNERTON ST", "borough": "staten_island", "direction": "TW", "total_row_ft": 55.8, "roadbed_ft": 33.8, "median_ft": 0.0, "left_sw_ft": 10.1, "right_sw_ft": 11.9}, "geometry": {"type": "LineString", "coordinates": [[-74.24451465365067, 40.49969144799815], [-74.24470873724073, 40.499652923273345]]}}, {"type": "Feature", "properties": {"segment_id": 204507, "physicalid": "15869", "street_name": "SWINNERTON ST", "borough": "staten_island", "direction": "TW", "total_row_ft": 77.6, "roadbed_ft": 33.8, "median_ft": 0.0, "left_sw_ft": 10.0, "right_sw_ft": 33.9}, "geometry": {"type": "LineString", "coordinates": [[-74.2444966402819, 40.49963830167501], [-74.2447947709432, 40.49957912392104]]}}, {"type": "Feature", "properties": {"segment_id": 204508, "physicalid": "15869", "street_name": "SWINNERTON ST", "borough": "staten_island", "direction": "TW", "total_row_ft": 55.6, "roadbed_ft": 33.8, "median_ft": 0.0, "left_sw_ft": 9.8, "right_sw_ft": 12.0}, "geometry": {"type": "LineString", "coordinates": [[-74.24447865563995, 40.49958514965243], [-74.24467217596936, 40.49954673673636]]}}, {"type": "Feature", "properties": {"segment_id": 204509, "physicalid": "15869", "street_name": "SWINNERTON ST", "borough": "staten_island", "direction": "TW", "total_row_ft": 55.5, "roadbed_ft": 33.7, "median_ft": 0.0, "left_sw_ft": 9.8, "right_sw_ft": 12.0}, "geometry": {"type": "LineString", "coordinates": [[-74.24446067101182, 40.499531997629774], [-74.24465389555263, 40.4994936434284]]}}, {"type": "Feature", "properties": {"segment_id": 204510, "physicalid": "15869", "street_name": "SWINNERTON ST", "borough": "staten_island", "direction": "TW", "total_row_ft": 55.4, "roadbed_ft": 33.7, "median_ft": 0.0, "left_sw_ft": 9.8, "right_sw_ft": 12.0}, "geometry": {"type": "LineString", "coordinates": [[-74.24444268641228, 40.49947884560409], [-74.24463561516492, 40.49944055011733]]}}, {"type": "Feature", "properties": {"segment_id": 204511, "physicalid": "15869", "street_name": "SWINNERTON ST", "borough": "staten_island", "direction": "TW", "total_row_ft": 55.4, "roadbed_ft": 33.5, "median_ft": 0.0, "left_sw_ft": 9.7, "right_sw_ft": 12.1}, "geometry": {"type": "LineString", "coordinates": [[-74.24442470184134, 40.499425693575404], [-74.24461733480625, 40.49938745680318]]}}, {"type": "Feature", "properties": {"segment_id": 204512, "physicalid": "15869", "street_name": "SWINNERTON ST", "borough": "staten_island", "direction": "TW", "total_row_ft": 55.3, "roadbed_ft": 33.4, "median_ft": 0.0, "left_sw_ft": 9.7, "right_sw_ft": 12.2}, "geometry": {"type": "LineString", "coordinates": [[-74.2444067747695, 40.49937253013614], [-74.24459905447661, 40.49933436348589]]}}, {"type": "Feature", "properties": {"segment_id": 204513, "physicalid": "15869", "street_name": "SWINNERTON ST", "borough": "staten_island", "direction": "TW", "total_row_ft": 56.7, "roadbed_ft": 29.1, "median_ft": 0.0, "left_sw_ft": 15.0, "right_sw_ft": 12.6}, "geometry": {"type": "LineString", "coordinates": [[-74.24427739397817, 40.49934148958922], [-74.24458165869336, 40.49928109459199]]}}, {"type": "Feature", "properties": {"segment_id": 204514, "physicalid": "15869", "street_name": "SWINNERTON ST", "borough": "staten_island", "direction": "TW", "total_row_ft": 57.2, "roadbed_ft": 29.4, "median_ft": 0.0, "left_sw_ft": 15.0, "right_sw_ft": 12.8}, "geometry": {"type": "LineString", "coordinates": [[-74.2442592970289, 40.499288359873866], [-74.24456490185689, 40.49922769887215]]}}, {"type": "Feature", "properties": {"segment_id": 204515, "physicalid": "15869", "street_name": "SWINNERTON ST", "borough": "staten_island", "direction": "TW", "total_row_ft": 57.9, "roadbed_ft": 29.9, "median_ft": 0.0, "left_sw_ft": 15.0, "right_sw_ft": 13.0}, "geometry": {"type": "LineString", "coordinates": [[-74.24424120010843, 40.499235230155534], [-74.24454814486222, 40.49917430318633]]}}, {"type": "Feature", "properties": {"segment_id": 204516, "physicalid": "15869", "street_name": "SWINNERTON ST", "borough": "staten_island", "direction": "TW", "total_row_ft": 58.5, "roadbed_ft": 30.4, "median_ft": 0.0, "left_sw_ft": 15.0, "right_sw_ft": 13.2}, "geometry": {"type": "LineString", "coordinates": [[-74.24422310321668, 40.499182100434126], [-74.24453138772903, 40.4991209075307]]}}, {"type": "Feature", "properties": {"segment_id": 204517, "physicalid": "15869", "street_name": "SWINNERTON ST", "borough": "staten_island", "direction": "TW", "total_row_ft": 67.6, "roadbed_ft": 31.0, "median_ft": 0.0, "left_sw_ft": 15.0, "right_sw_ft": 21.6}, "geometry": {"type": "LineString", "coordinates": [[-74.24420500635371, 40.499128970709656], [-74.24461055320967, 40.499048471535986]]}}, {"type": "Feature", "properties": {"segment_id": 204518, "physicalid": "15869", "street_name": "SWINNERTON ST", "borough": "staten_island", "direction": "TW", "total_row_ft": 89.4, "roadbed_ft": 31.1, "median_ft": 0.0, "left_sw_ft": 44.2, "right_sw_ft": 14.1}, "geometry": {"type": "LineString", "coordinates": [[-74.2441869095195, 40.49907584098217], [-74.24449787377117, 40.49901411616624]]}}, {"type": "Feature", "properties": {"segment_id": 204916, "physicalid": "15884", "street_name": "BRIGHTON ST", "borough": "staten_island", "direction": "TW", "total_row_ft": 57.3, "roadbed_ft": 30.4, "median_ft": 0.0, "left_sw_ft": 14.4, "right_sw_ft": 12.6}, "geometry": {"type": "LineString", "coordinates": [[-74.24179480808284, 40.49999489785483], [-74.24199407345073, 40.49995489154934]]}}, {"type": "Feature", "properties": {"segment_id": 204917, "physicalid": "15884", "street_name": "BRIGHTON ST", "borough": "staten_island", "direction": "TW", "total_row_ft": 57.8, "roadbed_ft": 30.4, "median_ft": 0.0, "left_sw_ft": 14.8, "right_sw_ft": 12.6}, "geometry": {"type": "LineString", "coordinates": [[-74.24177489190205, 40.499942133128656], [-74.24197573137965, 40.4999018107945]]}}, {"type": "Feature", "properties": {"segment_id": 204918, "physicalid": "15884", "street_name": "BRIGHTON ST", "borough": "staten_island", "direction": "TW", "total_row_ft": 57.9, "roadbed_ft": 30.5, "median_ft": 0.0, "left_sw_ft": 14.8, "right_sw_ft": 12.5}, "geometry": {"type": "LineString", "coordinates": [[-74.2417560153825, 40.49988915967445], [-74.24195738933771, 40.49984873003653]]}}, {"type": "Feature", "properties": {"segment_id": 204919, "physicalid": "15884", "street_name": "BRIGHTON ST", "borough": "staten_island", "direction": "TW", "total_row_ft": 57.9, "roadbed_ft": 30.8, "median_ft": 0.0, "left_sw_ft": 14.7, "right_sw_ft": 12.4}, "geometry": {"type": "LineString", "coordinates": [[-74.24173761707165, 40.499836090214046], [-74.24193895164142, 40.4997956684858]]}}, {"type": "Feature", "properties": {"segment_id": 204920, "physicalid": "15884", "street_name": "BRIGHTON ST", "borough": "staten_island", "direction": "TW", "total_row_ft": 57.9, "roadbed_ft": 31.0, "median_ft": 0.0, "left_sw_ft": 14.6, "right_sw_ft": 12.3}, "geometry": {"type": "LineString", "coordinates": [[-74.24171921879, 40.4997830207505], [-74.24192038752692, 40.49974263231878]]}}, {"type": "Feature", "properties": {"segment_id": 204921, "physicalid": "15884", "street_name": "BRIGHTON ST", "borough": "staten_island", "direction": "TW", "total_row_ft": 57.8, "roadbed_ft": 31.2, "median_ft": 0.0, "left_sw_ft": 14.5, "right_sw_ft": 12.1}, "geometry": {"type": "LineString", "coordinates": [[-74.24170082053755, 40.49972995128378], [-74.24190182344188, 40.49968959614855]]}}, {"type": "Feature", "properties": {"segment_id": 204922, "physicalid": "15884", "street_name": "BRIGHTON ST", "borough": "staten_island", "direction": "TW", "total_row_ft": 57.8, "roadbed_ft": 31.5, "median_ft": 0.0, "left_sw_ft": 14.4, "right_sw_ft": 11.9}, "geometry": {"type": "LineString", "coordinates": [[-74.24168242231427, 40.49967688181391], [-74.24188325938628, 40.499636559975144]]}}, {"type": "Feature", "properties": {"segment_id": 204923, "physicalid": "15884", "street_name": "BRIGHTON ST", "borough": "staten_island", "direction": "TW", "total_row_ft": 57.9, "roadbed_ft": 31.7, "median_ft": 0.0, "left_sw_ft": 14.4, "right_sw_ft": 11.8}, "geometry": {"type": "LineString", "coordinates": [[-74.24166346948451, 40.49962392369396], [-74.24186469536015, 40.499583523798535]]}}, {"type": "Feature", "properties": {"segment_id": 204924, "physicalid": "15884", "street_name": "BRIGHTON ST", "borough": "staten_island", "direction": "TW", "total_row_ft": 120.0, "roadbed_ft": 33.2, "median_ft": 0.0, "left_sw_ft": 42.8, "right_sw_ft": 44.1}, "geometry": {"type": "LineString", "coordinates": [[-74.24154283459391, 40.49959138001662], [-74.24196012095813, 40.49950760187764]]}}, {"type": "Feature", "properties": {"segment_id": 204925, "physicalid": "15885", "street_name": "BRIGHTON ST", "borough": "staten_island", "direction": "TW", "total_row_ft": 150.0, "roadbed_ft": 120.0, "median_ft": 0.0, "left_sw_ft": 15.0, "right_sw_ft": 15.0}, "geometry": {"type": "LineString", "coordinates": [[-74.24150436645762, 40.499478136005706], [-74.24192268876544, 40.49939742670922]]}}, {"type": "Feature", "properties": {"segment_id": 204926, "physicalid": "15885", "street_name": "BRIGHTON ST", "borough": "staten_island", "direction": "TW", "total_row_ft": 61.4, "roadbed_ft": 31.5, "median_ft": 0.0, "left_sw_ft": 14.8, "right_sw_ft": 15.0}, "geometry": {"type": "LineString", "coordinates": [[-74.24158881634823, 40.49940522017863], [-74.24190506748297, 40.49934420389696]]}}, {"type": "Feature", "properties": {"segment_id": 204927, "physicalid": "15885", "street_name": "BRIGHTON ST", "borough": "staten_island", "direction": "TW", "total_row_ft": 60.3, "roadbed_ft": 31.5, "median_ft": 0.0, "left_sw_ft": 13.8, "right_sw_ft": 15.0}, "geometry": {"type": "LineString", "coordinates": [[-74.24157380858365, 40.49935149312791], [-74.24188744622855, 40.49929098108178]]}}, {"type": "Feature", "properties": {"segment_id": 204928, "physicalid": "15885", "street_name": "BRIGHTON ST", "borough": "staten_island", "direction": "TW", "total_row_ft": 59.2, "roadbed_ft": 31.4, "median_ft": 0.0, "left_sw_ft": 12.8, "right_sw_ft": 15.0}, "geometry": {"type": "LineString", "coordinates": [[-74.24155880162925, 40.49929776592339], [-74.24186982500217, 40.49923775826372]]}}, {"type": "Feature", "properties": {"segment_id": 204929, "physicalid": "15885", "street_name": "BRIGHTON ST", "borough": "staten_island", "direction": "TW", "total_row_ft": 58.1, "roadbed_ft": 31.3, "median_ft": 0.0, "left_sw_ft": 11.8, "right_sw_ft": 15.0}, "geometry": {"type": "LineString", "coordinates": [[-74.2415437942618, 40.49924403880105], [-74.24185220380384, 40.499184535442765]]}}, {"type": "Feature", "properties": {"segment_id": 204930, "physicalid": "15885", "street_name": "BRIGHTON ST", "borough": "staten_island", "direction": "TW", "total_row_ft": 57.0, "roadbed_ft": 31.2, "median_ft": 0.0, "left_sw_ft": 10.8, "right_sw_ft": 15.0}, "geometry": {"type": "LineString", "coordinates": [[-74.24152878680759, 40.49919031169793], [-74.24183458263357, 40.49913131261888]]}}, {"type": "Feature", "properties": {"segment_id": 204931, "physicalid": "15885", "street_name": "BRIGHTON ST", "borough": "staten_island", "direction": "TW", "total_row_ft": 56.5, "roadbed_ft": 31.1, "median_ft": 0.0, "left_sw_ft": 10.4, "right_sw_ft": 15.0}, "geometry": {"type": "LineString", "coordinates": [[-74.24151199375586, 40.49913692910103], [-74.24181696149134, 40.499078089792135]]}}, {"type": "Feature", "properties": {"segment_id": 204932, "physicalid": "15885", "street_name": "BRIGHTON ST", "borough": "staten_island", "direction": "TW", "total_row_ft": 56.4, "roadbed_ft": 31.0, "median_ft": 0.0, "left_sw_ft": 10.3, "right_sw_ft": 15.0}, "geometry": {"type": "LineString", "coordinates": [[-74.24149361324316, 40.49908385278288], [-74.24179934037717, 40.49902486696249]]}}, {"type": "Feature", "properties": {"segment_id": 204933, "physicalid": "15885", "street_name": "BRIGHTON ST", "borough": "staten_island", "direction": "TW", "total_row_ft": 56.2, "roadbed_ft": 30.9, "median_ft": 0.0, "left_sw_ft": 10.3, "right_sw_ft": 15.0}, "geometry": {"type": "LineString", "coordinates": [[-74.24147523275967, 40.49903077646161], [-74.24178171929105, 40.49897164412993]]}}, {"type": "Feature", "properties": {"segment_id": 204934, "physicalid": "15885", "street_name": "BRIGHTON ST", "borough": "staten_island", "direction": "TW", "total_row_ft": 56.1, "roadbed_ft": 30.8, "median_ft": 0.0, "left_sw_ft": 10.3, "right_sw_ft": 15.0}, "geometry": {"type": "LineString", "coordinates": [[-74.24145685230535, 40.4989777001372], [-74.24176409823298, 40.498918421294476]]}}, {"type": "Feature", "properties": {"segment_id": 204935, "physicalid": "15885", "street_name": "BRIGHTON ST", "borough": "staten_island", "direction": "TW", "total_row_ft": 56.0, "roadbed_ft": 30.7, "median_ft": 0.0, "left_sw_ft": 10.3, "right_sw_ft": 15.0}, "geometry": {"type": "LineString", "coordinates": [[-74.24143855904973, 40.49892460699164], [-74.24174647720294, 40.49886519845614]]}}, {"type": "Feature", "properties": {"segment_id": 204936, "physicalid": "15885", "street_name": "BRIGHTON ST", "borough": "staten_island", "direction": "TW", "total_row_ft": 55.8, "roadbed_ft": 30.6, "median_ft": 0.0, "left_sw_ft": 10.2, "right_sw_ft": 15.0}, "geometry": {"type": "LineString", "coordinates": [[-74.24142032360031, 40.498871502695756], [-74.24172885620096, 40.4988119756149]]}}, {"type": "Feature", "properties": {"segment_id": 204937, "physicalid": "15885", "street_name": "BRIGHTON ST", "borough": "staten_island", "direction": "TW", "total_row_ft": 55.7, "roadbed_ft": 30.5, "median_ft": 0.0, "left_sw_ft": 10.1, "right_sw_ft": 15.0}, "geometry": {"type": "LineString", "coordinates": [[-74.24140208817987, 40.49881839839681], [-74.24171123522704, 40.49875875277074]]}}, {"type": "Feature", "properties": {"segment_id": 204938, "physicalid": "15885", "street_name": "BRIGHTON ST", "borough": "staten_island", "direction": "TW", "total_row_ft": 56.2, "roadbed_ft": 31.1, "median_ft": 0.0, "left_sw_ft": 10.1, "right_sw_ft": 15.0}, "geometry": {"type": "LineString", "coordinates": [[-74.24138385278839, 40.498765294094746], [-74.24169361428116, 40.498705529923726]]}}, {"type": "Feature", "properties": {"segment_id": 204939, "physicalid": "15885", "street_name": "BRIGHTON ST", "borough": "staten_island", "direction": "TW", "total_row_ft": 61.3, "roadbed_ft": 36.3, "median_ft": 0.0, "left_sw_ft": 10.0, "right_sw_ft": 15.0}, "geometry": {"type": "LineString", "coordinates": [[-74.24136561742586, 40.498712189789615], [-74.24167599336334, 40.4986523070738]]}}, {"type": "Feature", "properties": {"segment_id": 204940, "physicalid": "15885", "street_name": "BRIGHTON ST", "borough": "staten_island", "direction": "TW", "total_row_ft": 69.2, "roadbed_ft": 44.5, "median_ft": 0.0, "left_sw_ft": 9.8, "right_sw_ft": 15.0}, "geometry": {"type": "LineString", "coordinates": [[-74.2413473820923, 40.49865908548137], [-74.24165837247355, 40.49859908422098]]}}, {"type": "Feature", "properties": {"segment_id": 204941, "physicalid": "15885", "street_name": "BRIGHTON ST", "borough": "staten_island", "direction": "TW", "total_row_ft": 70.7, "roadbed_ft": 52.3, "median_ft": 0.0, "left_sw_ft": 9.5, "right_sw_ft": 8.9}, "geometry": {"type": "LineString", "coordinates": [[-74.2413279595082, 40.498606210237256], [-74.24164075161183, 40.49854586136525]]}}, {"type": "Feature", "properties": {"segment_id": 204942, "physicalid": "15885", "street_name": "BRIGHTON ST", "borough": "staten_island", "direction": "TW", "total_row_ft": 80.9, "roadbed_ft": 56.6, "median_ft": 0.0, "left_sw_ft": 9.4, "right_sw_ft": 15.0}, "geometry": {"type": "LineString", "coordinates": [[-74.24130831453347, 40.49855337790242], [-74.24162313077814, 40.49849263850664]]}}, {"type": "Feature", "properties": {"segment_id": 204943, "physicalid": "15885", "street_name": "BRIGHTON ST", "borough": "staten_island", "direction": "TW", "total_row_ft": 81.5, "roadbed_ft": 57.5, "median_ft": 0.0, "left_sw_ft": 9.0, "right_sw_ft": 15.0}, "geometry": {"type": "LineString", "coordinates": [[-74.2412892542921, 40.49850043275479], [-74.24160550997252, 40.498439415645116]]}}, {"type": "Feature", "properties": {"segment_id": 204944, "physicalid": "15885", "street_name": "BRIGHTON ST", "borough": "staten_island", "direction": "TW", "total_row_ft": 81.2, "roadbed_ft": 57.6, "median_ft": 0.0, "left_sw_ft": 8.6, "right_sw_ft": 15.0}, "geometry": {"type": "LineString", "coordinates": [[-74.24127035750308, 40.49844745607405], [-74.24158788919493, 40.49838619278071]]}}, {"type": "Feature", "properties": {"segment_id": 204945, "physicalid": "15885", "street_name": "BRIGHTON ST", "borough": "staten_island", "direction": "TW", "total_row_ft": 87.6, "roadbed_ft": 57.6, "median_ft": 0.0, "left_sw_ft": 15.0, "right_sw_ft": 15.0}, "geometry": {"type": "LineString", "coordinates": [[-74.24115195237115, 40.49841367793091], [-74.24157026844539, 40.4983329699134]]}}, {"type": "Feature", "properties": {"segment_id": 848886, "physicalid": "59428", "street_name": "BILLOP AVE", "borough": "staten_island", "direction": "TW", "total_row_ft": 108.9, "roadbed_ft": 78.9, "median_ft": 0.0, "left_sw_ft": 15.0, "right_sw_ft": 15.0}, "geometry": {"type": "LineString", "coordinates": [[-74.24348042227855, 40.49896380249187], [-74.24359469620836, 40.49928141911574]]}}, {"type": "Feature", "properties": {"segment_id": 848887, "physicalid": "59428", "street_name": "BILLOP AVE", "borough": "staten_island", "direction": "TW", "total_row_ft": 63.9, "roadbed_ft": 35.0, "median_ft": 0.0, "left_sw_ft": 15.0, "right_sw_ft": 13.8}, "geometry": {"type": "LineString", "coordinates": [[-74.24354976654797, 40.498949263447514], [-74.24363562882424, 40.499187911416115]]}}, {"type": "Feature", "properties": {"segment_id": 848888, "physicalid": "59428", "street_name": "BILLOP AVE", "borough": "staten_island", "direction": "TW", "total_row_ft": 64.0, "roadbed_ft": 34.7, "median_ft": 0.0, "left_sw_ft": 15.0, "right_sw_ft": 14.4}, "geometry": {"type": "LineString", "coordinates": [[-74.24361911078725, 40.49893472436125], [-74.24370531684492, 40.499174327151465]]}}, {"type": "Feature", "properties": {"segment_id": 848889, "physicalid": "59428", "street_name": "BILLOP AVE", "borough": "staten_island", "direction": "TW", "total_row_ft": 64.2, "roadbed_ft": 34.8, "median_ft": 0.0, "left_sw_ft": 15.0, "right_sw_ft": 14.4}, "geometry": {"type": "LineString", "coordinates": [[-74.24368845499639, 40.49892018523303], [-74.24377500483732, 40.49916074284449]]}}, {"type": "Feature", "properties": {"segment_id": 848890, "physicalid": "59428", "street_name": "BILLOP AVE", "borough": "staten_island", "direction": "TW", "total_row_ft": 64.4, "roadbed_ft": 34.7, "median_ft": 0.0, "left_sw_ft": 15.0, "right_sw_ft": 14.6}, "geometry": {"type": "LineString", "coordinates": [[-74.24375779917534, 40.49890564606292], [-74.24384468448797, 40.49914713538885]]}}, {"type": "Feature", "properties": {"segment_id": 848891, "physicalid": "59428", "street_name": "BILLOP AVE", "borough": "staten_island", "direction": "TW", "total_row_ft": 64.3, "roadbed_ft": 34.6, "median_ft": 0.0, "left_sw_ft": 15.0, "right_sw_ft": 14.8}, "geometry": {"type": "LineString", "coordinates": [[-74.24382714332415, 40.498891106850905], [-74.24391415768096, 40.49913295414448]]}}, {"type": "Feature", "properties": {"segment_id": 848892, "physicalid": "59428", "street_name": "BILLOP AVE", "borough": "staten_island", "direction": "TW", "total_row_ft": 64.3, "roadbed_ft": 34.2, "median_ft": 0.0, "left_sw_ft": 15.0, "right_sw_ft": 15.1}, "geometry": {"type": "LineString", "coordinates": [[-74.24389648744283, 40.49887656759695], [-74.24398363084448, 40.49911877285804]]}}, {"type": "Feature", "properties": {"segment_id": 848893, "physicalid": "59428", "street_name": "BILLOP AVE", "borough": "staten_island", "direction": "TW", "total_row_ft": 64.3, "roadbed_ft": 34.4, "median_ft": 0.0, "left_sw_ft": 15.0, "right_sw_ft": 14.9}, "geometry": {"type": "LineString", "coordinates": [[-74.24396583153131, 40.498862028301104], [-74.24405310397856, 40.49910459152954]]}}, {"type": "Feature", "properties": {"segment_id": 848894, "physicalid": "59428", "street_name": "BILLOP AVE", "borough": "staten_island", "direction": "TW", "total_row_ft": 64.2, "roadbed_ft": 34.5, "median_ft": 0.0, "left_sw_ft": 15.0, "right_sw_ft": 14.7}, "geometry": {"type": "LineString", "coordinates": [[-74.24403517558967, 40.498847488963314], [-74.24412257708316, 40.499090410158935]]}}, {"type": "Feature", "properties": {"segment_id": 848895, "physicalid": "59428", "street_name": "BILLOP AVE", "borough": "staten_island", "direction": "TW", "total_row_ft": 64.6, "roadbed_ft": 34.7, "median_ft": 0.0, "left_sw_ft": 15.0, "right_sw_ft": 14.9}, "geometry": {"type": "LineString", "coordinates": [[-74.24410451961788, 40.49883294958357], [-74.24419237896656, 40.499077142620415]]}}, {"type": "Feature", "properties": {"segment_id": 848896, "physicalid": "59428", "street_name": "BILLOP AVE", "borough": "staten_island", "direction": "TW", "total_row_ft": 64.9, "roadbed_ft": 34.4, "median_ft": 0.0, "left_sw_ft": 15.0, "right_sw_ft": 15.5}, "geometry": {"type": "LineString", "coordinates": [[-74.24417386361591, 40.49881841016196], [-74.24426219496665, 40.49906391435152]]}}, {"type": "Feature", "properties": {"segment_id": 848897, "physicalid": "59428", "street_name": "BILLOP AVE", "borough": "staten_island", "direction": "TW", "total_row_ft": 65.2, "roadbed_ft": 39.0, "median_ft": 0.0, "left_sw_ft": 15.0, "right_sw_ft": 11.1}, "geometry": {"type": "LineString", "coordinates": [[-74.24424320758379, 40.49880387069842], [-74.24433194943454, 40.49905051509824]]}}, {"type": "Feature", "properties": {"segment_id": 848898, "physicalid": "59429", "street_name": "BILLOP AVE", "borough": "staten_island", "direction": "TW", "total_row_ft": 109.7, "roadbed_ft": 79.7, "median_ft": 0.0, "left_sw_ft": 15.0, "right_sw_ft": 15.0}, "geometry": {"type": "LineString", "coordinates": [[-74.24261772778779, 40.49913886925189], [-74.24272835953136, 40.499457236511134]]}}, {"type": "Feature", "properties": {"segment_id": 848899, "physicalid": "59429", "street_name": "BILLOP AVE", "borough": "staten_island", "direction": "TW", "total_row_ft": 62.0, "roadbed_ft": 34.8, "median_ft": 0.0, "left_sw_ft": 15.0, "right_sw_ft": 12.2}, "geometry": {"type": "LineString", "coordinates": [[-74.2426872361236, 40.499124793638416], [-74.24276777330441, 40.49935655676958]]}}, {"type": "Feature", "properties": {"segment_id": 848900, "physicalid": "59429", "street_name": "BILLOP AVE", "borough": "staten_island", "direction": "TW", "total_row_ft": 61.8, "roadbed_ft": 34.6, "median_ft": 0.0, "left_sw_ft": 15.0, "right_sw_ft": 12.2}, "geometry": {"type": "LineString", "coordinates": [[-74.24275674443018, 40.49911071798284], [-74.24283726892348, 40.49934244391015]]}}, {"type": "Feature", "properties": {"segment_id": 848901, "physicalid": "59429", "street_name": "BILLOP AVE", "borough": "staten_island", "direction": "TW", "total_row_ft": 61.7, "roadbed_ft": 34.4, "median_ft": 0.0, "left_sw_ft": 15.0, "right_sw_ft": 12.3}, "geometry": {"type": "LineString", "coordinates": [[-74.24282625270749, 40.49909664228511], [-74.24290676451321, 40.49932833100861]]}}, {"type": "Feature", "properties": {"segment_id": 848902, "physicalid": "59429", "street_name": "BILLOP AVE", "borough": "staten_island", "direction": "TW", "total_row_ft": 61.7, "roadbed_ft": 34.4, "median_ft": 0.0, "left_sw_ft": 15.0, "right_sw_ft": 12.3}, "geometry": {"type": "LineString", "coordinates": [[-74.24289576095553, 40.499082566545304], [-74.2429762600736, 40.49931421806499]]}}, {"type": "Feature", "properties": {"segment_id": 848903, "physicalid": "59429", "street_name": "BILLOP AVE", "borough": "staten_island", "direction": "TW", "total_row_ft": 61.6, "roadbed_ft": 34.3, "median_ft": 0.0, "left_sw_ft": 15.0, "right_sw_ft": 12.4}, "geometry": {"type": "LineString", "coordinates": [[-74.2429652691743, 40.49906849076335], [-74.24304577848547, 40.499300170922716]]}}, {"type": "Feature", "properties": {"segment_id": 848904, "physicalid": "59429", "street_name": "BILLOP AVE", "borough": "staten_island", "direction": "TW", "total_row_ft": 61.7, "roadbed_ft": 34.2, "median_ft": 0.0, "left_sw_ft": 15.0, "right_sw_ft": 12.6}, "geometry": {"type": "LineString", "coordinates": [[-74.24303477736382, 40.49905441493931], [-74.24311542609875, 40.49928649562043]]}}, {"type": "Feature", "properties": {"segment_id": 848905, "physicalid": "59429", "street_name": "BILLOP AVE", "borough": "staten_island", "direction": "TW", "total_row_ft": 61.9, "roadbed_ft": 34.1, "median_ft": 0.0, "left_sw_ft": 15.0, "right_sw_ft": 12.8}, "geometry": {"type": "LineString", "coordinates": [[-74.24310428552408, 40.49904033907312], [-74.24318507368355, 40.499272820275856]]}}, {"type": "Feature", "properties": {"segment_id": 848906, "physicalid": "59429", "street_name": "BILLOP AVE", "borough": "staten_island", "direction": "TW", "total_row_ft": 62.0, "roadbed_ft": 34.0, "median_ft": 0.0, "left_sw_ft": 15.0, "right_sw_ft": 13.0}, "geometry": {"type": "LineString", "coordinates": [[-74.24317379365509, 40.499026263164815], [-74.24325472123986, 40.499259144889024]]}}, {"type": "Feature", "properties": {"segment_id": 848907, "physicalid": "59429", "street_name": "BILLOP AVE", "borough": "staten_island", "direction": "TW", "total_row_ft": 62.1, "roadbed_ft": 33.9, "median_ft": 0.0, "left_sw_ft": 15.0, "right_sw_ft": 13.2}, "geometry": {"type": "LineString", "coordinates": [[-74.2432433017568, 40.499012187214426], [-74.24332436876769, 40.499245469459865]]}}, {"type": "Feature", "properties": {"segment_id": 848908, "physicalid": "59429", "street_name": "BILLOP AVE", "borough": "staten_island", "direction": "TW", "total_row_ft": 62.2, "roadbed_ft": 33.7, "median_ft": 0.0, "left_sw_ft": 15.0, "right_sw_ft": 13.5}, "geometry": {"type": "LineString", "coordinates": [[-74.24331280982928, 40.49899811122189], [-74.24339401626702, 40.49923179398845]]}}, {"type": "Feature", "properties": {"segment_id": 848909, "physicalid": "59430", "street_name": "BILLOP AVE", "borough": "staten_island", "direction": "TW", "total_row_ft": 147.3, "roadbed_ft": 117.3, "median_ft": 0.0, "left_sw_ft": 15.0, "right_sw_ft": 15.0}, "geometry": {"type": "LineString", "coordinates": [[-74.24172722260386, 40.49930794131846], [-74.24183096935604, 40.49962765661235]]}}, {"type": "Feature", "properties": {"segment_id": 848910, "physicalid": "59430", "street_name": "BILLOP AVE", "borough": "staten_island", "direction": "TW", "total_row_ft": 65.1, "roadbed_ft": 34.9, "median_ft": 0.0, "left_sw_ft": 15.0, "right_sw_ft": 15.2}, "geometry": {"type": "LineString", "coordinates": [[-74.24179702542949, 40.49929474171082], [-74.24187682869159, 40.499540670088194]]}}, {"type": "Feature", "properties": {"segment_id": 848911, "physicalid": "59430", "street_name": "BILLOP AVE", "borough": "staten_island", "direction": "TW", "total_row_ft": 64.7, "roadbed_ft": 34.9, "median_ft": 0.0, "left_sw_ft": 15.0, "right_sw_ft": 14.8}, "geometry": {"type": "LineString", "coordinates": [[-74.24186682822759, 40.499281542060686], [-74.24194607059239, 40.49952574115146]]}}, {"type": "Feature", "properties": {"segment_id": 848912, "physicalid": "59430", "street_name": "BILLOP AVE", "borough": "staten_island", "direction": "TW", "total_row_ft": 64.2, "roadbed_ft": 34.9, "median_ft": 0.0, "left_sw_ft": 15.0, "right_sw_ft": 14.3}, "geometry": {"type": "LineString", "coordinates": [[-74.24193663099813, 40.49926834236808], [-74.2420153124394, 40.49951081210241]]}}, {"type": "Feature", "properties": {"segment_id": 848913, "physicalid": "59430", "street_name": "BILLOP AVE", "borough": "staten_island", "direction": "TW", "total_row_ft": 63.8, "roadbed_ft": 34.9, "median_ft": 0.0, "left_sw_ft": 15.0, "right_sw_ft": 13.9}, "geometry": {"type": "LineString", "coordinates": [[-74.2420064337411, 40.49925514263301], [-74.24208462405285, 40.49949609810209]]}}, {"type": "Feature", "properties": {"segment_id": 848914, "physicalid": "59430", "street_name": "BILLOP AVE", "borough": "staten_island", "direction": "TW", "total_row_ft": 63.7, "roadbed_ft": 34.9, "median_ft": 0.0, "left_sw_ft": 15.0, "right_sw_ft": 13.8}, "geometry": {"type": "LineString", "coordinates": [[-74.24207623645651, 40.49924194285547], [-74.24215417667554, 40.499482126855796]]}}, {"type": "Feature", "properties": {"segment_id": 848915, "physicalid": "59430", "street_name": "BILLOP AVE", "borough": "staten_island", "direction": "TW", "total_row_ft": 63.6, "roadbed_ft": 34.9, "median_ft": 0.0, "left_sw_ft": 15.0, "right_sw_ft": 13.7}, "geometry": {"type": "LineString", "coordinates": [[-74.24214603914437, 40.49922874303544], [-74.24222372926917, 40.49946815556732]]}}, {"type": "Feature", "properties": {"segment_id": 848916, "physicalid": "59430", "street_name": "BILLOP AVE", "borough": "staten_island", "direction": "TW", "total_row_ft": 63.5, "roadbed_ft": 34.8, "median_ft": 0.0, "left_sw_ft": 15.0, "right_sw_ft": 13.7}, "geometry": {"type": "LineString", "coordinates": [[-74.24221584180468, 40.499215543172966], [-74.24229328183372, 40.49945418423668]]}}, {"type": "Feature", "properties": {"segment_id": 848917, "physicalid": "59430", "street_name": "BILLOP AVE", "borough": "staten_island", "direction": "TW", "total_row_ft": 63.4, "roadbed_ft": 34.8, "median_ft": 0.0, "left_sw_ft": 15.0, "right_sw_ft": 13.6}, "geometry": {"type": "LineString", "coordinates": [[-74.24228564443742, 40.499202343267996], [-74.24236283430703, 40.49944021267223]]}}, {"type": "Feature", "properties": {"segment_id": 848918, "physicalid": "59430", "street_name": "BILLOP AVE", "borough": "staten_island", "direction": "TW", "total_row_ft": 63.3, "roadbed_ft": 34.8, "median_ft": 0.0, "left_sw_ft": 15.0, "right_sw_ft": 13.5}, "geometry": {"type": "LineString", "coordinates": [[-74.24235544704261, 40.49918914332056], [-74.24243238673868, 40.49942624102677]]}}, {"type": "Feature", "properties": {"segment_id": 848919, "physicalid": "59430", "street_name": "BILLOP AVE", "borough": "staten_island", "direction": "TW", "total_row_ft": 62.8, "roadbed_ft": 34.8, "median_ft": 0.0, "left_sw_ft": 15.0, "right_sw_ft": 13.0}, "geometry": {"type": "LineString", "coordinates": [[-74.24242524962023, 40.49917594333064], [-74.24250162461792, 40.49941130010927]]}}, {"type": "Feature", "properties": {"segment_id": 848920, "physicalid": "59430", "street_name": "BILLOP AVE", "borough": "staten_island", "direction": "TW", "total_row_ft": 94.7, "roadbed_ft": 41.7, "median_ft": 0.0, "left_sw_ft": 15.0, "right_sw_ft": 37.9}, "geometry": {"type": "LineString", "coordinates": [[-74.24249505217031, 40.49916274329826], [-74.24259880236836, 40.499482457901074]]}}, {"type": "Feature", "properties": {"segment_id": 848921, "physicalid": "59431", "street_name": "BILLOP AVE", "borough": "staten_island", "direction": "TW", "total_row_ft": 150.0, "roadbed_ft": 120.0, "median_ft": 0.0, "left_sw_ft": 15.0, "right_sw_ft": 15.0}, "geometry": {"type": "LineString", "coordinates": [[-74.2408187258326, 40.499489323109046], [-74.24092823881114, 40.499807915802904]]}}, {"type": "Feature", "properties": {"segment_id": 848922, "physicalid": "59431", "street_name": "BILLOP AVE", "borough": "staten_island", "direction": "TW", "total_row_ft": 60.1, "roadbed_ft": 36.6, "median_ft": 0.0, "left_sw_ft": 8.5, "right_sw_ft": 15.0}, "geometry": {"type": "LineString", "coordinates": [[-74.24091855768667, 40.49956346220347], [-74.24099779704022, 40.499793982536325]]}}, {"type": "Feature", "properties": {"segment_id": 848923, "physicalid": "59431", "street_name": "BILLOP AVE", "borough": "staten_island", "direction": "TW", "total_row_ft": 60.5, "roadbed_ft": 36.8, "median_ft": 0.0, "left_sw_ft": 8.7, "right_sw_ft": 15.0}, "geometry": {"type": "LineString", "coordinates": [[-74.24098782952271, 40.499548696511425], [-74.24106735524032, 40.49978004922759]]}}, {"type": "Feature", "properties": {"segment_id": 848924, "physicalid": "59431", "street_name": "BILLOP AVE", "borough": "staten_island", "direction": "TW", "total_row_ft": 60.8, "roadbed_ft": 36.8, "median_ft": 0.0, "left_sw_ft": 9.0, "right_sw_ft": 15.0}, "geometry": {"type": "LineString", "coordinates": [[-74.24105710132817, 40.49953393077754], [-74.24113691341142, 40.499766115876696]]}}, {"type": "Feature", "properties": {"segment_id": 848925, "physicalid": "59431", "street_name": "BILLOP AVE", "borough": "staten_island", "direction": "TW", "total_row_ft": 61.2, "roadbed_ft": 36.9, "median_ft": 0.0, "left_sw_ft": 9.3, "right_sw_ft": 15.0}, "geometry": {"type": "LineString", "coordinates": [[-74.24112637310303, 40.499519165001836], [-74.24120647155355, 40.499752182483576]]}}, {"type": "Feature", "properties": {"segment_id": 848926, "physicalid": "59431", "street_name": "BILLOP AVE", "borough": "staten_island", "direction": "TW", "total_row_ft": 61.5, "roadbed_ft": 36.9, "median_ft": 0.0, "left_sw_ft": 9.6, "right_sw_ft": 15.0}, "geometry": {"type": "LineString", "coordinates": [[-74.2411956448473, 40.49950439918427], [-74.2412760296667, 40.499738249048306]]}}, {"type": "Feature", "properties": {"segment_id": 848927, "physicalid": "59431", "street_name": "BILLOP AVE", "borough": "staten_island", "direction": "TW", "total_row_ft": 62.1, "roadbed_ft": 37.0, "median_ft": 0.0, "left_sw_ft": 9.5, "right_sw_ft": 15.6}, "geometry": {"type": "LineString", "coordinates": [[-74.2412651836225, 40.49949041024204], [-74.24132184046971, 40.499655232035934]]}}, {"type": "Feature", "properties": {"segment_id": 848928, "physicalid": "59431", "street_name": "BILLOP AVE", "borough": "staten_island", "direction": "TW", "total_row_ft": 61.6, "roadbed_ft": 37.0, "median_ft": 0.0, "left_sw_ft": 9.3, "right_sw_ft": 15.2}, "geometry": {"type": "LineString", "coordinates": [[-74.24133489910331, 40.49947693540044], [-74.24139111206726, 40.4996404653892]]}}, {"type": "Feature", "properties": {"segment_id": 848929, "physicalid": "59431", "street_name": "BILLOP AVE", "borough": "staten_island", "direction": "TW", "total_row_ft": 61.1, "roadbed_ft": 37.1, "median_ft": 0.0, "left_sw_ft": 9.1, "right_sw_ft": 14.9}, "geometry": {"type": "LineString", "coordinates": [[-74.24140461455598, 40.4994634605165], [-74.24146038372423, 40.49962569896253]]}}, {"type": "Feature", "properties": {"segment_id": 848930, "physicalid": "59431", "street_name": "BILLOP AVE", "borough": "staten_island", "direction": "TW", "total_row_ft": 60.7, "roadbed_ft": 37.1, "median_ft": 0.0, "left_sw_ft": 8.9, "right_sw_ft": 14.7}, "geometry": {"type": "LineString", "coordinates": [[-74.24147432998058, 40.49944998559017], [-74.24152976232044, 40.49961124367891]]}}, {"type": "Feature", "properties": {"segment_id": 848931, "physicalid": "59431", "street_name": "BILLOP AVE", "borough": "staten_island", "direction": "TW", "total_row_ft": 60.9, "roadbed_ft": 37.2, "median_ft": 0.0, "left_sw_ft": 9.2, "right_sw_ft": 14.5}, "geometry": {"type": "LineString", "coordinates": [[-74.24154354688068, 40.49943506044754], [-74.24159915880179, 40.49959684046993]]}}, {"type": "Feature", "properties": {"segment_id": 848932, "physicalid": "59431", "street_name": "BILLOP AVE", "borough": "staten_island", "direction": "TW", "total_row_ft": 120.0, "roadbed_ft": 38.1, "median_ft": 0.0, "left_sw_ft": 41.2, "right_sw_ft": 40.7}, "geometry": {"type": "LineString", "coordinates": [[-74.24158386136382, 40.49933605558401], [-74.24169337773678, 40.49965464755093]]}}, {"type": "Feature", "properties": {"segment_id": 848934, "physicalid": "59432", "street_name": "BILLOP AVE", "borough": "staten_island", "direction": "TW", "total_row_ft": 55.8, "roadbed_ft": 34.7, "median_ft": 0.0, "left_sw_ft": 8.9, "right_sw_ft": 12.2}, "geometry": {"type": "LineString", "coordinates": [[-74.24001229279732, 40.49974530037311], [-74.24006387203254, 40.49989325580501]]}}, {"type": "Feature", "properties": {"segment_id": 848935, "physicalid": "59432", "street_name": "BILLOP AVE", "borough": "staten_island", "direction": "TW", "total_row_ft": 55.9, "roadbed_ft": 34.9, "median_ft": 0.0, "left_sw_ft": 9.1, "right_sw_ft": 12.0}, "geometry": {"type": "LineString", "coordinates": [[-74.24008164133267, 40.49973076449614], [-74.2401333298775, 40.49987903304278]]}}, {"type": "Feature", "properties": {"segment_id": 848936, "physicalid": "59432", "street_name": "BILLOP AVE", "borough": "staten_island", "direction": "TW", "total_row_ft": 55.7, "roadbed_ft": 35.0, "median_ft": 0.0, "left_sw_ft": 8.9, "right_sw_ft": 11.7}, "geometry": {"type": "LineString", "coordinates": [[-74.24015131164411, 40.499717151677466], [-74.2402027876929, 40.49986481023849]]}}, {"type": "Feature", "properties": {"segment_id": 848937, "physicalid": "59432", "street_name": "BILLOP AVE", "borough": "staten_island", "direction": "TW", "total_row_ft": 55.4, "roadbed_ft": 35.2, "median_ft": 0.0, "left_sw_ft": 8.8, "right_sw_ft": 11.5}, "geometry": {"type": "LineString", "coordinates": [[-74.24022098958068, 40.499703560770485], [-74.24027224547875, 40.49985058739213]]}}, {"type": "Feature", "properties": {"segment_id": 848938, "physicalid": "59432", "street_name": "BILLOP AVE", "borough": "staten_island", "direction": "TW", "total_row_ft": 55.2, "roadbed_ft": 35.3, "median_ft": 0.0, "left_sw_ft": 8.6, "right_sw_ft": 11.3}, "geometry": {"type": "LineString", "coordinates": [[-74.24029066664633, 40.49968996740417], [-74.24034170324927, 40.499836364544464]]}}, {"type": "Feature", "properties": {"segment_id": 848939, "physicalid": "59432", "street_name": "BILLOP AVE", "borough": "staten_island", "direction": "TW", "total_row_ft": 55.1, "roadbed_ft": 35.4, "median_ft": 0.0, "left_sw_ft": 8.6, "right_sw_ft": 11.1}, "geometry": {"type": "LineString", "coordinates": [[-74.24036026080566, 40.499676136262465], [-74.24041119889306, 40.4998222503774]]}}, {"type": "Feature", "properties": {"segment_id": 848940, "physicalid": "59432", "street_name": "BILLOP AVE", "borough": "staten_island", "direction": "TW", "total_row_ft": 52.5, "roadbed_ft": 35.6, "median_ft": 0.0, "left_sw_ft": 8.5, "right_sw_ft": 8.4}, "geometry": {"type": "LineString", "coordinates": [[-74.24042983886113, 40.499662258967774], [-74.24047840613784, 40.499801572094015]]}}, {"type": "Feature", "properties": {"segment_id": 848941, "physicalid": "59432", "street_name": "BILLOP AVE", "borough": "staten_island", "direction": "TW", "total_row_ft": 49.3, "roadbed_ft": 35.7, "median_ft": 0.0, "left_sw_ft": 8.5, "right_sw_ft": 5.0}, "geometry": {"type": "LineString", "coordinates": [[-74.24049941688826, 40.499648381632355], [-74.24054496356756, 40.49977902993324]]}}, {"type": "Feature", "properties": {"segment_id": 848942, "physicalid": "59432", "street_name": "BILLOP AVE", "borough": "staten_island", "direction": "TW", "total_row_ft": 48.8, "roadbed_ft": 35.9, "median_ft": 0.0, "left_sw_ft": 8.4, "right_sw_ft": 4.5}, "geometry": {"type": "LineString", "coordinates": [[-74.2405689948866, 40.4996345042551], [-74.2406141329439, 40.499763980060344]]}}, {"type": "Feature", "properties": {"segment_id": 848943, "physicalid": "59432", "street_name": "BILLOP AVE", "borough": "staten_island", "direction": "TW", "total_row_ft": 48.4, "roadbed_ft": 36.0, "median_ft": 0.0, "left_sw_ft": 8.4, "right_sw_ft": 3.9}, "geometry": {"type": "LineString", "coordinates": [[-74.24063857285608, 40.49962062683563], [-74.24068330228911, 40.499748930145735]]}}, {"type": "Feature", "properties": {"segment_id": 848944, "physicalid": "59432", "street_name": "BILLOP AVE", "borough": "staten_island", "direction": "TW", "total_row_ft": 120.0, "roadbed_ft": 37.1, "median_ft": 0.0, "left_sw_ft": 41.7, "right_sw_ft": 41.2}, "geometry": {"type": "LineString", "coordinates": [[-74.24067718580429, 40.49951792838361], [-74.24078815253199, 40.49983622781752]]}}, {"type": "Feature", "properties": {"segment_id": 1165583, "physicalid": "81002", "street_name": "MAIN ST", "borough": "staten_island", "direction": "TW", "total_row_ft": 57.8, "roadbed_ft": 36.4, "median_ft": 0.0, "left_sw_ft": 11.1, "right_sw_ft": 10.2}, "geometry": {"type": "LineString", "coordinates": [[-74.24367893296355, 40.50001892466089], [-74.24387999594845, 40.49997857039427]]}}, {"type": "Feature", "properties": {"segment_id": 1165584, "physicalid": "81002", "street_name": "MAIN ST", "borough": "staten_island", "direction": "TW", "total_row_ft": 57.7, "roadbed_ft": 36.4, "median_ft": 0.0, "left_sw_ft": 11.1, "right_sw_ft": 10.2}, "geometry": {"type": "LineString", "coordinates": [[-74.2436605964944, 40.4999658427749], [-74.24386140663789, 40.49992553925712]]}}, {"type": "Feature", "properties": {"segment_id": 1165585, "physicalid": "81002", "street_name": "MAIN ST", "borough": "staten_island", "direction": "TW", "total_row_ft": 57.7, "roadbed_ft": 36.3, "median_ft": 0.0, "left_sw_ft": 11.1, "right_sw_ft": 10.3}, "geometry": {"type": "LineString", "coordinates": [[-74.2436422601433, 40.499912760867936], [-74.24384293616177, 40.49987248427196]]}}, {"type": "Feature", "properties": {"segment_id": 1165586, "physicalid": "81002", "street_name": "MAIN ST", "borough": "staten_island", "direction": "TW", "total_row_ft": 57.7, "roadbed_ft": 36.1, "median_ft": 0.0, "left_sw_ft": 11.2, "right_sw_ft": 10.4}, "geometry": {"type": "LineString", "coordinates": [[-74.24362392537007, 40.499859678647], [-74.24382446571497, 40.49981942928364]]}}, {"type": "Feature", "properties": {"segment_id": 1165587, "physicalid": "81002", "street_name": "MAIN ST", "borough": "staten_island", "direction": "TW", "total_row_ft": 57.6, "roadbed_ft": 35.9, "median_ft": 0.0, "left_sw_ft": 11.2, "right_sw_ft": 10.5}, "geometry": {"type": "LineString", "coordinates": [[-74.2436056597472, 40.49980658255006], [-74.24380599529746, 40.49976637429214]]}}, {"type": "Feature", "properties": {"segment_id": 1165588, "physicalid": "81002", "street_name": "MAIN ST", "borough": "staten_island", "direction": "TW", "total_row_ft": 57.6, "roadbed_ft": 35.7, "median_ft": 0.0, "left_sw_ft": 11.2, "right_sw_ft": 10.6}, "geometry": {"type": "LineString", "coordinates": [[-74.24358739415335, 40.49975348645001], [-74.24378752490928, 40.49971331929751]]}}, {"type": "Feature", "properties": {"segment_id": 1165589, "physicalid": "81002", "street_name": "MAIN ST", "borough": "staten_island", "direction": "TW", "total_row_ft": 57.5, "roadbed_ft": 35.5, "median_ft": 0.0, "left_sw_ft": 11.3, "right_sw_ft": 10.7}, "geometry": {"type": "LineString", "coordinates": [[-74.24356912858852, 40.49970039034689], [-74.2437690545504, 40.499660264299656]]}}, {"type": "Feature", "properties": {"segment_id": 1165590, "physicalid": "81002", "street_name": "MAIN ST", "borough": "staten_island", "direction": "TW", "total_row_ft": 57.4, "roadbed_ft": 35.4, "median_ft": 0.0, "left_sw_ft": 11.3, "right_sw_ft": 10.8}, "geometry": {"type": "LineString", "coordinates": [[-74.24355086305268, 40.49964729424064], [-74.24375058422083, 40.4996072092987]]}}, {"type": "Feature", "properties": {"segment_id": 1165591, "physicalid": "81002", "street_name": "MAIN ST", "borough": "staten_island", "direction": "TW", "total_row_ft": 57.5, "roadbed_ft": 35.9, "median_ft": 0.0, "left_sw_ft": 11.3, "right_sw_ft": 10.2}, "geometry": {"type": "LineString", "coordinates": [[-74.24353259754584, 40.49959419813132], [-74.24373241138002, 40.499554094592796]]}}, {"type": "Feature", "properties": {"segment_id": 1165592, "physicalid": "81002", "street_name": "MAIN ST", "borough": "staten_island", "direction": "TW", "total_row_ft": 57.5, "roadbed_ft": 36.3, "median_ft": 0.0, "left_sw_ft": 11.3, "right_sw_ft": 9.8}, "geometry": {"type": "LineString", "coordinates": [[-74.24351433046057, 40.49954110234151], [-74.24371426574572, 40.49950097442916]]}}, {"type": "Feature", "properties": {"segment_id": 1165593, "physicalid": "81002", "street_name": "MAIN ST", "borough": "staten_island", "direction": "TW", "total_row_ft": 57.5, "roadbed_ft": 36.2, "median_ft": 0.0, "left_sw_ft": 11.4, "right_sw_ft": 10.0}, "geometry": {"type": "LineString", "coordinates": [[-74.24349605155683, 40.49948800892646], [-74.24369612014023, 40.499447854262414]]}}, {"type": "Feature", "properties": {"segment_id": 1165594, "physicalid": "81002", "street_name": "MAIN ST", "borough": "staten_island", "direction": "TW", "total_row_ft": 57.6, "roadbed_ft": 35.7, "median_ft": 0.0, "left_sw_ft": 11.4, "right_sw_ft": 10.5}, "geometry": {"type": "LineString", "coordinates": [[-74.24347777295439, 40.49943491545361], [-74.2436779745636, 40.499394734092654]]}}, {"type": "Feature", "properties": {"segment_id": 1165595, "physicalid": "81002", "street_name": "MAIN ST", "borough": "staten_island", "direction": "TW", "total_row_ft": 57.6, "roadbed_ft": 36.1, "median_ft": 0.0, "left_sw_ft": 11.4, "right_sw_ft": 10.0}, "geometry": {"type": "LineString", "coordinates": [[-74.243459494381, 40.49938182197771], [-74.24365982901575, 40.49934161391978]]}}, {"type": "Feature", "properties": {"segment_id": 1165596, "physicalid": "81002", "street_name": "MAIN ST", "borough": "staten_island", "direction": "TW", "total_row_ft": 57.6, "roadbed_ft": 35.9, "median_ft": 0.0, "left_sw_ft": 11.5, "right_sw_ft": 10.3}, "geometry": {"type": "LineString", "coordinates": [[-74.24344121583663, 40.499328728498654], [-74.24364168349678, 40.499288493743904]]}}, {"type": "Feature", "properties": {"segment_id": 1165597, "physicalid": "81002", "street_name": "MAIN ST", "borough": "staten_island", "direction": "TW", "total_row_ft": 57.7, "roadbed_ft": 36.2, "median_ft": 0.0, "left_sw_ft": 11.5, "right_sw_ft": 10.0}, "geometry": {"type": "LineString", "coordinates": [[-74.24342293732127, 40.49927563501655], [-74.2436235380066, 40.499235373564915]]}}, {"type": "Feature", "properties": {"segment_id": 1165598, "physicalid": "81002", "street_name": "MAIN ST", "borough": "staten_island", "direction": "TW", "total_row_ft": 120.0, "roadbed_ft": 36.3, "median_ft": 0.0, "left_sw_ft": 41.5, "right_sw_ft": 42.2}, "geometry": {"type": "LineString", "coordinates": [[-74.24330035327958, 40.49924347596229], [-74.24371764627872, 40.4991597233851]]}}, {"type": "Feature", "properties": {"segment_id": 1166319, "physicalid": "81045", "street_name": "CHELSEA ST", "borough": "staten_island", "direction": "TW", "total_row_ft": 57.3, "roadbed_ft": 39.5, "median_ft": 0.0, "left_sw_ft": 9.7, "right_sw_ft": 8.1}, "geometry": {"type": "LineString", "coordinates": [[-74.24273507290748, 40.49997482702491], [-74.24293441502041, 40.49993502893486]]}}, {"type": "Feature", "properties": {"segment_id": 1166320, "physicalid": "81045", "street_name": "CHELSEA ST", "borough": "staten_island", "direction": "TW", "total_row_ft": 57.2, "roadbed_ft": 39.2, "median_ft": 0.0, "left_sw_ft": 9.8, "right_sw_ft": 8.2}, "geometry": {"type": "LineString", "coordinates": [[-74.24271714930474, 40.49992166261278], [-74.24291613042598, 40.49988193659552]]}}, {"type": "Feature", "properties": {"segment_id": 1166321, "physicalid": "81045", "street_name": "CHELSEA ST", "borough": "staten_island", "direction": "TW", "total_row_ft": 57.2, "roadbed_ft": 38.9, "median_ft": 0.0, "left_sw_ft": 9.9, "right_sw_ft": 8.4}, "geometry": {"type": "LineString", "coordinates": [[-74.24269889691924, 40.49986856384358], [-74.24289784586057, 40.49982884425308]]}}, {"type": "Feature", "properties": {"segment_id": 1166322, "physicalid": "81045", "street_name": "CHELSEA ST", "borough": "staten_island", "direction": "TW", "total_row_ft": 57.2, "roadbed_ft": 38.5, "median_ft": 0.0, "left_sw_ft": 10.1, "right_sw_ft": 8.6}, "geometry": {"type": "LineString", "coordinates": [[-74.24268064456274, 40.49981546507123], [-74.24287956132422, 40.49977575190754]]}}, {"type": "Feature", "properties": {"segment_id": 1166323, "physicalid": "81045", "street_name": "CHELSEA ST", "borough": "staten_island", "direction": "TW", "total_row_ft": 57.2, "roadbed_ft": 38.2, "median_ft": 0.0, "left_sw_ft": 10.2, "right_sw_ft": 8.7}, "geometry": {"type": "LineString", "coordinates": [[-74.24266239223523, 40.499762366295826], [-74.24286127681687, 40.49972265955888]]}}, {"type": "Feature", "properties": {"segment_id": 1166324, "physicalid": "81045", "street_name": "CHELSEA ST", "borough": "staten_island", "direction": "TW", "total_row_ft": 57.1, "roadbed_ft": 37.9, "median_ft": 0.0, "left_sw_ft": 10.3, "right_sw_ft": 8.9}, "geometry": {"type": "LineString", "coordinates": [[-74.24264413993669, 40.499709267517304], [-74.24284286718533, 40.49966959219374]]}}, {"type": "Feature", "properties": {"segment_id": 1166325, "physicalid": "81045", "street_name": "CHELSEA ST", "borough": "staten_island", "direction": "TW", "total_row_ft": 57.1, "roadbed_ft": 37.6, "median_ft": 0.0, "left_sw_ft": 10.5, "right_sw_ft": 9.0}, "geometry": {"type": "LineString", "coordinates": [[-74.2426258876885, 40.49965616873142], [-74.24282438201153, 40.49961653991317]]}}, {"type": "Feature", "properties": {"segment_id": 1166326, "physicalid": "81045", "street_name": "CHELSEA ST", "borough": "staten_island", "direction": "TW", "total_row_ft": 57.0, "roadbed_ft": 37.3, "median_ft": 0.0, "left_sw_ft": 10.6, "right_sw_ft": 9.1}, "geometry": {"type": "LineString", "coordinates": [[-74.24260752799898, 40.49960309139854], [-74.24280589684818, 40.49956348763317]]}}, {"type": "Feature", "properties": {"segment_id": 1166327, "physicalid": "81045", "street_name": "CHELSEA ST", "borough": "staten_island", "direction": "TW", "total_row_ft": 57.1, "roadbed_ft": 37.0, "median_ft": 0.0, "left_sw_ft": 10.9, "right_sw_ft": 9.2}, "geometry": {"type": "LineString", "coordinates": [[-74.24258887995678, 40.49955007163678], [-74.24278741171418, 40.49951043535001]]}}, {"type": "Feature", "properties": {"segment_id": 1166328, "physicalid": "81045", "street_name": "CHELSEA ST", "borough": "staten_island", "direction": "TW", "total_row_ft": 57.1, "roadbed_ft": 36.7, "median_ft": 0.0, "left_sw_ft": 11.1, "right_sw_ft": 9.3}, "geometry": {"type": "LineString", "coordinates": [[-74.24257023194417, 40.49949705187179], [-74.24276892660951, 40.499457383063714]]}}, {"type": "Feature", "properties": {"segment_id": 1166329, "physicalid": "81045", "street_name": "CHELSEA ST", "borough": "staten_island", "direction": "TW", "total_row_ft": 57.2, "roadbed_ft": 36.4, "median_ft": 0.0, "left_sw_ft": 11.3, "right_sw_ft": 9.5}, "geometry": {"type": "LineString", "coordinates": [[-74.24255158396113, 40.49944403210361], [-74.24275044153417, 40.49940433077419]]}}, {"type": "Feature", "properties": {"segment_id": 1166330, "physicalid": "81045", "street_name": "CHELSEA ST", "borough": "staten_island", "direction": "TW", "total_row_ft": 120.0, "roadbed_ft": 37.7, "median_ft": 0.0, "left_sw_ft": 39.0, "right_sw_ft": 43.3}, "geometry": {"type": "LineString", "coordinates": [[-74.24243298558766, 40.499410966990034], [-74.2428504214019, 40.49932762712536]]}}, {"type": "Feature", "properties": {"segment_id": 1712223, "physicalid": "180388", "street_name": "BILLOP AVE", "borough": "staten_island", "direction": "TW", "total_row_ft": 106.7, "roadbed_ft": 76.7, "median_ft": 0.0, "left_sw_ft": 15.0, "right_sw_ft": 15.0}, "geometry": {"type": "LineString", "coordinates": [[-74.24436356721286, 40.49877905560955], [-74.24447381481798, 40.4990975004012]]}}, {"type": "Feature", "properties": {"segment_id": 1712224, "physicalid": "180388", "street_name": "BILLOP AVE", "borough": "staten_island", "direction": "TW", "total_row_ft": 65.5, "roadbed_ft": 31.7, "median_ft": 0.0, "left_sw_ft": 15.0, "right_sw_ft": 18.8}, "geometry": {"type": "LineString", "coordinates": [[-74.24443309210035, 40.49876502879391], [-74.24452958087842, 40.49904373122471]]}}, {"type": "Feature", "properties": {"segment_id": 1712225, "physicalid": "180388", "street_name": "BILLOP AVE", "borough": "staten_island", "direction": "TW", "total_row_ft": 63.8, "roadbed_ft": 31.7, "median_ft": 0.0, "left_sw_ft": 15.0, "right_sw_ft": 17.1}, "geometry": {"type": "LineString", "coordinates": [[-74.24450261695864, 40.498751001936135], [-74.24460959236842, 40.49905999334235]]}}, {"type": "Feature", "properties": {"segment_id": 1712226, "physicalid": "180388", "street_name": "BILLOP AVE", "borough": "staten_island", "direction": "TW", "total_row_ft": 58.4, "roadbed_ft": 31.8, "median_ft": 0.0, "left_sw_ft": 15.0, "right_sw_ft": 11.6}, "geometry": {"type": "LineString", "coordinates": [[-74.24457214178778, 40.49873697503622], [-74.24465446280344, 40.498974753402045]]}}, {"type": "Feature", "properties": {"segment_id": 1712227, "physicalid": "180388", "street_name": "BILLOP AVE", "borough": "staten_island", "direction": "TW", "total_row_ft": 57.9, "roadbed_ft": 31.9, "median_ft": 0.0, "left_sw_ft": 15.0, "right_sw_ft": 11.0}, "geometry": {"type": "LineString", "coordinates": [[-74.24464166658777, 40.4987229480942], [-74.24472364522765, 40.498959736824894]]}}, {"type": "Feature", "properties": {"segment_id": 1712228, "physicalid": "180388", "street_name": "BILLOP AVE", "borough": "staten_island", "direction": "TW", "total_row_ft": 58.0, "roadbed_ft": 30.1, "median_ft": 0.0, "left_sw_ft": 15.0, "right_sw_ft": 12.9}, "geometry": {"type": "LineString", "coordinates": [[-74.24471119135855, 40.498708921109994], [-74.24479339944843, 40.49894637187322]]}}, {"type": "Feature", "properties": {"segment_id": 1712229, "physicalid": "180388", "street_name": "BILLOP AVE", "borough": "staten_island", "direction": "TW", "total_row_ft": 80.0, "roadbed_ft": 50.0, "median_ft": 0.0, "left_sw_ft": 15.0, "right_sw_ft": 15.0}, "geometry": {"type": "LineString", "coordinates": [[-74.24478071610021, 40.49869489408367], [-74.24489096555305, 40.49901333847635]]}}, {"type": "Feature", "properties": {"segment_id": 1712230, "physicalid": "180388", "street_name": "BILLOP AVE", "borough": "staten_island", "direction": "TW", "total_row_ft": 88.2, "roadbed_ft": 49.9, "median_ft": 0.0, "left_sw_ft": 15.0, "right_sw_ft": 23.3}, "geometry": {"type": "LineString", "coordinates": [[-74.24485024081268, 40.498680867015224], [-74.24496049057346, 40.49899931134139]]}}, {"type": "Feature", "properties": {"segment_id": 1712231, "physicalid": "180388", "street_name": "BILLOP AVE", "borough": "staten_island", "direction": "TW", "total_row_ft": 79.6, "roadbed_ft": 49.6, "median_ft": 0.0, "left_sw_ft": 15.0, "right_sw_ft": 15.0}, "geometry": {"type": "LineString", "coordinates": [[-74.24491976549596, 40.49866683990462], [-74.24503001556474, 40.49898528416432]]}}, {"type": "Feature", "properties": {"segment_id": 1712232, "physicalid": "180388", "street_name": "BILLOP AVE", "borough": "staten_island", "direction": "TW", "total_row_ft": 47.5, "roadbed_ft": 17.5, "median_ft": 0.0, "left_sw_ft": 15.0, "right_sw_ft": 15.0}, "geometry": {"type": "LineString", "coordinates": [[-74.24498929015009, 40.49865281275189], [-74.24509954052684, 40.49897125694507]]}}]}