{"type": "FeatureCollection", "features": [{"type": "Feature", "properties": {"segment_id": 735505, "physicalid": "51809", "street_name": "SOUTH AVE", "borough": "staten_island", "direction": "TW", "total_row_ft": 94.8, "roadbed_ft": 75.0, "median_ft": 0.0, "left_sw_ft": 4.8, "right_sw_ft": 15.0}, "geometry": {"type": "LineString", "coordinates": [[-74.19435816339254, 40.60104670104251], [-74.19452714677519, 40.60122373270703]]}}, {"type": "Feature", "properties": {"segment_id": 735506, "physicalid": "51809", "street_name": "SOUTH AVE", "borough": "staten_island", "direction": "TW", "total_row_ft": 64.1, "roadbed_ft": 34.1, "median_ft": 0.0, "left_sw_ft": 15.0, "right_sw_ft": 15.0}, "geometry": {"type": "LineString", "coordinates": [[-74.1943311526543, 40.60092509418272], [-74.1945853859037, 40.60119143617417]]}}, {"type": "Feature", "properties": {"segment_id": 735507, "physicalid": "51809", "street_name": "SOUTH AVE", "borough": "staten_island", "direction": "TW", "total_row_ft": 63.7, "roadbed_ft": 33.7, "median_ft": 0.0, "left_sw_ft": 15.0, "right_sw_ft": 15.0}, "geometry": {"type": "LineString", "coordinates": [[-74.19438939161711, 40.600892797748244], [-74.19464362497585, 40.60115913961169]]}}, {"type": "Feature", "properties": {"segment_id": 735508, "physicalid": "51809", "street_name": "SOUTH AVE", "borough": "staten_island", "direction": "TW", "total_row_ft": 63.3, "roadbed_ft": 33.3, "median_ft": 0.0, "left_sw_ft": 15.0, "right_sw_ft": 15.0}, "geometry": {"type": "LineString", "coordinates": [[-74.19444763052358, 40.600860501284146], [-74.19470186399168, 40.60112684301962]]}}, {"type": "Feature", "properties": {"segment_id": 735509, "physicalid": "51809", "street_name": "SOUTH AVE", "borough": "staten_island", "direction": "TW", "total_row_ft": 63.0, "roadbed_ft": 33.0, "median_ft": 0.0, "left_sw_ft": 15.0, "right_sw_ft": 15.0}, "geometry": {"type": "LineString", "coordinates": [[-74.19450586937373, 40.60082820479044], [-74.19476010295115, 40.601094546397896]]}}, {"type": "Feature", "properties": {"segment_id": 735510, "physicalid": "51809", "street_name": "SOUTH AVE", "borough": "staten_island", "direction": "TW", "total_row_ft": 62.8, "roadbed_ft": 32.8, "median_ft": 0.0, "left_sw_ft": 15.0, "right_sw_ft": 15.0}, "geometry": {"type": "LineString", "coordinates": [[-74.19456410816754, 40.60079590826709], [-74.19481834185426, 40.601062249746626]]}}, {"type": "Feature", "properties": {"segment_id": 735511, "physicalid": "51809", "street_name": "SOUTH AVE", "borough": "staten_island", "direction": "TW", "total_row_ft": 62.7, "roadbed_ft": 32.7, "median_ft": 0.0, "left_sw_ft": 15.0, "right_sw_ft": 15.0}, "geometry": {"type": "LineString", "coordinates": [[-74.19462234690496, 40.60076361171415], [-74.19487658070108, 40.60102995306566]]}}, {"type": "Feature", "properties": {"segment_id": 735512, "physicalid": "51809", "street_name": "SOUTH AVE", "borough": "staten_island", "direction": "TW", "total_row_ft": 62.4, "roadbed_ft": 32.4, "median_ft": 0.0, "left_sw_ft": 15.0, "right_sw_ft": 15.0}, "geometry": {"type": "LineString", "coordinates": [[-74.19468058558608, 40.60073131513161], [-74.19493481949152, 40.60099765635512]]}}, {"type": "Feature", "properties": {"segment_id": 735513, "physicalid": "51809", "street_name": "SOUTH AVE", "borough": "staten_island", "direction": "TW", "total_row_ft": 62.4, "roadbed_ft": 32.4, "median_ft": 0.0, "left_sw_ft": 15.0, "right_sw_ft": 15.0}, "geometry": {"type": "LineString", "coordinates": [[-74.19473882421086, 40.60069901851943], [-74.19499305822562, 40.60096535961496]]}}, {"type": "Feature", "properties": {"segment_id": 735514, "physicalid": "51809", "street_name": "SOUTH AVE", "borough": "staten_island", "direction": "TW", "total_row_ft": 62.8, "roadbed_ft": 32.8, "median_ft": 0.0, "left_sw_ft": 15.0, "right_sw_ft": 15.0}, "geometry": {"type": "LineString", "coordinates": [[-74.19479706277926, 40.60066672187764], [-74.1950512969034, 40.60093306284517]]}}, {"type": "Feature", "properties": {"segment_id": 735515, "physicalid": "51809", "street_name": "SOUTH AVE", "borough": "staten_island", "direction": "TW", "total_row_ft": 65.3, "roadbed_ft": 35.3, "median_ft": 0.0, "left_sw_ft": 15.0, "right_sw_ft": 15.0}, "geometry": {"type": "LineString", "coordinates": [[-74.19485530129134, 40.60063442520624], [-74.19510953552482, 40.600900766045804]]}}, {"type": "Feature", "properties": {"segment_id": 735516, "physicalid": "51812", "street_name": "SOUTH AVE", "borough": "staten_island", "direction": "TW", "total_row_ft": 103.3, "roadbed_ft": 78.5, "median_ft": 0.0, "left_sw_ft": 9.8, "right_sw_ft": 15.0}, "geometry": {"type": "LineString", "coordinates": [[-74.19099893165487, 40.60213802492602], [-74.19110763828323, 40.60236569984911]]}}, {"type": "Feature", "properties": {"segment_id": 735517, "physicalid": "51812", "street_name": "SOUTH AVE", "borough": "staten_island", "direction": "TW", "total_row_ft": 57.5, "roadbed_ft": 33.4, "median_ft": 0.0, "left_sw_ft": 9.2, "right_sw_ft": 15.0}, "geometry": {"type": "LineString", "coordinates": [[-74.19106739954721, 40.602120900053336], [-74.19117531932979, 40.602346926523]]}}, {"type": "Feature", "properties": {"segment_id": 735518, "physicalid": "51812", "street_name": "SOUTH AVE", "borough": "staten_island", "direction": "TW", "total_row_ft": 57.2, "roadbed_ft": 33.6, "median_ft": 0.0, "left_sw_ft": 8.6, "right_sw_ft": 15.0}, "geometry": {"type": "LineString", "coordinates": [[-74.1911358674044, 40.60210377513985], [-74.19124300033829, 40.60232815315696]]}}, {"type": "Feature", "properties": {"segment_id": 735519, "physicalid": "51812", "street_name": "SOUTH AVE", "borough": "staten_island", "direction": "TW", "total_row_ft": 57.2, "roadbed_ft": 33.8, "median_ft": 0.0, "left_sw_ft": 8.3, "right_sw_ft": 15.0}, "geometry": {"type": "LineString", "coordinates": [[-74.19120392498643, 40.60208579098209], [-74.19131068130872, 40.60230937975104]]}}, {"type": "Feature", "properties": {"segment_id": 735520, "physicalid": "51812", "street_name": "SOUTH AVE", "borough": "staten_island", "direction": "TW", "total_row_ft": 57.2, "roadbed_ft": 34.0, "median_ft": 0.0, "left_sw_ft": 8.2, "right_sw_ft": 15.0}, "geometry": {"type": "LineString", "coordinates": [[-74.19127195001762, 40.60206773868685], [-74.19137836224111, 40.60229060630524]]}}, {"type": "Feature", "properties": {"segment_id": 735521, "physicalid": "51812", "street_name": "SOUTH AVE", "borough": "staten_island", "direction": "TW", "total_row_ft": 57.1, "roadbed_ft": 33.9, "median_ft": 0.0, "left_sw_ft": 8.3, "right_sw_ft": 15.0}, "geometry": {"type": "LineString", "coordinates": [[-74.19133997501206, 40.602049686351286], [-74.19144604313543, 40.602271832819525]]}}, {"type": "Feature", "properties": {"segment_id": 735522, "physicalid": "51812", "street_name": "SOUTH AVE", "borough": "staten_island", "direction": "TW", "total_row_ft": 57.0, "roadbed_ft": 33.6, "median_ft": 0.0, "left_sw_ft": 8.4, "right_sw_ft": 15.0}, "geometry": {"type": "LineString", "coordinates": [[-74.19140799996971, 40.60203163397545], [-74.19151372399168, 40.60225305929395]]}}, {"type": "Feature", "properties": {"segment_id": 735523, "physicalid": "51812", "street_name": "SOUTH AVE", "borough": "staten_island", "direction": "TW", "total_row_ft": 56.9, "roadbed_ft": 33.4, "median_ft": 0.0, "left_sw_ft": 8.6, "right_sw_ft": 15.0}, "geometry": {"type": "LineString", "coordinates": [[-74.19147602489058, 40.60201358155931], [-74.19158140480988, 40.602234285728464]]}}, {"type": "Feature", "properties": {"segment_id": 735524, "physicalid": "51812", "street_name": "SOUTH AVE", "borough": "staten_island", "direction": "TW", "total_row_ft": 56.8, "roadbed_ft": 33.1, "median_ft": 0.0, "left_sw_ft": 8.7, "right_sw_ft": 15.0}, "geometry": {"type": "LineString", "coordinates": [[-74.19154399704111, 40.60199541865932], [-74.19164908559, 40.60221551212308]]}}, {"type": "Feature", "properties": {"segment_id": 735525, "physicalid": "51812", "street_name": "SOUTH AVE", "borough": "staten_island", "direction": "TW", "total_row_ft": 56.8, "roadbed_ft": 33.2, "median_ft": 0.0, "left_sw_ft": 8.6, "right_sw_ft": 15.0}, "geometry": {"type": "LineString", "coordinates": [[-74.19161190441629, 40.60197712013339], [-74.19171676633208, 40.602196738477815]]}}, {"type": "Feature", "properties": {"segment_id": 735526, "physicalid": "51812", "street_name": "SOUTH AVE", "borough": "staten_island", "direction": "TW", "total_row_ft": 56.7, "roadbed_ft": 33.3, "median_ft": 0.0, "left_sw_ft": 8.5, "right_sw_ft": 15.0}, "geometry": {"type": "LineString", "coordinates": [[-74.19167981175427, 40.60195882156729], [-74.19178444703607, 40.60217796479265]]}}, {"type": "Feature", "properties": {"segment_id": 735527, "physicalid": "51812", "street_name": "SOUTH AVE", "borough": "staten_island", "direction": "TW", "total_row_ft": 56.5, "roadbed_ft": 33.2, "median_ft": 0.0, "left_sw_ft": 8.3, "right_sw_ft": 15.0}, "geometry": {"type": "LineString", "coordinates": [[-74.19174771906648, 40.601940522985046], [-74.19185212770203, 40.602159191067614]]}}, {"type": "Feature", "properties": {"segment_id": 735528, "physicalid": "51812", "street_name": "SOUTH AVE", "borough": "staten_island", "direction": "TW", "total_row_ft": 56.2, "roadbed_ft": 33.1, "median_ft": 0.0, "left_sw_ft": 8.1, "right_sw_ft": 15.0}, "geometry": {"type": "LineString", "coordinates": [[-74.19181562634193, 40.60192222436358], [-74.1919198083299, 40.60214041730267]]}}, {"type": "Feature", "properties": {"segment_id": 735529, "physicalid": "51812", "street_name": "SOUTH AVE", "borough": "staten_island", "direction": "TW", "total_row_ft": 56.4, "roadbed_ft": 33.4, "median_ft": 0.0, "left_sw_ft": 8.0, "right_sw_ft": 15.0}, "geometry": {"type": "LineString", "coordinates": [[-74.19188306828511, 40.60190295121268], [-74.19198748891974, 40.60212164349783]]}}, {"type": "Feature", "properties": {"segment_id": 735530, "physicalid": "51812", "street_name": "SOUTH AVE", "borough": "staten_island", "direction": "TW", "total_row_ft": 57.0, "roadbed_ft": 33.6, "median_ft": 0.0, "left_sw_ft": 8.4, "right_sw_ft": 15.0}, "geometry": {"type": "LineString", "coordinates": [[-74.19194789033945, 40.6018827511532], [-74.19205961870726, 40.60210147618894]]}}, {"type": "Feature", "properties": {"segment_id": 735531, "physicalid": "51812", "street_name": "SOUTH AVE", "borough": "staten_island", "direction": "TW", "total_row_ft": 57.2, "roadbed_ft": 33.4, "median_ft": 0.0, "left_sw_ft": 8.8, "right_sw_ft": 15.0}, "geometry": {"type": "LineString", "coordinates": [[-74.19201456614182, 40.601861973371776], [-74.19212673438884, 40.60208155910838]]}}, {"type": "Feature", "properties": {"segment_id": 735532, "physicalid": "51812", "street_name": "SOUTH AVE", "borough": "staten_island", "direction": "TW", "total_row_ft": 57.4, "roadbed_ft": 33.2, "median_ft": 0.0, "left_sw_ft": 9.1, "right_sw_ft": 15.0}, "geometry": {"type": "LineString", "coordinates": [[-74.1920812419027, 40.601841195551636], [-74.19219385003039, 40.60206164198857]]}}, {"type": "Feature", "properties": {"segment_id": 735533, "physicalid": "51812", "street_name": "SOUTH AVE", "borough": "staten_island", "direction": "TW", "total_row_ft": 63.0, "roadbed_ft": 33.0, "median_ft": 0.0, "left_sw_ft": 15.0, "right_sw_ft": 15.0}, "geometry": {"type": "LineString", "coordinates": [[-74.1921041788777, 40.60173479261785], [-74.19226096563187, 40.60204172482953]]}}, {"type": "Feature", "properties": {"segment_id": 735534, "physicalid": "51812", "street_name": "SOUTH AVE", "borough": "staten_island", "direction": "TW", "total_row_ft": 62.7, "roadbed_ft": 32.7, "median_ft": 0.0, "left_sw_ft": 15.0, "right_sw_ft": 15.0}, "geometry": {"type": "LineString", "coordinates": [[-74.19217129417737, 40.60171487551053], [-74.19232808119332, 40.60202180763126]]}}, {"type": "Feature", "properties": {"segment_id": 735535, "physicalid": "51812", "street_name": "SOUTH AVE", "borough": "staten_island", "direction": "TW", "total_row_ft": 57.7, "roadbed_ft": 32.5, "median_ft": 0.0, "left_sw_ft": 10.2, "right_sw_ft": 15.0}, "geometry": {"type": "LineString", "coordinates": [[-74.19228007462533, 40.60177985225569], [-74.1923981730081, 40.602000298446455]]}}, {"type": "Feature", "properties": {"segment_id": 735536, "physicalid": "51812", "street_name": "SOUTH AVE", "borough": "staten_island", "direction": "TW", "total_row_ft": 58.0, "roadbed_ft": 32.3, "median_ft": 0.0, "left_sw_ft": 10.7, "right_sw_ft": 15.0}, "geometry": {"type": "LineString", "coordinates": [[-74.19234667887494, 40.601758961644684], [-74.19246485158693, 40.60197954617048]]}}, {"type": "Feature", "properties": {"segment_id": 735537, "physicalid": "51812", "street_name": "SOUTH AVE", "borough": "staten_island", "direction": "TW", "total_row_ft": 58.3, "roadbed_ft": 32.5, "median_ft": 0.0, "left_sw_ft": 10.8, "right_sw_ft": 15.0}, "geometry": {"type": "LineString", "coordinates": [[-74.19241328308286, 40.601738070995026], [-74.1925315301243, 40.60195879385579]]}}, {"type": "Feature", "properties": {"segment_id": 735538, "physicalid": "51812", "street_name": "SOUTH AVE", "borough": "staten_island", "direction": "TW", "total_row_ft": 58.6, "roadbed_ft": 32.7, "median_ft": 0.0, "left_sw_ft": 10.9, "right_sw_ft": 15.0}, "geometry": {"type": "LineString", "coordinates": [[-74.19247988724909, 40.60171718030676], [-74.19259820862023, 40.601938041502365]]}}, {"type": "Feature", "properties": {"segment_id": 735539, "physicalid": "51812", "street_name": "SOUTH AVE", "borough": "staten_island", "direction": "TW", "total_row_ft": 58.9, "roadbed_ft": 32.8, "median_ft": 0.0, "left_sw_ft": 11.1, "right_sw_ft": 15.0}, "geometry": {"type": "LineString", "coordinates": [[-74.19254504011214, 40.60169677961817], [-74.19266800114735, 40.6019159746269]]}}, {"type": "Feature", "properties": {"segment_id": 735540, "physicalid": "51812", "street_name": "SOUTH AVE", "borough": "staten_island", "direction": "TW", "total_row_ft": 59.1, "roadbed_ft": 32.9, "median_ft": 0.0, "left_sw_ft": 11.2, "right_sw_ft": 15.0}, "geometry": {"type": "LineString", "coordinates": [[-74.1926116717146, 40.601675925414035], [-74.19273422477488, 40.601894392762695]]}}, {"type": "Feature", "properties": {"segment_id": 735541, "physicalid": "51812", "street_name": "SOUTH AVE", "borough": "staten_island", "direction": "TW", "total_row_ft": 59.3, "roadbed_ft": 32.9, "median_ft": 0.0, "left_sw_ft": 11.4, "right_sw_ft": 15.0}, "geometry": {"type": "LineString", "coordinates": [[-74.19267830319117, 40.60165507102099], [-74.19280044835958, 40.60187281086027]]}}, {"type": "Feature", "properties": {"segment_id": 735542, "physicalid": "51812", "street_name": "SOUTH AVE", "borough": "staten_island", "direction": "TW", "total_row_ft": 59.6, "roadbed_ft": 32.8, "median_ft": 0.0, "left_sw_ft": 11.8, "right_sw_ft": 15.0}, "geometry": {"type": "LineString", "coordinates": [[-74.19274493462567, 40.60163421658844], [-74.19286667190144, 40.60185122891965]]}}, {"type": "Feature", "properties": {"segment_id": 735543, "physicalid": "51812", "street_name": "SOUTH AVE", "borough": "staten_island", "direction": "TW", "total_row_ft": 60.3, "roadbed_ft": 32.8, "median_ft": 0.0, "left_sw_ft": 12.5, "right_sw_ft": 15.0}, "geometry": {"type": "LineString", "coordinates": [[-74.19281125140877, 40.60161280128397], [-74.19293289540053, 40.60182964694081]]}}, {"type": "Feature", "properties": {"segment_id": 735544, "physicalid": "51812", "street_name": "SOUTH AVE", "borough": "staten_island", "direction": "TW", "total_row_ft": 61.2, "roadbed_ft": 32.8, "median_ft": 0.0, "left_sw_ft": 13.4, "right_sw_ft": 15.0}, "geometry": {"type": "LineString", "coordinates": [[-74.19287560203529, 40.60159133101185], [-74.19300236662359, 40.60180589000789]]}}, {"type": "Feature", "properties": {"segment_id": 735545, "physicalid": "51812", "street_name": "SOUTH AVE", "borough": "staten_island", "direction": "TW", "total_row_ft": 61.0, "roadbed_ft": 32.8, "median_ft": 0.0, "left_sw_ft": 13.2, "right_sw_ft": 15.0}, "geometry": {"type": "LineString", "coordinates": [[-74.19294312404745, 40.60157192299418], [-74.19306803800042, 40.601783349282464]]}}, {"type": "Feature", "properties": {"segment_id": 735546, "physicalid": "51812", "street_name": "SOUTH AVE", "borough": "staten_island", "direction": "TW", "total_row_ft": 63.0, "roadbed_ft": 33.0, "median_ft": 0.0, "left_sw_ft": 15.0, "right_sw_ft": 15.0}, "geometry": {"type": "LineString", "coordinates": [[-74.19295627047683, 40.60146047992801], [-74.19313370933288, 40.60176080851946]]}}, {"type": "Feature", "properties": {"segment_id": 735547, "physicalid": "51812", "street_name": "SOUTH AVE", "borough": "staten_island", "direction": "TW", "total_row_ft": 49.4, "roadbed_ft": 33.1, "median_ft": 0.0, "left_sw_ft": 1.3, "right_sw_ft": 15.0}, "geometry": {"type": "LineString", "coordinates": [[-74.19309481750153, 40.60156128744075], [-74.19319938062101, 40.601738267718865]]}}, {"type": "Feature", "properties": {"segment_id": 735548, "physicalid": "51812", "street_name": "SOUTH AVE", "borough": "staten_island", "direction": "TW", "total_row_ft": 61.7, "roadbed_ft": 33.2, "median_ft": 0.0, "left_sw_ft": 13.6, "right_sw_ft": 15.0}, "geometry": {"type": "LineString", "coordinates": [[-74.19314154202718, 40.601506678214456], [-74.19326505186483, 40.60171572688073]]}}, {"type": "Feature", "properties": {"segment_id": 735549, "physicalid": "51812", "street_name": "SOUTH AVE", "borough": "staten_island", "direction": "TW", "total_row_ft": 60.1, "roadbed_ft": 32.9, "median_ft": 0.0, "left_sw_ft": 12.1, "right_sw_ft": 15.0}, "geometry": {"type": "LineString", "coordinates": [[-74.1932064167537, 40.6014861263469], [-74.19333490326447, 40.60169153618099]]}}, {"type": "Feature", "properties": {"segment_id": 735550, "physicalid": "51812", "street_name": "SOUTH AVE", "borough": "staten_island", "direction": "TW", "total_row_ft": 58.5, "roadbed_ft": 32.7, "median_ft": 0.0, "left_sw_ft": 10.7, "right_sw_ft": 15.0}, "geometry": {"type": "LineString", "coordinates": [[-74.19327295994762, 40.601464949668255], [-74.19339991521568, 40.60166791119928]]}}, {"type": "Feature", "properties": {"segment_id": 735551, "physicalid": "51812", "street_name": "SOUTH AVE", "borough": "staten_island", "direction": "TW", "total_row_ft": 56.9, "roadbed_ft": 32.5, "median_ft": 0.0, "left_sw_ft": 9.3, "right_sw_ft": 15.0}, "geometry": {"type": "LineString", "coordinates": [[-74.19333950303434, 40.6014437728471], [-74.19346492712084, 40.60164428618073]]}}, {"type": "Feature", "properties": {"segment_id": 735552, "physicalid": "51812", "street_name": "SOUTH AVE", "borough": "staten_island", "direction": "TW", "total_row_ft": 55.8, "roadbed_ft": 32.5, "median_ft": 0.0, "left_sw_ft": 8.3, "right_sw_ft": 15.0}, "geometry": {"type": "LineString", "coordinates": [[-74.1934051278588, 40.6014211280422], [-74.19352993898003, 40.60162066112534]]}}, {"type": "Feature", "properties": {"segment_id": 735553, "physicalid": "51812", "street_name": "SOUTH AVE", "borough": "staten_island", "direction": "TW", "total_row_ft": 55.7, "roadbed_ft": 32.5, "median_ft": 0.0, "left_sw_ft": 8.2, "right_sw_ft": 15.0}, "geometry": {"type": "LineString", "coordinates": [[-74.19346947716576, 40.601396444122564], [-74.19359495079317, 40.60159703603314]]}}, {"type": "Feature", "properties": {"segment_id": 735554, "physicalid": "51812", "street_name": "SOUTH AVE", "borough": "staten_island", "direction": "TW", "total_row_ft": 55.5, "roadbed_ft": 32.5, "median_ft": 0.0, "left_sw_ft": 8.0, "right_sw_ft": 15.0}, "geometry": {"type": "LineString", "coordinates": [[-74.19353382642514, 40.60137176016684], [-74.19365996256033, 40.60157341090408]]}}, {"type": "Feature", "properties": {"segment_id": 735555, "physicalid": "51812", "street_name": "SOUTH AVE", "borough": "staten_island", "direction": "TW", "total_row_ft": 55.3, "roadbed_ft": 32.5, "median_ft": 0.0, "left_sw_ft": 7.8, "right_sw_ft": 15.0}, "geometry": {"type": "LineString", "coordinates": [[-74.19359665190443, 40.60134765860024], [-74.19372898253475, 40.601547874409185]]}}, {"type": "Feature", "properties": {"segment_id": 735556, "physicalid": "51812", "street_name": "SOUTH AVE", "borough": "staten_island", "direction": "TW", "total_row_ft": 55.1, "roadbed_ft": 32.5, "median_ft": 0.0, "left_sw_ft": 7.7, "right_sw_ft": 15.0}, "geometry": {"type": "LineString", "coordinates": [[-74.19366092733414, 40.60132289085759], [-74.19379330420207, 40.60152317633268]]}}, {"type": "Feature", "properties": {"segment_id": 735557, "physicalid": "51812", "street_name": "SOUTH AVE", "borough": "staten_island", "direction": "TW", "total_row_ft": 55.0, "roadbed_ft": 32.5, "median_ft": 0.0, "left_sw_ft": 7.5, "right_sw_ft": 15.0}, "geometry": {"type": "LineString", "coordinates": [[-74.19372520271615, 40.6012981230789], [-74.19385762582182, 40.60149847822011]]}}, {"type": "Feature", "properties": {"segment_id": 735558, "physicalid": "51812", "street_name": "SOUTH AVE", "borough": "staten_island", "direction": "TW", "total_row_ft": 54.9, "roadbed_ft": 32.5, "median_ft": 0.0, "left_sw_ft": 7.4, "right_sw_ft": 15.0}, "geometry": {"type": "LineString", "coordinates": [[-74.19378947805049, 40.601273355264226], [-74.19392194739397, 40.60147378007146]]}}, {"type": "Feature", "properties": {"segment_id": 735559, "physicalid": "51812", "street_name": "SOUTH AVE", "borough": "staten_island", "direction": "TW", "total_row_ft": 62.5, "roadbed_ft": 32.5, "median_ft": 0.0, "left_sw_ft": 15.0, "right_sw_ft": 15.0}, "geometry": {"type": "LineString", "coordinates": [[-74.19379184794906, 40.60115492484308], [-74.19398626891854, 40.60144908188677]]}}, {"type": "Feature", "properties": {"segment_id": 735560, "physicalid": "51812", "street_name": "SOUTH AVE", "borough": "staten_island", "direction": "TW", "total_row_ft": 62.7, "roadbed_ft": 32.7, "median_ft": 0.0, "left_sw_ft": 15.0, "right_sw_ft": 15.0}, "geometry": {"type": "LineString", "coordinates": [[-74.19385616921457, 40.60113022673043], [-74.19405059039552, 40.601424383665986]]}}, {"type": "Feature", "properties": {"segment_id": 735561, "physicalid": "51812", "street_name": "SOUTH AVE", "borough": "staten_island", "direction": "TW", "total_row_ft": 53.3, "roadbed_ft": 32.7, "median_ft": 0.0, "left_sw_ft": 5.6, "right_sw_ft": 15.0}, "geometry": {"type": "LineString", "coordinates": [[-74.19398263360131, 40.601202292548535], [-74.19411873523431, 40.60139751759031]]}}, {"type": "Feature", "properties": {"segment_id": 735562, "physicalid": "51812", "street_name": "SOUTH AVE", "borough": "staten_island", "direction": "TW", "total_row_ft": 53.8, "roadbed_ft": 32.8, "median_ft": 0.0, "left_sw_ft": 6.0, "right_sw_ft": 15.0}, "geometry": {"type": "LineString", "coordinates": [[-74.19404580881175, 40.60117592274189], [-74.1941823361317, 40.60137175812666]]}}, {"type": "Feature", "properties": {"segment_id": 735563, "physicalid": "51812", "street_name": "SOUTH AVE", "borough": "staten_island", "direction": "TW", "total_row_ft": 54.3, "roadbed_ft": 32.9, "median_ft": 0.0, "left_sw_ft": 6.4, "right_sw_ft": 15.0}, "geometry": {"type": "LineString", "coordinates": [[-74.1941089839723, 40.601149552900466], [-74.19424593698002, 40.60134599862775]]}}, {"type": "Feature", "properties": {"segment_id": 735564, "physicalid": "51812", "street_name": "SOUTH AVE", "borough": "staten_island", "direction": "TW", "total_row_ft": 54.7, "roadbed_ft": 32.9, "median_ft": 0.0, "left_sw_ft": 6.8, "right_sw_ft": 15.0}, "geometry": {"type": "LineString", "coordinates": [[-74.19417215908294, 40.60112318302419], [-74.19430953777928, 40.601320239093596]]}}, {"type": "Feature", "properties": {"segment_id": 735565, "physicalid": "51812", "street_name": "SOUTH AVE", "borough": "staten_island", "direction": "TW", "total_row_ft": 55.3, "roadbed_ft": 33.0, "median_ft": 0.0, "left_sw_ft": 7.3, "right_sw_ft": 15.0}, "geometry": {"type": "LineString", "coordinates": [[-74.19423513657244, 40.60109652971632], [-74.19437313852943, 40.60129447952418]]}}, {"type": "Feature", "properties": {"segment_id": 735571, "physicalid": "51813", "street_name": "SOUTH AVE", "borough": "staten_island", "direction": "TW", "total_row_ft": 78.2, "roadbed_ft": 45.0, "median_ft": 0.0, "left_sw_ft": 15.0, "right_sw_ft": 18.2}, "geometry": {"type": "LineString", "coordinates": [[-74.19006406282026, 40.60220489864515], [-74.19003924165966, 40.6025056348404]]}}, {"type": "Feature", "properties": {"segment_id": 735572, "physicalid": "51813", "street_name": "SOUTH AVE", "borough": "staten_island", "direction": "TW", "total_row_ft": 71.3, "roadbed_ft": 41.3, "median_ft": 0.0, "left_sw_ft": 15.0, "right_sw_ft": 15.0}, "geometry": {"type": "LineString", "coordinates": [[-74.19013594412496, 40.602208345164975], [-74.1901088131921, 40.60253707099103]]}}, {"type": "Feature", "properties": {"segment_id": 1247400, "physicalid": "85829", "street_name": "MEREDITH AVE", "borough": "staten_island", "direction": "TW", "total_row_ft": 66.6, "roadbed_ft": 42.9, "median_ft": 0.0, "left_sw_ft": 8.7, "right_sw_ft": 15.0}, "geometry": {"type": "LineString", "coordinates": [[-74.19517501900486, 40.600708959579734], [-74.19493586551012, 40.60085103269823]]}}, {"type": "Feature", "properties": {"segment_id": 1247401, "physicalid": "85829", "street_name": "MEREDITH AVE", "borough": "staten_island", "direction": "TW", "total_row_ft": 50.8, "roadbed_ft": 29.2, "median_ft": 0.0, "left_sw_ft": 6.6, "right_sw_ft": 15.0}, "geometry": {"type": "LineString", "coordinates": [[-74.19520895700192, 40.600758398351985], [-74.1949801399687, 40.60089433095342]]}}, {"type": "Feature", "properties": {"segment_id": 1247402, "physicalid": "85829", "street_name": "MEREDITH AVE", "borough": "staten_island", "direction": "TW", "total_row_ft": 49.2, "roadbed_ft": 28.8, "median_ft": 0.0, "left_sw_ft": 5.4, "right_sw_ft": 15.0}, "geometry": {"type": "LineString", "coordinates": [[-74.19525254681352, 40.60080210329879], [-74.19502441448472, 40.60093762919138]]}}, {"type": "Feature", "properties": {"segment_id": 1247403, "physicalid": "85829", "street_name": "MEREDITH AVE", "borough": "staten_island", "direction": "TW", "total_row_ft": 49.2, "roadbed_ft": 28.7, "median_ft": 0.0, "left_sw_ft": 5.5, "right_sw_ft": 15.0}, "geometry": {"type": "LineString", "coordinates": [[-74.19529803610074, 40.60084467984232], [-74.19506868905815, 40.600980927412074]]}}, {"type": "Feature", "properties": {"segment_id": 1247404, "physicalid": "85829", "street_name": "MEREDITH AVE", "borough": "staten_island", "direction": "TW", "total_row_ft": 49.2, "roadbed_ft": 28.6, "median_ft": 0.0, "left_sw_ft": 5.6, "right_sw_ft": 15.0}, "geometry": {"type": "LineString", "coordinates": [[-74.195343525446, 40.60088725636764], [-74.195112963689, 40.60102422561554]]}}, {"type": "Feature", "properties": {"segment_id": 1247405, "physicalid": "85829", "street_name": "MEREDITH AVE", "borough": "staten_island", "direction": "TW", "total_row_ft": 49.2, "roadbed_ft": 28.4, "median_ft": 0.0, "left_sw_ft": 5.8, "right_sw_ft": 15.0}, "geometry": {"type": "LineString", "coordinates": [[-74.19538901484925, 40.600929832874805], [-74.19515723837728, 40.601067523801774]]}}, {"type": "Feature", "properties": {"segment_id": 1247406, "physicalid": "85829", "street_name": "MEREDITH AVE", "borough": "staten_island", "direction": "TW", "total_row_ft": 49.0, "roadbed_ft": 28.9, "median_ft": 0.0, "left_sw_ft": 5.1, "right_sw_ft": 15.0}, "geometry": {"type": "LineString", "coordinates": [[-74.19543223858602, 40.60097375536323], [-74.19520151312298, 40.60111082197074]]}}, {"type": "Feature", "properties": {"segment_id": 1247407, "physicalid": "85829", "street_name": "MEREDITH AVE", "borough": "staten_island", "direction": "TW", "total_row_ft": 48.8, "roadbed_ft": 29.1, "median_ft": 0.0, "left_sw_ft": 4.7, "right_sw_ft": 15.0}, "geometry": {"type": "LineString", "coordinates": [[-74.19547504182776, 40.60101792767264], [-74.19524578792611, 40.601154120122494]]}}, {"type": "Feature", "properties": {"segment_id": 1247408, "physicalid": "85829", "street_name": "MEREDITH AVE", "borough": "staten_island", "direction": "TW", "total_row_ft": 48.6, "roadbed_ft": 28.4, "median_ft": 0.0, "left_sw_ft": 5.3, "right_sw_ft": 15.0}, "geometry": {"type": "LineString", "coordinates": [[-74.19551784512616, 40.60106209996591], [-74.19529006278665, 40.60119741825701]]}}, {"type": "Feature", "properties": {"segment_id": 1247409, "physicalid": "85829", "street_name": "MEREDITH AVE", "borough": "staten_island", "direction": "TW", "total_row_ft": 48.4, "roadbed_ft": 27.6, "median_ft": 0.0, "left_sw_ft": 5.8, "right_sw_ft": 15.0}, "geometry": {"type": "LineString", "coordinates": [[-74.19556064848119, 40.60110627224305], [-74.19533433770464, 40.60124071637427]]}}, {"type": "Feature", "properties": {"segment_id": 1247410, "physicalid": "85829", "street_name": "MEREDITH AVE", "borough": "staten_island", "direction": "TW", "total_row_ft": 48.1, "roadbed_ft": 26.8, "median_ft": 0.0, "left_sw_ft": 6.3, "right_sw_ft": 15.0}, "geometry": {"type": "LineString", "coordinates": [[-74.19560345189285, 40.601150444504064], [-74.19537861268003, 40.601284014474274]]}}, {"type": "Feature", "properties": {"segment_id": 1247411, "physicalid": "85829", "street_name": "MEREDITH AVE", "borough": "staten_island", "direction": "TW", "total_row_ft": 47.8, "roadbed_ft": 26.0, "median_ft": 0.0, "left_sw_ft": 6.8, "right_sw_ft": 15.0}, "geometry": {"type": "LineString", "coordinates": [[-74.19564624983764, 40.6011946200303], [-74.19542288771282, 40.60132731255706]]}}, {"type": "Feature", "properties": {"segment_id": 1247412, "physicalid": "85829", "street_name": "MEREDITH AVE", "borough": "staten_island", "direction": "TW", "total_row_ft": 47.5, "roadbed_ft": 25.3, "median_ft": 0.0, "left_sw_ft": 7.2, "right_sw_ft": 15.0}, "geometry": {"type": "LineString", "coordinates": [[-74.19568903831373, 40.601238801199116], [-74.1954671628031, 40.6013706106226]]}}, {"type": "Feature", "properties": {"segment_id": 1247413, "physicalid": "85829", "street_name": "MEREDITH AVE", "borough": "staten_island", "direction": "TW", "total_row_ft": 47.1, "roadbed_ft": 24.9, "median_ft": 0.0, "left_sw_ft": 7.2, "right_sw_ft": 15.0}, "geometry": {"type": "LineString", "coordinates": [[-74.19573182684645, 40.601282982351826], [-74.19551143795078, 40.60141390867091]]}}, {"type": "Feature", "properties": {"segment_id": 1247414, "physicalid": "85829", "street_name": "MEREDITH AVE", "borough": "staten_island", "direction": "TW", "total_row_ft": 46.8, "roadbed_ft": 25.0, "median_ft": 0.0, "left_sw_ft": 6.8, "right_sw_ft": 15.0}, "geometry": {"type": "LineString", "coordinates": [[-74.1957746154358, 40.601327163488406], [-74.19555571315587, 40.60145720670196]]}}, {"type": "Feature", "properties": {"segment_id": 1247415, "physicalid": "85829", "street_name": "MEREDITH AVE", "borough": "staten_island", "direction": "TW", "total_row_ft": 46.5, "roadbed_ft": 25.2, "median_ft": 0.0, "left_sw_ft": 6.3, "right_sw_ft": 15.0}, "geometry": {"type": "LineString", "coordinates": [[-74.19581740408178, 40.60137134460886], [-74.1955999884184, 40.60150050471578]]}}, {"type": "Feature", "properties": {"segment_id": 1247416, "physicalid": "85829", "street_name": "MEREDITH AVE", "borough": "staten_island", "direction": "TW", "total_row_ft": 48.4, "roadbed_ft": 27.6, "median_ft": 0.0, "left_sw_ft": 5.8, "right_sw_ft": 15.0}, "geometry": {"type": "LineString", "coordinates": [[-74.1958601927844, 40.601415525713186], [-74.19564426373832, 40.60154380271232]]}}, {"type": "Feature", "properties": {"segment_id": 1247417, "physicalid": "85829", "street_name": "MEREDITH AVE", "borough": "staten_island", "direction": "TW", "total_row_ft": 50.8, "roadbed_ft": 30.5, "median_ft": 0.0, "left_sw_ft": 5.3, "right_sw_ft": 15.0}, "geometry": {"type": "LineString", "coordinates": [[-74.19590298152619, 40.60145970681176], [-74.1956885391157, 40.60158710069167]]}}, {"type": "Feature", "properties": {"segment_id": 1247418, "physicalid": "85829", "street_name": "MEREDITH AVE", "borough": "staten_island", "direction": "TW", "total_row_ft": 52.3, "roadbed_ft": 32.5, "median_ft": 0.0, "left_sw_ft": 4.8, "right_sw_ft": 15.0}, "geometry": {"type": "LineString", "coordinates": [[-74.19594577024363, 40.601503887942314], [-74.1957328145505, 40.601630398653775]]}}, {"type": "Feature", "properties": {"segment_id": 1247419, "physicalid": "85829", "street_name": "MEREDITH AVE", "borough": "staten_island", "direction": "TW", "total_row_ft": 52.8, "roadbed_ft": 33.5, "median_ft": 0.0, "left_sw_ft": 4.3, "right_sw_ft": 15.0}, "geometry": {"type": "LineString", "coordinates": [[-74.19598855901769, 40.60154806905676], [-74.19577709004271, 40.6016736965986]]}}, {"type": "Feature", "properties": {"segment_id": 1247420, "physicalid": "85829", "street_name": "MEREDITH AVE", "borough": "staten_island", "direction": "TW", "total_row_ft": 53.1, "roadbed_ft": 34.4, "median_ft": 0.0, "left_sw_ft": 3.8, "right_sw_ft": 15.0}, "geometry": {"type": "LineString", "coordinates": [[-74.19603134784839, 40.601592250155065], [-74.19582136559237, 40.60171699452622]]}}, {"type": "Feature", "properties": {"segment_id": 1273275, "physicalid": "87281", "street_name": "W SHORE EXPRESSWAY SB EN S AVE", "borough": "staten_island", "direction": "FT", "total_row_ft": 75.7, "roadbed_ft": 45.7, "median_ft": 0.0, "left_sw_ft": 15.0, "right_sw_ft": 15.0}, "geometry": {"type": "LineString", "coordinates": [[-74.18982763012676, 40.6001860919249], [-74.19022371374889, 40.60031778621481]]}}, {"type": "Feature", "properties": {"segment_id": 1273276, "physicalid": "87281", "street_name": "W SHORE EXPRESSWAY SB EN S AVE", "borough": "staten_island", "direction": "FT", "total_row_ft": 78.6, "roadbed_ft": 48.6, "median_ft": 0.0, "left_sw_ft": 15.0, "right_sw_ft": 15.0}, "geometry": {"type": "LineString", "coordinates": [[-74.18985642649828, 40.60013577493379], [-74.19025250987872, 40.60026746912511]]}}, {"type": "Feature", "properties": {"segment_id": 1273277, "physicalid": "87281", "street_name": "W SHORE EXPRESSWAY SB EN S AVE", "borough": "staten_island", "direction": "FT", "total_row_ft": 81.6, "roadbed_ft": 51.6, "median_ft": 0.0, "left_sw_ft": 15.0, "right_sw_ft": 15.0}, "geometry": {"type": "LineString", "coordinates": [[-74.1898852228264, 40.60008545793523], [-74.19028130596516, 40.60021715202794]]}}, {"type": "Feature", "properties": {"segment_id": 1273278, "physicalid": "87281", "street_name": "W SHORE EXPRESSWAY SB EN S AVE", "borough": "staten_island", "direction": "FT", "total_row_ft": 84.4, "roadbed_ft": 54.4, "median_ft": 0.0, "left_sw_ft": 15.0, "right_sw_ft": 15.0}, "geometry": {"type": "LineString", "coordinates": [[-74.18991401911111, 40.60003514092919], [-74.19031010200818, 40.600166834923314]]}}, {"type": "Feature", "properties": {"segment_id": 1273279, "physicalid": "87281", "street_name": "W SHORE EXPRESSWAY SB EN S AVE", "borough": "staten_island", "direction": "FT", "total_row_ft": 87.3, "roadbed_ft": 57.3, "median_ft": 0.0, "left_sw_ft": 15.0, "right_sw_ft": 15.0}, "geometry": {"type": "LineString", "coordinates": [[-74.18994281535244, 40.59998482391569], [-74.1903388980078, 40.60011651781123]]}}, {"type": "Feature", "properties": {"segment_id": 1273280, "physicalid": "87281", "street_name": "W SHORE EXPRESSWAY SB EN S AVE", "borough": "staten_island", "direction": "FT", "total_row_ft": 90.7, "roadbed_ft": 60.7, "median_ft": 0.0, "left_sw_ft": 15.0, "right_sw_ft": 15.0}, "geometry": {"type": "LineString", "coordinates": [[-74.18997161155035, 40.59993450689475], [-74.19036769396403, 40.60006620069167]]}}, {"type": "Feature", "properties": {"segment_id": 1412991, "physicalid": "95808", "street_name": "SPENCER ST", "borough": "staten_island", "direction": "TW", "total_row_ft": 69.3, "roadbed_ft": 39.3, "median_ft": 0.0, "left_sw_ft": 15.0, "right_sw_ft": 15.0}, "geometry": {"type": "LineString", "coordinates": [[-74.19578518163306, 40.60245994832438], [-74.1960476179672, 40.60219826669129]]}}, {"type": "Feature", "properties": {"segment_id": 1412992, "physicalid": "95808", "street_name": "SPENCER ST", "borough": "staten_island", "direction": "TW", "total_row_ft": 68.8, "roadbed_ft": 38.8, "median_ft": 0.0, "left_sw_ft": 15.0, "right_sw_ft": 15.0}, "geometry": {"type": "LineString", "coordinates": [[-74.19572796051936, 40.602426610322595], [-74.19599039694671, 40.60216492881929]]}}, {"type": "Feature", "properties": {"segment_id": 1412993, "physicalid": "95808", "street_name": "SPENCER ST", "borough": "staten_island", "direction": "TW", "total_row_ft": 68.2, "roadbed_ft": 38.2, "median_ft": 0.0, "left_sw_ft": 15.0, "right_sw_ft": 15.0}, "geometry": {"type": "LineString", "coordinates": [[-74.1956707394628, 40.6023932722922], [-74.19593317598338, 40.60213159091869]]}}, {"type": "Feature", "properties": {"segment_id": 1412994, "physicalid": "95808", "street_name": "SPENCER ST", "borough": "staten_island", "direction": "TW", "total_row_ft": 67.7, "roadbed_ft": 37.7, "median_ft": 0.0, "left_sw_ft": 15.0, "right_sw_ft": 15.0}, "geometry": {"type": "LineString", "coordinates": [[-74.19561351846339, 40.60235993423319], [-74.1958759550772, 40.60209825298948]]}}, {"type": "Feature", "properties": {"segment_id": 1412995, "physicalid": "95808", "street_name": "SPENCER ST", "borough": "staten_island", "direction": "TW", "total_row_ft": 67.5, "roadbed_ft": 37.5, "median_ft": 0.0, "left_sw_ft": 15.0, "right_sw_ft": 15.0}, "geometry": {"type": "LineString", "coordinates": [[-74.19555629752112, 40.60232659614558], [-74.19581873422815, 40.602064915031676]]}}, {"type": "Feature", "properties": {"segment_id": 1412996, "physicalid": "95808", "street_name": "SPENCER ST", "borough": "staten_island", "direction": "TW", "total_row_ft": 67.7, "roadbed_ft": 37.7, "median_ft": 0.0, "left_sw_ft": 15.0, "right_sw_ft": 15.0}, "geometry": {"type": "LineString", "coordinates": [[-74.19549425810114, 40.60228925465774], [-74.19576773621813, 40.60203422647385]]}}, {"type": "Feature", "properties": {"segment_id": 1412997, "physicalid": "95808", "street_name": "SPENCER ST", "borough": "staten_island", "direction": "TW", "total_row_ft": 67.7, "roadbed_ft": 37.7, "median_ft": 0.0, "left_sw_ft": 15.0, "right_sw_ft": 15.0}, "geometry": {"type": "LineString", "coordinates": [[-74.19543849202857, 40.60225451390356], [-74.19571197021628, 40.601999485851515]]}}, {"type": "Feature", "properties": {"segment_id": 1412998, "physicalid": "95808", "street_name": "SPENCER ST", "borough": "staten_island", "direction": "TW", "total_row_ft": 68.2, "roadbed_ft": 38.2, "median_ft": 0.0, "left_sw_ft": 15.0, "right_sw_ft": 15.0}, "geometry": {"type": "LineString", "coordinates": [[-74.19538272601403, 40.60221977312221], [-74.19565620427245, 40.601964745202]]}}, {"type": "Feature", "properties": {"segment_id": 1412999, "physicalid": "95808", "street_name": "SPENCER ST", "borough": "staten_island", "direction": "TW", "total_row_ft": 68.8, "roadbed_ft": 38.8, "median_ft": 0.0, "left_sw_ft": 15.0, "right_sw_ft": 15.0}, "geometry": {"type": "LineString", "coordinates": [[-74.19533613747637, 40.602191140912716], [-74.19559035692362, 40.60192478918315]]}}, {"type": "Feature", "properties": {"segment_id": 1413000, "physicalid": "95808", "street_name": "SPENCER ST", "borough": "staten_island", "direction": "TW", "total_row_ft": 69.3, "roadbed_ft": 39.3, "median_ft": 0.0, "left_sw_ft": 15.0, "right_sw_ft": 15.0}, "geometry": {"type": "LineString", "coordinates": [[-74.19527789539706, 40.6021588465903], [-74.19553211495369, 40.601892494988746]]}}, {"type": "Feature", "properties": {"segment_id": 1413001, "physicalid": "95808", "street_name": "SPENCER ST", "borough": "staten_island", "direction": "TW", "total_row_ft": 69.4, "roadbed_ft": 39.4, "median_ft": 0.0, "left_sw_ft": 15.0, "right_sw_ft": 15.0}, "geometry": {"type": "LineString", "coordinates": [[-74.19521965337408, 40.602126552238296], [-74.19547387304009, 40.60186020076471]]}}, {"type": "Feature", "properties": {"segment_id": 1413002, "physicalid": "95808", "street_name": "SPENCER ST", "borough": "staten_island", "direction": "TW", "total_row_ft": 68.1, "roadbed_ft": 38.1, "median_ft": 0.0, "left_sw_ft": 15.0, "right_sw_ft": 15.0}, "geometry": {"type": "LineString", "coordinates": [[-74.19516141140743, 40.602094257856656], [-74.19541563118285, 40.601827906511076]]}}, {"type": "Feature", "properties": {"segment_id": 1413003, "physicalid": "95808", "street_name": "SPENCER ST", "borough": "staten_island", "direction": "TW", "total_row_ft": 66.5, "roadbed_ft": 36.5, "median_ft": 0.0, "left_sw_ft": 15.0, "right_sw_ft": 15.0}, "geometry": {"type": "LineString", "coordinates": [[-74.19510244585625, 40.60206124133356], [-74.19535851142942, 40.60179591923064]]}}, {"type": "Feature", "properties": {"segment_id": 1413004, "physicalid": "95808", "street_name": "SPENCER ST", "borough": "staten_island", "direction": "TW", "total_row_ft": 65.3, "roadbed_ft": 35.3, "median_ft": 0.0, "left_sw_ft": 15.0, "right_sw_ft": 15.0}, "geometry": {"type": "LineString", "coordinates": [[-74.19504442903629, 40.60202871242881], [-74.19530049471521, 40.601763390454295]]}}, {"type": "Feature", "properties": {"segment_id": 1413005, "physicalid": "95808", "street_name": "SPENCER ST", "borough": "staten_island", "direction": "TW", "total_row_ft": 62.7, "roadbed_ft": 32.7, "median_ft": 0.0, "left_sw_ft": 15.0, "right_sw_ft": 15.0}, "geometry": {"type": "LineString", "coordinates": [[-74.19498641227285, 40.60199618349467], [-74.19524247805754, 40.60173086164855]]}}, {"type": "Feature", "properties": {"segment_id": 1413006, "physicalid": "95808", "street_name": "SPENCER ST", "borough": "staten_island", "direction": "TW", "total_row_ft": 60.9, "roadbed_ft": 30.9, "median_ft": 0.0, "left_sw_ft": 15.0, "right_sw_ft": 15.0}, "geometry": {"type": "LineString", "coordinates": [[-74.19489670775539, 40.60192213957907], [-74.19523955824548, 40.601721640796406]]}}, {"type": "Feature", "properties": {"segment_id": 1413007, "physicalid": "95808", "street_name": "SPENCER ST", "borough": "staten_island", "direction": "TW", "total_row_ft": 60.9, "roadbed_ft": 30.9, "median_ft": 0.0, "left_sw_ft": 15.0, "right_sw_ft": 15.0}, "geometry": {"type": "LineString", "coordinates": [[-74.1948528657301, 40.60187858604514], [-74.19519571612825, 40.601678087392436]]}}, {"type": "Feature", "properties": {"segment_id": 1413008, "physicalid": "95808", "street_name": "SPENCER ST", "borough": "staten_island", "direction": "TW", "total_row_ft": 60.8, "roadbed_ft": 30.8, "median_ft": 0.0, "left_sw_ft": 15.0, "right_sw_ft": 15.0}, "geometry": {"type": "LineString", "coordinates": [[-74.19480902376205, 40.60183503249431], [-74.1951518740682, 40.60163453397155]]}}, {"type": "Feature", "properties": {"segment_id": 1413009, "physicalid": "95808", "street_name": "SPENCER ST", "borough": "staten_island", "direction": "TW", "total_row_ft": 60.7, "roadbed_ft": 30.7, "median_ft": 0.0, "left_sw_ft": 15.0, "right_sw_ft": 15.0}, "geometry": {"type": "LineString", "coordinates": [[-74.1947651818512, 40.601791478926586], [-74.19510803206536, 40.60159098053375]]}}, {"type": "Feature", "properties": {"segment_id": 1413010, "physicalid": "95808", "street_name": "SPENCER ST", "borough": "staten_island", "direction": "TW", "total_row_ft": 60.6, "roadbed_ft": 30.6, "median_ft": 0.0, "left_sw_ft": 15.0, "right_sw_ft": 15.0}, "geometry": {"type": "LineString", "coordinates": [[-74.19472133999753, 40.60174792534194], [-74.19506419011971, 40.601547427079055]]}}, {"type": "Feature", "properties": {"segment_id": 1413011, "physicalid": "95808", "street_name": "SPENCER ST", "borough": "staten_island", "direction": "TW", "total_row_ft": 60.6, "roadbed_ft": 30.6, "median_ft": 0.0, "left_sw_ft": 15.0, "right_sw_ft": 15.0}, "geometry": {"type": "LineString", "coordinates": [[-74.19467749820106, 40.60170437174037], [-74.19502034823124, 40.6015038736074]]}}, {"type": "Feature", "properties": {"segment_id": 1413012, "physicalid": "95808", "street_name": "SPENCER ST", "borough": "staten_island", "direction": "TW", "total_row_ft": 60.6, "roadbed_ft": 30.6, "median_ft": 0.0, "left_sw_ft": 15.0, "right_sw_ft": 15.0}, "geometry": {"type": "LineString", "coordinates": [[-74.19463365646179, 40.60166081812191], [-74.19497650639998, 40.601460320118875]]}}, {"type": "Feature", "properties": {"segment_id": 1413013, "physicalid": "95808", "street_name": "SPENCER ST", "borough": "staten_island", "direction": "TW", "total_row_ft": 60.5, "roadbed_ft": 30.5, "median_ft": 0.0, "left_sw_ft": 15.0, "right_sw_ft": 15.0}, "geometry": {"type": "LineString", "coordinates": [[-74.19458981477976, 40.601617264486556], [-74.1949326646259, 40.601416766613404]]}}, {"type": "Feature", "properties": {"segment_id": 1413014, "physicalid": "95808", "street_name": "SPENCER ST", "borough": "staten_island", "direction": "TW", "total_row_ft": 60.3, "roadbed_ft": 30.3, "median_ft": 0.0, "left_sw_ft": 15.0, "right_sw_ft": 15.0}, "geometry": {"type": "LineString", "coordinates": [[-74.19454597315486, 40.60157371083424], [-74.19488882290906, 40.60137321309107]]}}, {"type": "Feature", "properties": {"segment_id": 1413015, "physicalid": "95808", "street_name": "SPENCER ST", "borough": "staten_island", "direction": "TW", "total_row_ft": 60.2, "roadbed_ft": 30.2, "median_ft": 0.0, "left_sw_ft": 15.0, "right_sw_ft": 15.0}, "geometry": {"type": "LineString", "coordinates": [[-74.19450213158719, 40.601530157165044], [-74.1948449812494, 40.6013296595518]]}}, {"type": "Feature", "properties": {"segment_id": 1413016, "physicalid": "95808", "street_name": "SPENCER ST", "borough": "staten_island", "direction": "TW", "total_row_ft": 59.9, "roadbed_ft": 29.9, "median_ft": 0.0, "left_sw_ft": 15.0, "right_sw_ft": 15.0}, "geometry": {"type": "LineString", "coordinates": [[-74.19445829007672, 40.601486603478925], [-74.19480113964693, 40.6012861059956]]}}, {"type": "Feature", "properties": {"segment_id": 1413017, "physicalid": "95808", "street_name": "SPENCER ST", "borough": "staten_island", "direction": "TW", "total_row_ft": 58.2, "roadbed_ft": 28.2, "median_ft": 0.0, "left_sw_ft": 15.0, "right_sw_ft": 15.0}, "geometry": {"type": "LineString", "coordinates": [[-74.19441444862346, 40.60144304977594], [-74.19475729810164, 40.60124255242249]]}}, {"type": "Feature", "properties": {"segment_id": 1413018, "physicalid": "95808", "street_name": "SPENCER ST", "borough": "staten_island", "direction": "TW", "total_row_ft": 58.2, "roadbed_ft": 28.2, "median_ft": 0.0, "left_sw_ft": 15.0, "right_sw_ft": 15.0}, "geometry": {"type": "LineString", "coordinates": [[-74.19437060722736, 40.60139949605597], [-74.19471345661358, 40.601198998832515]]}}, {"type": "Feature", "properties": {"segment_id": 1413019, "physicalid": "95808", "street_name": "SPENCER ST", "borough": "staten_island", "direction": "TW", "total_row_ft": 62.2, "roadbed_ft": 32.2, "median_ft": 0.0, "left_sw_ft": 15.0, "right_sw_ft": 15.0}, "geometry": {"type": "LineString", "coordinates": [[-74.19432676588848, 40.60135594231912], [-74.1946696151827, 40.60115544522562]]}}, {"type": "Feature", "properties": {"segment_id": 1413020, "physicalid": "95808", "street_name": "SPENCER ST", "borough": "staten_island", "direction": "TW", "total_row_ft": 64.2, "roadbed_ft": 34.2, "median_ft": 0.0, "left_sw_ft": 15.0, "right_sw_ft": 15.0}, "geometry": {"type": "LineString", "coordinates": [[-74.1942829246068, 40.60131238856537], [-74.19462577380902, 40.60111189160178]]}}, {"type": "Feature", "properties": {"segment_id": 1413021, "physicalid": "95808", "street_name": "SPENCER ST", "borough": "staten_island", "direction": "TW", "total_row_ft": 65.8, "roadbed_ft": 35.8, "median_ft": 0.0, "left_sw_ft": 15.0, "right_sw_ft": 15.0}, "geometry": {"type": "LineString", "coordinates": [[-74.19423908338233, 40.60126883479472], [-74.19458193249251, 40.60106833796101]]}}, {"type": "Feature", "properties": {"segment_id": 1575879, "physicalid": "119611", "street_name": "CHELSEA RD", "borough": "staten_island", "direction": "TW", "total_row_ft": 51.3, "roadbed_ft": 21.3, "median_ft": 0.0, "left_sw_ft": 15.0, "right_sw_ft": 15.0}, "geometry": {"type": "LineString", "coordinates": [[-74.1899257756832, 40.60596770141568], [-74.19015751602623, 40.606245717920224]]}}, {"type": "Feature", "properties": {"segment_id": 1575880, "physicalid": "119611", "street_name": "CHELSEA RD", "borough": "staten_island", "direction": "TW", "total_row_ft": 52.1, "roadbed_ft": 22.1, "median_ft": 0.0, "left_sw_ft": 15.0, "right_sw_ft": 15.0}, "geometry": {"type": "LineString", "coordinates": [[-74.18998657203392, 40.60593826460051], [-74.19021831252788, 40.606216280983325]]}}, {"type": "Feature", "properties": {"segment_id": 1575881, "physicalid": "119611", "street_name": "CHELSEA RD", "borough": "staten_island", "direction": "TW", "total_row_ft": 53.6, "roadbed_ft": 23.6, "median_ft": 0.0, "left_sw_ft": 15.0, "right_sw_ft": 15.0}, "geometry": {"type": "LineString", "coordinates": [[-74.190047368331, 40.605908827753105], [-74.19027910897597, 40.606186844014154]]}}, {"type": "Feature", "properties": {"segment_id": 1575882, "physicalid": "119611", "street_name": "CHELSEA RD", "borough": "staten_island", "direction": "TW", "total_row_ft": 54.9, "roadbed_ft": 24.9, "median_ft": 0.0, "left_sw_ft": 15.0, "right_sw_ft": 15.0}, "geometry": {"type": "LineString", "coordinates": [[-74.19010816457444, 40.605879390873476], [-74.19033990537045, 40.60615740701273]]}}, {"type": "Feature", "properties": {"segment_id": 1575883, "physicalid": "119611", "street_name": "CHELSEA RD", "borough": "staten_island", "direction": "TW", "total_row_ft": 55.6, "roadbed_ft": 25.6, "median_ft": 0.0, "left_sw_ft": 15.0, "right_sw_ft": 15.0}, "geometry": {"type": "LineString", "coordinates": [[-74.19016896076432, 40.60584995396158], [-74.19040070171128, 40.606127969979084]]}}, {"type": "Feature", "properties": {"segment_id": 1575884, "physicalid": "119611", "street_name": "CHELSEA RD", "borough": "staten_island", "direction": "TW", "total_row_ft": 59.1, "roadbed_ft": 29.1, "median_ft": 0.0, "left_sw_ft": 15.0, "right_sw_ft": 15.0}, "geometry": {"type": "LineString", "coordinates": [[-74.19022975690056, 40.60582051701741], [-74.19046149799851, 40.60609853291316]]}}, {"type": "Feature", "properties": {"segment_id": 1575885, "physicalid": "119611", "street_name": "CHELSEA RD", "borough": "staten_island", "direction": "TW", "total_row_ft": 70.4, "roadbed_ft": 40.4, "median_ft": 0.0, "left_sw_ft": 15.0, "right_sw_ft": 15.0}, "geometry": {"type": "LineString", "coordinates": [[-74.19029055298317, 40.60579108004105], [-74.19052229423217, 40.60606909581502]]}}, {"type": "Feature", "properties": {"segment_id": 1575886, "physicalid": "119611", "street_name": "CHELSEA RD", "borough": "staten_island", "direction": "TW", "total_row_ft": 66.5, "roadbed_ft": 36.5, "median_ft": 0.0, "left_sw_ft": 15.0, "right_sw_ft": 15.0}, "geometry": {"type": "LineString", "coordinates": [[-74.1903513490122, 40.60576164303241], [-74.19058309041215, 40.60603965868463]]}}, {"type": "Feature", "properties": {"segment_id": 1575887, "physicalid": "119611", "street_name": "CHELSEA RD", "borough": "staten_island", "direction": "TW", "total_row_ft": 72.1, "roadbed_ft": 42.1, "median_ft": 0.0, "left_sw_ft": 15.0, "right_sw_ft": 15.0}, "geometry": {"type": "LineString", "coordinates": [[-74.19027718124529, 40.60592720201768], [-74.19067048109832, 40.60579069145881]]}}, {"type": "Feature", "properties": {"segment_id": 1575888, "physicalid": "119611", "street_name": "CHELSEA RD", "borough": "staten_island", "direction": "TW", "total_row_ft": 64.8, "roadbed_ft": 34.8, "median_ft": 0.0, "left_sw_ft": 15.0, "right_sw_ft": 15.0}, "geometry": {"type": "LineString", "coordinates": [[-74.19024732946312, 40.60587724278974], [-74.19064062908289, 40.60574073233235]]}}, {"type": "Feature", "properties": {"segment_id": 1575889, "physicalid": "119611", "street_name": "CHELSEA RD", "borough": "staten_island", "direction": "TW", "total_row_ft": 60.5, "roadbed_ft": 30.5, "median_ft": 0.0, "left_sw_ft": 15.0, "right_sw_ft": 15.0}, "geometry": {"type": "LineString", "coordinates": [[-74.19021747772564, 40.60582728355382], [-74.19061077711214, 40.605690773197914]]}}, {"type": "Feature", "properties": {"segment_id": 1575890, "physicalid": "119611", "street_name": "CHELSEA RD", "borough": "staten_island", "direction": "TW", "total_row_ft": 55.7, "roadbed_ft": 25.7, "median_ft": 0.0, "left_sw_ft": 15.0, "right_sw_ft": 15.0}, "geometry": {"type": "LineString", "coordinates": [[-74.19018762603284, 40.60577732430988], [-74.19058092518607, 40.605640814055455]]}}, {"type": "Feature", "properties": {"segment_id": 1575891, "physicalid": "119611", "street_name": "CHELSEA RD", "borough": "staten_island", "direction": "TW", "total_row_ft": 53.4, "roadbed_ft": 23.4, "median_ft": 0.0, "left_sw_ft": 15.0, "right_sw_ft": 15.0}, "geometry": {"type": "LineString", "coordinates": [[-74.19015777438467, 40.60572736505792], [-74.19055107330468, 40.605590854904996]]}}, {"type": "Feature", "properties": {"segment_id": 1575892, "physicalid": "119611", "street_name": "CHELSEA RD", "borough": "staten_island", "direction": "TW", "total_row_ft": 53.1, "roadbed_ft": 23.1, "median_ft": 0.0, "left_sw_ft": 15.0, "right_sw_ft": 15.0}, "geometry": {"type": "LineString", "coordinates": [[-74.19012792278122, 40.60567740579798], [-74.19052122146795, 40.60554089574656]]}}, {"type": "Feature", "properties": {"segment_id": 1575893, "physicalid": "119611", "street_name": "CHELSEA RD", "borough": "staten_island", "direction": "TW", "total_row_ft": 52.7, "roadbed_ft": 22.7, "median_ft": 0.0, "left_sw_ft": 15.0, "right_sw_ft": 15.0}, "geometry": {"type": "LineString", "coordinates": [[-74.19009807122245, 40.605627446530036], [-74.1904913696759, 40.60549093658007]]}}, {"type": "Feature", "properties": {"segment_id": 1575894, "physicalid": "119611", "street_name": "CHELSEA RD", "borough": "staten_island", "direction": "TW", "total_row_ft": 52.0, "roadbed_ft": 22.0, "median_ft": 0.0, "left_sw_ft": 15.0, "right_sw_ft": 15.0}, "geometry": {"type": "LineString", "coordinates": [[-74.19006821970837, 40.60557748725413], [-74.19046151792851, 40.605440977405586]]}}, {"type": "Feature", "properties": {"segment_id": 1575895, "physicalid": "119611", "street_name": "CHELSEA RD", "borough": "staten_island", "direction": "TW", "total_row_ft": 51.9, "roadbed_ft": 21.9, "median_ft": 0.0, "left_sw_ft": 15.0, "right_sw_ft": 15.0}, "geometry": {"type": "LineString", "coordinates": [[-74.19003836823893, 40.605527527970196], [-74.19043166622582, 40.60539101822312]]}}, {"type": "Feature", "properties": {"segment_id": 1575896, "physicalid": "119611", "street_name": "CHELSEA RD", "borough": "staten_island", "direction": "TW", "total_row_ft": 51.9, "roadbed_ft": 21.9, "median_ft": 0.0, "left_sw_ft": 15.0, "right_sw_ft": 15.0}, "geometry": {"type": "LineString", "coordinates": [[-74.19000851681419, 40.60547756867825], [-74.1904018145678, 40.60534105903265]]}}, {"type": "Feature", "properties": {"segment_id": 1575897, "physicalid": "119611", "street_name": "CHELSEA RD", "borough": "staten_island", "direction": "TW", "total_row_ft": 52.0, "roadbed_ft": 22.0, "median_ft": 0.0, "left_sw_ft": 15.0, "right_sw_ft": 15.0}, "geometry": {"type": "LineString", "coordinates": [[-74.18997866543411, 40.6054276093783], [-74.19037196295444, 40.605291099834176]]}}, {"type": "Feature", "properties": {"segment_id": 1575898, "physicalid": "119611", "street_name": "CHELSEA RD", "borough": "staten_island", "direction": "TW", "total_row_ft": 51.9, "roadbed_ft": 21.9, "median_ft": 0.0, "left_sw_ft": 15.0, "right_sw_ft": 15.0}, "geometry": {"type": "LineString", "coordinates": [[-74.18994881409873, 40.60537765007035], [-74.19034211138577, 40.6052411406277]]}}, {"type": "Feature", "properties": {"segment_id": 1575899, "physicalid": "119611", "street_name": "CHELSEA RD", "borough": "staten_island", "direction": "TW", "total_row_ft": 52.3, "roadbed_ft": 22.3, "median_ft": 0.0, "left_sw_ft": 15.0, "right_sw_ft": 15.0}, "geometry": {"type": "LineString", "coordinates": [[-74.18991896280798, 40.60532769075438], [-74.19031225986181, 40.60519118141327]]}}, {"type": "Feature", "properties": {"segment_id": 1575900, "physicalid": "119611", "street_name": "CHELSEA RD", "borough": "staten_island", "direction": "TW", "total_row_ft": 52.0, "roadbed_ft": 22.0, "median_ft": 0.0, "left_sw_ft": 15.0, "right_sw_ft": 15.0}, "geometry": {"type": "LineString", "coordinates": [[-74.18988911156194, 40.60527773143043], [-74.1902824083825, 40.60514122219077]]}}, {"type": "Feature", "properties": {"segment_id": 1575901, "physicalid": "119611", "street_name": "CHELSEA RD", "borough": "staten_island", "direction": "TW", "total_row_ft": 51.0, "roadbed_ft": 21.0, "median_ft": 0.0, "left_sw_ft": 15.0, "right_sw_ft": 15.0}, "geometry": {"type": "LineString", "coordinates": [[-74.18985926036056, 40.60522777209849], [-74.19025255694785, 40.6050912629603]]}}, {"type": "Feature", "properties": {"segment_id": 1575902, "physicalid": "119611", "street_name": "CHELSEA RD", "borough": "staten_island", "direction": "TW", "total_row_ft": 51.0, "roadbed_ft": 21.0, "median_ft": 0.0, "left_sw_ft": 15.0, "right_sw_ft": 15.0}, "geometry": {"type": "LineString", "coordinates": [[-74.1898294092039, 40.605177812758555], [-74.19022270555789, 40.60504130372178]]}}, {"type": "Feature", "properties": {"segment_id": 1648674, "physicalid": "163947", "street_name": "MEREDITH AVE", "borough": "staten_island", "direction": "TW", "total_row_ft": 59.7, "roadbed_ft": 29.7, "median_ft": 0.0, "left_sw_ft": 15.0, "right_sw_ft": 15.0}, "geometry": {"type": "LineString", "coordinates": [[-74.19454586682149, 40.59991931065187], [-74.19420234861816, 40.60011913514092]]}}, {"type": "Feature", "properties": {"segment_id": 1648675, "physicalid": "163947", "street_name": "MEREDITH AVE", "borough": "staten_island", "direction": "TW", "total_row_ft": 59.7, "roadbed_ft": 29.7, "median_ft": 0.0, "left_sw_ft": 15.0, "right_sw_ft": 15.0}, "geometry": {"type": "LineString", "coordinates": [[-74.19458956036482, 40.59996295004688], [-74.19424604206773, 40.600162774665705]]}}, {"type": "Feature", "properties": {"segment_id": 1648676, "physicalid": "163947", "street_name": "MEREDITH AVE", "borough": "staten_island", "direction": "TW", "total_row_ft": 59.6, "roadbed_ft": 29.6, "median_ft": 0.0, "left_sw_ft": 15.0, "right_sw_ft": 15.0}, "geometry": {"type": "LineString", "coordinates": [[-74.19463325396529, 40.600006589425135], [-74.1942897355744, 40.60020641417365]]}}, {"type": "Feature", "properties": {"segment_id": 1648677, "physicalid": "163947", "street_name": "MEREDITH AVE", "borough": "staten_island", "direction": "TW", "total_row_ft": 59.6, "roadbed_ft": 29.6, "median_ft": 0.0, "left_sw_ft": 15.0, "right_sw_ft": 15.0}, "geometry": {"type": "LineString", "coordinates": [[-74.19467694762285, 40.600050228786586], [-74.19433342913821, 40.60025005366482]]}}, {"type": "Feature", "properties": {"segment_id": 1648678, "physicalid": "163947", "street_name": "MEREDITH AVE", "borough": "staten_island", "direction": "TW", "total_row_ft": 59.6, "roadbed_ft": 29.6, "median_ft": 0.0, "left_sw_ft": 15.0, "right_sw_ft": 15.0}, "geometry": {"type": "LineString", "coordinates": [[-74.19472064133753, 40.600093868131204], [-74.19437712275912, 40.60029369313921]]}}, {"type": "Feature", "properties": {"segment_id": 1648679, "physicalid": "163947", "street_name": "MEREDITH AVE", "borough": "staten_island", "direction": "TW", "total_row_ft": 59.7, "roadbed_ft": 29.7, "median_ft": 0.0, "left_sw_ft": 15.0, "right_sw_ft": 15.0}, "geometry": {"type": "LineString", "coordinates": [[-74.19476433510933, 40.60013750745903], [-74.19442081643716, 40.60033733259678]]}}, {"type": "Feature", "properties": {"segment_id": 1648680, "physicalid": "163947", "street_name": "MEREDITH AVE", "borough": "staten_island", "direction": "TW", "total_row_ft": 59.8, "roadbed_ft": 29.8, "median_ft": 0.0, "left_sw_ft": 15.0, "right_sw_ft": 15.0}, "geometry": {"type": "LineString", "coordinates": [[-74.19480802893823, 40.600181146770055], [-74.19446451017232, 40.60038097203758]]}}, {"type": "Feature", "properties": {"segment_id": 1648681, "physicalid": "163947", "street_name": "MEREDITH AVE", "borough": "staten_island", "direction": "TW", "total_row_ft": 60.0, "roadbed_ft": 30.0, "median_ft": 0.0, "left_sw_ft": 15.0, "right_sw_ft": 15.0}, "geometry": {"type": "LineString", "coordinates": [[-74.19485172282425, 40.6002247860643], [-74.1945082039646, 40.600424611461555]]}}, {"type": "Feature", "properties": {"segment_id": 1648682, "physicalid": "163947", "street_name": "MEREDITH AVE", "borough": "staten_island", "direction": "TW", "total_row_ft": 60.2, "roadbed_ft": 30.2, "median_ft": 0.0, "left_sw_ft": 15.0, "right_sw_ft": 15.0}, "geometry": {"type": "LineString", "coordinates": [[-74.1948954167674, 40.600268425341724], [-74.19455189781398, 40.60046825086874]]}}, {"type": "Feature", "properties": {"segment_id": 1648683, "physicalid": "163947", "street_name": "MEREDITH AVE", "borough": "staten_island", "direction": "TW", "total_row_ft": 60.4, "roadbed_ft": 30.4, "median_ft": 0.0, "left_sw_ft": 15.0, "right_sw_ft": 15.0}, "geometry": {"type": "LineString", "coordinates": [[-74.19493911076763, 40.60031206460234], [-74.19459559172051, 40.60051189025915]]}}, {"type": "Feature", "properties": {"segment_id": 1648684, "physicalid": "163947", "street_name": "MEREDITH AVE", "borough": "staten_island", "direction": "TW", "total_row_ft": 60.5, "roadbed_ft": 30.5, "median_ft": 0.0, "left_sw_ft": 15.0, "right_sw_ft": 15.0}, "geometry": {"type": "LineString", "coordinates": [[-74.194982804825, 40.6003557038462], [-74.19463928568413, 40.60055552963274]]}}, {"type": "Feature", "properties": {"segment_id": 1648685, "physicalid": "163947", "street_name": "MEREDITH AVE", "borough": "staten_island", "direction": "TW", "total_row_ft": 60.6, "roadbed_ft": 30.6, "median_ft": 0.0, "left_sw_ft": 15.0, "right_sw_ft": 15.0}, "geometry": {"type": "LineString", "coordinates": [[-74.1950264989395, 40.600399343073235], [-74.19468297970487, 40.60059916898953]]}}, {"type": "Feature", "properties": {"segment_id": 1648686, "physicalid": "163947", "street_name": "MEREDITH AVE", "borough": "staten_island", "direction": "TW", "total_row_ft": 60.6, "roadbed_ft": 30.6, "median_ft": 0.0, "left_sw_ft": 15.0, "right_sw_ft": 15.0}, "geometry": {"type": "LineString", "coordinates": [[-74.1950701931111, 40.60044298228346], [-74.19472667378271, 40.60064280832951]]}}, {"type": "Feature", "properties": {"segment_id": 1648687, "physicalid": "163947", "street_name": "MEREDITH AVE", "borough": "staten_island", "direction": "TW", "total_row_ft": 60.5, "roadbed_ft": 30.5, "median_ft": 0.0, "left_sw_ft": 15.0, "right_sw_ft": 15.0}, "geometry": {"type": "LineString", "coordinates": [[-74.19511388733982, 40.600486621476904], [-74.1947703679177, 40.60068644765272]]}}, {"type": "Feature", "properties": {"segment_id": 1648688, "physicalid": "163947", "street_name": "MEREDITH AVE", "borough": "staten_island", "direction": "TW", "total_row_ft": 60.3, "roadbed_ft": 30.3, "median_ft": 0.0, "left_sw_ft": 15.0, "right_sw_ft": 15.0}, "geometry": {"type": "LineString", "coordinates": [[-74.19515758162565, 40.60053026065355], [-74.19481406210977, 40.6007300869591]]}}, {"type": "Feature", "properties": {"segment_id": 1648689, "physicalid": "163947", "street_name": "MEREDITH AVE", "borough": "staten_island", "direction": "TW", "total_row_ft": 107.8, "roadbed_ft": 77.8, "median_ft": 0.0, "left_sw_ft": 15.0, "right_sw_ft": 15.0}, "geometry": {"type": "LineString", "coordinates": [[-74.19520127596863, 40.6005738998134], [-74.19485775635899, 40.60077372624868]]}}, {"type": "Feature", "properties": {"segment_id": 1697685, "physicalid": "175517", "street_name": "INDUSTRY RD", "borough": "staten_island", "direction": "TW", "total_row_ft": 72.2, "roadbed_ft": 42.2, "median_ft": 0.0, "left_sw_ft": 15.0, "right_sw_ft": 15.0}, "geometry": {"type": "LineString", "coordinates": [[-74.19242559832124, 40.60321363565684], [-74.1920119889387, 40.60330907147784]]}}, {"type": "Feature", "properties": {"segment_id": 1697686, "physicalid": "175517", "street_name": "INDUSTRY RD", "borough": "staten_island", "direction": "TW", "total_row_ft": 71.8, "roadbed_ft": 41.8, "median_ft": 0.0, "left_sw_ft": 15.0, "right_sw_ft": 15.0}, "geometry": {"type": "LineString", "coordinates": [[-74.19244646742816, 40.60326617667981], [-74.19203285774995, 40.603361612575405]]}}, {"type": "Feature", "properties": {"segment_id": 1697687, "physicalid": "175517", "street_name": "INDUSTRY RD", "borough": "staten_island", "direction": "TW", "total_row_ft": 73.0, "roadbed_ft": 43.0, "median_ft": 0.0, "left_sw_ft": 15.0, "right_sw_ft": 15.0}, "geometry": {"type": "LineString", "coordinates": [[-74.19246733656792, 40.60331871769873], [-74.19205372659403, 40.60341415366892]]}}, {"type": "Feature", "properties": {"segment_id": 1697688, "physicalid": "175517", "street_name": "INDUSTRY RD", "borough": "staten_island", "direction": "TW", "total_row_ft": 73.7, "roadbed_ft": 43.7, "median_ft": 0.0, "left_sw_ft": 15.0, "right_sw_ft": 15.0}, "geometry": {"type": "LineString", "coordinates": [[-74.1924882057405, 40.603371258713544], [-74.19207459547097, 40.603466694758374]]}}, {"type": "Feature", "properties": {"segment_id": 1697689, "physicalid": "175517", "street_name": "INDUSTRY RD", "borough": "staten_island", "direction": "TW", "total_row_ft": 74.0, "roadbed_ft": 44.0, "median_ft": 0.0, "left_sw_ft": 15.0, "right_sw_ft": 15.0}, "geometry": {"type": "LineString", "coordinates": [[-74.19250907494597, 40.60342379972436], [-74.19209546438074, 40.60351923584373]]}}, {"type": "Feature", "properties": {"segment_id": 1697690, "physicalid": "175517", "street_name": "INDUSTRY RD", "borough": "staten_island", "direction": "TW", "total_row_ft": 73.8, "roadbed_ft": 43.8, "median_ft": 0.0, "left_sw_ft": 15.0, "right_sw_ft": 15.0}, "geometry": {"type": "LineString", "coordinates": [[-74.19252994418426, 40.6034763407311], [-74.19211633332337, 40.603571776925065]]}}, {"type": "Feature", "properties": {"segment_id": 1697691, "physicalid": "175517", "street_name": "INDUSTRY RD", "borough": "staten_island", "direction": "TW", "total_row_ft": 73.9, "roadbed_ft": 43.9, "median_ft": 0.0, "left_sw_ft": 15.0, "right_sw_ft": 15.0}, "geometry": {"type": "LineString", "coordinates": [[-74.19255081345541, 40.60352888173375], [-74.19213720229885, 40.60362431800232]]}}, {"type": "Feature", "properties": {"segment_id": 1697692, "physicalid": "175517", "street_name": "INDUSTRY RD", "borough": "staten_island", "direction": "TW", "total_row_ft": 73.9, "roadbed_ft": 43.9, "median_ft": 0.0, "left_sw_ft": 15.0, "right_sw_ft": 15.0}, "geometry": {"type": "LineString", "coordinates": [[-74.19257168275938, 40.603581422732304], [-74.19215807130719, 40.60367685907557]]}}, {"type": "Feature", "properties": {"segment_id": 1697693, "physicalid": "175517", "street_name": "INDUSTRY RD", "borough": "staten_island", "direction": "TW", "total_row_ft": 73.9, "roadbed_ft": 43.9, "median_ft": 0.0, "left_sw_ft": 15.0, "right_sw_ft": 15.0}, "geometry": {"type": "LineString", "coordinates": [[-74.1925925520962, 40.60363396372682], [-74.19217894034836, 40.603729400144694]]}}, {"type": "Feature", "properties": {"segment_id": 1697694, "physicalid": "175517", "street_name": "INDUSTRY RD", "borough": "staten_island", "direction": "TW", "total_row_ft": 73.9, "roadbed_ft": 43.9, "median_ft": 0.0, "left_sw_ft": 15.0, "right_sw_ft": 15.0}, "geometry": {"type": "LineString", "coordinates": [[-74.1926134214659, 40.603686504717295], [-74.19219980942239, 40.60378194120977]]}}, {"type": "Feature", "properties": {"segment_id": 1697695, "physicalid": "175517", "street_name": "INDUSTRY RD", "borough": "staten_island", "direction": "TW", "total_row_ft": 74.1, "roadbed_ft": 44.1, "median_ft": 0.0, "left_sw_ft": 15.0, "right_sw_ft": 15.0}, "geometry": {"type": "LineString", "coordinates": [[-74.19263429086841, 40.60373904570372], [-74.19222067852925, 40.6038344822708]]}}, {"type": "Feature", "properties": {"segment_id": 1697696, "physicalid": "175517", "street_name": "INDUSTRY RD", "borough": "staten_island", "direction": "TW", "total_row_ft": 74.3, "roadbed_ft": 44.3, "median_ft": 0.0, "left_sw_ft": 15.0, "right_sw_ft": 15.0}, "geometry": {"type": "LineString", "coordinates": [[-74.19265516030379, 40.60379158668606], [-74.19224154766894, 40.60388702332775]]}}, {"type": "Feature", "properties": {"segment_id": 1697697, "physicalid": "175517", "street_name": "INDUSTRY RD", "borough": "staten_island", "direction": "TW", "total_row_ft": 74.6, "roadbed_ft": 44.6, "median_ft": 0.0, "left_sw_ft": 15.0, "right_sw_ft": 15.0}, "geometry": {"type": "LineString", "coordinates": [[-74.192676029772, 40.60384412766433], [-74.1922624168415, 40.603939564380624]]}}, {"type": "Feature", "properties": {"segment_id": 1697698, "physicalid": "175517", "street_name": "INDUSTRY RD", "borough": "staten_island", "direction": "TW", "total_row_ft": 74.3, "roadbed_ft": 44.3, "median_ft": 0.0, "left_sw_ft": 15.0, "right_sw_ft": 15.0}, "geometry": {"type": "LineString", "coordinates": [[-74.19269689927307, 40.60389666863854], [-74.19228328604692, 40.603992105429434]]}}, {"type": "Feature", "properties": {"segment_id": 1697699, "physicalid": "175517", "street_name": "INDUSTRY RD", "borough": "staten_island", "direction": "TW", "total_row_ft": 74.0, "roadbed_ft": 44.0, "median_ft": 0.0, "left_sw_ft": 15.0, "right_sw_ft": 15.0}, "geometry": {"type": "LineString", "coordinates": [[-74.192717768807, 40.60394920960874], [-74.19230415528514, 40.604044646474186]]}}, {"type": "Feature", "properties": {"segment_id": 1697700, "physicalid": "175517", "street_name": "INDUSTRY RD", "borough": "staten_island", "direction": "TW", "total_row_ft": 73.7, "roadbed_ft": 43.7, "median_ft": 0.0, "left_sw_ft": 15.0, "right_sw_ft": 15.0}, "geometry": {"type": "LineString", "coordinates": [[-74.19273863837375, 40.60400175057483], [-74.19232502455624, 40.604097187514874]]}}, {"type": "Feature", "properties": {"segment_id": 1697701, "physicalid": "175517", "street_name": "INDUSTRY RD", "borough": "staten_island", "direction": "TW", "total_row_ft": 73.4, "roadbed_ft": 43.4, "median_ft": 0.0, "left_sw_ft": 15.0, "right_sw_ft": 15.0}, "geometry": {"type": "LineString", "coordinates": [[-74.19275950797336, 40.60405429153684], [-74.19234589386018, 40.604149728551505]]}}, {"type": "Feature", "properties": {"segment_id": 1697702, "physicalid": "175517", "street_name": "INDUSTRY RD", "borough": "staten_island", "direction": "TW", "total_row_ft": 73.1, "roadbed_ft": 43.1, "median_ft": 0.0, "left_sw_ft": 15.0, "right_sw_ft": 15.0}, "geometry": {"type": "LineString", "coordinates": [[-74.19278037760583, 40.60410683249481], [-74.19236676319697, 40.60420226958407]]}}, {"type": "Feature", "properties": {"segment_id": 1697703, "physicalid": "175517", "street_name": "INDUSTRY RD", "borough": "staten_island", "direction": "TW", "total_row_ft": 73.1, "roadbed_ft": 43.1, "median_ft": 0.0, "left_sw_ft": 15.0, "right_sw_ft": 15.0}, "geometry": {"type": "LineString", "coordinates": [[-74.1928012472711, 40.60415937344868], [-74.19238763256661, 40.6042548106126]]}}, {"type": "Feature", "properties": {"segment_id": 1697704, "physicalid": "175517", "street_name": "INDUSTRY RD", "borough": "staten_island", "direction": "TW", "total_row_ft": 73.3, "roadbed_ft": 43.3, "median_ft": 0.0, "left_sw_ft": 15.0, "right_sw_ft": 15.0}, "geometry": {"type": "LineString", "coordinates": [[-74.19282211696925, 40.60421191439853], [-74.1924085019691, 40.604307351637075]]}}, {"type": "Feature", "properties": {"segment_id": 1697705, "physicalid": "175517", "street_name": "INDUSTRY RD", "borough": "staten_island", "direction": "TW", "total_row_ft": 73.5, "roadbed_ft": 43.5, "median_ft": 0.0, "left_sw_ft": 15.0, "right_sw_ft": 15.0}, "geometry": {"type": "LineString", "coordinates": [[-74.19284298670026, 40.604264455344286], [-74.19242937140442, 40.60435989265744]]}}, {"type": "Feature", "properties": {"segment_id": 1697706, "physicalid": "175517", "street_name": "INDUSTRY RD", "borough": "staten_island", "direction": "TW", "total_row_ft": 73.7, "roadbed_ft": 43.7, "median_ft": 0.0, "left_sw_ft": 15.0, "right_sw_ft": 15.0}, "geometry": {"type": "LineString", "coordinates": [[-74.19286385646409, 40.604316996286], [-74.1924502408726, 40.604412433673765]]}}, {"type": "Feature", "properties": {"segment_id": 1697707, "physicalid": "175517", "street_name": "INDUSTRY RD", "borough": "staten_island", "direction": "TW", "total_row_ft": 73.9, "roadbed_ft": 43.9, "median_ft": 0.0, "left_sw_ft": 15.0, "right_sw_ft": 15.0}, "geometry": {"type": "LineString", "coordinates": [[-74.19288472626079, 40.60436953722364], [-74.19247111037362, 40.60446497468603]]}}, {"type": "Feature", "properties": {"segment_id": 1697708, "physicalid": "175517", "street_name": "INDUSTRY RD", "borough": "staten_island", "direction": "TW", "total_row_ft": 74.1, "roadbed_ft": 44.1, "median_ft": 0.0, "left_sw_ft": 15.0, "right_sw_ft": 15.0}, "geometry": {"type": "LineString", "coordinates": [[-74.19290559609033, 40.60442207815723], [-74.19249197990749, 40.604517515694205]]}}, {"type": "Feature", "properties": {"segment_id": 1697709, "physicalid": "175517", "street_name": "INDUSTRY RD", "borough": "staten_island", "direction": "TW", "total_row_ft": 74.3, "roadbed_ft": 44.3, "median_ft": 0.0, "left_sw_ft": 15.0, "right_sw_ft": 15.0}, "geometry": {"type": "LineString", "coordinates": [[-74.19292646595271, 40.60447461908674], [-74.19251284947421, 40.604570056698336]]}}, {"type": "Feature", "properties": {"segment_id": 1697710, "physicalid": "175517", "street_name": "INDUSTRY RD", "borough": "staten_island", "direction": "TW", "total_row_ft": 74.5, "roadbed_ft": 44.5, "median_ft": 0.0, "left_sw_ft": 15.0, "right_sw_ft": 15.0}, "geometry": {"type": "LineString", "coordinates": [[-74.19294733584796, 40.60452716001224], [-74.19253371907375, 40.60462259769836]]}}, {"type": "Feature", "properties": {"segment_id": 1709595, "physicalid": "179521", "street_name": "SOUTH AVE", "borough": "staten_island", "direction": "TW", "total_row_ft": 62.9, "roadbed_ft": 32.9, "median_ft": 0.0, "left_sw_ft": 15.0, "right_sw_ft": 15.0}, "geometry": {"type": "LineString", "coordinates": [[-74.19023412765564, 40.602208539350215], [-74.19034676572083, 40.60252652946645]]}}, {"type": "Feature", "properties": {"segment_id": 1709596, "physicalid": "179521", "street_name": "SOUTH AVE", "borough": "staten_island", "direction": "TW", "total_row_ft": 59.8, "roadbed_ft": 29.8, "median_ft": 0.0, "left_sw_ft": 15.0, "right_sw_ft": 15.0}, "geometry": {"type": "LineString", "coordinates": [[-74.19030366142123, 40.60219423068532], [-74.1904162997934, 40.60251222073384]]}}, {"type": "Feature", "properties": {"segment_id": 1709597, "physicalid": "179521", "street_name": "SOUTH AVE", "borough": "staten_island", "direction": "TW", "total_row_ft": 57.9, "roadbed_ft": 27.9, "median_ft": 0.0, "left_sw_ft": 15.0, "right_sw_ft": 15.0}, "geometry": {"type": "LineString", "coordinates": [[-74.19037319515697, 40.60217992197832], [-74.1904858338362, 40.602497911959155]]}}, {"type": "Feature", "properties": {"segment_id": 1709598, "physicalid": "179521", "street_name": "SOUTH AVE", "borough": "staten_island", "direction": "TW", "total_row_ft": 56.8, "roadbed_ft": 26.8, "median_ft": 0.0, "left_sw_ft": 15.0, "right_sw_ft": 15.0}, "geometry": {"type": "LineString", "coordinates": [[-74.19044272886293, 40.602165613229246], [-74.19055536784919, 40.602483603142375]]}}, {"type": "Feature", "properties": {"segment_id": 1709599, "physicalid": "179521", "street_name": "SOUTH AVE", "borough": "staten_island", "direction": "TW", "total_row_ft": 60.5, "roadbed_ft": 30.5, "median_ft": 0.0, "left_sw_ft": 15.0, "right_sw_ft": 15.0}, "geometry": {"type": "LineString", "coordinates": [[-74.19051226253907, 40.60215130443807], [-74.19062490183238, 40.60246929428351]]}}, {"type": "Feature", "properties": {"segment_id": 1709600, "physicalid": "179521", "street_name": "SOUTH AVE", "borough": "staten_island", "direction": "TW", "total_row_ft": 61.7, "roadbed_ft": 31.7, "median_ft": 0.0, "left_sw_ft": 15.0, "right_sw_ft": 15.0}, "geometry": {"type": "LineString", "coordinates": [[-74.19058179618541, 40.60213699560481], [-74.19069443578574, 40.602454985382536]]}}, {"type": "Feature", "properties": {"segment_id": 1709601, "physicalid": "179521", "street_name": "SOUTH AVE", "borough": "staten_island", "direction": "TW", "total_row_ft": 61.4, "roadbed_ft": 31.4, "median_ft": 0.0, "left_sw_ft": 15.0, "right_sw_ft": 15.0}, "geometry": {"type": "LineString", "coordinates": [[-74.19065132980197, 40.60212268672946], [-74.19076396970931, 40.602440676439485]]}}, {"type": "Feature", "properties": {"segment_id": 1709602, "physicalid": "179521", "street_name": "SOUTH AVE", "borough": "staten_island", "direction": "TW", "total_row_ft": 59.1, "roadbed_ft": 31.6, "median_ft": 0.0, "left_sw_ft": 12.5, "right_sw_ft": 15.0}, "geometry": {"type": "LineString", "coordinates": [[-74.19075314129245, 40.60219950046643], [-74.19083350360309, 40.60242636745434]]}}, {"type": "Feature", "properties": {"segment_id": 1709603, "physicalid": "179521", "street_name": "SOUTH AVE", "borough": "staten_island", "direction": "TW", "total_row_ft": 58.8, "roadbed_ft": 32.0, "median_ft": 0.0, "left_sw_ft": 11.8, "right_sw_ft": 15.0}, "geometry": {"type": "LineString", "coordinates": [[-74.19082167197385, 40.602182360067474], [-74.19090303746707, 40.60241205842712]]}}, {"type": "Feature", "properties": {"segment_id": 1709604, "physicalid": "179521", "street_name": "SOUTH AVE", "borough": "staten_island", "direction": "TW", "total_row_ft": 59.0, "roadbed_ft": 33.0, "median_ft": 0.0, "left_sw_ft": 11.0, "right_sw_ft": 15.0}, "geometry": {"type": "LineString", "coordinates": [[-74.19089020262005, 40.60216521962759], [-74.1909725713012, 40.60239774935779]]}}, {"type": "Feature", "properties": {"segment_id": 1709988, "physicalid": "179603", "street_name": "INDUSTRY RD", "borough": "staten_island", "direction": "TW", "total_row_ft": 74.1, "roadbed_ft": 44.1, "median_ft": 0.0, "left_sw_ft": 15.0, "right_sw_ft": 15.0}, "geometry": {"type": "LineString", "coordinates": [[-74.1916770084111, 40.60258769213495], [-74.1913713351588, 40.60282051838546]]}}, {"type": "Feature", "properties": {"segment_id": 1709989, "physicalid": "179603", "street_name": "INDUSTRY RD", "borough": "staten_island", "direction": "TW", "total_row_ft": 74.8, "roadbed_ft": 44.8, "median_ft": 0.0, "left_sw_ft": 15.0, "right_sw_ft": 15.0}, "geometry": {"type": "LineString", "coordinates": [[-74.19172792010903, 40.60262652224975], [-74.19142224685648, 40.6028593486348]]}}, {"type": "Feature", "properties": {"segment_id": 1709990, "physicalid": "179603", "street_name": "INDUSTRY RD", "borough": "staten_island", "direction": "TW", "total_row_ft": 76.2, "roadbed_ft": 46.2, "median_ft": 0.0, "left_sw_ft": 15.0, "right_sw_ft": 15.0}, "geometry": {"type": "LineString", "coordinates": [[-74.19177883186613, 40.60266535234187], [-74.19147315861336, 40.602898178861416]]}}, {"type": "Feature", "properties": {"segment_id": 1709991, "physicalid": "179603", "street_name": "INDUSTRY RD", "borough": "staten_island", "direction": "TW", "total_row_ft": 76.6, "roadbed_ft": 46.6, "median_ft": 0.0, "left_sw_ft": 15.0, "right_sw_ft": 15.0}, "geometry": {"type": "LineString", "coordinates": [[-74.1918297436825, 40.6027041824113], [-74.19152407042945, 40.602937009065336]]}}, {"type": "Feature", "properties": {"segment_id": 1709992, "physicalid": "179603", "street_name": "INDUSTRY RD", "borough": "staten_island", "direction": "TW", "total_row_ft": 75.9, "roadbed_ft": 45.9, "median_ft": 0.0, "left_sw_ft": 15.0, "right_sw_ft": 15.0}, "geometry": {"type": "LineString", "coordinates": [[-74.19188065555804, 40.602743012457985], [-74.1915749823048, 40.60297583924659]]}}, {"type": "Feature", "properties": {"segment_id": 1709993, "physicalid": "179603", "street_name": "INDUSTRY RD", "borough": "staten_island", "direction": "TW", "total_row_ft": 74.5, "roadbed_ft": 44.5, "median_ft": 0.0, "left_sw_ft": 15.0, "right_sw_ft": 15.0}, "geometry": {"type": "LineString", "coordinates": [[-74.19193156749282, 40.60278184248198], [-74.19162589423935, 40.603014669405106]]}}, {"type": "Feature", "properties": {"segment_id": 1709994, "physicalid": "179603", "street_name": "INDUSTRY RD", "borough": "staten_island", "direction": "TW", "total_row_ft": 73.4, "roadbed_ft": 43.4, "median_ft": 0.0, "left_sw_ft": 15.0, "right_sw_ft": 15.0}, "geometry": {"type": "LineString", "coordinates": [[-74.19198247948681, 40.602820672483304], [-74.1916768062331, 40.60305349954093]]}}, {"type": "Feature", "properties": {"segment_id": 1709995, "physicalid": "179603", "street_name": "INDUSTRY RD", "borough": "staten_island", "direction": "TW", "total_row_ft": 72.6, "roadbed_ft": 42.6, "median_ft": 0.0, "left_sw_ft": 15.0, "right_sw_ft": 15.0}, "geometry": {"type": "LineString", "coordinates": [[-74.19203339154005, 40.6028595024619], [-74.19172771828609, 40.60309232965404]]}}, {"type": "Feature", "properties": {"segment_id": 1709996, "physicalid": "179603", "street_name": "INDUSTRY RD", "borough": "staten_island", "direction": "TW", "total_row_ft": 72.2, "roadbed_ft": 42.2, "median_ft": 0.0, "left_sw_ft": 15.0, "right_sw_ft": 15.0}, "geometry": {"type": "LineString", "coordinates": [[-74.1920843036525, 40.602898332417816], [-74.19177863039828, 40.60313115974442]]}}, {"type": "Feature", "properties": {"segment_id": 1709997, "physicalid": "179603", "street_name": "INDUSTRY RD", "borough": "staten_island", "direction": "TW", "total_row_ft": 71.7, "roadbed_ft": 41.7, "median_ft": 0.0, "left_sw_ft": 15.0, "right_sw_ft": 15.0}, "geometry": {"type": "LineString", "coordinates": [[-74.19213521582414, 40.60293716235099], [-74.19182954256972, 40.60316998981215]]}}, {"type": "Feature", "properties": {"segment_id": 1709998, "physicalid": "179603", "street_name": "INDUSTRY RD", "borough": "staten_island", "direction": "TW", "total_row_ft": 71.3, "roadbed_ft": 41.3, "median_ft": 0.0, "left_sw_ft": 15.0, "right_sw_ft": 15.0}, "geometry": {"type": "LineString", "coordinates": [[-74.19218612805501, 40.60297599226148], [-74.19188045480037, 40.60320881985717]]}}, {"type": "Feature", "properties": {"segment_id": 1709999, "physicalid": "179603", "street_name": "INDUSTRY RD", "borough": "staten_island", "direction": "TW", "total_row_ft": 71.4, "roadbed_ft": 41.4, "median_ft": 0.0, "left_sw_ft": 15.0, "right_sw_ft": 15.0}, "geometry": {"type": "LineString", "coordinates": [[-74.19223704034512, 40.60301482214925], [-74.19193136709023, 40.60324764987947]]}}, {"type": "Feature", "properties": {"segment_id": 1710000, "physicalid": "179603", "street_name": "INDUSTRY RD", "borough": "staten_island", "direction": "TW", "total_row_ft": 72.2, "roadbed_ft": 42.2, "median_ft": 0.0, "left_sw_ft": 15.0, "right_sw_ft": 15.0}, "geometry": {"type": "LineString", "coordinates": [[-74.19228795269443, 40.60305365201436], [-74.19198227943933, 40.60328647987906]]}}, {"type": "Feature", "properties": {"segment_id": 1734578, "physicalid": "185697", "street_name": "INDUSTRY RD", "borough": "staten_island", "direction": "TW", "total_row_ft": 109.0, "roadbed_ft": 79.0, "median_ft": 0.0, "left_sw_ft": 15.0, "right_sw_ft": 15.0}, "geometry": {"type": "LineString", "coordinates": [[-74.19119414006899, 40.602171028436665], [-74.19083000875746, 40.602348398944144]]}}, {"type": "Feature", "properties": {"segment_id": 1734579, "physicalid": "185697", "street_name": "INDUSTRY RD", "borough": "staten_island", "direction": "TW", "total_row_ft": 56.6, "roadbed_ft": 26.6, "median_ft": 0.0, "left_sw_ft": 15.0, "right_sw_ft": 15.0}, "geometry": {"type": "LineString", "coordinates": [[-74.19123292517818, 40.60221728489905], [-74.19086879371741, 40.6023946555286]]}}, {"type": "Feature", "properties": {"segment_id": 1734580, "physicalid": "185697", "street_name": "INDUSTRY RD", "borough": "staten_island", "direction": "TW", "total_row_ft": 54.5, "roadbed_ft": 24.5, "median_ft": 0.0, "left_sw_ft": 15.0, "right_sw_ft": 15.0}, "geometry": {"type": "LineString", "coordinates": [[-74.19127171034113, 40.60226354134814], [-74.19090757873111, 40.60244091209975]]}}, {"type": "Feature", "properties": {"segment_id": 1734581, "physicalid": "185697", "street_name": "INDUSTRY RD", "borough": "staten_island", "direction": "TW", "total_row_ft": 54.4, "roadbed_ft": 24.4, "median_ft": 0.0, "left_sw_ft": 15.0, "right_sw_ft": 15.0}, "geometry": {"type": "LineString", "coordinates": [[-74.19131049555779, 40.602309797783896], [-74.19094636379857, 40.60248716865765]]}}, {"type": "Feature", "properties": {"segment_id": 1734582, "physicalid": "185697", "street_name": "INDUSTRY RD", "borough": "staten_island", "direction": "TW", "total_row_ft": 103.1, "roadbed_ft": 73.1, "median_ft": 0.0, "left_sw_ft": 15.0, "right_sw_ft": 15.0}, "geometry": {"type": "LineString", "coordinates": [[-74.19133081091472, 40.602322338755485], [-74.1910242911714, 40.60255451666615]]}}, {"type": "Feature", "properties": {"segment_id": 1734583, "physicalid": "185697", "street_name": "INDUSTRY RD", "borough": "staten_island", "direction": "TW", "total_row_ft": 105.4, "roadbed_ft": 75.4, "median_ft": 0.0, "left_sw_ft": 15.0, "right_sw_ft": 15.0}, "geometry": {"type": "LineString", "coordinates": [[-74.19138158063903, 40.60236127655751], [-74.19107506089351, 40.60259345460269]]}}, {"type": "Feature", "properties": {"segment_id": 1734584, "physicalid": "185697", "street_name": "INDUSTRY RD", "borough": "staten_island", "direction": "TW", "total_row_ft": 103.4, "roadbed_ft": 73.4, "median_ft": 0.0, "left_sw_ft": 15.0, "right_sw_ft": 15.0}, "geometry": {"type": "LineString", "coordinates": [[-74.19143235042256, 40.60240021433698], [-74.19112583067482, 40.60263239251668]]}}, {"type": "Feature", "properties": {"segment_id": 1734585, "physicalid": "185697", "street_name": "INDUSTRY RD", "borough": "staten_island", "direction": "TW", "total_row_ft": 95.1, "roadbed_ft": 65.1, "median_ft": 0.0, "left_sw_ft": 15.0, "right_sw_ft": 15.0}, "geometry": {"type": "LineString", "coordinates": [[-74.19148312026529, 40.60243915209385], [-74.19117660051533, 40.60267133040807]]}}, {"type": "Feature", "properties": {"segment_id": 1734586, "physicalid": "185697", "street_name": "INDUSTRY RD", "borough": "staten_island", "direction": "TW", "total_row_ft": 86.6, "roadbed_ft": 56.6, "median_ft": 0.0, "left_sw_ft": 15.0, "right_sw_ft": 15.0}, "geometry": {"type": "LineString", "coordinates": [[-74.19153389016726, 40.60247808982819], [-74.19122737041506, 40.602710268276866]]}}, {"type": "Feature", "properties": {"segment_id": 1734587, "physicalid": "185697", "street_name": "INDUSTRY RD", "borough": "staten_island", "direction": "TW", "total_row_ft": 78.3, "roadbed_ft": 48.3, "median_ft": 0.0, "left_sw_ft": 15.0, "right_sw_ft": 15.0}, "geometry": {"type": "LineString", "coordinates": [[-74.19158466012841, 40.60251702753989], [-74.19127814037405, 40.60274920612309]]}}]}