{"type": "FeatureCollection", "features": [{"type": "Feature", "properties": {"segment_id": 1503546, "physicalid": "101447", "street_name": "ELLIS RD", "borough": "staten_island", "direction": "TW", "total_row_ft": 42.6, "roadbed_ft": 12.6, "median_ft": 0.0, "left_sw_ft": 15.0, "right_sw_ft": 15.0}, "geometry": {"type": "LineString", "coordinates": [[-74.24010567350935, 40.54132009923599], [-74.24003266763802, 40.541644733588754]]}}, {"type": "Feature", "properties": {"segment_id": 1503547, "physicalid": "101447", "street_name": "ELLIS RD", "borough": "staten_island", "direction": "TW", "total_row_ft": 42.6, "roadbed_ft": 12.6, "median_ft": 0.0, "left_sw_ft": 15.0, "right_sw_ft": 15.0}, "geometry": {"type": "LineString", "coordinates": [[-74.24017659509994, 40.54132938180653], [-74.24010358956302, 40.54165401620411]]}}, {"type": "Feature", "properties": {"segment_id": 1503548, "physicalid": "101447", "street_name": "ELLIS RD", "borough": "staten_island", "direction": "TW", "total_row_ft": 42.6, "roadbed_ft": 12.6, "median_ft": 0.0, "left_sw_ft": 15.0, "right_sw_ft": 15.0}, "geometry": {"type": "LineString", "coordinates": [[-74.24024751671023, 40.54133866433325], [-74.24017451150769, 40.54166329877569]]}}, {"type": "Feature", "properties": {"segment_id": 1503549, "physicalid": "101447", "street_name": "ELLIS RD", "borough": "staten_island", "direction": "TW", "total_row_ft": 42.6, "roadbed_ft": 12.6, "median_ft": 0.0, "left_sw_ft": 15.0, "right_sw_ft": 15.0}, "geometry": {"type": "LineString", "coordinates": [[-74.24031843834022, 40.54134794681615], [-74.24024543347208, 40.54167258130344]]}}, {"type": "Feature", "properties": {"segment_id": 1503550, "physicalid": "101447", "street_name": "ELLIS RD", "borough": "staten_island", "direction": "TW", "total_row_ft": 42.5, "roadbed_ft": 12.5, "median_ft": 0.0, "left_sw_ft": 15.0, "right_sw_ft": 15.0}, "geometry": {"type": "LineString", "coordinates": [[-74.24038935998993, 40.541357229255254], [-74.24031635545617, 40.541681863787396]]}}, {"type": "Feature", "properties": {"segment_id": 1503551, "physicalid": "101447", "street_name": "ELLIS RD", "borough": "staten_island", "direction": "TW", "total_row_ft": 42.5, "roadbed_ft": 12.5, "median_ft": 0.0, "left_sw_ft": 15.0, "right_sw_ft": 15.0}, "geometry": {"type": "LineString", "coordinates": [[-74.24046028165934, 40.54136651165052], [-74.24038727745996, 40.54169114622752]]}}, {"type": "Feature", "properties": {"segment_id": 1503552, "physicalid": "101447", "street_name": "ELLIS RD", "borough": "staten_island", "direction": "TW", "total_row_ft": 42.5, "roadbed_ft": 12.5, "median_ft": 0.0, "left_sw_ft": 15.0, "right_sw_ft": 15.0}, "geometry": {"type": "LineString", "coordinates": [[-74.24053120334844, 40.541375794001986], [-74.24045819948346, 40.541700428623834]]}}, {"type": "Feature", "properties": {"segment_id": 1503553, "physicalid": "101447", "street_name": "ELLIS RD", "borough": "staten_island", "direction": "TW", "total_row_ft": 42.1, "roadbed_ft": 12.1, "median_ft": 0.0, "left_sw_ft": 15.0, "right_sw_ft": 15.0}, "geometry": {"type": "LineString", "coordinates": [[-74.24060212505726, 40.54138507630965], [-74.24052912152665, 40.54170971097634]]}}, {"type": "Feature", "properties": {"segment_id": 1503554, "physicalid": "101447", "street_name": "ELLIS RD", "borough": "staten_island", "direction": "TW", "total_row_ft": 42.0, "roadbed_ft": 12.0, "median_ft": 0.0, "left_sw_ft": 15.0, "right_sw_ft": 15.0}, "geometry": {"type": "LineString", "coordinates": [[-74.24067304678579, 40.5413943585735], [-74.24060004358954, 40.541718993285045]]}}, {"type": "Feature", "properties": {"segment_id": 1503555, "physicalid": "101447", "street_name": "ELLIS RD", "borough": "staten_island", "direction": "TW", "total_row_ft": 42.0, "roadbed_ft": 12.0, "median_ft": 0.0, "left_sw_ft": 15.0, "right_sw_ft": 15.0}, "geometry": {"type": "LineString", "coordinates": [[-74.24074396853399, 40.54140364079353], [-74.24067096567214, 40.541728275549914]]}}, {"type": "Feature", "properties": {"segment_id": 1503556, "physicalid": "101447", "street_name": "ELLIS RD", "borough": "staten_island", "direction": "TW", "total_row_ft": 41.6, "roadbed_ft": 11.6, "median_ft": 0.0, "left_sw_ft": 15.0, "right_sw_ft": 15.0}, "geometry": {"type": "LineString", "coordinates": [[-74.24081489030189, 40.54141292296975], [-74.24074188777445, 40.541737557771]]}}, {"type": "Feature", "properties": {"segment_id": 1503557, "physicalid": "101447", "street_name": "ELLIS RD", "borough": "staten_island", "direction": "TW", "total_row_ft": 42.1, "roadbed_ft": 12.1, "median_ft": 0.0, "left_sw_ft": 15.0, "right_sw_ft": 15.0}, "geometry": {"type": "LineString", "coordinates": [[-74.24088581208952, 40.54142220510215], [-74.24081280989645, 40.54174683994823]]}}, {"type": "Feature", "properties": {"segment_id": 1503558, "physicalid": "101447", "street_name": "ELLIS RD", "borough": "staten_island", "direction": "TW", "total_row_ft": 42.3, "roadbed_ft": 12.3, "median_ft": 0.0, "left_sw_ft": 15.0, "right_sw_ft": 15.0}, "geometry": {"type": "LineString", "coordinates": [[-74.24095673389684, 40.54143148719074], [-74.24088373203816, 40.5417561220817]]}}, {"type": "Feature", "properties": {"segment_id": 1503559, "physicalid": "101447", "street_name": "ELLIS RD", "borough": "staten_island", "direction": "TW", "total_row_ft": 43.6, "roadbed_ft": 13.6, "median_ft": 0.0, "left_sw_ft": 15.0, "right_sw_ft": 15.0}, "geometry": {"type": "LineString", "coordinates": [[-74.24102765572385, 40.54144076923553], [-74.24095465419956, 40.54176540417132]]}}, {"type": "Feature", "properties": {"segment_id": 1503560, "physicalid": "101447", "street_name": "ELLIS RD", "borough": "staten_island", "direction": "TW", "total_row_ft": 47.5, "roadbed_ft": 17.5, "median_ft": 0.0, "left_sw_ft": 15.0, "right_sw_ft": 15.0}, "geometry": {"type": "LineString", "coordinates": [[-74.24109857757058, 40.541450051236474], [-74.24102557638068, 40.541774686217146]]}}, {"type": "Feature", "properties": {"segment_id": 1503561, "physicalid": "101447", "street_name": "ELLIS RD", "borough": "staten_island", "direction": "TW", "total_row_ft": 51.0, "roadbed_ft": 21.0, "median_ft": 0.0, "left_sw_ft": 15.0, "right_sw_ft": 15.0}, "geometry": {"type": "LineString", "coordinates": [[-74.24116949943699, 40.54145933319363], [-74.24109649858148, 40.54178396821912]]}}, {"type": "Feature", "properties": {"segment_id": 1503562, "physicalid": "101447", "street_name": "ELLIS RD", "borough": "staten_island", "direction": "TW", "total_row_ft": 52.8, "roadbed_ft": 22.8, "median_ft": 0.0, "left_sw_ft": 15.0, "right_sw_ft": 15.0}, "geometry": {"type": "LineString", "coordinates": [[-74.24124042132313, 40.54146861510698], [-74.24116742080199, 40.541793250177314]]}}, {"type": "Feature", "properties": {"segment_id": 1503563, "physicalid": "101447", "street_name": "ELLIS RD", "borough": "staten_island", "direction": "TW", "total_row_ft": 54.0, "roadbed_ft": 24.0, "median_ft": 0.0, "left_sw_ft": 15.0, "right_sw_ft": 15.0}, "geometry": {"type": "LineString", "coordinates": [[-74.24131134322896, 40.541477896976495], [-74.2412383430422, 40.5418025320917]]}}, {"type": "Feature", "properties": {"segment_id": 1503564, "physicalid": "101447", "street_name": "ELLIS RD", "borough": "staten_island", "direction": "TW", "total_row_ft": 53.7, "roadbed_ft": 23.7, "median_ft": 0.0, "left_sw_ft": 15.0, "right_sw_ft": 15.0}, "geometry": {"type": "LineString", "coordinates": [[-74.24138226515447, 40.54148717880222], [-74.2413092653021, 40.54181181396227]]}}, {"type": "Feature", "properties": {"segment_id": 1503565, "physicalid": "101447", "street_name": "ELLIS RD", "borough": "staten_island", "direction": "TW", "total_row_ft": 51.8, "roadbed_ft": 21.8, "median_ft": 0.0, "left_sw_ft": 15.0, "right_sw_ft": 15.0}, "geometry": {"type": "LineString", "coordinates": [[-74.2414531870997, 40.541496460584106], [-74.24138018758174, 40.541821095789]]}}, {"type": "Feature", "properties": {"segment_id": 1503566, "physicalid": "101447", "street_name": "ELLIS RD", "borough": "staten_island", "direction": "TW", "total_row_ft": 48.4, "roadbed_ft": 18.4, "median_ft": 0.0, "left_sw_ft": 15.0, "right_sw_ft": 15.0}, "geometry": {"type": "LineString", "coordinates": [[-74.24152410906463, 40.541505742322215], [-74.24145110988106, 40.54183037757194]]}}, {"type": "Feature", "properties": {"segment_id": 1503567, "physicalid": "101447", "street_name": "ELLIS RD", "borough": "staten_island", "direction": "TW", "total_row_ft": 43.4, "roadbed_ft": 13.4, "median_ft": 0.0, "left_sw_ft": 15.0, "right_sw_ft": 15.0}, "geometry": {"type": "LineString", "coordinates": [[-74.24159503104926, 40.541515024016476], [-74.24152203220007, 40.541839659311044]]}}, {"type": "Feature", "properties": {"segment_id": 1503568, "physicalid": "101447", "street_name": "ELLIS RD", "borough": "staten_island", "direction": "TW", "total_row_ft": 42.6, "roadbed_ft": 12.6, "median_ft": 0.0, "left_sw_ft": 15.0, "right_sw_ft": 15.0}, "geometry": {"type": "LineString", "coordinates": [[-74.24166595305358, 40.541524305666954], [-74.24159295453879, 40.54184894100638]]}}, {"type": "Feature", "properties": {"segment_id": 1503569, "physicalid": "101447", "street_name": "ELLIS RD", "borough": "staten_island", "direction": "TW", "total_row_ft": 43.4, "roadbed_ft": 13.4, "median_ft": 0.0, "left_sw_ft": 15.0, "right_sw_ft": 15.0}, "geometry": {"type": "LineString", "coordinates": [[-74.24173687507762, 40.541533587273584], [-74.2416638768972, 40.54185822265786]]}}, {"type": "Feature", "properties": {"segment_id": 1503570, "physicalid": "101447", "street_name": "ELLIS RD", "borough": "staten_island", "direction": "TW", "total_row_ft": 43.4, "roadbed_ft": 13.4, "median_ft": 0.0, "left_sw_ft": 15.0, "right_sw_ft": 15.0}, "geometry": {"type": "LineString", "coordinates": [[-74.24180779712135, 40.54154286883644], [-74.24173479927532, 40.54186750426554]]}}, {"type": "Feature", "properties": {"segment_id": 1503571, "physicalid": "101447", "street_name": "ELLIS RD", "borough": "staten_island", "direction": "TW", "total_row_ft": 43.4, "roadbed_ft": 13.4, "median_ft": 0.0, "left_sw_ft": 15.0, "right_sw_ft": 15.0}, "geometry": {"type": "LineString", "coordinates": [[-74.24187871918478, 40.54155215035545], [-74.24180572167315, 40.54187678582941]]}}, {"type": "Feature", "properties": {"segment_id": 1503572, "physicalid": "101447", "street_name": "ELLIS RD", "borough": "staten_island", "direction": "TW", "total_row_ft": 43.4, "roadbed_ft": 13.4, "median_ft": 0.0, "left_sw_ft": 15.0, "right_sw_ft": 15.0}, "geometry": {"type": "LineString", "coordinates": [[-74.24194964126792, 40.541561431830665], [-74.24187664409067, 40.54188606734948]]}}, {"type": "Feature", "properties": {"segment_id": 1503573, "physicalid": "101447", "street_name": "ELLIS RD", "borough": "staten_island", "direction": "TW", "total_row_ft": 43.4, "roadbed_ft": 13.4, "median_ft": 0.0, "left_sw_ft": 15.0, "right_sw_ft": 15.0}, "geometry": {"type": "LineString", "coordinates": [[-74.24202056337074, 40.54157071326205], [-74.2419475665279, 40.54189534882571]]}}, {"type": "Feature", "properties": {"segment_id": 1503574, "physicalid": "101447", "street_name": "ELLIS RD", "borough": "staten_island", "direction": "TW", "total_row_ft": 43.4, "roadbed_ft": 13.4, "median_ft": 0.0, "left_sw_ft": 15.0, "right_sw_ft": 15.0}, "geometry": {"type": "LineString", "coordinates": [[-74.24209148549328, 40.54157999464964], [-74.24201848898483, 40.54190463025814]]}}, {"type": "Feature", "properties": {"segment_id": 1503575, "physicalid": "101447", "street_name": "ELLIS RD", "borough": "staten_island", "direction": "TW", "total_row_ft": 43.3, "roadbed_ft": 13.3, "median_ft": 0.0, "left_sw_ft": 15.0, "right_sw_ft": 15.0}, "geometry": {"type": "LineString", "coordinates": [[-74.2421624076355, 40.54158927599342], [-74.24208941146144, 40.541913911646766]]}}, {"type": "Feature", "properties": {"segment_id": 1503576, "physicalid": "101447", "street_name": "ELLIS RD", "borough": "staten_island", "direction": "TW", "total_row_ft": 43.2, "roadbed_ft": 13.2, "median_ft": 0.0, "left_sw_ft": 15.0, "right_sw_ft": 15.0}, "geometry": {"type": "LineString", "coordinates": [[-74.24223332979744, 40.54159855729338], [-74.24216033395777, 40.54192319299157]]}}, {"type": "Feature", "properties": {"segment_id": 1503577, "physicalid": "101447", "street_name": "ELLIS RD", "borough": "staten_island", "direction": "TW", "total_row_ft": 43.2, "roadbed_ft": 13.2, "median_ft": 0.0, "left_sw_ft": 15.0, "right_sw_ft": 15.0}, "geometry": {"type": "LineString", "coordinates": [[-74.24230425197908, 40.541607838549496], [-74.2422312564738, 40.541932474292544]]}}, {"type": "Feature", "properties": {"segment_id": 1503578, "physicalid": "101447", "street_name": "ELLIS RD", "borough": "staten_island", "direction": "TW", "total_row_ft": 43.1, "roadbed_ft": 13.1, "median_ft": 0.0, "left_sw_ft": 15.0, "right_sw_ft": 15.0}, "geometry": {"type": "LineString", "coordinates": [[-74.24237517418041, 40.54161711976185], [-74.24230217900953, 40.54194175554973]]}}, {"type": "Feature", "properties": {"segment_id": 1503579, "physicalid": "101447", "street_name": "ELLIS RD", "borough": "staten_island", "direction": "TW", "total_row_ft": 43.0, "roadbed_ft": 13.0, "median_ft": 0.0, "left_sw_ft": 15.0, "right_sw_ft": 15.0}, "geometry": {"type": "LineString", "coordinates": [[-74.24244609640145, 40.54162640093034], [-74.24237310156495, 40.54195103676307]]}}, {"type": "Feature", "properties": {"segment_id": 1503580, "physicalid": "101447", "street_name": "ELLIS RD", "borough": "staten_island", "direction": "TW", "total_row_ft": 43.0, "roadbed_ft": 13.0, "median_ft": 0.0, "left_sw_ft": 15.0, "right_sw_ft": 15.0}, "geometry": {"type": "LineString", "coordinates": [[-74.24251701864219, 40.541635682055066], [-74.24244402414006, 40.54196031793263]]}}, {"type": "Feature", "properties": {"segment_id": 1503581, "physicalid": "101447", "street_name": "ELLIS RD", "borough": "staten_island", "direction": "TW", "total_row_ft": 43.0, "roadbed_ft": 13.0, "median_ft": 0.0, "left_sw_ft": 15.0, "right_sw_ft": 15.0}, "geometry": {"type": "LineString", "coordinates": [[-74.24258794090261, 40.54164496313596], [-74.24251494673489, 40.541969599058355]]}}, {"type": "Feature", "properties": {"segment_id": 1503582, "physicalid": "101447", "street_name": "ELLIS RD", "borough": "staten_island", "direction": "TW", "total_row_ft": 43.1, "roadbed_ft": 13.1, "median_ft": 0.0, "left_sw_ft": 15.0, "right_sw_ft": 15.0}, "geometry": {"type": "LineString", "coordinates": [[-74.24265886318274, 40.54165424417304], [-74.24258586934943, 40.54197888014029]]}}, {"type": "Feature", "properties": {"segment_id": 1503583, "physicalid": "101447", "street_name": "ELLIS RD", "borough": "staten_island", "direction": "TW", "total_row_ft": 43.2, "roadbed_ft": 13.2, "median_ft": 0.0, "left_sw_ft": 15.0, "right_sw_ft": 15.0}, "geometry": {"type": "LineString", "coordinates": [[-74.24272978548257, 40.54166352516629], [-74.24265679198365, 40.541988161178395]]}}, {"type": "Feature", "properties": {"segment_id": 1503584, "physicalid": "101447", "street_name": "ELLIS RD", "borough": "staten_island", "direction": "TW", "total_row_ft": 43.3, "roadbed_ft": 13.3, "median_ft": 0.0, "left_sw_ft": 15.0, "right_sw_ft": 15.0}, "geometry": {"type": "LineString", "coordinates": [[-74.2428007078021, 40.541672806115756], [-74.24272771463758, 40.541997442172686]]}}, {"type": "Feature", "properties": {"segment_id": 1503585, "physicalid": "101447", "street_name": "ELLIS RD", "borough": "staten_island", "direction": "TW", "total_row_ft": 43.4, "roadbed_ft": 13.4, "median_ft": 0.0, "left_sw_ft": 15.0, "right_sw_ft": 15.0}, "geometry": {"type": "LineString", "coordinates": [[-74.24287163014134, 40.54168208702138], [-74.2427986373112, 40.54200672312317]]}}, {"type": "Feature", "properties": {"segment_id": 1503586, "physicalid": "101447", "street_name": "ELLIS RD", "borough": "staten_island", "direction": "TW", "total_row_ft": 43.4, "roadbed_ft": 13.4, "median_ft": 0.0, "left_sw_ft": 15.0, "right_sw_ft": 15.0}, "geometry": {"type": "LineString", "coordinates": [[-74.24294255250027, 40.5416913678832], [-74.24286956000452, 40.54201600402983]]}}, {"type": "Feature", "properties": {"segment_id": 1503587, "physicalid": "101447", "street_name": "ELLIS RD", "borough": "staten_island", "direction": "TW", "total_row_ft": 43.5, "roadbed_ft": 13.5, "median_ft": 0.0, "left_sw_ft": 15.0, "right_sw_ft": 15.0}, "geometry": {"type": "LineString", "coordinates": [[-74.2430134748789, 40.54170064870122], [-74.24294048271754, 40.54202528489269]]}}, {"type": "Feature", "properties": {"segment_id": 1503588, "physicalid": "101447", "street_name": "ELLIS RD", "borough": "staten_island", "direction": "TW", "total_row_ft": 43.6, "roadbed_ft": 13.6, "median_ft": 0.0, "left_sw_ft": 15.0, "right_sw_ft": 15.0}, "geometry": {"type": "LineString", "coordinates": [[-74.24308439727722, 40.541709929475424], [-74.24301140545026, 40.542034565711724]]}}, {"type": "Feature", "properties": {"segment_id": 1503589, "physicalid": "101447", "street_name": "ELLIS RD", "borough": "staten_island", "direction": "TW", "total_row_ft": 43.8, "roadbed_ft": 13.8, "median_ft": 0.0, "left_sw_ft": 15.0, "right_sw_ft": 15.0}, "geometry": {"type": "LineString", "coordinates": [[-74.24315531969526, 40.541719210205784], [-74.24308232820269, 40.54204384648695]]}}, {"type": "Feature", "properties": {"segment_id": 1503590, "physicalid": "101447", "street_name": "ELLIS RD", "borough": "staten_island", "direction": "TW", "total_row_ft": 43.9, "roadbed_ft": 13.9, "median_ft": 0.0, "left_sw_ft": 15.0, "right_sw_ft": 15.0}, "geometry": {"type": "LineString", "coordinates": [[-74.24322624213296, 40.54172849089235], [-74.24315325097481, 40.542053127218374]]}}, {"type": "Feature", "properties": {"segment_id": 1503591, "physicalid": "101447", "street_name": "ELLIS RD", "borough": "staten_island", "direction": "TW", "total_row_ft": 44.0, "roadbed_ft": 14.0, "median_ft": 0.0, "left_sw_ft": 15.0, "right_sw_ft": 15.0}, "geometry": {"type": "LineString", "coordinates": [[-74.24329716459039, 40.54173777153512], [-74.24322417376663, 40.54206240790596]]}}, {"type": "Feature", "properties": {"segment_id": 1503592, "physicalid": "101447", "street_name": "ELLIS RD", "borough": "staten_island", "direction": "TW", "total_row_ft": 44.1, "roadbed_ft": 14.1, "median_ft": 0.0, "left_sw_ft": 15.0, "right_sw_ft": 15.0}, "geometry": {"type": "LineString", "coordinates": [[-74.24336808706752, 40.54174705213406], [-74.24329509657815, 40.54207168854976]]}}, {"type": "Feature", "properties": {"segment_id": 1503593, "physicalid": "101447", "street_name": "ELLIS RD", "borough": "staten_island", "direction": "TW", "total_row_ft": 44.2, "roadbed_ft": 14.2, "median_ft": 0.0, "left_sw_ft": 15.0, "right_sw_ft": 15.0}, "geometry": {"type": "LineString", "coordinates": [[-74.24343900956433, 40.541756332689175], [-74.24336601940936, 40.54208096914971]]}}, {"type": "Feature", "properties": {"segment_id": 1503594, "physicalid": "101447", "street_name": "ELLIS RD", "borough": "staten_island", "direction": "TW", "total_row_ft": 44.3, "roadbed_ft": 14.3, "median_ft": 0.0, "left_sw_ft": 15.0, "right_sw_ft": 15.0}, "geometry": {"type": "LineString", "coordinates": [[-74.24350993208085, 40.5417656132005], [-74.24343694226029, 40.54209024970588]]}}, {"type": "Feature", "properties": {"segment_id": 1503595, "physicalid": "101447", "street_name": "ELLIS RD", "borough": "staten_island", "direction": "TW", "total_row_ft": 44.3, "roadbed_ft": 14.3, "median_ft": 0.0, "left_sw_ft": 15.0, "right_sw_ft": 15.0}, "geometry": {"type": "LineString", "coordinates": [[-74.24358085461708, 40.541774893668], [-74.2435078651309, 40.542099530218216]]}}, {"type": "Feature", "properties": {"segment_id": 1503596, "physicalid": "101447", "street_name": "ELLIS RD", "borough": "staten_island", "direction": "TW", "total_row_ft": 44.2, "roadbed_ft": 14.2, "median_ft": 0.0, "left_sw_ft": 15.0, "right_sw_ft": 15.0}, "geometry": {"type": "LineString", "coordinates": [[-74.243651777173, 40.541784174091696], [-74.24357878802121, 40.54210881068676]]}}, {"type": "Feature", "properties": {"segment_id": 1503597, "physicalid": "101447", "street_name": "ELLIS RD", "borough": "staten_island", "direction": "TW", "total_row_ft": 44.1, "roadbed_ft": 14.1, "median_ft": 0.0, "left_sw_ft": 15.0, "right_sw_ft": 15.0}, "geometry": {"type": "LineString", "coordinates": [[-74.2437226997486, 40.54179345447158], [-74.24364971093124, 40.542118091111476]]}}, {"type": "Feature", "properties": {"segment_id": 1503598, "physicalid": "101447", "street_name": "ELLIS RD", "borough": "staten_island", "direction": "TW", "total_row_ft": 43.9, "roadbed_ft": 13.9, "median_ft": 0.0, "left_sw_ft": 15.0, "right_sw_ft": 15.0}, "geometry": {"type": "LineString", "coordinates": [[-74.24379362234393, 40.54180273480764], [-74.24372063386093, 40.54212737149236]]}}, {"type": "Feature", "properties": {"segment_id": 1503599, "physicalid": "101447", "street_name": "ELLIS RD", "borough": "staten_island", "direction": "TW", "total_row_ft": 53.4, "roadbed_ft": 23.4, "median_ft": 0.0, "left_sw_ft": 15.0, "right_sw_ft": 15.0}, "geometry": {"type": "LineString", "coordinates": [[-74.24386454495894, 40.541812015099886], [-74.24379155681035, 40.54213665182945]]}}, {"type": "Feature", "properties": {"segment_id": 1503600, "physicalid": "101447", "street_name": "ELLIS RD", "borough": "staten_island", "direction": "TW", "total_row_ft": 80.0, "roadbed_ft": 50.0, "median_ft": 0.0, "left_sw_ft": 15.0, "right_sw_ft": 15.0}, "geometry": {"type": "LineString", "coordinates": [[-74.24393546759364, 40.54182129534832], [-74.24386247977947, 40.54214593212273]]}}, {"type": "Feature", "properties": {"segment_id": 1503601, "physicalid": "101447", "street_name": "ELLIS RD", "borough": "staten_island", "direction": "TW", "total_row_ft": 71.1, "roadbed_ft": 41.1, "median_ft": 0.0, "left_sw_ft": 15.0, "right_sw_ft": 15.0}, "geometry": {"type": "LineString", "coordinates": [[-74.24400639024806, 40.541830575552936], [-74.24393340276826, 40.54215521237219]]}}, {"type": "Feature", "properties": {"segment_id": 1503602, "physicalid": "101447", "street_name": "ELLIS RD", "borough": "staten_island", "direction": "TW", "total_row_ft": 54.8, "roadbed_ft": 24.8, "median_ft": 0.0, "left_sw_ft": 15.0, "right_sw_ft": 15.0}, "geometry": {"type": "LineString", "coordinates": [[-74.24407731292216, 40.541839855713754], [-74.24400432577677, 40.54216449257784]]}}, {"type": "Feature", "properties": {"segment_id": 1503603, "physicalid": "101447", "street_name": "ELLIS RD", "borough": "staten_island", "direction": "TW", "total_row_ft": 54.2, "roadbed_ft": 24.2, "median_ft": 0.0, "left_sw_ft": 15.0, "right_sw_ft": 15.0}, "geometry": {"type": "LineString", "coordinates": [[-74.24414823561597, 40.541849135830745], [-74.24407524880498, 40.54217377273968]]}}, {"type": "Feature", "properties": {"segment_id": 1503604, "physicalid": "101447", "street_name": "ELLIS RD", "borough": "staten_island", "direction": "TW", "total_row_ft": 44.5, "roadbed_ft": 14.5, "median_ft": 0.0, "left_sw_ft": 15.0, "right_sw_ft": 15.0}, "geometry": {"type": "LineString", "coordinates": [[-74.24421915832947, 40.54185841590392], [-74.24414617185288, 40.54218305285769]]}}, {"type": "Feature", "properties": {"segment_id": 1503605, "physicalid": "101447", "street_name": "ELLIS RD", "borough": "staten_island", "direction": "TW", "total_row_ft": 45.2, "roadbed_ft": 15.2, "median_ft": 0.0, "left_sw_ft": 15.0, "right_sw_ft": 15.0}, "geometry": {"type": "LineString", "coordinates": [[-74.24429008106266, 40.54186769593327], [-74.24421709492047, 40.542192332931904]]}}, {"type": "Feature", "properties": {"segment_id": 1503606, "physicalid": "101447", "street_name": "ELLIS RD", "borough": "staten_island", "direction": "TW", "total_row_ft": 47.9, "roadbed_ft": 17.9, "median_ft": 0.0, "left_sw_ft": 15.0, "right_sw_ft": 15.0}, "geometry": {"type": "LineString", "coordinates": [[-74.24436100381557, 40.54187697591884], [-74.24428801800777, 40.54220161296229]]}}, {"type": "Feature", "properties": {"segment_id": 1503607, "physicalid": "101447", "street_name": "ELLIS RD", "borough": "staten_island", "direction": "TW", "total_row_ft": 50.8, "roadbed_ft": 20.8, "median_ft": 0.0, "left_sw_ft": 15.0, "right_sw_ft": 15.0}, "geometry": {"type": "LineString", "coordinates": [[-74.24443192658816, 40.541886255860575], [-74.24435894111475, 40.542210892948866]]}}, {"type": "Feature", "properties": {"segment_id": 1503608, "physicalid": "101447", "street_name": "ELLIS RD", "borough": "staten_island", "direction": "TW", "total_row_ft": 52.6, "roadbed_ft": 22.6, "median_ft": 0.0, "left_sw_ft": 15.0, "right_sw_ft": 15.0}, "geometry": {"type": "LineString", "coordinates": [[-74.24450284938044, 40.5418955357585], [-74.24442986424145, 40.54222017289163]]}}, {"type": "Feature", "properties": {"segment_id": 1503609, "physicalid": "101447", "street_name": "ELLIS RD", "borough": "staten_island", "direction": "TW", "total_row_ft": 52.3, "roadbed_ft": 22.3, "median_ft": 0.0, "left_sw_ft": 15.0, "right_sw_ft": 15.0}, "geometry": {"type": "LineString", "coordinates": [[-74.24457377219244, 40.54190481561261], [-74.24450078738785, 40.54222945279057]]}}, {"type": "Feature", "properties": {"segment_id": 1503610, "physicalid": "101447", "street_name": "ELLIS RD", "borough": "staten_island", "direction": "TW", "total_row_ft": 51.2, "roadbed_ft": 21.2, "median_ft": 0.0, "left_sw_ft": 15.0, "right_sw_ft": 15.0}, "geometry": {"type": "LineString", "coordinates": [[-74.2446446950241, 40.5419140954229], [-74.24457171055394, 40.54223873264571]]}}, {"type": "Feature", "properties": {"segment_id": 1503611, "physicalid": "101447", "street_name": "ELLIS RD", "borough": "staten_island", "direction": "TW", "total_row_ft": 49.2, "roadbed_ft": 19.2, "median_ft": 0.0, "left_sw_ft": 15.0, "right_sw_ft": 15.0}, "geometry": {"type": "LineString", "coordinates": [[-74.2447156178755, 40.54192337518938], [-74.24464263373972, 40.54224801245703]]}}, {"type": "Feature", "properties": {"segment_id": 1503612, "physicalid": "101447", "street_name": "ELLIS RD", "borough": "staten_island", "direction": "TW", "total_row_ft": 46.9, "roadbed_ft": 16.9, "median_ft": 0.0, "left_sw_ft": 15.0, "right_sw_ft": 15.0}, "geometry": {"type": "LineString", "coordinates": [[-74.24478654074657, 40.54193265491206], [-74.2447135569452, 40.542257292224534]]}}, {"type": "Feature", "properties": {"segment_id": 1503613, "physicalid": "101447", "street_name": "ELLIS RD", "borough": "staten_island", "direction": "TW", "total_row_ft": 45.3, "roadbed_ft": 15.3, "median_ft": 0.0, "left_sw_ft": 15.0, "right_sw_ft": 15.0}, "geometry": {"type": "LineString", "coordinates": [[-74.24485746363735, 40.5419419345909], [-74.24478448017038, 40.54226657194823]]}}, {"type": "Feature", "properties": {"segment_id": 1503614, "physicalid": "101447", "street_name": "ELLIS RD", "borough": "staten_island", "direction": "TW", "total_row_ft": 45.3, "roadbed_ft": 15.3, "median_ft": 0.0, "left_sw_ft": 15.0, "right_sw_ft": 15.0}, "geometry": {"type": "LineString", "coordinates": [[-74.24492838654783, 40.54195121422595], [-74.24485540341526, 40.542275851628084]]}}, {"type": "Feature", "properties": {"segment_id": 1503615, "physicalid": "101447", "street_name": "ELLIS RD", "borough": "staten_island", "direction": "TW", "total_row_ft": 45.2, "roadbed_ft": 15.2, "median_ft": 0.0, "left_sw_ft": 15.0, "right_sw_ft": 15.0}, "geometry": {"type": "LineString", "coordinates": [[-74.24499930947802, 40.541960493817164], [-74.2449263266798, 40.54228513126417]]}}, {"type": "Feature", "properties": {"segment_id": 1503616, "physicalid": "101447", "street_name": "ELLIS RD", "borough": "staten_island", "direction": "TW", "total_row_ft": 45.1, "roadbed_ft": 15.1, "median_ft": 0.0, "left_sw_ft": 15.0, "right_sw_ft": 15.0}, "geometry": {"type": "LineString", "coordinates": [[-74.24507023242788, 40.54196977336459], [-74.24499724996409, 40.542294410856414]]}}, {"type": "Feature", "properties": {"segment_id": 1503617, "physicalid": "101447", "street_name": "ELLIS RD", "borough": "staten_island", "direction": "TW", "total_row_ft": 45.0, "roadbed_ft": 15.0, "median_ft": 0.0, "left_sw_ft": 15.0, "right_sw_ft": 15.0}, "geometry": {"type": "LineString", "coordinates": [[-74.24514115539743, 40.54197905286819], [-74.24506817326805, 40.542303690404864]]}}, {"type": "Feature", "properties": {"segment_id": 1503618, "physicalid": "101447", "street_name": "ELLIS RD", "borough": "staten_island", "direction": "TW", "total_row_ft": 45.0, "roadbed_ft": 15.0, "median_ft": 0.0, "left_sw_ft": 15.0, "right_sw_ft": 15.0}, "geometry": {"type": "LineString", "coordinates": [[-74.24521207838669, 40.54198833232797], [-74.24513909659173, 40.542312969909474]]}}, {"type": "Feature", "properties": {"segment_id": 1503619, "physicalid": "101447", "street_name": "ELLIS RD", "borough": "staten_island", "direction": "TW", "total_row_ft": 44.9, "roadbed_ft": 14.9, "median_ft": 0.0, "left_sw_ft": 15.0, "right_sw_ft": 15.0}, "geometry": {"type": "LineString", "coordinates": [[-74.24528300139565, 40.541997611743945], [-74.24521001993509, 40.54232224937029]]}}, {"type": "Feature", "properties": {"segment_id": 1503620, "physicalid": "101447", "street_name": "ELLIS RD", "borough": "staten_island", "direction": "TW", "total_row_ft": 44.9, "roadbed_ft": 14.9, "median_ft": 0.0, "left_sw_ft": 15.0, "right_sw_ft": 15.0}, "geometry": {"type": "LineString", "coordinates": [[-74.2453539244243, 40.542006891116095], [-74.24528094329814, 40.54233152878729]]}}, {"type": "Feature", "properties": {"segment_id": 1503621, "physicalid": "101447", "street_name": "ELLIS RD", "borough": "staten_island", "direction": "TW", "total_row_ft": 45.0, "roadbed_ft": 15.0, "median_ft": 0.0, "left_sw_ft": 15.0, "right_sw_ft": 15.0}, "geometry": {"type": "LineString", "coordinates": [[-74.24542484747265, 40.54201617044445], [-74.24535186668089, 40.542340808160475]]}}, {"type": "Feature", "properties": {"segment_id": 1503622, "physicalid": "101447", "street_name": "ELLIS RD", "borough": "staten_island", "direction": "TW", "total_row_ft": 45.4, "roadbed_ft": 15.4, "median_ft": 0.0, "left_sw_ft": 15.0, "right_sw_ft": 15.0}, "geometry": {"type": "LineString", "coordinates": [[-74.24549577054069, 40.54202544972897], [-74.24542279008335, 40.54235008748981]]}}, {"type": "Feature", "properties": {"segment_id": 1503623, "physicalid": "101447", "street_name": "ELLIS RD", "borough": "staten_island", "direction": "TW", "total_row_ft": 45.8, "roadbed_ft": 15.8, "median_ft": 0.0, "left_sw_ft": 15.0, "right_sw_ft": 15.0}, "geometry": {"type": "LineString", "coordinates": [[-74.24556669362845, 40.54203472896969], [-74.2454937135055, 40.54235936677538]]}}, {"type": "Feature", "properties": {"segment_id": 1503624, "physicalid": "101447", "street_name": "ELLIS RD", "borough": "staten_island", "direction": "TW", "total_row_ft": 46.3, "roadbed_ft": 16.3, "median_ft": 0.0, "left_sw_ft": 15.0, "right_sw_ft": 15.0}, "geometry": {"type": "LineString", "coordinates": [[-74.24563761673589, 40.54204400816659], [-74.24556463694732, 40.54236864601711]]}}, {"type": "Feature", "properties": {"segment_id": 1503625, "physicalid": "101447", "street_name": "ELLIS RD", "borough": "staten_island", "direction": "TW", "total_row_ft": 46.7, "roadbed_ft": 16.7, "median_ft": 0.0, "left_sw_ft": 15.0, "right_sw_ft": 15.0}, "geometry": {"type": "LineString", "coordinates": [[-74.24570853986302, 40.54205328731968], [-74.24563556040889, 40.54237792521504]]}}, {"type": "Feature", "properties": {"segment_id": 1503626, "physicalid": "101447", "street_name": "ELLIS RD", "borough": "staten_island", "direction": "TW", "total_row_ft": 47.1, "roadbed_ft": 17.1, "median_ft": 0.0, "left_sw_ft": 15.0, "right_sw_ft": 15.0}, "geometry": {"type": "LineString", "coordinates": [[-74.24577946300984, 40.542062566428946], [-74.24570648389012, 40.54238720436914]]}}, {"type": "Feature", "properties": {"segment_id": 1503627, "physicalid": "101447", "street_name": "ELLIS RD", "borough": "staten_island", "direction": "TW", "total_row_ft": 47.6, "roadbed_ft": 17.6, "median_ft": 0.0, "left_sw_ft": 15.0, "right_sw_ft": 15.0}, "geometry": {"type": "LineString", "coordinates": [[-74.24585038617636, 40.542071845494405], [-74.24577740739105, 40.54239648347944]]}}, {"type": "Feature", "properties": {"segment_id": 1503628, "physicalid": "101447", "street_name": "ELLIS RD", "borough": "staten_island", "direction": "TW", "total_row_ft": 48.0, "roadbed_ft": 18.0, "median_ft": 0.0, "left_sw_ft": 15.0, "right_sw_ft": 15.0}, "geometry": {"type": "LineString", "coordinates": [[-74.24592130936259, 40.54208112451606], [-74.24584833091167, 40.542405762545904]]}}, {"type": "Feature", "properties": {"segment_id": 1503629, "physicalid": "101447", "street_name": "ELLIS RD", "borough": "staten_island", "direction": "TW", "total_row_ft": 48.4, "roadbed_ft": 18.4, "median_ft": 0.0, "left_sw_ft": 15.0, "right_sw_ft": 15.0}, "geometry": {"type": "LineString", "coordinates": [[-74.2459922325685, 40.5420904034939], [-74.245919254452, 40.54241504156858]]}}, {"type": "Feature", "properties": {"segment_id": 1503630, "physicalid": "101447", "street_name": "ELLIS RD", "borough": "staten_island", "direction": "TW", "total_row_ft": 48.9, "roadbed_ft": 18.9, "median_ft": 0.0, "left_sw_ft": 15.0, "right_sw_ft": 15.0}, "geometry": {"type": "LineString", "coordinates": [[-74.24606315579412, 40.542099682427896], [-74.24599017801202, 40.542424320547426]]}}, {"type": "Feature", "properties": {"segment_id": 1503631, "physicalid": "101447", "street_name": "ELLIS RD", "borough": "staten_island", "direction": "TW", "total_row_ft": 49.3, "roadbed_ft": 19.3, "median_ft": 0.0, "left_sw_ft": 15.0, "right_sw_ft": 15.0}, "geometry": {"type": "LineString", "coordinates": [[-74.24613407903942, 40.5421089613181], [-74.24606110159174, 40.54243359948246]]}}]}