{"type": "FeatureCollection", "features": [{"type": "Feature", "properties": {"segment_id": 1048025, "physicalid": "72535", "street_name": "TILLER CT", "borough": "staten_island", "direction": "TW", "total_row_ft": 48.8, "roadbed_ft": 34.5, "median_ft": 0.0, "left_sw_ft": 7.0, "right_sw_ft": 7.2}, "geometry": {"type": "LineString", "coordinates": [[-74.24061117042152, 40.53199749519579], [-74.24048240361167, 40.53208838453537]]}}, {"type": "Feature", "properties": {"segment_id": 1048026, "physicalid": "72535", "street_name": "TILLER CT", "borough": "staten_island", "direction": "TW", "total_row_ft": 70.5, "roadbed_ft": 37.0, "median_ft": 0.0, "left_sw_ft": 26.1, "right_sw_ft": 7.5}, "geometry": {"type": "LineString", "coordinates": [[-74.24070946394359, 40.53200289887689], [-74.24052274517406, 40.532134693444235]]}}, {"type": "Feature", "properties": {"segment_id": 1048027, "physicalid": "72535", "street_name": "TILLER CT", "borough": "staten_island", "direction": "TW", "total_row_ft": 47.7, "roadbed_ft": 34.9, "median_ft": 0.0, "left_sw_ft": 6.1, "right_sw_ft": 6.7}, "geometry": {"type": "LineString", "coordinates": [[-74.24069677357231, 40.53212172206597], [-74.24053080862156, 40.53215525936745]]}}, {"type": "Feature", "properties": {"segment_id": 1048028, "physicalid": "72535", "street_name": "TILLER CT", "borough": "staten_island", "direction": "TW", "total_row_ft": 47.8, "roadbed_ft": 34.7, "median_ft": 0.0, "left_sw_ft": 6.4, "right_sw_ft": 6.7}, "geometry": {"type": "LineString", "coordinates": [[-74.24071765043851, 40.53217429227661], [-74.24055143974421, 40.53220787924221]]}}, {"type": "Feature", "properties": {"segment_id": 1048029, "physicalid": "72535", "street_name": "TILLER CT", "borough": "staten_island", "direction": "TW", "total_row_ft": 47.9, "roadbed_ft": 34.5, "median_ft": 0.0, "left_sw_ft": 6.7, "right_sw_ft": 6.7}, "geometry": {"type": "LineString", "coordinates": [[-74.24073852711138, 40.53222686252896], [-74.24057207089935, 40.53226049911303]]}}, {"type": "Feature", "properties": {"segment_id": 1048030, "physicalid": "72535", "street_name": "TILLER CT", "borough": "staten_island", "direction": "TW", "total_row_ft": 48.0, "roadbed_ft": 34.3, "median_ft": 0.0, "left_sw_ft": 7.0, "right_sw_ft": 6.7}, "geometry": {"type": "LineString", "coordinates": [[-74.24075940381708, 40.53227943277727], [-74.24059261709209, 40.532313136155196]]}}, {"type": "Feature", "properties": {"segment_id": 1048031, "physicalid": "72535", "street_name": "TILLER CT", "borough": "staten_island", "direction": "TW", "total_row_ft": 48.1, "roadbed_ft": 34.2, "median_ft": 0.0, "left_sw_ft": 7.2, "right_sw_ft": 6.7}, "geometry": {"type": "LineString", "coordinates": [[-74.24078028055561, 40.53233200302155], [-74.2406131554485, 40.53236577478352]]}}, {"type": "Feature", "properties": {"segment_id": 1048032, "physicalid": "72535", "street_name": "TILLER CT", "borough": "staten_island", "direction": "TW", "total_row_ft": 48.2, "roadbed_ft": 34.3, "median_ft": 0.0, "left_sw_ft": 7.2, "right_sw_ft": 6.7}, "geometry": {"type": "LineString", "coordinates": [[-74.24080115651321, 40.53238457342634], [-74.24063369367782, 40.53241841344016]]}}, {"type": "Feature", "properties": {"segment_id": 1048033, "physicalid": "72535", "street_name": "TILLER CT", "borough": "staten_island", "direction": "TW", "total_row_ft": 48.3, "roadbed_ft": 34.3, "median_ft": 0.0, "left_sw_ft": 7.2, "right_sw_ft": 6.7}, "geometry": {"type": "LineString", "coordinates": [[-74.24082203243049, 40.532437143841854], [-74.24065423207354, 40.53247105206583]]}}, {"type": "Feature", "properties": {"segment_id": 1048034, "physicalid": "72535", "street_name": "TILLER CT", "borough": "staten_island", "direction": "TW", "total_row_ft": 48.3, "roadbed_ft": 34.3, "median_ft": 0.0, "left_sw_ft": 7.3, "right_sw_ft": 6.8}, "geometry": {"type": "LineString", "coordinates": [[-74.2408429083806, 40.532489714253366], [-74.24067477050161, 40.53252369068761]]}}, {"type": "Feature", "properties": {"segment_id": 1048035, "physicalid": "72535", "street_name": "TILLER CT", "borough": "staten_island", "direction": "TW", "total_row_ft": 48.5, "roadbed_ft": 34.3, "median_ft": 0.0, "left_sw_ft": 7.3, "right_sw_ft": 6.9}, "geometry": {"type": "LineString", "coordinates": [[-74.24086378436355, 40.53254228466086], [-74.2406950129323, 40.53257638912544]]}}, {"type": "Feature", "properties": {"segment_id": 1048036, "physicalid": "72535", "street_name": "TILLER CT", "borough": "staten_island", "direction": "TW", "total_row_ft": 48.7, "roadbed_ft": 34.2, "median_ft": 0.0, "left_sw_ft": 7.4, "right_sw_ft": 7.1}, "geometry": {"type": "LineString", "coordinates": [[-74.24088321667436, 40.532595146802095], [-74.24071391297909, 40.53262935882687]]}}, {"type": "Feature", "properties": {"segment_id": 1048037, "physicalid": "72535", "street_name": "TILLER CT", "borough": "staten_island", "direction": "TW", "total_row_ft": 84.7, "roadbed_ft": 47.1, "median_ft": 0.0, "left_sw_ft": 7.7, "right_sw_ft": 29.9}, "geometry": {"type": "LineString", "coordinates": [[-74.24088837084278, 40.53265089421131], [-74.2405936655896, 40.532710446522124]]}}, {"type": "Feature", "properties": {"segment_id": 1048038, "physicalid": "72535", "street_name": "TILLER CT", "borough": "staten_island", "direction": "TW", "total_row_ft": 90.1, "roadbed_ft": 66.1, "median_ft": 0.0, "left_sw_ft": 9.0, "right_sw_ft": 15.0}, "geometry": {"type": "LineString", "coordinates": [[-74.24082527533095, 40.532756305677445], [-74.24074757823712, 40.532558889207955]]}}, {"type": "Feature", "properties": {"segment_id": 1048039, "physicalid": "72535", "street_name": "TILLER CT", "borough": "staten_island", "direction": "TW", "total_row_ft": 53.6, "roadbed_ft": 36.5, "median_ft": 0.0, "left_sw_ft": 7.4, "right_sw_ft": 9.7}, "geometry": {"type": "LineString", "coordinates": [[-74.24076375039563, 40.53279085504608], [-74.24070833158486, 40.532650044136254]]}}, {"type": "Feature", "properties": {"segment_id": 1048040, "physicalid": "72535", "street_name": "TILLER CT", "borough": "staten_island", "direction": "TW", "total_row_ft": 47.9, "roadbed_ft": 35.1, "median_ft": 0.0, "left_sw_ft": 5.9, "right_sw_ft": 6.9}, "geometry": {"type": "LineString", "coordinates": [[-74.24069621623407, 40.53281013599712], [-74.24064664777258, 40.53268418966319]]}}, {"type": "Feature", "properties": {"segment_id": 1048041, "physicalid": "72535", "street_name": "TILLER CT", "borough": "staten_island", "direction": "TW", "total_row_ft": 45.7, "roadbed_ft": 34.7, "median_ft": 0.0, "left_sw_ft": 6.4, "right_sw_ft": 4.6}, "geometry": {"type": "LineString", "coordinates": [[-74.24062747561442, 40.53282635156904], [-74.24058020402254, 40.532706240948684]]}}, {"type": "Feature", "properties": {"segment_id": 1048042, "physicalid": "72535", "street_name": "TILLER CT", "borough": "staten_island", "direction": "TW", "total_row_ft": 45.9, "roadbed_ft": 34.3, "median_ft": 0.0, "left_sw_ft": 6.9, "right_sw_ft": 4.7}, "geometry": {"type": "LineString", "coordinates": [[-74.2405587349614, 40.53284256709982], [-74.24051128900786, 40.53272201313552]]}}, {"type": "Feature", "properties": {"segment_id": 1048043, "physicalid": "72535", "street_name": "TILLER CT", "borough": "staten_island", "direction": "TW", "total_row_ft": 45.8, "roadbed_ft": 34.1, "median_ft": 0.0, "left_sw_ft": 7.0, "right_sw_ft": 4.8}, "geometry": {"type": "LineString", "coordinates": [[-74.24048978672673, 40.532858255235894], [-74.24044237396065, 40.53273778528098]]}}, {"type": "Feature", "properties": {"segment_id": 1048044, "physicalid": "72535", "street_name": "TILLER CT", "borough": "staten_island", "direction": "TW", "total_row_ft": 48.1, "roadbed_ft": 34.0, "median_ft": 0.0, "left_sw_ft": 6.9, "right_sw_ft": 7.2}, "geometry": {"type": "LineString", "coordinates": [[-74.24042079999421, 40.532873845594494], [-74.24037108101898, 40.532747515505086]]}}, {"type": "Feature", "properties": {"segment_id": 1048045, "physicalid": "72535", "street_name": "TILLER CT", "borough": "staten_island", "direction": "TW", "total_row_ft": 46.1, "roadbed_ft": 34.0, "median_ft": 0.0, "left_sw_ft": 6.8, "right_sw_ft": 5.3}, "geometry": {"type": "LineString", "coordinates": [[-74.24035181322951, 40.532889435911635], [-74.24030408935823, 40.532768174838964]]}}, {"type": "Feature", "properties": {"segment_id": 1048046, "physicalid": "72535", "street_name": "TILLER CT", "borough": "staten_island", "direction": "TW", "total_row_ft": 46.4, "roadbed_ft": 34.0, "median_ft": 0.0, "left_sw_ft": 6.7, "right_sw_ft": 5.7}, "geometry": {"type": "LineString", "coordinates": [[-74.24028274882517, 40.532904828995214], [-74.2402347669005, 40.5327829119154]]}}, {"type": "Feature", "properties": {"segment_id": 1048047, "physicalid": "72535", "street_name": "TILLER CT", "borough": "staten_island", "direction": "TW", "total_row_ft": 46.4, "roadbed_ft": 34.0, "median_ft": 0.0, "left_sw_ft": 6.3, "right_sw_ft": 6.1}, "geometry": {"type": "LineString", "coordinates": [[-74.24021347174225, 40.53291968172347], [-74.24016544441217, 40.53279764894995]]}}, {"type": "Feature", "properties": {"segment_id": 1048048, "physicalid": "72535", "street_name": "TILLER CT", "borough": "staten_island", "direction": "TW", "total_row_ft": 60.0, "roadbed_ft": 42.9, "median_ft": 0.0, "left_sw_ft": 7.9, "right_sw_ft": 9.2}, "geometry": {"type": "LineString", "coordinates": [[-74.2400730106356, 40.53293132636913], [-74.24018909523211, 40.53279262110715]]}}, {"type": "Feature", "properties": {"segment_id": 1048049, "physicalid": "72535", "street_name": "TILLER CT", "borough": "staten_island", "direction": "TW", "total_row_ft": 49.2, "roadbed_ft": 34.4, "median_ft": 0.0, "left_sw_ft": 6.9, "right_sw_ft": 8.0}, "geometry": {"type": "LineString", "coordinates": [[-74.23999573690207, 40.5329037145432], [-74.24010850543124, 40.5327995940168]]}}, {"type": "Feature", "properties": {"segment_id": 1048059, "physicalid": "72536", "street_name": "TILLER CT", "borough": "staten_island", "direction": "TF", "total_row_ft": 47.8, "roadbed_ft": 34.4, "median_ft": 0.0, "left_sw_ft": 6.9, "right_sw_ft": 6.5}, "geometry": {"type": "LineString", "coordinates": [[-74.24007550550246, 40.53190503987938], [-74.24004197322283, 40.53203373648286]]}}, {"type": "Feature", "properties": {"segment_id": 1048060, "physicalid": "72536", "street_name": "TILLER CT", "borough": "staten_island", "direction": "TF", "total_row_ft": 47.9, "roadbed_ft": 34.2, "median_ft": 0.0, "left_sw_ft": 7.0, "right_sw_ft": 6.7}, "geometry": {"type": "LineString", "coordinates": [[-74.24014656579611, 40.53191384938382], [-74.24011299904446, 40.53204267881977]]}}, {"type": "Feature", "properties": {"segment_id": 1048061, "physicalid": "72536", "street_name": "TILLER CT", "borough": "staten_island", "direction": "TF", "total_row_ft": 47.9, "roadbed_ft": 34.2, "median_ft": 0.0, "left_sw_ft": 7.1, "right_sw_ft": 6.6}, "geometry": {"type": "LineString", "coordinates": [[-74.2402176261189, 40.5319226588043], [-74.24018406196473, 40.532051478800526]]}}, {"type": "Feature", "properties": {"segment_id": 1048062, "physicalid": "72536", "street_name": "TILLER CT", "borough": "staten_island", "direction": "TF", "total_row_ft": 48.0, "roadbed_ft": 34.2, "median_ft": 0.0, "left_sw_ft": 7.2, "right_sw_ft": 6.6}, "geometry": {"type": "LineString", "coordinates": [[-74.2402887697423, 40.53193114854116], [-74.24025512490371, 40.532060278737305]]}}, {"type": "Feature", "properties": {"segment_id": 1048063, "physicalid": "72536", "street_name": "TILLER CT", "borough": "staten_island", "direction": "TF", "total_row_ft": 48.1, "roadbed_ft": 34.3, "median_ft": 0.0, "left_sw_ft": 7.2, "right_sw_ft": 6.7}, "geometry": {"type": "LineString", "coordinates": [[-74.2403599392754, 40.53193953886021], [-74.24032618786138, 40.53206907863009]]}}, {"type": "Feature", "properties": {"segment_id": 1048064, "physicalid": "72536", "street_name": "TILLER CT", "borough": "staten_island", "direction": "TF", "total_row_ft": 47.7, "roadbed_ft": 37.8, "median_ft": 0.0, "left_sw_ft": 7.1, "right_sw_ft": 2.8}, "geometry": {"type": "LineString", "coordinates": [[-74.24043072238058, 40.53194941234422], [-74.24039726399306, 40.53207782798816]]}}, {"type": "Feature", "properties": {"segment_id": 1349435, "physicalid": "92131", "street_name": "SHARROTTS RD", "borough": "staten_island", "direction": "TW", "total_row_ft": 97.0, "roadbed_ft": 67.0, "median_ft": 0.0, "left_sw_ft": 15.0, "right_sw_ft": 15.0}, "geometry": {"type": "LineString", "coordinates": [[-74.2413299629855, 40.538836930885566], [-74.24123853929832, 40.539158838598254]]}}, {"type": "Feature", "properties": {"segment_id": 1349436, "physicalid": "92131", "street_name": "SHARROTTS RD", "borough": "staten_island", "direction": "TW", "total_row_ft": 56.7, "roadbed_ft": 26.7, "median_ft": 0.0, "left_sw_ft": 15.0, "right_sw_ft": 15.0}, "geometry": {"type": "LineString", "coordinates": [[-74.24140028627613, 40.53884855569021], [-74.2413088629118, 40.539170463458575]]}}, {"type": "Feature", "properties": {"segment_id": 1349437, "physicalid": "92131", "street_name": "SHARROTTS RD", "borough": "staten_island", "direction": "TW", "total_row_ft": 57.1, "roadbed_ft": 27.1, "median_ft": 0.0, "left_sw_ft": 15.0, "right_sw_ft": 15.0}, "geometry": {"type": "LineString", "coordinates": [[-74.24147060959125, 40.53886018045175], [-74.24137918654975, 40.53918208827584]]}}, {"type": "Feature", "properties": {"segment_id": 1349438, "physicalid": "92131", "street_name": "SHARROTTS RD", "borough": "staten_island", "direction": "TW", "total_row_ft": 57.4, "roadbed_ft": 27.4, "median_ft": 0.0, "left_sw_ft": 15.0, "right_sw_ft": 15.0}, "geometry": {"type": "LineString", "coordinates": [[-74.2415409329308, 40.53887180517024], [-74.24144951021215, 40.53919371305001]]}}, {"type": "Feature", "properties": {"segment_id": 1349439, "physicalid": "92131", "street_name": "SHARROTTS RD", "borough": "staten_island", "direction": "TW", "total_row_ft": 57.8, "roadbed_ft": 27.8, "median_ft": 0.0, "left_sw_ft": 15.0, "right_sw_ft": 15.0}, "geometry": {"type": "LineString", "coordinates": [[-74.24161125629485, 40.53888342984564], [-74.241519833899, 40.53920533778109]]}}, {"type": "Feature", "properties": {"segment_id": 1349440, "physicalid": "92131", "street_name": "SHARROTTS RD", "borough": "staten_island", "direction": "TW", "total_row_ft": 58.1, "roadbed_ft": 28.1, "median_ft": 0.0, "left_sw_ft": 15.0, "right_sw_ft": 15.0}, "geometry": {"type": "LineString", "coordinates": [[-74.24168157968333, 40.53889505447795], [-74.24159015761035, 40.53921696246909]]}}, {"type": "Feature", "properties": {"segment_id": 1349441, "physicalid": "92131", "street_name": "SHARROTTS RD", "borough": "staten_island", "direction": "TW", "total_row_ft": 58.4, "roadbed_ft": 28.4, "median_ft": 0.0, "left_sw_ft": 15.0, "right_sw_ft": 15.0}, "geometry": {"type": "LineString", "coordinates": [[-74.24175190309631, 40.53890667906718], [-74.24166048134613, 40.539228587114046]]}}, {"type": "Feature", "properties": {"segment_id": 1349442, "physicalid": "92131", "street_name": "SHARROTTS RD", "borough": "staten_island", "direction": "TW", "total_row_ft": 58.6, "roadbed_ft": 28.6, "median_ft": 0.0, "left_sw_ft": 15.0, "right_sw_ft": 15.0}, "geometry": {"type": "LineString", "coordinates": [[-74.24182222653373, 40.538918303613315], [-74.2417308051064, 40.539240211715864]]}}, {"type": "Feature", "properties": {"segment_id": 1349443, "physicalid": "92131", "street_name": "SHARROTTS RD", "borough": "staten_island", "direction": "TW", "total_row_ft": 58.8, "roadbed_ft": 28.8, "median_ft": 0.0, "left_sw_ft": 15.0, "right_sw_ft": 15.0}, "geometry": {"type": "LineString", "coordinates": [[-74.24189254999561, 40.53892992811638], [-74.24180112889114, 40.53925183627463]]}}, {"type": "Feature", "properties": {"segment_id": 1349444, "physicalid": "92131", "street_name": "SHARROTTS RD", "borough": "staten_island", "direction": "TW", "total_row_ft": 59.3, "roadbed_ft": 29.3, "median_ft": 0.0, "left_sw_ft": 15.0, "right_sw_ft": 15.0}, "geometry": {"type": "LineString", "coordinates": [[-74.24196287348198, 40.53894155257636], [-74.24187145270031, 40.539263460790316]]}}, {"type": "Feature", "properties": {"segment_id": 1349445, "physicalid": "92131", "street_name": "SHARROTTS RD", "borough": "staten_island", "direction": "TW", "total_row_ft": 61.0, "roadbed_ft": 31.0, "median_ft": 0.0, "left_sw_ft": 15.0, "right_sw_ft": 15.0}, "geometry": {"type": "LineString", "coordinates": [[-74.2420331969928, 40.538953176993246], [-74.24194177653398, 40.53927508526293]]}}, {"type": "Feature", "properties": {"segment_id": 1349446, "physicalid": "92131", "street_name": "SHARROTTS RD", "borough": "staten_island", "direction": "TW", "total_row_ft": 62.9, "roadbed_ft": 32.9, "median_ft": 0.0, "left_sw_ft": 15.0, "right_sw_ft": 15.0}, "geometry": {"type": "LineString", "coordinates": [[-74.24210352052809, 40.53896480136709], [-74.2420121003921, 40.53928670969242]]}}, {"type": "Feature", "properties": {"segment_id": 1349447, "physicalid": "92131", "street_name": "SHARROTTS RD", "borough": "staten_island", "direction": "TW", "total_row_ft": 64.7, "roadbed_ft": 34.7, "median_ft": 0.0, "left_sw_ft": 15.0, "right_sw_ft": 15.0}, "geometry": {"type": "LineString", "coordinates": [[-74.24217384408783, 40.53897642569782], [-74.24208242427468, 40.53929833407885]]}}, {"type": "Feature", "properties": {"segment_id": 1349448, "physicalid": "92131", "street_name": "SHARROTTS RD", "borough": "staten_island", "direction": "TW", "total_row_ft": 66.5, "roadbed_ft": 36.5, "median_ft": 0.0, "left_sw_ft": 15.0, "right_sw_ft": 15.0}, "geometry": {"type": "LineString", "coordinates": [[-74.24224416767204, 40.538988049985456], [-74.24215274818174, 40.53930995842222]]}}, {"type": "Feature", "properties": {"segment_id": 1349449, "physicalid": "92131", "street_name": "SHARROTTS RD", "borough": "staten_island", "direction": "TW", "total_row_ft": 67.9, "roadbed_ft": 37.9, "median_ft": 0.0, "left_sw_ft": 15.0, "right_sw_ft": 15.0}, "geometry": {"type": "LineString", "coordinates": [[-74.24231449128072, 40.53899967423005], [-74.24222307211325, 40.539321582722486]]}}, {"type": "Feature", "properties": {"segment_id": 1349450, "physicalid": "92131", "street_name": "SHARROTTS RD", "borough": "staten_island", "direction": "TW", "total_row_ft": 69.1, "roadbed_ft": 39.1, "median_ft": 0.0, "left_sw_ft": 15.0, "right_sw_ft": 15.0}, "geometry": {"type": "LineString", "coordinates": [[-74.24238481491386, 40.53901129843152], [-74.24229339606923, 40.539333206979656]]}}, {"type": "Feature", "properties": {"segment_id": 1349451, "physicalid": "92131", "street_name": "SHARROTTS RD", "borough": "staten_island", "direction": "TW", "total_row_ft": 70.3, "roadbed_ft": 40.3, "median_ft": 0.0, "left_sw_ft": 15.0, "right_sw_ft": 15.0}, "geometry": {"type": "LineString", "coordinates": [[-74.24245513857146, 40.53902292258994], [-74.24236372004967, 40.53934483119375]]}}, {"type": "Feature", "properties": {"segment_id": 1349452, "physicalid": "92131", "street_name": "SHARROTTS RD", "borough": "staten_island", "direction": "TW", "total_row_ft": 71.5, "roadbed_ft": 41.5, "median_ft": 0.0, "left_sw_ft": 15.0, "right_sw_ft": 15.0}, "geometry": {"type": "LineString", "coordinates": [[-74.24252546225354, 40.53903454670524], [-74.24243404405456, 40.53935645536479]]}}, {"type": "Feature", "properties": {"segment_id": 1349453, "physicalid": "92131", "street_name": "SHARROTTS RD", "borough": "staten_island", "direction": "TW", "total_row_ft": 72.4, "roadbed_ft": 42.4, "median_ft": 0.0, "left_sw_ft": 15.0, "right_sw_ft": 15.0}, "geometry": {"type": "LineString", "coordinates": [[-74.24259578596005, 40.53904617077749], [-74.24250436808396, 40.539368079492704]]}}, {"type": "Feature", "properties": {"segment_id": 1349454, "physicalid": "92131", "street_name": "SHARROTTS RD", "borough": "staten_island", "direction": "TW", "total_row_ft": 72.0, "roadbed_ft": 42.0, "median_ft": 0.0, "left_sw_ft": 15.0, "right_sw_ft": 15.0}, "geometry": {"type": "LineString", "coordinates": [[-74.24266610969107, 40.539057794806666], [-74.24257469213777, 40.53937970357754]]}}, {"type": "Feature", "properties": {"segment_id": 1349455, "physicalid": "92131", "street_name": "SHARROTTS RD", "borough": "staten_island", "direction": "TW", "total_row_ft": 70.7, "roadbed_ft": 40.7, "median_ft": 0.0, "left_sw_ft": 15.0, "right_sw_ft": 15.0}, "geometry": {"type": "LineString", "coordinates": [[-74.24273643344652, 40.53906941879273], [-74.24264501621607, 40.53939132761932]]}}, {"type": "Feature", "properties": {"segment_id": 1349456, "physicalid": "92131", "street_name": "SHARROTTS RD", "borough": "staten_island", "direction": "TW", "total_row_ft": 69.1, "roadbed_ft": 39.1, "median_ft": 0.0, "left_sw_ft": 15.0, "right_sw_ft": 15.0}, "geometry": {"type": "LineString", "coordinates": [[-74.24280675722642, 40.53908104273572], [-74.24271534031885, 40.53940295161801]]}}, {"type": "Feature", "properties": {"segment_id": 1349457, "physicalid": "92131", "street_name": "SHARROTTS RD", "borough": "staten_island", "direction": "TW", "total_row_ft": 66.8, "roadbed_ft": 36.8, "median_ft": 0.0, "left_sw_ft": 15.0, "right_sw_ft": 15.0}, "geometry": {"type": "LineString", "coordinates": [[-74.24287708103083, 40.53909266663563], [-74.24278566444606, 40.53941457557361]]}}, {"type": "Feature", "properties": {"segment_id": 1349458, "physicalid": "92131", "street_name": "SHARROTTS RD", "borough": "staten_island", "direction": "TW", "total_row_ft": 64.5, "roadbed_ft": 34.5, "median_ft": 0.0, "left_sw_ft": 15.0, "right_sw_ft": 15.0}, "geometry": {"type": "LineString", "coordinates": [[-74.24294740485968, 40.53910429049245], [-74.24285598859774, 40.53942619948613]]}}, {"type": "Feature", "properties": {"segment_id": 1349459, "physicalid": "92131", "street_name": "SHARROTTS RD", "borough": "staten_island", "direction": "TW", "total_row_ft": 62.2, "roadbed_ft": 32.2, "median_ft": 0.0, "left_sw_ft": 15.0, "right_sw_ft": 15.0}, "geometry": {"type": "LineString", "coordinates": [[-74.24301772871299, 40.5391159143062], [-74.2429263127739, 40.539437823355556]]}}, {"type": "Feature", "properties": {"segment_id": 1349460, "physicalid": "92131", "street_name": "SHARROTTS RD", "borough": "staten_island", "direction": "TW", "total_row_ft": 60.3, "roadbed_ft": 30.3, "median_ft": 0.0, "left_sw_ft": 15.0, "right_sw_ft": 15.0}, "geometry": {"type": "LineString", "coordinates": [[-74.24308805259076, 40.53912753807686], [-74.24299663697452, 40.53944944718192]]}}, {"type": "Feature", "properties": {"segment_id": 1349461, "physicalid": "92131", "street_name": "SHARROTTS RD", "borough": "staten_island", "direction": "TW", "total_row_ft": 59.0, "roadbed_ft": 29.0, "median_ft": 0.0, "left_sw_ft": 15.0, "right_sw_ft": 15.0}, "geometry": {"type": "LineString", "coordinates": [[-74.24315837649299, 40.53913916180445], [-74.2430669611996, 40.53946107096521]]}}, {"type": "Feature", "properties": {"segment_id": 1349462, "physicalid": "92131", "street_name": "SHARROTTS RD", "borough": "staten_island", "direction": "TW", "total_row_ft": 57.7, "roadbed_ft": 27.7, "median_ft": 0.0, "left_sw_ft": 15.0, "right_sw_ft": 15.0}, "geometry": {"type": "LineString", "coordinates": [[-74.24322870041969, 40.539150785488935], [-74.24313728544915, 40.539472694705395]]}}, {"type": "Feature", "properties": {"segment_id": 1596056, "physicalid": "132656", "street_name": "WINDWARD CT", "borough": "staten_island", "direction": "TW", "total_row_ft": 62.7, "roadbed_ft": 38.6, "median_ft": 0.0, "left_sw_ft": 9.2, "right_sw_ft": 15.0}, "geometry": {"type": "LineString", "coordinates": [[-74.24167927380165, 40.53008007671611], [-74.24138885244112, 40.529997434507194]]}}, {"type": "Feature", "properties": {"segment_id": 1596057, "physicalid": "132656", "street_name": "WINDWARD CT", "borough": "staten_island", "direction": "TW", "total_row_ft": 63.0, "roadbed_ft": 38.7, "median_ft": 0.0, "left_sw_ft": 9.3, "right_sw_ft": 15.0}, "geometry": {"type": "LineString", "coordinates": [[-74.24165462008091, 40.53013165084328], [-74.24136371252715, 40.53004887027566]]}}, {"type": "Feature", "properties": {"segment_id": 1596058, "physicalid": "132656", "street_name": "WINDWARD CT", "borough": "staten_island", "direction": "TW", "total_row_ft": 63.3, "roadbed_ft": 38.9, "median_ft": 0.0, "left_sw_ft": 9.5, "right_sw_ft": 15.0}, "geometry": {"type": "LineString", "coordinates": [[-74.24162990135234, 40.530183206477275], [-74.24133857257449, 40.53010030603834]]}}, {"type": "Feature", "properties": {"segment_id": 1596059, "physicalid": "132656", "street_name": "WINDWARD CT", "borough": "staten_island", "direction": "TW", "total_row_ft": 63.9, "roadbed_ft": 38.9, "median_ft": 0.0, "left_sw_ft": 10.0, "right_sw_ft": 15.0}, "geometry": {"type": "LineString", "coordinates": [[-74.24160406605293, 40.530236107455785], [-74.24131493016915, 40.530148396752345]]}}, {"type": "Feature", "properties": {"segment_id": 1596060, "physicalid": "132656", "street_name": "WINDWARD CT", "borough": "staten_island", "direction": "TW", "total_row_ft": 64.6, "roadbed_ft": 39.0, "median_ft": 0.0, "left_sw_ft": 10.6, "right_sw_ft": 15.0}, "geometry": {"type": "LineString", "coordinates": [[-74.2415789464822, 40.530287563006226], [-74.24128835019944, 40.530199409276165]]}}, {"type": "Feature", "properties": {"segment_id": 1596061, "physicalid": "132656", "street_name": "WINDWARD CT", "borough": "staten_island", "direction": "TW", "total_row_ft": 65.2, "roadbed_ft": 39.0, "median_ft": 0.0, "left_sw_ft": 11.2, "right_sw_ft": 15.0}, "geometry": {"type": "LineString", "coordinates": [[-74.24155383550078, 40.5303390211683], [-74.24126177018917, 40.53025042179364]]}}, {"type": "Feature", "properties": {"segment_id": 1596062, "physicalid": "132656", "street_name": "WINDWARD CT", "borough": "staten_island", "direction": "TW", "total_row_ft": 65.4, "roadbed_ft": 38.9, "median_ft": 0.0, "left_sw_ft": 11.5, "right_sw_ft": 15.0}, "geometry": {"type": "LineString", "coordinates": [[-74.24152716894483, 40.53039000744816], [-74.2412351901383, 40.53030143430481]]}}, {"type": "Feature", "properties": {"segment_id": 1596063, "physicalid": "132656", "street_name": "WINDWARD CT", "borough": "staten_island", "direction": "TW", "total_row_ft": 65.5, "roadbed_ft": 38.8, "median_ft": 0.0, "left_sw_ft": 11.7, "right_sw_ft": 15.0}, "geometry": {"type": "LineString", "coordinates": [[-74.24150004880211, 40.530440856137055], [-74.2412086100469, 40.53035244680954]]}}, {"type": "Feature", "properties": {"segment_id": 1596064, "physicalid": "132656", "street_name": "WINDWARD CT", "borough": "staten_island", "direction": "TW", "total_row_ft": 65.7, "roadbed_ft": 38.7, "median_ft": 0.0, "left_sw_ft": 11.9, "right_sw_ft": 15.0}, "geometry": {"type": "LineString", "coordinates": [[-74.24147292861814, 40.530491704819354], [-74.2411820299149, 40.53040345930795]]}}, {"type": "Feature", "properties": {"segment_id": 1596065, "physicalid": "132656", "street_name": "WINDWARD CT", "borough": "staten_island", "direction": "TW", "total_row_ft": 65.8, "roadbed_ft": 38.8, "median_ft": 0.0, "left_sw_ft": 12.0, "right_sw_ft": 15.0}, "geometry": {"type": "LineString", "coordinates": [[-74.24144506719821, 40.53054403580572], [-74.24115671607153, 40.530451050367944]]}}, {"type": "Feature", "properties": {"segment_id": 1596066, "physicalid": "132656", "street_name": "WINDWARD CT", "borough": "staten_island", "direction": "TW", "total_row_ft": 66.0, "roadbed_ft": 38.9, "median_ft": 0.0, "left_sw_ft": 12.1, "right_sw_ft": 15.0}, "geometry": {"type": "LineString", "coordinates": [[-74.24141814367901, 40.53059495129968], [-74.24112870814028, 40.53050161615798]]}}, {"type": "Feature", "properties": {"segment_id": 1596067, "physicalid": "132656", "street_name": "WINDWARD CT", "borough": "staten_island", "direction": "TW", "total_row_ft": 63.1, "roadbed_ft": 38.9, "median_ft": 0.0, "left_sw_ft": 9.2, "right_sw_ft": 15.0}, "geometry": {"type": "LineString", "coordinates": [[-74.2413812346881, 40.53064264677173], [-74.24110070016665, 40.53055218194094]]}}, {"type": "Feature", "properties": {"segment_id": 1596068, "physicalid": "132656", "street_name": "WINDWARD CT", "borough": "staten_island", "direction": "TW", "total_row_ft": 61.9, "roadbed_ft": 38.9, "median_ft": 0.0, "left_sw_ft": 8.0, "right_sw_ft": 15.0}, "geometry": {"type": "LineString", "coordinates": [[-74.24134972305492, 40.53069208274294], [-74.24107269215065, 40.53060274771689]]}}, {"type": "Feature", "properties": {"segment_id": 1596069, "physicalid": "132656", "street_name": "WINDWARD CT", "borough": "staten_island", "direction": "TW", "total_row_ft": 62.6, "roadbed_ft": 38.9, "median_ft": 0.0, "left_sw_ft": 8.7, "right_sw_ft": 15.0}, "geometry": {"type": "LineString", "coordinates": [[-74.24132463001638, 40.5307435885345], [-74.24104468409227, 40.530653313485814]]}}, {"type": "Feature", "properties": {"segment_id": 1596070, "physicalid": "132656", "street_name": "WINDWARD CT", "borough": "staten_island", "direction": "TW", "total_row_ft": 63.1, "roadbed_ft": 39.3, "median_ft": 0.0, "left_sw_ft": 8.8, "right_sw_ft": 15.0}, "geometry": {"type": "LineString", "coordinates": [[-74.24129953693915, 40.53079509432038], [-74.24101667599152, 40.530703879247724]]}}, {"type": "Feature", "properties": {"segment_id": 1596071, "physicalid": "132656", "street_name": "WINDWARD CT", "borough": "staten_island", "direction": "TW", "total_row_ft": 63.0, "roadbed_ft": 39.1, "median_ft": 0.0, "left_sw_ft": 8.9, "right_sw_ft": 15.0}, "geometry": {"type": "LineString", "coordinates": [[-74.24128064644198, 40.530838812597345], [-74.24098457233336, 40.530775256202766]]}}, {"type": "Feature", "properties": {"segment_id": 1596072, "physicalid": "132656", "street_name": "WINDWARD CT", "borough": "staten_island", "direction": "TW", "total_row_ft": 63.3, "roadbed_ft": 39.1, "median_ft": 0.0, "left_sw_ft": 9.2, "right_sw_ft": 15.0}, "geometry": {"type": "LineString", "coordinates": [[-74.24125998036244, 40.53089140377434], [-74.24096508750756, 40.530828100946756]]}}, {"type": "Feature", "properties": {"segment_id": 1596073, "physicalid": "132656", "street_name": "WINDWARD CT", "borough": "staten_island", "direction": "TW", "total_row_ft": 63.3, "roadbed_ft": 39.5, "median_ft": 0.0, "left_sw_ft": 8.8, "right_sw_ft": 15.0}, "geometry": {"type": "LineString", "coordinates": [[-74.24124025344177, 40.53094160489275], [-74.24094429681419, 40.53088693807821]]}}, {"type": "Feature", "properties": {"segment_id": 1596074, "physicalid": "132656", "street_name": "WINDWARD CT", "borough": "staten_island", "direction": "TW", "total_row_ft": 63.0, "roadbed_ft": 39.3, "median_ft": 0.0, "left_sw_ft": 8.7, "right_sw_ft": 15.0}, "geometry": {"type": "LineString", "coordinates": [[-74.24122089490193, 40.53099451108266], [-74.240927368667, 40.53094029318568]]}}, {"type": "Feature", "properties": {"segment_id": 1596075, "physicalid": "132656", "street_name": "WINDWARD CT", "borough": "staten_island", "direction": "TW", "total_row_ft": 62.6, "roadbed_ft": 38.8, "median_ft": 0.0, "left_sw_ft": 8.7, "right_sw_ft": 15.0}, "geometry": {"type": "LineString", "coordinates": [[-74.24120392295089, 40.53104761629157], [-74.24091026004173, 40.53099422152977]]}}, {"type": "Feature", "properties": {"segment_id": 1596076, "physicalid": "132656", "street_name": "WINDWARD CT", "borough": "staten_island", "direction": "TW", "total_row_ft": 62.4, "roadbed_ft": 38.4, "median_ft": 0.0, "left_sw_ft": 9.0, "right_sw_ft": 15.0}, "geometry": {"type": "LineString", "coordinates": [[-74.24119030427839, 40.53109930130042], [-74.2408943100613, 40.53105333665877]]}}, {"type": "Feature", "properties": {"segment_id": 1596077, "physicalid": "132656", "street_name": "WINDWARD CT", "borough": "staten_island", "direction": "TW", "total_row_ft": 62.1, "roadbed_ft": 38.1, "median_ft": 0.0, "left_sw_ft": 9.0, "right_sw_ft": 15.0}, "geometry": {"type": "LineString", "coordinates": [[-74.24117727872127, 40.53115330023968], [-74.24087996142222, 40.53110713013848]]}}, {"type": "Feature", "properties": {"segment_id": 1596078, "physicalid": "132656", "street_name": "WINDWARD CT", "borough": "staten_island", "direction": "TW", "total_row_ft": 62.0, "roadbed_ft": 37.9, "median_ft": 0.0, "left_sw_ft": 9.1, "right_sw_ft": 15.0}, "geometry": {"type": "LineString", "coordinates": [[-74.24116720118275, 40.531205171328416], [-74.2408659437987, 40.53116712173266]]}}, {"type": "Feature", "properties": {"segment_id": 1596079, "physicalid": "132656", "street_name": "WINDWARD CT", "borough": "staten_island", "direction": "TW", "total_row_ft": 62.7, "roadbed_ft": 38.6, "median_ft": 0.0, "left_sw_ft": 9.1, "right_sw_ft": 15.0}, "geometry": {"type": "LineString", "coordinates": [[-74.24115805510733, 40.531259659447635], [-74.24085419406727, 40.531221281006296]]}}, {"type": "Feature", "properties": {"segment_id": 1596080, "physicalid": "132656", "street_name": "WINDWARD CT", "borough": "staten_island", "direction": "TW", "total_row_ft": 62.6, "roadbed_ft": 38.5, "median_ft": 0.0, "left_sw_ft": 9.1, "right_sw_ft": 15.0}, "geometry": {"type": "LineString", "coordinates": [[-74.24115274412847, 40.53131185840763], [-74.2408422977296, 40.53128153809489]]}}, {"type": "Feature", "properties": {"segment_id": 1596081, "physicalid": "132656", "street_name": "WINDWARD CT", "borough": "staten_island", "direction": "TW", "total_row_ft": 62.7, "roadbed_ft": 38.9, "median_ft": 0.0, "left_sw_ft": 8.8, "right_sw_ft": 15.0}, "geometry": {"type": "LineString", "coordinates": [[-74.24114776383988, 40.531366716167895], [-74.24083316277205, 40.53133599008745]]}}, {"type": "Feature", "properties": {"segment_id": 1596082, "physicalid": "132656", "street_name": "WINDWARD CT", "borough": "staten_island", "direction": "TW", "total_row_ft": 63.0, "roadbed_ft": 39.0, "median_ft": 0.0, "left_sw_ft": 9.0, "right_sw_ft": 15.0}, "geometry": {"type": "LineString", "coordinates": [[-74.2411455553227, 40.53141880028876], [-74.24082339542542, 40.53139647481471]]}}, {"type": "Feature", "properties": {"segment_id": 1596083, "physicalid": "132656", "street_name": "WINDWARD CT", "borough": "staten_island", "direction": "TW", "total_row_ft": 63.2, "roadbed_ft": 39.1, "median_ft": 0.0, "left_sw_ft": 9.1, "right_sw_ft": 15.0}, "geometry": {"type": "LineString", "coordinates": [[-74.24114322482554, 40.53147376101159], [-74.2408168875673, 40.53145114605509]]}}, {"type": "Feature", "properties": {"segment_id": 1596084, "physicalid": "132656", "street_name": "WINDWARD CT", "borough": "staten_island", "direction": "TW", "total_row_ft": 62.8, "roadbed_ft": 38.9, "median_ft": 0.0, "left_sw_ft": 8.8, "right_sw_ft": 15.0}, "geometry": {"type": "LineString", "coordinates": [[-74.24114089432456, 40.53152872173414], [-74.24081037969853, 40.531505817294864]]}}, {"type": "Feature", "properties": {"segment_id": 1596085, "physicalid": "132656", "street_name": "WINDWARD CT", "borough": "staten_island", "direction": "TW", "total_row_ft": 62.4, "roadbed_ft": 38.7, "median_ft": 0.0, "left_sw_ft": 8.7, "right_sw_ft": 15.0}, "geometry": {"type": "LineString", "coordinates": [[-74.24113947928655, 40.53158037544862], [-74.24080538416523, 40.53156663727253]]}}, {"type": "Feature", "properties": {"segment_id": 1596086, "physicalid": "132656", "street_name": "WINDWARD CT", "borough": "staten_island", "direction": "TW", "total_row_ft": 88.5, "roadbed_ft": 38.4, "median_ft": 0.0, "left_sw_ft": 35.0, "right_sw_ft": 15.0}, "geometry": {"type": "LineString", "coordinates": [[-74.24123257071443, 40.53163917917626], [-74.24080151220676, 40.53162145399524]]}}, {"type": "Feature", "properties": {"segment_id": 1596087, "physicalid": "132656", "street_name": "WINDWARD CT", "borough": "staten_island", "direction": "TW", "total_row_ft": 62.3, "roadbed_ft": 38.6, "median_ft": 0.0, "left_sw_ft": 8.7, "right_sw_ft": 15.0}, "geometry": {"type": "LineString", "coordinates": [[-74.2411383601104, 40.531686785841586], [-74.24079866397331, 40.53168235170997]]}}, {"type": "Feature", "properties": {"segment_id": 1596088, "physicalid": "132656", "street_name": "WINDWARD CT", "borough": "staten_island", "direction": "TW", "total_row_ft": 62.7, "roadbed_ft": 38.9, "median_ft": 0.0, "left_sw_ft": 8.8, "right_sw_ft": 15.0}, "geometry": {"type": "LineString", "coordinates": [[-74.24113917002397, 40.53174170071912], [-74.24079743316256, 40.531737239952434]]}}, {"type": "Feature", "properties": {"segment_id": 1596089, "physicalid": "132656", "street_name": "WINDWARD CT", "borough": "staten_island", "direction": "TW", "total_row_ft": 62.9, "roadbed_ft": 39.1, "median_ft": 0.0, "left_sw_ft": 8.9, "right_sw_ft": 15.0}, "geometry": {"type": "LineString", "coordinates": [[-74.24113992715296, 40.53179303654269], [-74.24079673404125, 40.53179817715038]]}}, {"type": "Feature", "properties": {"segment_id": 1596090, "physicalid": "132656", "street_name": "WINDWARD CT", "borough": "staten_island", "direction": "TW", "total_row_ft": 63.7, "roadbed_ft": 39.1, "median_ft": 0.0, "left_sw_ft": 9.6, "right_sw_ft": 15.0}, "geometry": {"type": "LineString", "coordinates": [[-74.2412297483378, 40.531846597818856], [-74.240798146052, 40.531853062852754]]}}, {"type": "Feature", "properties": {"segment_id": 1596091, "physicalid": "132656", "street_name": "WINDWARD CT", "borough": "staten_island", "direction": "TW", "total_row_ft": 65.5, "roadbed_ft": 39.2, "median_ft": 0.0, "left_sw_ft": 17.3, "right_sw_ft": 8.9}, "geometry": {"type": "LineString", "coordinates": [[-74.24121907528139, 40.53190166456706], [-74.24093601172241, 40.53190590477107]]}}, {"type": "Feature", "properties": {"segment_id": 1596092, "physicalid": "132656", "street_name": "WINDWARD CT", "borough": "staten_island", "direction": "TW", "total_row_ft": 73.3, "roadbed_ft": 58.7, "median_ft": 0.0, "left_sw_ft": 8.9, "right_sw_ft": 5.6}, "geometry": {"type": "LineString", "coordinates": [[-74.24114171614876, 40.531954256226825], [-74.24085357632363, 40.53196666103807]]}}, {"type": "Feature", "properties": {"segment_id": 1638256, "physicalid": "160266", "street_name": "PILOT LN", "borough": "staten_island", "direction": "FT", "total_row_ft": 47.6, "roadbed_ft": 34.5, "median_ft": 0.0, "left_sw_ft": 6.6, "right_sw_ft": 6.5}, "geometry": {"type": "LineString", "coordinates": [[-74.24113032692155, 40.53003758727062], [-74.24097096684383, 40.52998948145067]]}}, {"type": "Feature", "properties": {"segment_id": 1638257, "physicalid": "160266", "street_name": "PILOT LN", "borough": "staten_island", "direction": "FT", "total_row_ft": 47.6, "roadbed_ft": 34.5, "median_ft": 0.0, "left_sw_ft": 6.7, "right_sw_ft": 6.4}, "geometry": {"type": "LineString", "coordinates": [[-74.24110275119642, 40.53008829927899], [-74.24094364117356, 40.530040268935416]]}}, {"type": "Feature", "properties": {"segment_id": 1638258, "physicalid": "160266", "street_name": "PILOT LN", "borough": "staten_island", "direction": "FT", "total_row_ft": 47.5, "roadbed_ft": 34.5, "median_ft": 0.0, "left_sw_ft": 6.8, "right_sw_ft": 6.3}, "geometry": {"type": "LineString", "coordinates": [[-74.24107517542946, 40.53013901128052], [-74.24091632511431, 40.53009105932729]]}}, {"type": "Feature", "properties": {"segment_id": 1638259, "physicalid": "160266", "street_name": "PILOT LN", "borough": "staten_island", "direction": "FT", "total_row_ft": 47.4, "roadbed_ft": 34.4, "median_ft": 0.0, "left_sw_ft": 6.8, "right_sw_ft": 6.2}, "geometry": {"type": "LineString", "coordinates": [[-74.24104758632133, 40.530189719260584], [-74.24088900901357, 40.53014184971245]]}}, {"type": "Feature", "properties": {"segment_id": 1638260, "physicalid": "160266", "street_name": "PILOT LN", "borough": "staten_island", "direction": "FT", "total_row_ft": 47.3, "roadbed_ft": 34.5, "median_ft": 0.0, "left_sw_ft": 6.8, "right_sw_ft": 6.1}, "geometry": {"type": "LineString", "coordinates": [[-74.24101994555211, 40.530240411651654], [-74.24086164200381, 40.53019262473556]]}}, {"type": "Feature", "properties": {"segment_id": 1638261, "physicalid": "160266", "street_name": "PILOT LN", "borough": "staten_island", "direction": "FT", "total_row_ft": 47.4, "roadbed_ft": 34.2, "median_ft": 0.0, "left_sw_ft": 7.0, "right_sw_ft": 6.2}, "geometry": {"type": "LineString", "coordinates": [[-74.24099184705705, 40.53029194341318], [-74.24083434096283, 40.5302423620998]]}}, {"type": "Feature", "properties": {"segment_id": 1638262, "physicalid": "160266", "street_name": "PILOT LN", "borough": "staten_island", "direction": "FT", "total_row_ft": 47.4, "roadbed_ft": 33.9, "median_ft": 0.0, "left_sw_ft": 7.3, "right_sw_ft": 6.3}, "geometry": {"type": "LineString", "coordinates": [[-74.24096421033167, 40.53034262821912], [-74.24080654699524, 40.53029299740074]]}}, {"type": "Feature", "properties": {"segment_id": 1638263, "physicalid": "160266", "street_name": "PILOT LN", "borough": "staten_island", "direction": "FT", "total_row_ft": 47.5, "roadbed_ft": 33.6, "median_ft": 0.0, "left_sw_ft": 7.5, "right_sw_ft": 6.4}, "geometry": {"type": "LineString", "coordinates": [[-74.24093657356438, 40.53039331301818], [-74.24077875298556, 40.53034363269475]]}}, {"type": "Feature", "properties": {"segment_id": 1638264, "physicalid": "160266", "street_name": "PILOT LN", "borough": "staten_island", "direction": "FT", "total_row_ft": 47.5, "roadbed_ft": 33.5, "median_ft": 0.0, "left_sw_ft": 7.6, "right_sw_ft": 6.4}, "geometry": {"type": "LineString", "coordinates": [[-74.24090893675518, 40.530443997810394], [-74.24075095893375, 40.53039426798185]]}}, {"type": "Feature", "properties": {"segment_id": 1638265, "physicalid": "160266", "street_name": "PILOT LN", "borough": "staten_island", "direction": "FT", "total_row_ft": 47.6, "roadbed_ft": 33.4, "median_ft": 0.0, "left_sw_ft": 7.6, "right_sw_ft": 6.5}, "geometry": {"type": "LineString", "coordinates": [[-74.24088129990405, 40.53049468259578], [-74.2407231648398, 40.53044490326202]]}}, {"type": "Feature", "properties": {"segment_id": 1638266, "physicalid": "160266", "street_name": "PILOT LN", "borough": "staten_island", "direction": "FT", "total_row_ft": 47.4, "roadbed_ft": 33.5, "median_ft": 0.0, "left_sw_ft": 7.2, "right_sw_ft": 6.6}, "geometry": {"type": "LineString", "coordinates": [[-74.24085301823327, 40.53054516440528], [-74.24069537070378, 40.53049553853527]]}}, {"type": "Feature", "properties": {"segment_id": 1638267, "physicalid": "160266", "street_name": "PILOT LN", "borough": "staten_island", "direction": "FT", "total_row_ft": 47.2, "roadbed_ft": 33.7, "median_ft": 0.0, "left_sw_ft": 7.0, "right_sw_ft": 6.5}, "geometry": {"type": "LineString", "coordinates": [[-74.24082415324695, 40.530596420747905], [-74.24066808330743, 40.53054525055752]]}}, {"type": "Feature", "properties": {"segment_id": 1638268, "physicalid": "160266", "street_name": "PILOT LN", "borough": "staten_island", "direction": "FT", "total_row_ft": 47.9, "roadbed_ft": 33.3, "median_ft": 0.0, "left_sw_ft": 6.8, "right_sw_ft": 7.8}, "geometry": {"type": "LineString", "coordinates": [[-74.24079574955697, 40.53064685787], [-74.24063740871064, 40.530594943114956]]}}, {"type": "Feature", "properties": {"segment_id": 1638269, "physicalid": "160266", "street_name": "PILOT LN", "borough": "staten_island", "direction": "FT", "total_row_ft": 59.5, "roadbed_ft": 33.6, "median_ft": 0.0, "left_sw_ft": 17.8, "right_sw_ft": 8.1}, "geometry": {"type": "LineString", "coordinates": [[-74.24086106549957, 40.53072802244687], [-74.24060763652685, 40.530644931551386]]}}, {"type": "Feature", "properties": {"segment_id": 1638270, "physicalid": "160266", "street_name": "PILOT LN", "borough": "staten_island", "direction": "FT", "total_row_ft": 60.7, "roadbed_ft": 33.9, "median_ft": 0.0, "left_sw_ft": 5.0, "right_sw_ft": 21.8}, "geometry": {"type": "LineString", "coordinates": [[-74.24073450460497, 40.53074627720453], [-74.24046692479455, 40.5306585463741]]}}, {"type": "Feature", "properties": {"segment_id": 1638271, "physicalid": "160266", "street_name": "PILOT LN", "borough": "staten_island", "direction": "FT", "total_row_ft": 47.0, "roadbed_ft": 33.0, "median_ft": 0.0, "left_sw_ft": 6.3, "right_sw_ft": 7.6}, "geometry": {"type": "LineString", "coordinates": [[-74.24071121479186, 40.5307983910149], [-74.24055585704056, 40.53074745430192]]}}, {"type": "Feature", "properties": {"segment_id": 1638272, "physicalid": "160266", "street_name": "PILOT LN", "borough": "staten_island", "direction": "FT", "total_row_ft": 47.8, "roadbed_ft": 33.5, "median_ft": 0.0, "left_sw_ft": 7.4, "right_sw_ft": 7.0}, "geometry": {"type": "LineString", "coordinates": [[-74.24070164010601, 40.53083079262695], [-74.24053001384198, 40.530821016807046]]}}, {"type": "Feature", "properties": {"segment_id": 1638273, "physicalid": "160266", "street_name": "PILOT LN", "borough": "staten_island", "direction": "FT", "total_row_ft": 48.0, "roadbed_ft": 33.2, "median_ft": 0.0, "left_sw_ft": 7.7, "right_sw_ft": 7.1}, "geometry": {"type": "LineString", "coordinates": [[-74.24068957860716, 40.530885154639314], [-74.2405173972151, 40.530875347188726]]}}, {"type": "Feature", "properties": {"segment_id": 1638274, "physicalid": "160266", "street_name": "PILOT LN", "borough": "staten_island", "direction": "FT", "total_row_ft": 48.1, "roadbed_ft": 32.9, "median_ft": 0.0, "left_sw_ft": 7.5, "right_sw_ft": 7.8}, "geometry": {"type": "LineString", "coordinates": [[-74.24068100852327, 40.530939715519736], [-74.24050830636132, 40.53092987840085]]}}, {"type": "Feature", "properties": {"segment_id": 1638275, "physicalid": "160266", "street_name": "PILOT LN", "borough": "staten_island", "direction": "FT", "total_row_ft": 48.2, "roadbed_ft": 32.9, "median_ft": 0.0, "left_sw_ft": 7.5, "right_sw_ft": 7.7}, "geometry": {"type": "LineString", "coordinates": [[-74.24067455150285, 40.530994396758686], [-74.24050165189318, 40.53098454839133]]}}, {"type": "Feature", "properties": {"segment_id": 1638276, "physicalid": "160266", "street_name": "PILOT LN", "borough": "staten_island", "direction": "FT", "total_row_ft": 47.8, "roadbed_ft": 33.4, "median_ft": 0.0, "left_sw_ft": 7.4, "right_sw_ft": 7.0}, "geometry": {"type": "LineString", "coordinates": [[-74.2406689913088, 40.531049129080216], [-74.24049742702346, 40.53103935677368]]}}, {"type": "Feature", "properties": {"segment_id": 1638277, "physicalid": "160266", "street_name": "PILOT LN", "borough": "staten_island", "direction": "FT", "total_row_ft": 47.3, "roadbed_ft": 33.8, "median_ft": 0.0, "left_sw_ft": 7.3, "right_sw_ft": 6.2}, "geometry": {"type": "LineString", "coordinates": [[-74.24066348532627, 40.53110386448961], [-74.24049377830606, 40.531094197974106]]}}, {"type": "Feature", "properties": {"segment_id": 1638278, "physicalid": "160266", "street_name": "PILOT LN", "borough": "staten_island", "direction": "FT", "total_row_ft": 47.3, "roadbed_ft": 34.2, "median_ft": 0.0, "left_sw_ft": 7.2, "right_sw_ft": 5.9}, "geometry": {"type": "LineString", "coordinates": [[-74.24065763768866, 40.53115858043862], [-74.24048813416974, 40.53114892551394]]}}, {"type": "Feature", "properties": {"segment_id": 1638279, "physicalid": "160266", "street_name": "PILOT LN", "borough": "staten_island", "direction": "FT", "total_row_ft": 47.2, "roadbed_ft": 34.2, "median_ft": 0.0, "left_sw_ft": 7.0, "right_sw_ft": 5.9}, "geometry": {"type": "LineString", "coordinates": [[-74.2406517900415, 40.53121329638707], [-74.24048249002416, 40.531203653053296]]}}, {"type": "Feature", "properties": {"segment_id": 1638280, "physicalid": "160266", "street_name": "PILOT LN", "borough": "staten_island", "direction": "FT", "total_row_ft": 47.1, "roadbed_ft": 34.3, "median_ft": 0.0, "left_sw_ft": 6.9, "right_sw_ft": 5.9}, "geometry": {"type": "LineString", "coordinates": [[-74.24064614094894, 40.53126802364507], [-74.24047699710782, 40.531258389206776]]}}, {"type": "Feature", "properties": {"segment_id": 1638281, "physicalid": "160266", "street_name": "PILOT LN", "borough": "staten_island", "direction": "FT", "total_row_ft": 47.1, "roadbed_ft": 34.4, "median_ft": 0.0, "left_sw_ft": 6.8, "right_sw_ft": 5.9}, "geometry": {"type": "LineString", "coordinates": [[-74.24064057685494, 40.53132275574457], [-74.24047163661423, 40.5313131329032]]}}, {"type": "Feature", "properties": {"segment_id": 1638282, "physicalid": "160266", "street_name": "PILOT LN", "borough": "staten_island", "direction": "FT", "total_row_ft": 47.0, "roadbed_ft": 34.4, "median_ft": 0.0, "left_sw_ft": 6.7, "right_sw_ft": 5.9}, "geometry": {"type": "LineString", "coordinates": [[-74.24063501275181, 40.53137748784356], [-74.24046627611187, 40.531367876599106]]}}, {"type": "Feature", "properties": {"segment_id": 1638283, "physicalid": "160266", "street_name": "PILOT LN", "borough": "staten_island", "direction": "FT", "total_row_ft": 47.0, "roadbed_ft": 34.5, "median_ft": 0.0, "left_sw_ft": 6.7, "right_sw_ft": 5.8}, "geometry": {"type": "LineString", "coordinates": [[-74.24062967866979, 40.53143223304441], [-74.2404610979242, 40.531422630679835]]}}, {"type": "Feature", "properties": {"segment_id": 1638284, "physicalid": "160266", "street_name": "PILOT LN", "borough": "staten_island", "direction": "FT", "total_row_ft": 46.9, "roadbed_ft": 34.6, "median_ft": 0.0, "left_sw_ft": 6.6, "right_sw_ft": 5.7}, "geometry": {"type": "LineString", "coordinates": [[-74.24062439869755, 40.53148698132729], [-74.24045602170195, 40.531477390568625]]}}, {"type": "Feature", "properties": {"segment_id": 1638285, "physicalid": "160266", "street_name": "PILOT LN", "borough": "staten_island", "direction": "FT", "total_row_ft": 46.9, "roadbed_ft": 34.7, "median_ft": 0.0, "left_sw_ft": 6.6, "right_sw_ft": 5.6}, "geometry": {"type": "LineString", "coordinates": [[-74.24061911871667, 40.53154172960973], [-74.2404509454714, 40.53153215045697]]}}, {"type": "Feature", "properties": {"segment_id": 1638286, "physicalid": "160266", "street_name": "PILOT LN", "borough": "staten_island", "direction": "FT", "total_row_ft": 47.0, "roadbed_ft": 34.6, "median_ft": 0.0, "left_sw_ft": 6.6, "right_sw_ft": 5.8}, "geometry": {"type": "LineString", "coordinates": [[-74.24061371333129, 40.53159647074926], [-74.2404450148177, 40.53158686167669]]}}, {"type": "Feature", "properties": {"segment_id": 1638287, "physicalid": "160266", "street_name": "PILOT LN", "borough": "staten_island", "direction": "FT", "total_row_ft": 47.1, "roadbed_ft": 34.5, "median_ft": 0.0, "left_sw_ft": 6.7, "right_sw_ft": 5.9}, "geometry": {"type": "LineString", "coordinates": [[-74.24060834958674, 40.53165121426061], [-74.2404393412535, 40.53164158754046]]}}, {"type": "Feature", "properties": {"segment_id": 1638288, "physicalid": "160266", "street_name": "PILOT LN", "borough": "staten_island", "direction": "FT", "total_row_ft": 47.2, "roadbed_ft": 34.4, "median_ft": 0.0, "left_sw_ft": 6.8, "right_sw_ft": 6.0}, "geometry": {"type": "LineString", "coordinates": [[-74.24060305936254, 40.53170596195966], [-74.24043366768002, 40.531696313403714]]}}, {"type": "Feature", "properties": {"segment_id": 1638289, "physicalid": "160266", "street_name": "PILOT LN", "borough": "staten_island", "direction": "FT", "total_row_ft": 47.4, "roadbed_ft": 34.4, "median_ft": 0.0, "left_sw_ft": 6.9, "right_sw_ft": 6.1}, "geometry": {"type": "LineString", "coordinates": [[-74.24059788598758, 40.53176071631437], [-74.24042799409726, 40.5317510392665]]}}, {"type": "Feature", "properties": {"segment_id": 1638290, "physicalid": "160266", "street_name": "PILOT LN", "borough": "staten_island", "direction": "FT", "total_row_ft": 47.5, "roadbed_ft": 34.4, "median_ft": 0.0, "left_sw_ft": 6.9, "right_sw_ft": 6.2}, "geometry": {"type": "LineString", "coordinates": [[-74.24059277624215, 40.53181547429338], [-74.24042232050519, 40.53180576512873]]}}, {"type": "Feature", "properties": {"segment_id": 1638291, "physicalid": "160266", "street_name": "PILOT LN", "borough": "staten_island", "direction": "FT", "total_row_ft": 47.5, "roadbed_ft": 34.4, "median_ft": 0.0, "left_sw_ft": 7.0, "right_sw_ft": 6.1}, "geometry": {"type": "LineString", "coordinates": [[-74.24058773874563, 40.531870236387675], [-74.24041721434105, 40.531860523312126]]}}, {"type": "Feature", "properties": {"segment_id": 1638292, "physicalid": "160266", "street_name": "PILOT LN", "borough": "staten_island", "direction": "FT", "total_row_ft": 47.3, "roadbed_ft": 34.5, "median_ft": 0.0, "left_sw_ft": 6.9, "right_sw_ft": 5.9}, "geometry": {"type": "LineString", "coordinates": [[-74.24058227497113, 40.5319249742015], [-74.24041259440615, 40.53191530919153]]}}, {"type": "Feature", "properties": {"segment_id": 1638293, "physicalid": "160266", "street_name": "PILOT LN", "borough": "staten_island", "direction": "FT", "total_row_ft": 97.4, "roadbed_ft": 73.4, "median_ft": 0.0, "left_sw_ft": 9.0, "right_sw_ft": 15.0}, "geometry": {"type": "LineString", "coordinates": [[-74.2405843353157, 40.53198014058349], [-74.24028873981342, 40.53196330331044]]}}, {"type": "Feature", "properties": {"segment_id": 1639470, "physicalid": "161104", "street_name": "BRICK CT", "borough": "staten_island", "direction": "TW", "total_row_ft": 138.4, "roadbed_ft": 108.4, "median_ft": 0.0, "left_sw_ft": 15.0, "right_sw_ft": 15.0}, "geometry": {"type": "LineString", "coordinates": [[-74.24103842228061, 40.538904801944255], [-74.24145391696432, 40.53899428233463]]}}, {"type": "Feature", "properties": {"segment_id": 1639471, "physicalid": "161104", "street_name": "BRICK CT", "borough": "staten_island", "direction": "TW", "total_row_ft": 69.3, "roadbed_ft": 39.3, "median_ft": 0.0, "left_sw_ft": 15.0, "right_sw_ft": 15.0}, "geometry": {"type": "LineString", "coordinates": [[-74.24105797014387, 40.538851970280426], [-74.24147346452528, 40.538941450600426]]}}, {"type": "Feature", "properties": {"segment_id": 1639472, "physicalid": "161104", "street_name": "BRICK CT", "borough": "staten_island", "direction": "TW", "total_row_ft": 69.7, "roadbed_ft": 39.7, "median_ft": 0.0, "left_sw_ft": 15.0, "right_sw_ft": 15.0}, "geometry": {"type": "LineString", "coordinates": [[-74.24107751797621, 40.53879913861309], [-74.24149301205536, 40.53888861886265]]}}, {"type": "Feature", "properties": {"segment_id": 1639473, "physicalid": "161104", "street_name": "BRICK CT", "borough": "staten_island", "direction": "TW", "total_row_ft": 69.5, "roadbed_ft": 39.5, "median_ft": 0.0, "left_sw_ft": 15.0, "right_sw_ft": 15.0}, "geometry": {"type": "LineString", "coordinates": [[-74.24109706577768, 40.53874630694212], [-74.24151255955451, 40.53883578712137]]}}, {"type": "Feature", "properties": {"segment_id": 1639474, "physicalid": "161104", "street_name": "BRICK CT", "borough": "staten_island", "direction": "TW", "total_row_ft": 69.3, "roadbed_ft": 39.3, "median_ft": 0.0, "left_sw_ft": 15.0, "right_sw_ft": 15.0}, "geometry": {"type": "LineString", "coordinates": [[-74.2411166135482, 40.53869347526766], [-74.24153210702275, 40.538782955376554]]}}, {"type": "Feature", "properties": {"segment_id": 1639475, "physicalid": "161104", "street_name": "BRICK CT", "borough": "staten_island", "direction": "TW", "total_row_ft": 69.0, "roadbed_ft": 39.0, "median_ft": 0.0, "left_sw_ft": 15.0, "right_sw_ft": 15.0}, "geometry": {"type": "LineString", "coordinates": [[-74.24113616128784, 40.53864064358965], [-74.24155165446011, 40.53873012362812]]}}, {"type": "Feature", "properties": {"segment_id": 1639476, "physicalid": "161104", "street_name": "BRICK CT", "borough": "staten_island", "direction": "TW", "total_row_ft": 68.8, "roadbed_ft": 38.8, "median_ft": 0.0, "left_sw_ft": 15.0, "right_sw_ft": 15.0}, "geometry": {"type": "LineString", "coordinates": [[-74.24115570899656, 40.53858781190802], [-74.24157120186653, 40.53867729187621]]}}, {"type": "Feature", "properties": {"segment_id": 1639477, "physicalid": "161104", "street_name": "BRICK CT", "borough": "staten_island", "direction": "TW", "total_row_ft": 68.6, "roadbed_ft": 38.6, "median_ft": 0.0, "left_sw_ft": 15.0, "right_sw_ft": 15.0}, "geometry": {"type": "LineString", "coordinates": [[-74.2411752566744, 40.538534980222906], [-74.24159074924206, 40.538624460120715]]}}, {"type": "Feature", "properties": {"segment_id": 1639478, "physicalid": "161104", "street_name": "BRICK CT", "borough": "staten_island", "direction": "TW", "total_row_ft": 69.4, "roadbed_ft": 39.4, "median_ft": 0.0, "left_sw_ft": 15.0, "right_sw_ft": 15.0}, "geometry": {"type": "LineString", "coordinates": [[-74.24118283848476, 40.538506958397015], [-74.2416116454928, 40.53854521226692]]}}, {"type": "Feature", "properties": {"segment_id": 1639479, "physicalid": "161104", "street_name": "BRICK CT", "borough": "staten_island", "direction": "TW", "total_row_ft": 69.5, "roadbed_ft": 39.5, "median_ft": 0.0, "left_sw_ft": 15.0, "right_sw_ft": 15.0}, "geometry": {"type": "LineString", "coordinates": [[-74.2411911954699, 40.538452433655976], [-74.24162000213286, 40.53849068749475]]}}, {"type": "Feature", "properties": {"segment_id": 1639480, "physicalid": "161104", "street_name": "BRICK CT", "borough": "staten_island", "direction": "TW", "total_row_ft": 69.5, "roadbed_ft": 39.5, "median_ft": 0.0, "left_sw_ft": 15.0, "right_sw_ft": 15.0}, "geometry": {"type": "LineString", "coordinates": [[-74.24119955244139, 40.53839790891402], [-74.24162835875929, 40.538436162721766]]}}, {"type": "Feature", "properties": {"segment_id": 1639481, "physicalid": "161104", "street_name": "BRICK CT", "borough": "staten_island", "direction": "TW", "total_row_ft": 69.6, "roadbed_ft": 39.6, "median_ft": 0.0, "left_sw_ft": 15.0, "right_sw_ft": 15.0}, "geometry": {"type": "LineString", "coordinates": [[-74.24120790939925, 40.53834338417124], [-74.24163671537208, 40.53838163794795]]}}, {"type": "Feature", "properties": {"segment_id": 1639482, "physicalid": "161104", "street_name": "BRICK CT", "borough": "staten_island", "direction": "TW", "total_row_ft": 69.6, "roadbed_ft": 39.6, "median_ft": 0.0, "left_sw_ft": 15.0, "right_sw_ft": 15.0}, "geometry": {"type": "LineString", "coordinates": [[-74.24121626634347, 40.53828885942761], [-74.24164507197123, 40.538327113173246]]}}, {"type": "Feature", "properties": {"segment_id": 1639483, "physicalid": "161104", "street_name": "BRICK CT", "borough": "staten_island", "direction": "TW", "total_row_ft": 69.7, "roadbed_ft": 39.7, "median_ft": 0.0, "left_sw_ft": 15.0, "right_sw_ft": 15.0}, "geometry": {"type": "LineString", "coordinates": [[-74.24122462327406, 40.5382343346831], [-74.24165342855675, 40.53827258839779]]}}, {"type": "Feature", "properties": {"segment_id": 1639484, "physicalid": "161104", "street_name": "BRICK CT", "borough": "staten_island", "direction": "TW", "total_row_ft": 69.7, "roadbed_ft": 39.7, "median_ft": 0.0, "left_sw_ft": 15.0, "right_sw_ft": 15.0}, "geometry": {"type": "LineString", "coordinates": [[-74.24123298019101, 40.53817980993778], [-74.24166178512864, 40.538218063621414]]}}, {"type": "Feature", "properties": {"segment_id": 1639485, "physicalid": "161104", "street_name": "BRICK CT", "borough": "staten_island", "direction": "TW", "total_row_ft": 69.8, "roadbed_ft": 39.8, "median_ft": 0.0, "left_sw_ft": 15.0, "right_sw_ft": 15.0}, "geometry": {"type": "LineString", "coordinates": [[-74.24124133709432, 40.53812528519164], [-74.2416701416869, 40.538163538844216]]}}, {"type": "Feature", "properties": {"segment_id": 1639486, "physicalid": "161104", "street_name": "BRICK CT", "borough": "staten_island", "direction": "TW", "total_row_ft": 106.7, "roadbed_ft": 76.7, "median_ft": 0.0, "left_sw_ft": 15.0, "right_sw_ft": 15.0}, "geometry": {"type": "LineString", "coordinates": [[-74.241249693984, 40.53807076044462], [-74.24167849823151, 40.53810901406617]]}}, {"type": "Feature", "properties": {"segment_id": 1639487, "physicalid": "161104", "street_name": "BRICK CT", "borough": "staten_island", "direction": "TW", "total_row_ft": 150.0, "roadbed_ft": 120.0, "median_ft": 0.0, "left_sw_ft": 15.0, "right_sw_ft": 15.0}, "geometry": {"type": "LineString", "coordinates": [[-74.24125805086004, 40.538016235696816], [-74.24168685476249, 40.538054489287255]]}}, {"type": "Feature", "properties": {"segment_id": 1639488, "physicalid": "161104", "street_name": "BRICK CT", "borough": "staten_island", "direction": "TW", "total_row_ft": 150.0, "roadbed_ft": 120.0, "median_ft": 0.0, "left_sw_ft": 15.0, "right_sw_ft": 15.0}, "geometry": {"type": "LineString", "coordinates": [[-74.24126640772245, 40.53796171094814], [-74.24169521127985, 40.53799996450752]]}}, {"type": "Feature", "properties": {"segment_id": 1639489, "physicalid": "161104", "street_name": "BRICK CT", "borough": "staten_island", "direction": "TW", "total_row_ft": 150.0, "roadbed_ft": 120.0, "median_ft": 0.0, "left_sw_ft": 15.0, "right_sw_ft": 15.0}, "geometry": {"type": "LineString", "coordinates": [[-74.24127476457122, 40.537907186198595], [-74.24170356778355, 40.53794543972695]]}}, {"type": "Feature", "properties": {"segment_id": 1652486, "physicalid": "165012", "street_name": "SHARROTTS RD", "borough": "staten_island", "direction": "TW", "total_row_ft": 57.2, "roadbed_ft": 27.2, "median_ft": 0.0, "left_sw_ft": 15.0, "right_sw_ft": 15.0}, "geometry": {"type": "LineString", "coordinates": [[-74.24009537088185, 40.53863579500457], [-74.24000526455794, 40.5389579188042]]}}, {"type": "Feature", "properties": {"segment_id": 1652487, "physicalid": "165012", "street_name": "SHARROTTS RD", "borough": "staten_island", "direction": "TW", "total_row_ft": 57.2, "roadbed_ft": 27.2, "median_ft": 0.0, "left_sw_ft": 15.0, "right_sw_ft": 15.0}, "geometry": {"type": "LineString", "coordinates": [[-74.24016574116507, 40.5386472523367], [-74.2400756351649, 40.53896937619125]]}}, {"type": "Feature", "properties": {"segment_id": 1652488, "physicalid": "165012", "street_name": "SHARROTTS RD", "borough": "staten_island", "direction": "TW", "total_row_ft": 56.7, "roadbed_ft": 26.7, "median_ft": 0.0, "left_sw_ft": 15.0, "right_sw_ft": 15.0}, "geometry": {"type": "LineString", "coordinates": [[-74.24023611147241, 40.53865870962566], [-74.24014600579599, 40.538980833535156]]}}, {"type": "Feature", "properties": {"segment_id": 1652489, "physicalid": "165012", "street_name": "SHARROTTS RD", "borough": "staten_island", "direction": "TW", "total_row_ft": 56.0, "roadbed_ft": 26.0, "median_ft": 0.0, "left_sw_ft": 15.0, "right_sw_ft": 15.0}, "geometry": {"type": "LineString", "coordinates": [[-74.2403064818039, 40.53867016687151], [-74.2402163764512, 40.53899229083593]]}}, {"type": "Feature", "properties": {"segment_id": 1652490, "physicalid": "165012", "street_name": "SHARROTTS RD", "borough": "staten_island", "direction": "TW", "total_row_ft": 55.5, "roadbed_ft": 25.5, "median_ft": 0.0, "left_sw_ft": 15.0, "right_sw_ft": 15.0}, "geometry": {"type": "LineString", "coordinates": [[-74.2403768521595, 40.53868162407421], [-74.24028674713057, 40.53900374809357]]}}, {"type": "Feature", "properties": {"segment_id": 1652491, "physicalid": "165012", "street_name": "SHARROTTS RD", "borough": "staten_island", "direction": "TW", "total_row_ft": 55.0, "roadbed_ft": 25.0, "median_ft": 0.0, "left_sw_ft": 15.0, "right_sw_ft": 15.0}, "geometry": {"type": "LineString", "coordinates": [[-74.24044722253925, 40.53869308123377], [-74.24035711783402, 40.53901520530805]]}}, {"type": "Feature", "properties": {"segment_id": 1652492, "physicalid": "165013", "street_name": "SHARROTTS RD", "borough": "staten_island", "direction": "TW", "total_row_ft": 54.6, "roadbed_ft": 24.6, "median_ft": 0.0, "left_sw_ft": 15.0, "right_sw_ft": 15.0}, "geometry": {"type": "LineString", "coordinates": [[-74.24061690950522, 40.53872070814927], [-74.24052680564989, 40.5390428323673]]}}, {"type": "Feature", "properties": {"segment_id": 1652493, "physicalid": "165013", "street_name": "SHARROTTS RD", "borough": "staten_island", "direction": "TW", "total_row_ft": 54.6, "roadbed_ft": 24.6, "median_ft": 0.0, "left_sw_ft": 15.0, "right_sw_ft": 15.0}, "geometry": {"type": "LineString", "coordinates": [[-74.24068727996973, 40.53873216515286], [-74.24059717643813, 40.53905428942582]]}}, {"type": "Feature", "properties": {"segment_id": 1652494, "physicalid": "165013", "street_name": "SHARROTTS RD", "borough": "staten_island", "direction": "TW", "total_row_ft": 54.7, "roadbed_ft": 24.7, "median_ft": 0.0, "left_sw_ft": 15.0, "right_sw_ft": 15.0}, "geometry": {"type": "LineString", "coordinates": [[-74.24075765045838, 40.53874362211333], [-74.24066754725051, 40.539065746441196]]}}, {"type": "Feature", "properties": {"segment_id": 1652495, "physicalid": "165013", "street_name": "SHARROTTS RD", "borough": "staten_island", "direction": "TW", "total_row_ft": 54.7, "roadbed_ft": 24.7, "median_ft": 0.0, "left_sw_ft": 15.0, "right_sw_ft": 15.0}, "geometry": {"type": "LineString", "coordinates": [[-74.24082802097112, 40.53875507903064], [-74.24073791808704, 40.53907720341346]]}}, {"type": "Feature", "properties": {"segment_id": 1652496, "physicalid": "165013", "street_name": "SHARROTTS RD", "borough": "staten_island", "direction": "TW", "total_row_ft": 54.8, "roadbed_ft": 24.8, "median_ft": 0.0, "left_sw_ft": 15.0, "right_sw_ft": 15.0}, "geometry": {"type": "LineString", "coordinates": [[-74.24089839150801, 40.538766535904806], [-74.24080828894766, 40.53908866034255]]}}, {"type": "Feature", "properties": {"segment_id": 1652497, "physicalid": "165013", "street_name": "SHARROTTS RD", "borough": "staten_island", "direction": "TW", "total_row_ft": 54.8, "roadbed_ft": 24.8, "median_ft": 0.0, "left_sw_ft": 15.0, "right_sw_ft": 15.0}, "geometry": {"type": "LineString", "coordinates": [[-74.24096876206903, 40.53877799273586], [-74.24087865983242, 40.53910011722852]]}}, {"type": "Feature", "properties": {"segment_id": 1652498, "physicalid": "165013", "street_name": "SHARROTTS RD", "borough": "staten_island", "direction": "TW", "total_row_ft": 55.0, "roadbed_ft": 25.0, "median_ft": 0.0, "left_sw_ft": 15.0, "right_sw_ft": 15.0}, "geometry": {"type": "LineString", "coordinates": [[-74.2410391326542, 40.538789449523726], [-74.24094903074129, 40.53911157407134]]}}, {"type": "Feature", "properties": {"segment_id": 1652499, "physicalid": "165013", "street_name": "SHARROTTS RD", "borough": "staten_island", "direction": "TW", "total_row_ft": 55.4, "roadbed_ft": 25.4, "median_ft": 0.0, "left_sw_ft": 15.0, "right_sw_ft": 15.0}, "geometry": {"type": "LineString", "coordinates": [[-74.24110950326344, 40.538800906268506], [-74.24101940167434, 40.539123030871025]]}}, {"type": "Feature", "properties": {"segment_id": 1652500, "physicalid": "165013", "street_name": "SHARROTTS RD", "borough": "staten_island", "direction": "TW", "total_row_ft": 55.7, "roadbed_ft": 25.7, "median_ft": 0.0, "left_sw_ft": 15.0, "right_sw_ft": 15.0}, "geometry": {"type": "LineString", "coordinates": [[-74.24117987389684, 40.53881236297012], [-74.24108977263147, 40.53913448762756]]}}, {"type": "Feature", "properties": {"segment_id": 1652506, "physicalid": "165015", "street_name": "WINANT PL", "borough": "staten_island", "direction": "TW", "total_row_ft": 53.6, "roadbed_ft": 28.2, "median_ft": 0.0, "left_sw_ft": 15.0, "right_sw_ft": 10.4}, "geometry": {"type": "LineString", "coordinates": [[-74.2400900344877, 40.53664120229487], [-74.24003819754203, 40.53688996140349]]}}, {"type": "Feature", "properties": {"segment_id": 1652507, "physicalid": "165015", "street_name": "WINANT PL", "borough": "staten_island", "direction": "TW", "total_row_ft": 52.7, "roadbed_ft": 27.4, "median_ft": 0.0, "left_sw_ft": 15.0, "right_sw_ft": 10.3}, "geometry": {"type": "LineString", "coordinates": [[-74.24016109477422, 40.536649821662486], [-74.24010940749149, 40.53689786382532]]}}, {"type": "Feature", "properties": {"segment_id": 1652508, "physicalid": "165015", "street_name": "WINANT PL", "borough": "staten_island", "direction": "TW", "total_row_ft": 52.0, "roadbed_ft": 26.7, "median_ft": 0.0, "left_sw_ft": 15.0, "right_sw_ft": 10.2}, "geometry": {"type": "LineString", "coordinates": [[-74.24023215507907, 40.53665844098611], [-74.24018061745778, 40.536905766203006]]}}, {"type": "Feature", "properties": {"segment_id": 1652509, "physicalid": "165015", "street_name": "WINANT PL", "borough": "staten_island", "direction": "TW", "total_row_ft": 51.5, "roadbed_ft": 26.2, "median_ft": 0.0, "left_sw_ft": 15.0, "right_sw_ft": 10.3}, "geometry": {"type": "LineString", "coordinates": [[-74.24030321540225, 40.536667060265785], [-74.24025170104136, 40.53691427511936]]}}, {"type": "Feature", "properties": {"segment_id": 1652510, "physicalid": "165015", "street_name": "WINANT PL", "borough": "staten_island", "direction": "TW", "total_row_ft": 51.2, "roadbed_ft": 25.6, "median_ft": 0.0, "left_sw_ft": 15.0, "right_sw_ft": 10.6}, "geometry": {"type": "LineString", "coordinates": [[-74.24037427574375, 40.53667567950146], [-74.24032273508914, 40.53692302179878]]}}, {"type": "Feature", "properties": {"segment_id": 1652511, "physicalid": "165015", "street_name": "WINANT PL", "borough": "staten_island", "direction": "TW", "total_row_ft": 50.8, "roadbed_ft": 25.0, "median_ft": 0.0, "left_sw_ft": 15.0, "right_sw_ft": 10.8}, "geometry": {"type": "LineString", "coordinates": [[-74.24044533610358, 40.53668429869314], [-74.24039376924304, 40.53693176801419]]}}, {"type": "Feature", "properties": {"segment_id": 1652512, "physicalid": "165015", "street_name": "WINANT PL", "borough": "staten_island", "direction": "TW", "total_row_ft": 50.5, "roadbed_ft": 24.5, "median_ft": 0.0, "left_sw_ft": 15.0, "right_sw_ft": 11.0}, "geometry": {"type": "LineString", "coordinates": [[-74.24051639648174, 40.536692917840824], [-74.24046480334987, 40.53694051450078]]}}, {"type": "Feature", "properties": {"segment_id": 1652513, "physicalid": "165015", "street_name": "WINANT PL", "borough": "staten_island", "direction": "TW", "total_row_ft": 51.1, "roadbed_ft": 24.7, "median_ft": 0.0, "left_sw_ft": 15.0, "right_sw_ft": 11.3}, "geometry": {"type": "LineString", "coordinates": [[-74.24058745687825, 40.53670153694454], [-74.24053574924132, 40.53694968438083]]}}, {"type": "Feature", "properties": {"segment_id": 1652514, "physicalid": "165015", "street_name": "WINANT PL", "borough": "staten_island", "direction": "TW", "total_row_ft": 52.1, "roadbed_ft": 25.4, "median_ft": 0.0, "left_sw_ft": 15.0, "right_sw_ft": 11.6}, "geometry": {"type": "LineString", "coordinates": [[-74.24065851729307, 40.536710156004254], [-74.2406066686164, 40.536958981563984]]}}, {"type": "Feature", "properties": {"segment_id": 1652515, "physicalid": "165015", "street_name": "WINANT PL", "borough": "staten_island", "direction": "TW", "total_row_ft": 53.1, "roadbed_ft": 26.1, "median_ft": 0.0, "left_sw_ft": 15.0, "right_sw_ft": 12.0}, "geometry": {"type": "LineString", "coordinates": [[-74.24072957772623, 40.53671877502], [-74.24067758797122, 40.53696827889526]]}}, {"type": "Feature", "properties": {"segment_id": 1652516, "physicalid": "165015", "street_name": "WINANT PL", "borough": "staten_island", "direction": "TW", "total_row_ft": 54.1, "roadbed_ft": 26.8, "median_ft": 0.0, "left_sw_ft": 15.0, "right_sw_ft": 12.3}, "geometry": {"type": "LineString", "coordinates": [[-74.2408006381777, 40.53672739399174], [-74.24074850733537, 40.53697757623267]]}}, {"type": "Feature", "properties": {"segment_id": 1652517, "physicalid": "165015", "street_name": "WINANT PL", "borough": "staten_island", "direction": "TW", "total_row_ft": 55.1, "roadbed_ft": 28.4, "median_ft": 0.0, "left_sw_ft": 15.0, "right_sw_ft": 11.7}, "geometry": {"type": "LineString", "coordinates": [[-74.24087169864751, 40.5367360129195], [-74.24081942671924, 40.536986873526246]]}}, {"type": "Feature", "properties": {"segment_id": 1652518, "physicalid": "165016", "street_name": "WINANT PL", "borough": "staten_island", "direction": "TW", "total_row_ft": 97.7, "roadbed_ft": 67.7, "median_ft": 0.0, "left_sw_ft": 15.0, "right_sw_ft": 15.0}, "geometry": {"type": "LineString", "coordinates": [[-74.24098811921037, 40.53675013348951], [-74.24092033819183, 40.53707542611556]]}}, {"type": "Feature", "properties": {"segment_id": 1652519, "physicalid": "165016", "street_name": "WINANT PL", "borough": "staten_island", "direction": "TW", "total_row_ft": 51.9, "roadbed_ft": 27.2, "median_ft": 0.0, "left_sw_ft": 15.0, "right_sw_ft": 9.7}, "geometry": {"type": "LineString", "coordinates": [[-74.24105917972466, 40.536758752319784], [-74.24100877574902, 40.537000651104705]]}}, {"type": "Feature", "properties": {"segment_id": 1652520, "physicalid": "165016", "street_name": "WINANT PL", "borough": "staten_island", "direction": "TW", "total_row_ft": 51.8, "roadbed_ft": 27.0, "median_ft": 0.0, "left_sw_ft": 15.0, "right_sw_ft": 9.8}, "geometry": {"type": "LineString", "coordinates": [[-74.24113024025728, 40.53676737110607], [-74.24107986334027, 40.53700914126526]]}}, {"type": "Feature", "properties": {"segment_id": 1652521, "physicalid": "165016", "street_name": "WINANT PL", "borough": "staten_island", "direction": "TW", "total_row_ft": 51.5, "roadbed_ft": 26.7, "median_ft": 0.0, "left_sw_ft": 15.0, "right_sw_ft": 9.8}, "geometry": {"type": "LineString", "coordinates": [[-74.24120130080826, 40.536775989848365], [-74.2411509509009, 40.53701763161535]]}}, {"type": "Feature", "properties": {"segment_id": 1652522, "physicalid": "165016", "street_name": "WINANT PL", "borough": "staten_island", "direction": "TW", "total_row_ft": 50.5, "roadbed_ft": 25.9, "median_ft": 0.0, "left_sw_ft": 15.0, "right_sw_ft": 9.7}, "geometry": {"type": "LineString", "coordinates": [[-74.24127236137753, 40.5367846085467], [-74.24122203847962, 40.53702612192143]]}}, {"type": "Feature", "properties": {"segment_id": 1652523, "physicalid": "165016", "street_name": "WINANT PL", "borough": "staten_island", "direction": "TW", "total_row_ft": 49.5, "roadbed_ft": 25.0, "median_ft": 0.0, "left_sw_ft": 15.0, "right_sw_ft": 9.5}, "geometry": {"type": "LineString", "coordinates": [[-74.24134342196514, 40.536793227201], [-74.24129312611898, 40.53703461197912]]}}, {"type": "Feature", "properties": {"segment_id": 1652524, "physicalid": "165016", "street_name": "WINANT PL", "borough": "staten_island", "direction": "TW", "total_row_ft": 30.0, "roadbed_ft": 0.0, "median_ft": 0.0, "left_sw_ft": 15.0, "right_sw_ft": 15.0}, "geometry": {"type": "LineString", "coordinates": [[-74.24141448257107, 40.536801845811354], [-74.24134670357535, 40.53712713868776]]}}, {"type": "Feature", "properties": {"segment_id": 1652525, "physicalid": "165016", "street_name": "WINANT PL", "borough": "staten_island", "direction": "TW", "total_row_ft": 30.0, "roadbed_ft": 0.0, "median_ft": 0.0, "left_sw_ft": 15.0, "right_sw_ft": 15.0}, "geometry": {"type": "LineString", "coordinates": [[-74.24148554319535, 40.53681046437768], [-74.24141776453672, 40.53713575729582]]}}, {"type": "Feature", "properties": {"segment_id": 1652526, "physicalid": "165017", "street_name": "TRIOKA WAY", "borough": "staten_island", "direction": "TW", "total_row_ft": 104.2, "roadbed_ft": 74.2, "median_ft": 0.0, "left_sw_ft": 15.0, "right_sw_ft": 15.0}, "geometry": {"type": "LineString", "coordinates": [[-74.24031345156486, 40.53880831886184], [-74.24074052260616, 40.538856580019925]]}}, {"type": "Feature", "properties": {"segment_id": 1652527, "physicalid": "165017", "street_name": "TRIOKA WAY", "borough": "staten_island", "direction": "TW", "total_row_ft": 58.2, "roadbed_ft": 28.2, "median_ft": 0.0, "left_sw_ft": 15.0, "right_sw_ft": 15.0}, "geometry": {"type": "LineString", "coordinates": [[-74.24032399475453, 40.53875401511084], [-74.24075106545644, 40.538802276229944]]}}, {"type": "Feature", "properties": {"segment_id": 1652528, "physicalid": "165017", "street_name": "TRIOKA WAY", "borough": "staten_island", "direction": "TW", "total_row_ft": 58.1, "roadbed_ft": 28.1, "median_ft": 0.0, "left_sw_ft": 15.0, "right_sw_ft": 15.0}, "geometry": {"type": "LineString", "coordinates": [[-74.24033453792707, 40.538699711358646], [-74.24076160828956, 40.53874797243874]]}}, {"type": "Feature", "properties": {"segment_id": 1652529, "physicalid": "165017", "street_name": "TRIOKA WAY", "borough": "staten_island", "direction": "TW", "total_row_ft": 57.9, "roadbed_ft": 27.9, "median_ft": 0.0, "left_sw_ft": 15.0, "right_sw_ft": 15.0}, "geometry": {"type": "LineString", "coordinates": [[-74.24034508108248, 40.53864540760526], [-74.24077215110556, 40.53869366864634]]}}, {"type": "Feature", "properties": {"segment_id": 1652530, "physicalid": "165017", "street_name": "TRIOKA WAY", "borough": "staten_island", "direction": "TW", "total_row_ft": 57.8, "roadbed_ft": 27.8, "median_ft": 0.0, "left_sw_ft": 15.0, "right_sw_ft": 15.0}, "geometry": {"type": "LineString", "coordinates": [[-74.24035562422075, 40.538591103850656], [-74.24078269390442, 40.53863936485273]]}}, {"type": "Feature", "properties": {"segment_id": 1652531, "physicalid": "165017", "street_name": "TRIOKA WAY", "borough": "staten_island", "direction": "TW", "total_row_ft": 57.6, "roadbed_ft": 27.6, "median_ft": 0.0, "left_sw_ft": 15.0, "right_sw_ft": 15.0}, "geometry": {"type": "LineString", "coordinates": [[-74.24036616734188, 40.5385368000949], [-74.24079323668616, 40.538585061057894]]}}, {"type": "Feature", "properties": {"segment_id": 1652532, "physicalid": "165017", "street_name": "TRIOKA WAY", "borough": "staten_island", "direction": "TW", "total_row_ft": 57.4, "roadbed_ft": 27.4, "median_ft": 0.0, "left_sw_ft": 15.0, "right_sw_ft": 15.0}, "geometry": {"type": "LineString", "coordinates": [[-74.24037671044589, 40.53848249633786], [-74.24080377945074, 40.53853075726193]]}}, {"type": "Feature", "properties": {"segment_id": 1652533, "physicalid": "165017", "street_name": "TRIOKA WAY", "borough": "staten_island", "direction": "TW", "total_row_ft": 57.3, "roadbed_ft": 27.3, "median_ft": 0.0, "left_sw_ft": 15.0, "right_sw_ft": 15.0}, "geometry": {"type": "LineString", "coordinates": [[-74.24038725353277, 40.538428192579666], [-74.24081432219822, 40.5384764534647]]}}, {"type": "Feature", "properties": {"segment_id": 1652534, "physicalid": "165017", "street_name": "TRIOKA WAY", "borough": "staten_island", "direction": "TW", "total_row_ft": 57.1, "roadbed_ft": 27.1, "median_ft": 0.0, "left_sw_ft": 15.0, "right_sw_ft": 15.0}, "geometry": {"type": "LineString", "coordinates": [[-74.2403977966025, 40.53837388882029], [-74.24082486492856, 40.53842214966626]]}}, {"type": "Feature", "properties": {"segment_id": 1652535, "physicalid": "165017", "street_name": "TRIOKA WAY", "borough": "staten_island", "direction": "TW", "total_row_ft": 57.1, "roadbed_ft": 27.1, "median_ft": 0.0, "left_sw_ft": 15.0, "right_sw_ft": 15.0}, "geometry": {"type": "LineString", "coordinates": [[-74.2404083396551, 40.53831958505965], [-74.24083540764174, 40.538367845866716]]}}, {"type": "Feature", "properties": {"segment_id": 1652536, "physicalid": "165017", "street_name": "TRIOKA WAY", "borough": "staten_island", "direction": "TW", "total_row_ft": 57.2, "roadbed_ft": 27.2, "median_ft": 0.0, "left_sw_ft": 15.0, "right_sw_ft": 15.0}, "geometry": {"type": "LineString", "coordinates": [[-74.24041888269058, 40.538265281297846], [-74.24084595033781, 40.53831354206589]]}}, {"type": "Feature", "properties": {"segment_id": 1652537, "physicalid": "165017", "street_name": "TRIOKA WAY", "borough": "staten_island", "direction": "TW", "total_row_ft": 57.3, "roadbed_ft": 27.3, "median_ft": 0.0, "left_sw_ft": 15.0, "right_sw_ft": 15.0}, "geometry": {"type": "LineString", "coordinates": [[-74.24042942570891, 40.538210977534845], [-74.24085649301674, 40.53825923826386]]}}, {"type": "Feature", "properties": {"segment_id": 1652538, "physicalid": "165017", "street_name": "TRIOKA WAY", "borough": "staten_island", "direction": "TW", "total_row_ft": 57.5, "roadbed_ft": 27.5, "median_ft": 0.0, "left_sw_ft": 15.0, "right_sw_ft": 15.0}, "geometry": {"type": "LineString", "coordinates": [[-74.2404399687101, 40.538156673770665], [-74.24086703567855, 40.538204934460616]]}}, {"type": "Feature", "properties": {"segment_id": 1652539, "physicalid": "165017", "street_name": "TRIOKA WAY", "borough": "staten_island", "direction": "TW", "total_row_ft": 57.6, "roadbed_ft": 27.6, "median_ft": 0.0, "left_sw_ft": 15.0, "right_sw_ft": 15.0}, "geometry": {"type": "LineString", "coordinates": [[-74.24045051169419, 40.53810237000521], [-74.24087757832321, 40.538150630656226]]}}, {"type": "Feature", "properties": {"segment_id": 1652540, "physicalid": "165017", "street_name": "TRIOKA WAY", "borough": "staten_island", "direction": "TW", "total_row_ft": 57.7, "roadbed_ft": 27.7, "median_ft": 0.0, "left_sw_ft": 15.0, "right_sw_ft": 15.0}, "geometry": {"type": "LineString", "coordinates": [[-74.24046105466113, 40.53804806623859], [-74.24088812095074, 40.538096326850614]]}}, {"type": "Feature", "properties": {"segment_id": 1652541, "physicalid": "165017", "street_name": "TRIOKA WAY", "borough": "staten_island", "direction": "TW", "total_row_ft": 58.3, "roadbed_ft": 28.3, "median_ft": 0.0, "left_sw_ft": 15.0, "right_sw_ft": 15.0}, "geometry": {"type": "LineString", "coordinates": [[-74.2404715976109, 40.53799376247082], [-74.24089866356115, 40.53804202304375]]}}, {"type": "Feature", "properties": {"segment_id": 1652542, "physicalid": "165017", "street_name": "TRIOKA WAY", "borough": "staten_island", "direction": "TW", "total_row_ft": 58.6, "roadbed_ft": 28.6, "median_ft": 0.0, "left_sw_ft": 15.0, "right_sw_ft": 15.0}, "geometry": {"type": "LineString", "coordinates": [[-74.24048214054359, 40.53793945870176], [-74.24090920615441, 40.53798771923577]]}}, {"type": "Feature", "properties": {"segment_id": 1652543, "physicalid": "165017", "street_name": "TRIOKA WAY", "borough": "staten_island", "direction": "TW", "total_row_ft": 58.2, "roadbed_ft": 28.2, "median_ft": 0.0, "left_sw_ft": 15.0, "right_sw_ft": 15.0}, "geometry": {"type": "LineString", "coordinates": [[-74.24049268345912, 40.537885154931544], [-74.24091974873055, 40.53793341542654]]}}, {"type": "Feature", "properties": {"segment_id": 1652544, "physicalid": "165017", "street_name": "TRIOKA WAY", "borough": "staten_island", "direction": "TW", "total_row_ft": 58.4, "roadbed_ft": 28.4, "median_ft": 0.0, "left_sw_ft": 15.0, "right_sw_ft": 15.0}, "geometry": {"type": "LineString", "coordinates": [[-74.24050322635752, 40.53783085116012], [-74.24093029128954, 40.53787911161612]]}}, {"type": "Feature", "properties": {"segment_id": 1652545, "physicalid": "165017", "street_name": "TRIOKA WAY", "borough": "staten_island", "direction": "TW", "total_row_ft": 58.5, "roadbed_ft": 28.5, "median_ft": 0.0, "left_sw_ft": 15.0, "right_sw_ft": 15.0}, "geometry": {"type": "LineString", "coordinates": [[-74.2405137692388, 40.53777654738751], [-74.24094083383142, 40.53782480780449]]}}, {"type": "Feature", "properties": {"segment_id": 1652546, "physicalid": "165017", "street_name": "TRIOKA WAY", "borough": "staten_island", "direction": "TW", "total_row_ft": 58.6, "roadbed_ft": 28.6, "median_ft": 0.0, "left_sw_ft": 15.0, "right_sw_ft": 15.0}, "geometry": {"type": "LineString", "coordinates": [[-74.24052431210293, 40.53772224361369], [-74.24095137635615, 40.537770503991645]]}}, {"type": "Feature", "properties": {"segment_id": 1652547, "physicalid": "165017", "street_name": "TRIOKA WAY", "borough": "staten_island", "direction": "TW", "total_row_ft": 58.7, "roadbed_ft": 28.7, "median_ft": 0.0, "left_sw_ft": 15.0, "right_sw_ft": 15.0}, "geometry": {"type": "LineString", "coordinates": [[-74.24053485494993, 40.53766793983866], [-74.24096191886376, 40.53771620017761]]}}, {"type": "Feature", "properties": {"segment_id": 1652548, "physicalid": "165017", "street_name": "TRIOKA WAY", "borough": "staten_island", "direction": "TW", "total_row_ft": 60.0, "roadbed_ft": 30.0, "median_ft": 0.0, "left_sw_ft": 15.0, "right_sw_ft": 15.0}, "geometry": {"type": "LineString", "coordinates": [[-74.2405453977798, 40.537613636062474], [-74.24097246135423, 40.53766189636235]]}}, {"type": "Feature", "properties": {"segment_id": 1652549, "physicalid": "165017", "street_name": "TRIOKA WAY", "borough": "staten_island", "direction": "TW", "total_row_ft": 59.0, "roadbed_ft": 29.0, "median_ft": 0.0, "left_sw_ft": 15.0, "right_sw_ft": 15.0}, "geometry": {"type": "LineString", "coordinates": [[-74.24055594059254, 40.537559332285014], [-74.24098300382757, 40.53760759254595]]}}, {"type": "Feature", "properties": {"segment_id": 1652550, "physicalid": "165017", "street_name": "TRIOKA WAY", "borough": "staten_island", "direction": "TW", "total_row_ft": 59.4, "roadbed_ft": 29.4, "median_ft": 0.0, "left_sw_ft": 15.0, "right_sw_ft": 15.0}, "geometry": {"type": "LineString", "coordinates": [[-74.24056648338814, 40.537505028506374], [-74.24099354628376, 40.53755328872833]]}}, {"type": "Feature", "properties": {"segment_id": 1652551, "physicalid": "165017", "street_name": "TRIOKA WAY", "borough": "staten_island", "direction": "TW", "total_row_ft": 59.9, "roadbed_ft": 29.9, "median_ft": 0.0, "left_sw_ft": 15.0, "right_sw_ft": 15.0}, "geometry": {"type": "LineString", "coordinates": [[-74.2405770261666, 40.5374507247266], [-74.24100408872285, 40.53749898490946]]}}, {"type": "Feature", "properties": {"segment_id": 1652552, "physicalid": "165017", "street_name": "TRIOKA WAY", "borough": "staten_island", "direction": "TW", "total_row_ft": 60.4, "roadbed_ft": 30.4, "median_ft": 0.0, "left_sw_ft": 15.0, "right_sw_ft": 15.0}, "geometry": {"type": "LineString", "coordinates": [[-74.24058756892795, 40.53739642094553], [-74.24101463114478, 40.53744468108944]]}}, {"type": "Feature", "properties": {"segment_id": 1652553, "physicalid": "165017", "street_name": "TRIOKA WAY", "borough": "staten_island", "direction": "TW", "total_row_ft": 60.9, "roadbed_ft": 30.9, "median_ft": 0.0, "left_sw_ft": 15.0, "right_sw_ft": 15.0}, "geometry": {"type": "LineString", "coordinates": [[-74.24059811167214, 40.5373421171633], [-74.24102517354959, 40.537390377268224]]}}, {"type": "Feature", "properties": {"segment_id": 1652554, "physicalid": "165017", "street_name": "TRIOKA WAY", "borough": "staten_island", "direction": "TW", "total_row_ft": 61.3, "roadbed_ft": 31.3, "median_ft": 0.0, "left_sw_ft": 15.0, "right_sw_ft": 15.0}, "geometry": {"type": "LineString", "coordinates": [[-74.24060865439922, 40.53728781337986], [-74.24103571593726, 40.53733607344577]]}}, {"type": "Feature", "properties": {"segment_id": 1652555, "physicalid": "165017", "street_name": "TRIOKA WAY", "borough": "staten_island", "direction": "TW", "total_row_ft": 61.7, "roadbed_ft": 31.7, "median_ft": 0.0, "left_sw_ft": 15.0, "right_sw_ft": 15.0}, "geometry": {"type": "LineString", "coordinates": [[-74.24061919710915, 40.537233509595254], [-74.2410462583078, 40.537281769622105]]}}, {"type": "Feature", "properties": {"segment_id": 1652556, "physicalid": "165017", "street_name": "TRIOKA WAY", "borough": "staten_island", "direction": "TW", "total_row_ft": 62.1, "roadbed_ft": 32.1, "median_ft": 0.0, "left_sw_ft": 15.0, "right_sw_ft": 15.0}, "geometry": {"type": "LineString", "coordinates": [[-74.24062973980196, 40.537179205809416], [-74.24105680066121, 40.5372274657973]]}}, {"type": "Feature", "properties": {"segment_id": 1652557, "physicalid": "165017", "street_name": "TRIOKA WAY", "borough": "staten_island", "direction": "TW", "total_row_ft": 62.5, "roadbed_ft": 32.5, "median_ft": 0.0, "left_sw_ft": 15.0, "right_sw_ft": 15.0}, "geometry": {"type": "LineString", "coordinates": [[-74.24064028247764, 40.53712490202238], [-74.24106734299748, 40.53717316197126]]}}, {"type": "Feature", "properties": {"segment_id": 1652558, "physicalid": "165017", "street_name": "TRIOKA WAY", "borough": "staten_island", "direction": "TW", "total_row_ft": 62.9, "roadbed_ft": 32.9, "median_ft": 0.0, "left_sw_ft": 15.0, "right_sw_ft": 15.0}, "geometry": {"type": "LineString", "coordinates": [[-74.24065082513617, 40.537070598234166], [-74.24107788531664, 40.537118858144]]}}, {"type": "Feature", "properties": {"segment_id": 1652559, "physicalid": "165017", "street_name": "TRIOKA WAY", "borough": "staten_island", "direction": "TW", "total_row_ft": 63.4, "roadbed_ft": 33.4, "median_ft": 0.0, "left_sw_ft": 15.0, "right_sw_ft": 15.0}, "geometry": {"type": "LineString", "coordinates": [[-74.24066136777758, 40.537016294444705], [-74.24108842761866, 40.53706455431559]]}}, {"type": "Feature", "properties": {"segment_id": 1652560, "physicalid": "165017", "street_name": "TRIOKA WAY", "borough": "staten_island", "direction": "TW", "total_row_ft": 120.0, "roadbed_ft": 34.2, "median_ft": 0.0, "left_sw_ft": 48.1, "right_sw_ft": 37.7}, "geometry": {"type": "LineString", "coordinates": [[-74.24067191040186, 40.536961990654056], [-74.24109896990353, 40.53701025048595]]}}, {"type": "Feature", "properties": {"segment_id": 1701096, "physicalid": "176560", "street_name": "ANDROVETTE ST", "borough": "staten_island", "direction": "TW", "total_row_ft": 51.0, "roadbed_ft": 35.8, "median_ft": 0.0, "left_sw_ft": 8.7, "right_sw_ft": 6.5}, "geometry": {"type": "LineString", "coordinates": [[-74.24006859512087, 40.53526252443474], [-74.24003471855104, 40.53540001058896]]}}, {"type": "Feature", "properties": {"segment_id": 1701097, "physicalid": "176560", "street_name": "ANDROVETTE ST", "borough": "staten_island", "direction": "TW", "total_row_ft": 51.2, "roadbed_ft": 35.9, "median_ft": 0.0, "left_sw_ft": 8.7, "right_sw_ft": 6.6}, "geometry": {"type": "LineString", "coordinates": [[-74.24013967760234, 40.53527116558085], [-74.24010565250332, 40.53540925513033]]}}, {"type": "Feature", "properties": {"segment_id": 1701098, "physicalid": "176560", "street_name": "ANDROVETTE ST", "borough": "staten_island", "direction": "TW", "total_row_ft": 50.4, "roadbed_ft": 34.9, "median_ft": 0.0, "left_sw_ft": 8.4, "right_sw_ft": 7.1}, "geometry": {"type": "LineString", "coordinates": [[-74.24021024333143, 40.535281903990565], [-74.24017674499117, 40.53541785629554]]}}, {"type": "Feature", "properties": {"segment_id": 1701099, "physicalid": "176560", "street_name": "ANDROVETTE ST", "borough": "staten_island", "direction": "TW", "total_row_ft": 55.8, "roadbed_ft": 33.4, "median_ft": 0.0, "left_sw_ft": 15.0, "right_sw_ft": 7.4}, "geometry": {"type": "LineString", "coordinates": [[-74.24030363251532, 40.53520001322137], [-74.24024790706419, 40.5354261750805]]}}, {"type": "Feature", "properties": {"segment_id": 1701100, "physicalid": "176560", "street_name": "ANDROVETTE ST", "borough": "staten_island", "direction": "TW", "total_row_ft": 54.6, "roadbed_ft": 31.9, "median_ft": 0.0, "left_sw_ft": 15.0, "right_sw_ft": 7.7}, "geometry": {"type": "LineString", "coordinates": [[-74.24037434504143, 40.53521015555176], [-74.2403190765153, 40.535434463949215]]}}, {"type": "Feature", "properties": {"segment_id": 1701101, "physicalid": "176560", "street_name": "ANDROVETTE ST", "borough": "staten_island", "direction": "TW", "total_row_ft": 53.2, "roadbed_ft": 30.9, "median_ft": 0.0, "left_sw_ft": 15.0, "right_sw_ft": 7.3}, "geometry": {"type": "LineString", "coordinates": [[-74.240445057589, 40.53522029783857], [-74.24039034269778, 40.53544236025894]]}}, {"type": "Feature", "properties": {"segment_id": 1701102, "physicalid": "176560", "street_name": "ANDROVETTE ST", "borough": "staten_island", "direction": "TW", "total_row_ft": 52.0, "roadbed_ft": 30.3, "median_ft": 0.0, "left_sw_ft": 15.0, "right_sw_ft": 6.8}, "geometry": {"type": "LineString", "coordinates": [[-74.24051577015804, 40.535230440081826], [-74.2404616089039, 40.535450256496716]]}}, {"type": "Feature", "properties": {"segment_id": 1701103, "physicalid": "176560", "street_name": "ANDROVETTE ST", "borough": "staten_island", "direction": "TW", "total_row_ft": 51.6, "roadbed_ft": 29.5, "median_ft": 0.0, "left_sw_ft": 15.0, "right_sw_ft": 7.0}, "geometry": {"type": "LineString", "coordinates": [[-74.24058648274855, 40.53524058228155], [-74.24053246102964, 40.53545983332817]]}}, {"type": "Feature", "properties": {"segment_id": 1701104, "physicalid": "176560", "street_name": "ANDROVETTE ST", "borough": "staten_island", "direction": "TW", "total_row_ft": 51.4, "roadbed_ft": 28.8, "median_ft": 0.0, "left_sw_ft": 15.0, "right_sw_ft": 7.5}, "geometry": {"type": "LineString", "coordinates": [[-74.2406571953605, 40.535250724437695], [-74.24060314386399, 40.53547009728034]]}}, {"type": "Feature", "properties": {"segment_id": 1701105, "physicalid": "176560", "street_name": "ANDROVETTE ST", "borough": "staten_island", "direction": "TW", "total_row_ft": 50.8, "roadbed_ft": 27.8, "median_ft": 0.0, "left_sw_ft": 15.0, "right_sw_ft": 7.9}, "geometry": {"type": "LineString", "coordinates": [[-74.24072790799391, 40.535260866550274], [-74.24067382672006, 40.535480361189]]}}, {"type": "Feature", "properties": {"segment_id": 1701106, "physicalid": "176560", "street_name": "ANDROVETTE ST", "borough": "staten_island", "direction": "TW", "total_row_ft": 56.7, "roadbed_ft": 26.7, "median_ft": 0.0, "left_sw_ft": 15.0, "right_sw_ft": 15.0}, "geometry": {"type": "LineString", "coordinates": [[-74.2407986206488, 40.5352710086193], [-74.24071886258344, 40.535594716139464]]}}, {"type": "Feature", "properties": {"segment_id": 1701107, "physicalid": "176560", "street_name": "ANDROVETTE ST", "borough": "staten_island", "direction": "TW", "total_row_ft": 54.4, "roadbed_ft": 24.4, "median_ft": 0.0, "left_sw_ft": 15.0, "right_sw_ft": 15.0}, "geometry": {"type": "LineString", "coordinates": [[-74.24086933332514, 40.535281150644764], [-74.24078957559018, 40.53560485821378]]}}, {"type": "Feature", "properties": {"segment_id": 1701108, "physicalid": "176560", "street_name": "ANDROVETTE ST", "borough": "staten_island", "direction": "TW", "total_row_ft": 52.8, "roadbed_ft": 22.8, "median_ft": 0.0, "left_sw_ft": 15.0, "right_sw_ft": 15.0}, "geometry": {"type": "LineString", "coordinates": [[-74.24094004602293, 40.53529129262666], [-74.24086028861838, 40.53561500024454]]}}, {"type": "Feature", "properties": {"segment_id": 1701109, "physicalid": "176560", "street_name": "ANDROVETTE ST", "borough": "staten_island", "direction": "TW", "total_row_ft": 51.5, "roadbed_ft": 21.5, "median_ft": 0.0, "left_sw_ft": 15.0, "right_sw_ft": 15.0}, "geometry": {"type": "LineString", "coordinates": [[-74.2410107587422, 40.535301434565014], [-74.24093100166805, 40.53562514223175]]}}, {"type": "Feature", "properties": {"segment_id": 1701110, "physicalid": "176560", "street_name": "ANDROVETTE ST", "borough": "staten_island", "direction": "TW", "total_row_ft": 45.0, "roadbed_ft": 20.3, "median_ft": 0.0, "left_sw_ft": 15.0, "right_sw_ft": 9.7}, "geometry": {"type": "LineString", "coordinates": [[-74.24108147148293, 40.53531157645979], [-74.24102690049403, 40.535533063407286]]}}, {"type": "Feature", "properties": {"segment_id": 1701111, "physicalid": "176560", "street_name": "ANDROVETTE ST", "borough": "staten_island", "direction": "TW", "total_row_ft": 44.7, "roadbed_ft": 19.8, "median_ft": 0.0, "left_sw_ft": 15.0, "right_sw_ft": 9.9}, "geometry": {"type": "LineString", "coordinates": [[-74.24115218424511, 40.53532171831102], [-74.2410978077416, 40.535542416852174]]}}, {"type": "Feature", "properties": {"segment_id": 1701112, "physicalid": "176560", "street_name": "ANDROVETTE ST", "borough": "staten_island", "direction": "TW", "total_row_ft": 44.6, "roadbed_ft": 19.6, "median_ft": 0.0, "left_sw_ft": 15.0, "right_sw_ft": 10.0}, "geometry": {"type": "LineString", "coordinates": [[-74.24122289702875, 40.535331860118674], [-74.24116871500897, 40.53555177025326]]}}, {"type": "Feature", "properties": {"segment_id": 1701113, "physicalid": "176560", "street_name": "ANDROVETTE ST", "borough": "staten_island", "direction": "TW", "total_row_ft": 44.5, "roadbed_ft": 19.4, "median_ft": 0.0, "left_sw_ft": 15.0, "right_sw_ft": 10.1}, "geometry": {"type": "LineString", "coordinates": [[-74.24129360983386, 40.53534200188278], [-74.2412396222962, 40.535561123610556]]}}, {"type": "Feature", "properties": {"segment_id": 1701114, "physicalid": "176560", "street_name": "ANDROVETTE ST", "borough": "staten_island", "direction": "TW", "total_row_ft": 44.4, "roadbed_ft": 19.6, "median_ft": 0.0, "left_sw_ft": 15.0, "right_sw_ft": 9.8}, "geometry": {"type": "LineString", "coordinates": [[-74.24136432266044, 40.53535214360333], [-74.2413105296033, 40.53557047692403]]}}, {"type": "Feature", "properties": {"segment_id": 1701115, "physicalid": "176560", "street_name": "ANDROVETTE ST", "borough": "staten_island", "direction": "TW", "total_row_ft": 44.4, "roadbed_ft": 19.9, "median_ft": 0.0, "left_sw_ft": 15.0, "right_sw_ft": 9.5}, "geometry": {"type": "LineString", "coordinates": [[-74.24143503550847, 40.53536228528031], [-74.24138143693023, 40.53557983019373]]}}, {"type": "Feature", "properties": {"segment_id": 1709651, "physicalid": "179526", "street_name": "TOPSIDE LN", "borough": "staten_island", "direction": "TW", "total_row_ft": 47.9, "roadbed_ft": 35.0, "median_ft": 0.0, "left_sw_ft": 6.3, "right_sw_ft": 6.5}, "geometry": {"type": "LineString", "coordinates": [[-74.24022306713498, 40.53002881712365], [-74.24006369730722, 40.52997908469141]]}}, {"type": "Feature", "properties": {"segment_id": 1709652, "physicalid": "179526", "street_name": "TOPSIDE LN", "borough": "staten_island", "direction": "TW", "total_row_ft": 47.7, "roadbed_ft": 35.0, "median_ft": 0.0, "left_sw_ft": 6.2, "right_sw_ft": 6.5}, "geometry": {"type": "LineString", "coordinates": [[-74.24019213451889, 40.53007847421564], [-74.24003319352497, 40.530028875591356]]}}, {"type": "Feature", "properties": {"segment_id": 1709653, "physicalid": "179526", "street_name": "TOPSIDE LN", "borough": "staten_island", "direction": "TW", "total_row_ft": 47.6, "roadbed_ft": 35.1, "median_ft": 0.0, "left_sw_ft": 6.2, "right_sw_ft": 6.3}, "geometry": {"type": "LineString", "coordinates": [[-74.24016120185685, 40.53012813129911], [-74.24000260128729, 40.53007863889397]]}}, {"type": "Feature", "properties": {"segment_id": 1709654, "physicalid": "179526", "street_name": "TOPSIDE LN", "borough": "staten_island", "direction": "TW", "total_row_ft": 47.6, "roadbed_ft": 35.0, "median_ft": 0.0, "left_sw_ft": 6.2, "right_sw_ft": 6.4}, "geometry": {"type": "LineString", "coordinates": [[-74.24013038465802, 40.5301778244194], [-74.23997196901628, 40.53012838970976]]}}, {"type": "Feature", "properties": {"segment_id": 1709655, "physicalid": "179526", "street_name": "TOPSIDE LN", "borough": "staten_island", "direction": "TW", "total_row_ft": 47.6, "roadbed_ft": 34.7, "median_ft": 0.0, "left_sw_ft": 6.4, "right_sw_ft": 6.5}, "geometry": {"type": "LineString", "coordinates": [[-74.24009980505694, 40.5302275916894], [-74.23994117121819, 40.53017808887734]]}}]}