{"type": "FeatureCollection", "features": [{"type": "Feature", "properties": {"segment_id": 735114, "physicalid": "51795", "street_name": "RIVER RD", "borough": "staten_island", "direction": "TW", "total_row_ft": 50.0, "roadbed_ft": 20.0, "median_ft": 0.0, "left_sw_ft": 15.0, "right_sw_ft": 15.0}, "geometry": {"type": "LineString", "coordinates": [[-74.19007462083958, 40.61332558550211], [-74.18994155840954, 40.61363896323374]]}}, {"type": "Feature", "properties": {"segment_id": 735115, "physicalid": "51795", "street_name": "RIVER RD", "borough": "staten_island", "direction": "TW", "total_row_ft": 50.0, "roadbed_ft": 20.0, "median_ft": 0.0, "left_sw_ft": 15.0, "right_sw_ft": 15.0}, "geometry": {"type": "LineString", "coordinates": [[-74.19014315755669, 40.613342485842175], [-74.19001009541472, 40.61365586365261]]}}, {"type": "Feature", "properties": {"segment_id": 735116, "physicalid": "51795", "street_name": "RIVER RD", "borough": "staten_island", "direction": "TW", "total_row_ft": 50.0, "roadbed_ft": 20.0, "median_ft": 0.0, "left_sw_ft": 15.0, "right_sw_ft": 15.0}, "geometry": {"type": "LineString", "coordinates": [[-74.1902116943085, 40.61335938614136], [-74.19007863245459, 40.613672764030575]]}}, {"type": "Feature", "properties": {"segment_id": 735117, "physicalid": "51795", "street_name": "RIVER RD", "borough": "staten_island", "direction": "TW", "total_row_ft": 50.0, "roadbed_ft": 20.0, "median_ft": 0.0, "left_sw_ft": 15.0, "right_sw_ft": 15.0}, "geometry": {"type": "LineString", "coordinates": [[-74.19028023109502, 40.61337628639964], [-74.19014716952915, 40.61368966436767]]}}, {"type": "Feature", "properties": {"segment_id": 735118, "physicalid": "51795", "street_name": "RIVER RD", "borough": "staten_island", "direction": "TW", "total_row_ft": 50.0, "roadbed_ft": 20.0, "median_ft": 0.0, "left_sw_ft": 15.0, "right_sw_ft": 15.0}, "geometry": {"type": "LineString", "coordinates": [[-74.19034876791622, 40.61339318661703], [-74.19021570663844, 40.61370656466384]]}}, {"type": "Feature", "properties": {"segment_id": 735119, "physicalid": "51795", "street_name": "RIVER RD", "borough": "staten_island", "direction": "TW", "total_row_ft": 50.0, "roadbed_ft": 20.0, "median_ft": 0.0, "left_sw_ft": 15.0, "right_sw_ft": 15.0}, "geometry": {"type": "LineString", "coordinates": [[-74.19041730477215, 40.61341008679353], [-74.1902842437824, 40.613723464919154]]}}, {"type": "Feature", "properties": {"segment_id": 735120, "physicalid": "51795", "street_name": "RIVER RD", "borough": "staten_island", "direction": "TW", "total_row_ft": 50.0, "roadbed_ft": 20.0, "median_ft": 0.0, "left_sw_ft": 15.0, "right_sw_ft": 15.0}, "geometry": {"type": "LineString", "coordinates": [[-74.19048584166276, 40.61342698692914], [-74.19035278096109, 40.61374036513353]]}}, {"type": "Feature", "properties": {"segment_id": 735121, "physicalid": "51795", "street_name": "RIVER RD", "borough": "staten_island", "direction": "TW", "total_row_ft": 50.0, "roadbed_ft": 20.0, "median_ft": 0.0, "left_sw_ft": 15.0, "right_sw_ft": 15.0}, "geometry": {"type": "LineString", "coordinates": [[-74.1905543785881, 40.613443887023834], [-74.19042131817446, 40.613757265307044]]}}, {"type": "Feature", "properties": {"segment_id": 735122, "physicalid": "51795", "street_name": "RIVER RD", "borough": "staten_island", "direction": "TW", "total_row_ft": 50.0, "roadbed_ft": 20.0, "median_ft": 0.0, "left_sw_ft": 15.0, "right_sw_ft": 15.0}, "geometry": {"type": "LineString", "coordinates": [[-74.19062291554812, 40.613460787077656], [-74.19048985542257, 40.61377416543965]]}}, {"type": "Feature", "properties": {"segment_id": 735123, "physicalid": "51795", "street_name": "RIVER RD", "borough": "staten_island", "direction": "TW", "total_row_ft": 50.0, "roadbed_ft": 20.0, "median_ft": 0.0, "left_sw_ft": 15.0, "right_sw_ft": 15.0}, "geometry": {"type": "LineString", "coordinates": [[-74.19069145254286, 40.61347768709058], [-74.19055839270534, 40.613791065531366]]}}, {"type": "Feature", "properties": {"segment_id": 735124, "physicalid": "51795", "street_name": "RIVER RD", "borough": "staten_island", "direction": "TW", "total_row_ft": 50.0, "roadbed_ft": 20.0, "median_ft": 0.0, "left_sw_ft": 15.0, "right_sw_ft": 15.0}, "geometry": {"type": "LineString", "coordinates": [[-74.19075998957227, 40.61349458706261], [-74.19062693002283, 40.6138079655822]]}}, {"type": "Feature", "properties": {"segment_id": 735125, "physicalid": "51795", "street_name": "RIVER RD", "borough": "staten_island", "direction": "TW", "total_row_ft": 50.0, "roadbed_ft": 20.0, "median_ft": 0.0, "left_sw_ft": 15.0, "right_sw_ft": 15.0}, "geometry": {"type": "LineString", "coordinates": [[-74.19082852663642, 40.61351148699372], [-74.19069546737502, 40.6138248655921]]}}, {"type": "Feature", "properties": {"segment_id": 735126, "physicalid": "51795", "street_name": "RIVER RD", "borough": "staten_island", "direction": "TW", "total_row_ft": 50.0, "roadbed_ft": 20.0, "median_ft": 0.0, "left_sw_ft": 15.0, "right_sw_ft": 15.0}, "geometry": {"type": "LineString", "coordinates": [[-74.19089706373525, 40.61352838688397], [-74.19076400476193, 40.613841765561155]]}}, {"type": "Feature", "properties": {"segment_id": 735127, "physicalid": "51795", "street_name": "RIVER RD", "borough": "staten_island", "direction": "TW", "total_row_ft": 50.0, "roadbed_ft": 20.0, "median_ft": 0.0, "left_sw_ft": 15.0, "right_sw_ft": 15.0}, "geometry": {"type": "LineString", "coordinates": [[-74.1909656008688, 40.61354528673329], [-74.19083254218353, 40.61385866548927]]}}, {"type": "Feature", "properties": {"segment_id": 735128, "physicalid": "51795", "street_name": "RIVER RD", "borough": "staten_island", "direction": "TW", "total_row_ft": 50.0, "roadbed_ft": 20.0, "median_ft": 0.0, "left_sw_ft": 15.0, "right_sw_ft": 15.0}, "geometry": {"type": "LineString", "coordinates": [[-74.19103413803704, 40.61356218654175], [-74.19090107963983, 40.61387556537654]]}}, {"type": "Feature", "properties": {"segment_id": 735129, "physicalid": "51795", "street_name": "RIVER RD", "borough": "staten_island", "direction": "TW", "total_row_ft": 49.8, "roadbed_ft": 19.8, "median_ft": 0.0, "left_sw_ft": 15.0, "right_sw_ft": 15.0}, "geometry": {"type": "LineString", "coordinates": [[-74.19110267523997, 40.61357908630932], [-74.19096961713085, 40.61389246522286]]}}, {"type": "Feature", "properties": {"segment_id": 735130, "physicalid": "51795", "street_name": "RIVER RD", "borough": "staten_island", "direction": "TW", "total_row_ft": 50.3, "roadbed_ft": 20.3, "median_ft": 0.0, "left_sw_ft": 15.0, "right_sw_ft": 15.0}, "geometry": {"type": "LineString", "coordinates": [[-74.19117121247763, 40.61359598603597], [-74.19103815465652, 40.61390936502831]]}}, {"type": "Feature", "properties": {"segment_id": 735131, "physicalid": "51795", "street_name": "RIVER RD", "borough": "staten_island", "direction": "TW", "total_row_ft": 51.8, "roadbed_ft": 21.8, "median_ft": 0.0, "left_sw_ft": 15.0, "right_sw_ft": 15.0}, "geometry": {"type": "LineString", "coordinates": [[-74.19123974974995, 40.613612885721736], [-74.19110669221696, 40.61392626479288]]}}, {"type": "Feature", "properties": {"segment_id": 735132, "physicalid": "51795", "street_name": "RIVER RD", "borough": "staten_island", "direction": "TW", "total_row_ft": 54.3, "roadbed_ft": 24.3, "median_ft": 0.0, "left_sw_ft": 15.0, "right_sw_ft": 15.0}, "geometry": {"type": "LineString", "coordinates": [[-74.19130828705703, 40.61362978536659], [-74.19117522981205, 40.613943164516535]]}}, {"type": "Feature", "properties": {"segment_id": 735133, "physicalid": "51795", "street_name": "RIVER RD", "borough": "staten_island", "direction": "TW", "total_row_ft": 58.5, "roadbed_ft": 28.5, "median_ft": 0.0, "left_sw_ft": 15.0, "right_sw_ft": 15.0}, "geometry": {"type": "LineString", "coordinates": [[-74.19137682439877, 40.61364668497058], [-74.19124376744189, 40.613960064199325]]}}, {"type": "Feature", "properties": {"segment_id": 735134, "physicalid": "51795", "street_name": "RIVER RD", "borough": "staten_island", "direction": "TW", "total_row_ft": 62.4, "roadbed_ft": 32.4, "median_ft": 0.0, "left_sw_ft": 15.0, "right_sw_ft": 15.0}, "geometry": {"type": "LineString", "coordinates": [[-74.19157382564036, 40.61375484256812], [-74.19117937824358, 40.613889496059855]]}}, {"type": "Feature", "properties": {"segment_id": 735135, "physicalid": "51795", "street_name": "RIVER RD", "borough": "staten_island", "direction": "TW", "total_row_ft": 62.1, "roadbed_ft": 32.1, "median_ft": 0.0, "left_sw_ft": 15.0, "right_sw_ft": 15.0}, "geometry": {"type": "LineString", "coordinates": [[-74.1916032751376, 40.613804941438104], [-74.19120882750418, 40.61393959503021]]}}, {"type": "Feature", "properties": {"segment_id": 735136, "physicalid": "51795", "street_name": "RIVER RD", "borough": "staten_island", "direction": "TW", "total_row_ft": 57.1, "roadbed_ft": 27.1, "median_ft": 0.0, "left_sw_ft": 15.0, "right_sw_ft": 15.0}, "geometry": {"type": "LineString", "coordinates": [[-74.19163272467904, 40.61385504030027], [-74.191238276809, 40.61398969399274]]}}, {"type": "Feature", "properties": {"segment_id": 735137, "physicalid": "51795", "street_name": "RIVER RD", "borough": "staten_island", "direction": "TW", "total_row_ft": 52.9, "roadbed_ft": 22.9, "median_ft": 0.0, "left_sw_ft": 15.0, "right_sw_ft": 15.0}, "geometry": {"type": "LineString", "coordinates": [[-74.19166217426469, 40.61390513915466], [-74.19126772615802, 40.61403979294751]]}}, {"type": "Feature", "properties": {"segment_id": 735138, "physicalid": "51795", "street_name": "RIVER RD", "borough": "staten_island", "direction": "TW", "total_row_ft": 50.8, "roadbed_ft": 20.8, "median_ft": 0.0, "left_sw_ft": 15.0, "right_sw_ft": 15.0}, "geometry": {"type": "LineString", "coordinates": [[-74.19169162389454, 40.613955238001225], [-74.19129717555124, 40.614089891894444]]}}, {"type": "Feature", "properties": {"segment_id": 735139, "physicalid": "51795", "street_name": "RIVER RD", "borough": "staten_island", "direction": "TW", "total_row_ft": 50.0, "roadbed_ft": 20.0, "median_ft": 0.0, "left_sw_ft": 15.0, "right_sw_ft": 15.0}, "geometry": {"type": "LineString", "coordinates": [[-74.19172107356859, 40.61400533684001], [-74.19132662498866, 40.61413999083356]]}}, {"type": "Feature", "properties": {"segment_id": 735140, "physicalid": "51795", "street_name": "RIVER RD", "borough": "staten_island", "direction": "TW", "total_row_ft": 50.0, "roadbed_ft": 20.0, "median_ft": 0.0, "left_sw_ft": 15.0, "right_sw_ft": 15.0}, "geometry": {"type": "LineString", "coordinates": [[-74.19175052328684, 40.61405543567099], [-74.19135607447029, 40.61419008976494]]}}, {"type": "Feature", "properties": {"segment_id": 735141, "physicalid": "51795", "street_name": "RIVER RD", "borough": "staten_island", "direction": "TW", "total_row_ft": 50.0, "roadbed_ft": 20.0, "median_ft": 0.0, "left_sw_ft": 15.0, "right_sw_ft": 15.0}, "geometry": {"type": "LineString", "coordinates": [[-74.19177997304931, 40.61410553449413], [-74.19138552399613, 40.61424018868848]]}}, {"type": "Feature", "properties": {"segment_id": 735142, "physicalid": "51795", "street_name": "RIVER RD", "borough": "staten_island", "direction": "TW", "total_row_ft": 50.0, "roadbed_ft": 20.0, "median_ft": 0.0, "left_sw_ft": 15.0, "right_sw_ft": 15.0}, "geometry": {"type": "LineString", "coordinates": [[-74.19180942285595, 40.61415563330949], [-74.19141497356618, 40.61429028760424]]}}, {"type": "Feature", "properties": {"segment_id": 735143, "physicalid": "51795", "street_name": "RIVER RD", "borough": "staten_island", "direction": "TW", "total_row_ft": 50.0, "roadbed_ft": 20.0, "median_ft": 0.0, "left_sw_ft": 15.0, "right_sw_ft": 15.0}, "geometry": {"type": "LineString", "coordinates": [[-74.19183887270684, 40.6142057321171], [-74.19144442318041, 40.61434038651214]]}}, {"type": "Feature", "properties": {"segment_id": 735144, "physicalid": "51795", "street_name": "RIVER RD", "borough": "staten_island", "direction": "TW", "total_row_ft": 50.0, "roadbed_ft": 20.0, "median_ft": 0.0, "left_sw_ft": 15.0, "right_sw_ft": 15.0}, "geometry": {"type": "LineString", "coordinates": [[-74.19186832260192, 40.614255830916846], [-74.19147387283884, 40.61439048541227]]}}, {"type": "Feature", "properties": {"segment_id": 735145, "physicalid": "51795", "street_name": "RIVER RD", "borough": "staten_island", "direction": "TW", "total_row_ft": 50.0, "roadbed_ft": 20.0, "median_ft": 0.0, "left_sw_ft": 15.0, "right_sw_ft": 15.0}, "geometry": {"type": "LineString", "coordinates": [[-74.1918977725412, 40.61430592970884], [-74.19150332254151, 40.61444058430463]]}}, {"type": "Feature", "properties": {"segment_id": 735146, "physicalid": "51795", "street_name": "RIVER RD", "borough": "staten_island", "direction": "TW", "total_row_ft": 50.0, "roadbed_ft": 20.0, "median_ft": 0.0, "left_sw_ft": 15.0, "right_sw_ft": 15.0}, "geometry": {"type": "LineString", "coordinates": [[-74.19192722252467, 40.614356028493], [-74.19153277228835, 40.614490683189146]]}}, {"type": "Feature", "properties": {"segment_id": 735147, "physicalid": "51795", "street_name": "RIVER RD", "borough": "staten_island", "direction": "TW", "total_row_ft": 50.0, "roadbed_ft": 20.0, "median_ft": 0.0, "left_sw_ft": 15.0, "right_sw_ft": 15.0}, "geometry": {"type": "LineString", "coordinates": [[-74.19195667255235, 40.61440612726932], [-74.19156222207943, 40.614540782065916]]}}, {"type": "Feature", "properties": {"segment_id": 735148, "physicalid": "51795", "street_name": "RIVER RD", "borough": "staten_island", "direction": "TW", "total_row_ft": 50.0, "roadbed_ft": 20.0, "median_ft": 0.0, "left_sw_ft": 15.0, "right_sw_ft": 15.0}, "geometry": {"type": "LineString", "coordinates": [[-74.19198612262426, 40.61445622603791], [-74.19159167191467, 40.6145908809348]]}}, {"type": "Feature", "properties": {"segment_id": 735149, "physicalid": "51795", "street_name": "RIVER RD", "borough": "staten_island", "direction": "TW", "total_row_ft": 50.0, "roadbed_ft": 20.0, "median_ft": 0.0, "left_sw_ft": 15.0, "right_sw_ft": 15.0}, "geometry": {"type": "LineString", "coordinates": [[-74.19201557274035, 40.614506324798676], [-74.19162112179414, 40.61464097979592]]}}, {"type": "Feature", "properties": {"segment_id": 735150, "physicalid": "51795", "street_name": "RIVER RD", "borough": "staten_island", "direction": "TW", "total_row_ft": 50.0, "roadbed_ft": 20.0, "median_ft": 0.0, "left_sw_ft": 15.0, "right_sw_ft": 15.0}, "geometry": {"type": "LineString", "coordinates": [[-74.19204502290064, 40.614556423551626], [-74.19165057171782, 40.61469107864925]]}}, {"type": "Feature", "properties": {"segment_id": 735151, "physicalid": "51795", "street_name": "RIVER RD", "borough": "staten_island", "direction": "TW", "total_row_ft": 50.0, "roadbed_ft": 20.0, "median_ft": 0.0, "left_sw_ft": 15.0, "right_sw_ft": 15.0}, "geometry": {"type": "LineString", "coordinates": [[-74.19207447310515, 40.61460652229677], [-74.19168002168567, 40.61474117749478]]}}, {"type": "Feature", "properties": {"segment_id": 735152, "physicalid": "51795", "street_name": "RIVER RD", "borough": "staten_island", "direction": "TW", "total_row_ft": 50.0, "roadbed_ft": 20.0, "median_ft": 0.0, "left_sw_ft": 15.0, "right_sw_ft": 15.0}, "geometry": {"type": "LineString", "coordinates": [[-74.19210392335387, 40.61465662103413], [-74.19170947169775, 40.61479127633249]]}}, {"type": "Feature", "properties": {"segment_id": 735153, "physicalid": "51795", "street_name": "RIVER RD", "borough": "staten_island", "direction": "TW", "total_row_ft": 50.0, "roadbed_ft": 20.0, "median_ft": 0.0, "left_sw_ft": 15.0, "right_sw_ft": 15.0}, "geometry": {"type": "LineString", "coordinates": [[-74.19213337364677, 40.61470671976368], [-74.19173892175404, 40.61484137516241]]}}, {"type": "Feature", "properties": {"segment_id": 735154, "physicalid": "51795", "street_name": "RIVER RD", "borough": "staten_island", "direction": "TW", "total_row_ft": 50.0, "roadbed_ft": 20.0, "median_ft": 0.0, "left_sw_ft": 15.0, "right_sw_ft": 15.0}, "geometry": {"type": "LineString", "coordinates": [[-74.19216282398389, 40.614756818485425], [-74.19176837185454, 40.61489147398453]]}}, {"type": "Feature", "properties": {"segment_id": 735155, "physicalid": "51795", "street_name": "RIVER RD", "borough": "staten_island", "direction": "TW", "total_row_ft": 50.0, "roadbed_ft": 20.0, "median_ft": 0.0, "left_sw_ft": 15.0, "right_sw_ft": 15.0}, "geometry": {"type": "LineString", "coordinates": [[-74.19219227436521, 40.61480691719936], [-74.19179782199923, 40.614941572798834]]}}, {"type": "Feature", "properties": {"segment_id": 735156, "physicalid": "51795", "street_name": "RIVER RD", "borough": "staten_island", "direction": "TW", "total_row_ft": 50.0, "roadbed_ft": 20.0, "median_ft": 0.0, "left_sw_ft": 15.0, "right_sw_ft": 15.0}, "geometry": {"type": "LineString", "coordinates": [[-74.19222172479073, 40.614857015905486], [-74.19182727218815, 40.61499167160538]]}}, {"type": "Feature", "properties": {"segment_id": 735157, "physicalid": "51795", "street_name": "RIVER RD", "borough": "staten_island", "direction": "TW", "total_row_ft": 50.0, "roadbed_ft": 20.0, "median_ft": 0.0, "left_sw_ft": 15.0, "right_sw_ft": 15.0}, "geometry": {"type": "LineString", "coordinates": [[-74.19225117526048, 40.61490711460386], [-74.19185672242124, 40.61504177040406]]}}, {"type": "Feature", "properties": {"segment_id": 735158, "physicalid": "51795", "street_name": "RIVER RD", "borough": "staten_island", "direction": "TW", "total_row_ft": 50.0, "roadbed_ft": 20.0, "median_ft": 0.0, "left_sw_ft": 15.0, "right_sw_ft": 15.0}, "geometry": {"type": "LineString", "coordinates": [[-74.19228062577443, 40.61495721329438], [-74.19188617269855, 40.615091869194956]]}}, {"type": "Feature", "properties": {"segment_id": 735159, "physicalid": "51795", "street_name": "RIVER RD", "borough": "staten_island", "direction": "TW", "total_row_ft": 50.0, "roadbed_ft": 20.0, "median_ft": 0.0, "left_sw_ft": 15.0, "right_sw_ft": 15.0}, "geometry": {"type": "LineString", "coordinates": [[-74.19231007633256, 40.615007311977116], [-74.19191562302005, 40.61514196797807]]}}, {"type": "Feature", "properties": {"segment_id": 735160, "physicalid": "51795", "street_name": "RIVER RD", "borough": "staten_island", "direction": "TW", "total_row_ft": 50.0, "roadbed_ft": 20.0, "median_ft": 0.0, "left_sw_ft": 15.0, "right_sw_ft": 15.0}, "geometry": {"type": "LineString", "coordinates": [[-74.19233952693492, 40.61505741065206], [-74.19194507338578, 40.61519206675336]]}}, {"type": "Feature", "properties": {"segment_id": 735161, "physicalid": "51795", "street_name": "RIVER RD", "borough": "staten_island", "direction": "TW", "total_row_ft": 50.0, "roadbed_ft": 20.0, "median_ft": 0.0, "left_sw_ft": 15.0, "right_sw_ft": 15.0}, "geometry": {"type": "LineString", "coordinates": [[-74.19236897758147, 40.61510750931916], [-74.19197452379571, 40.6152421655209]]}}, {"type": "Feature", "properties": {"segment_id": 735162, "physicalid": "51795", "street_name": "RIVER RD", "borough": "staten_island", "direction": "TW", "total_row_ft": 50.0, "roadbed_ft": 20.0, "median_ft": 0.0, "left_sw_ft": 15.0, "right_sw_ft": 15.0}, "geometry": {"type": "LineString", "coordinates": [[-74.19239842827224, 40.615157607978496], [-74.19200397424983, 40.61529226428057]]}}, {"type": "Feature", "properties": {"segment_id": 735163, "physicalid": "51795", "street_name": "RIVER RD", "borough": "staten_island", "direction": "TW", "total_row_ft": 50.0, "roadbed_ft": 20.0, "median_ft": 0.0, "left_sw_ft": 15.0, "right_sw_ft": 15.0}, "geometry": {"type": "LineString", "coordinates": [[-74.19242787900721, 40.615207706630024], [-74.19203342474816, 40.615342363032454]]}}, {"type": "Feature", "properties": {"segment_id": 735164, "physicalid": "51795", "street_name": "RIVER RD", "borough": "staten_island", "direction": "TW", "total_row_ft": 50.0, "roadbed_ft": 20.0, "median_ft": 0.0, "left_sw_ft": 15.0, "right_sw_ft": 15.0}, "geometry": {"type": "LineString", "coordinates": [[-74.19245732978638, 40.61525780527376], [-74.1920628752907, 40.61539246177656]]}}, {"type": "Feature", "properties": {"segment_id": 735165, "physicalid": "51795", "street_name": "RIVER RD", "borough": "staten_island", "direction": "TW", "total_row_ft": 50.0, "roadbed_ft": 20.0, "median_ft": 0.0, "left_sw_ft": 15.0, "right_sw_ft": 15.0}, "geometry": {"type": "LineString", "coordinates": [[-74.19248678060976, 40.615307903909674], [-74.19209232587745, 40.615442560512825]]}}, {"type": "Feature", "properties": {"segment_id": 735166, "physicalid": "51795", "street_name": "RIVER RD", "borough": "staten_island", "direction": "TW", "total_row_ft": 50.0, "roadbed_ft": 20.0, "median_ft": 0.0, "left_sw_ft": 15.0, "right_sw_ft": 15.0}, "geometry": {"type": "LineString", "coordinates": [[-74.19251623147736, 40.61535800253778], [-74.1921217765084, 40.61549265924131]]}}, {"type": "Feature", "properties": {"segment_id": 735167, "physicalid": "51795", "street_name": "RIVER RD", "borough": "staten_island", "direction": "TW", "total_row_ft": 50.0, "roadbed_ft": 20.0, "median_ft": 0.0, "left_sw_ft": 15.0, "right_sw_ft": 15.0}, "geometry": {"type": "LineString", "coordinates": [[-74.19254568238914, 40.6154081011581], [-74.19215122718357, 40.615542757962004]]}}, {"type": "Feature", "properties": {"segment_id": 735168, "physicalid": "51795", "street_name": "RIVER RD", "borough": "staten_island", "direction": "TW", "total_row_ft": 50.0, "roadbed_ft": 20.0, "median_ft": 0.0, "left_sw_ft": 15.0, "right_sw_ft": 15.0}, "geometry": {"type": "LineString", "coordinates": [[-74.19257513334514, 40.6154581997706], [-74.19218067790293, 40.61559285667487]]}}, {"type": "Feature", "properties": {"segment_id": 735169, "physicalid": "51795", "street_name": "RIVER RD", "borough": "staten_island", "direction": "TW", "total_row_ft": 50.0, "roadbed_ft": 20.0, "median_ft": 0.0, "left_sw_ft": 15.0, "right_sw_ft": 15.0}, "geometry": {"type": "LineString", "coordinates": [[-74.19260458434535, 40.61550829837532], [-74.1922101286665, 40.61564295537996]]}}, {"type": "Feature", "properties": {"segment_id": 735170, "physicalid": "51795", "street_name": "RIVER RD", "borough": "staten_island", "direction": "TW", "total_row_ft": 50.0, "roadbed_ft": 20.0, "median_ft": 0.0, "left_sw_ft": 15.0, "right_sw_ft": 15.0}, "geometry": {"type": "LineString", "coordinates": [[-74.19263403538974, 40.615558396972226], [-74.19223957947428, 40.61569305407722]]}}, {"type": "Feature", "properties": {"segment_id": 735171, "physicalid": "51795", "street_name": "RIVER RD", "borough": "staten_island", "direction": "TW", "total_row_ft": 50.0, "roadbed_ft": 20.0, "median_ft": 0.0, "left_sw_ft": 15.0, "right_sw_ft": 15.0}, "geometry": {"type": "LineString", "coordinates": [[-74.19266348647837, 40.61560849556131], [-74.19226903032626, 40.61574315276668]]}}, {"type": "Feature", "properties": {"segment_id": 735172, "physicalid": "51795", "street_name": "RIVER RD", "borough": "staten_island", "direction": "TW", "total_row_ft": 50.0, "roadbed_ft": 20.0, "median_ft": 0.0, "left_sw_ft": 15.0, "right_sw_ft": 15.0}, "geometry": {"type": "LineString", "coordinates": [[-74.1926929376112, 40.61565859414261], [-74.19229848122247, 40.61579325144836]]}}, {"type": "Feature", "properties": {"segment_id": 735173, "physicalid": "51795", "street_name": "RIVER RD", "borough": "staten_island", "direction": "TW", "total_row_ft": 50.0, "roadbed_ft": 20.0, "median_ft": 0.0, "left_sw_ft": 15.0, "right_sw_ft": 15.0}, "geometry": {"type": "LineString", "coordinates": [[-74.19272238878824, 40.615708692716105], [-74.19232793216285, 40.61584335012221]]}}, {"type": "Feature", "properties": {"segment_id": 735174, "physicalid": "51795", "street_name": "RIVER RD", "borough": "staten_island", "direction": "TW", "total_row_ft": 50.0, "roadbed_ft": 20.0, "median_ft": 0.0, "left_sw_ft": 15.0, "right_sw_ft": 15.0}, "geometry": {"type": "LineString", "coordinates": [[-74.19275184000946, 40.6157587912818], [-74.19235738314747, 40.61589344878828]]}}, {"type": "Feature", "properties": {"segment_id": 735175, "physicalid": "51795", "street_name": "RIVER RD", "borough": "staten_island", "direction": "TW", "total_row_ft": 50.0, "roadbed_ft": 20.0, "median_ft": 0.0, "left_sw_ft": 15.0, "right_sw_ft": 15.0}, "geometry": {"type": "LineString", "coordinates": [[-74.1927812912749, 40.61580888983965], [-74.19238683417629, 40.61594354744656]]}}, {"type": "Feature", "properties": {"segment_id": 735176, "physicalid": "51795", "street_name": "RIVER RD", "borough": "staten_island", "direction": "TW", "total_row_ft": 50.0, "roadbed_ft": 20.0, "median_ft": 0.0, "left_sw_ft": 15.0, "right_sw_ft": 15.0}, "geometry": {"type": "LineString", "coordinates": [[-74.19281074258457, 40.61585898838977], [-74.1924162852493, 40.61599364609698]]}}, {"type": "Feature", "properties": {"segment_id": 735177, "physicalid": "51795", "street_name": "RIVER RD", "borough": "staten_island", "direction": "TW", "total_row_ft": 50.0, "roadbed_ft": 20.0, "median_ft": 0.0, "left_sw_ft": 15.0, "right_sw_ft": 15.0}, "geometry": {"type": "LineString", "coordinates": [[-74.19284019393842, 40.61590908693205], [-74.19244573636651, 40.61604374473965]]}}, {"type": "Feature", "properties": {"segment_id": 735178, "physicalid": "51795", "street_name": "RIVER RD", "borough": "staten_island", "direction": "TW", "total_row_ft": 50.0, "roadbed_ft": 20.0, "median_ft": 0.0, "left_sw_ft": 15.0, "right_sw_ft": 15.0}, "geometry": {"type": "LineString", "coordinates": [[-74.19286964533649, 40.61595918546652], [-74.19247518752795, 40.61609384337447]]}}, {"type": "Feature", "properties": {"segment_id": 735179, "physicalid": "51795", "street_name": "RIVER RD", "borough": "staten_island", "direction": "TW", "total_row_ft": 50.0, "roadbed_ft": 20.0, "median_ft": 0.0, "left_sw_ft": 15.0, "right_sw_ft": 15.0}, "geometry": {"type": "LineString", "coordinates": [[-74.19289909677877, 40.61600928399319], [-74.1925046387336, 40.61614394200152]]}}, {"type": "Feature", "properties": {"segment_id": 735180, "physicalid": "51795", "street_name": "RIVER RD", "borough": "staten_island", "direction": "TW", "total_row_ft": 50.0, "roadbed_ft": 20.0, "median_ft": 0.0, "left_sw_ft": 15.0, "right_sw_ft": 15.0}, "geometry": {"type": "LineString", "coordinates": [[-74.19292854826523, 40.61605938251203], [-74.19253408998345, 40.616194040620776]]}}, {"type": "Feature", "properties": {"segment_id": 735181, "physicalid": "51795", "street_name": "RIVER RD", "borough": "staten_island", "direction": "TW", "total_row_ft": 50.1, "roadbed_ft": 20.1, "median_ft": 0.0, "left_sw_ft": 15.0, "right_sw_ft": 15.0}, "geometry": {"type": "LineString", "coordinates": [[-74.19295799979594, 40.61610948102313], [-74.1925635412775, 40.616244139232194]]}}, {"type": "Feature", "properties": {"segment_id": 735182, "physicalid": "51795", "street_name": "RIVER RD", "borough": "staten_island", "direction": "TW", "total_row_ft": 51.7, "roadbed_ft": 21.7, "median_ft": 0.0, "left_sw_ft": 15.0, "right_sw_ft": 15.0}, "geometry": {"type": "LineString", "coordinates": [[-74.19288899317033, 40.61607515507955], [-74.19270086484678, 40.616371694794175]]}}, {"type": "Feature", "properties": {"segment_id": 735183, "physicalid": "51795", "street_name": "RIVER RD", "borough": "staten_island", "direction": "TW", "total_row_ft": 50.5, "roadbed_ft": 20.5, "median_ft": 0.0, "left_sw_ft": 15.0, "right_sw_ft": 15.0}, "geometry": {"type": "LineString", "coordinates": [[-74.19295385007312, 40.61609904839793], [-74.19276572197035, 40.61639558821795]]}}, {"type": "Feature", "properties": {"segment_id": 735184, "physicalid": "51795", "street_name": "RIVER RD", "borough": "staten_island", "direction": "TW", "total_row_ft": 50.1, "roadbed_ft": 20.1, "median_ft": 0.0, "left_sw_ft": 15.0, "right_sw_ft": 15.0}, "geometry": {"type": "LineString", "coordinates": [[-74.19301870702236, 40.616122941679635], [-74.19283057914033, 40.616419481605035]]}}, {"type": "Feature", "properties": {"segment_id": 735185, "physicalid": "51795", "street_name": "RIVER RD", "borough": "staten_island", "direction": "TW", "total_row_ft": 50.0, "roadbed_ft": 20.0, "median_ft": 0.0, "left_sw_ft": 15.0, "right_sw_ft": 15.0}, "geometry": {"type": "LineString", "coordinates": [[-74.19308356401801, 40.61614683492469], [-74.19289543635676, 40.61644337495552]]}}, {"type": "Feature", "properties": {"segment_id": 735186, "physicalid": "51795", "street_name": "RIVER RD", "borough": "staten_island", "direction": "TW", "total_row_ft": 50.0, "roadbed_ft": 20.0, "median_ft": 0.0, "left_sw_ft": 15.0, "right_sw_ft": 15.0}, "geometry": {"type": "LineString", "coordinates": [[-74.19314842106009, 40.61617072813308], [-74.19296029361962, 40.616467268269325]]}}, {"type": "Feature", "properties": {"segment_id": 735187, "physicalid": "51795", "street_name": "RIVER RD", "borough": "staten_island", "direction": "TW", "total_row_ft": 50.0, "roadbed_ft": 20.0, "median_ft": 0.0, "left_sw_ft": 15.0, "right_sw_ft": 15.0}, "geometry": {"type": "LineString", "coordinates": [[-74.19321327814858, 40.616194621304835], [-74.19302515092895, 40.61649116154651]]}}, {"type": "Feature", "properties": {"segment_id": 735188, "physicalid": "51795", "street_name": "RIVER RD", "borough": "staten_island", "direction": "TW", "total_row_ft": 50.0, "roadbed_ft": 20.0, "median_ft": 0.0, "left_sw_ft": 15.0, "right_sw_ft": 15.0}, "geometry": {"type": "LineString", "coordinates": [[-74.1932781352835, 40.61621851443992], [-74.19309000828468, 40.61651505478701]]}}, {"type": "Feature", "properties": {"segment_id": 735189, "physicalid": "51795", "street_name": "RIVER RD", "borough": "staten_island", "direction": "TW", "total_row_ft": 50.0, "roadbed_ft": 20.0, "median_ft": 0.0, "left_sw_ft": 15.0, "right_sw_ft": 15.0}, "geometry": {"type": "LineString", "coordinates": [[-74.19334299246488, 40.61624240753838], [-74.19315486568682, 40.61653894799089]]}}, {"type": "Feature", "properties": {"segment_id": 735190, "physicalid": "51795", "street_name": "RIVER RD", "borough": "staten_island", "direction": "TW", "total_row_ft": 50.0, "roadbed_ft": 20.0, "median_ft": 0.0, "left_sw_ft": 15.0, "right_sw_ft": 15.0}, "geometry": {"type": "LineString", "coordinates": [[-74.1934078496927, 40.616266300600195], [-74.19321972313539, 40.61656284115809]]}}, {"type": "Feature", "properties": {"segment_id": 735191, "physicalid": "51795", "street_name": "RIVER RD", "borough": "staten_island", "direction": "TW", "total_row_ft": 50.0, "roadbed_ft": 20.0, "median_ft": 0.0, "left_sw_ft": 15.0, "right_sw_ft": 15.0}, "geometry": {"type": "LineString", "coordinates": [[-74.19347270696693, 40.616290193625325], [-74.19328458063039, 40.616586734288646]]}}, {"type": "Feature", "properties": {"segment_id": 735192, "physicalid": "51795", "street_name": "RIVER RD", "borough": "staten_island", "direction": "TW", "total_row_ft": 50.0, "roadbed_ft": 20.0, "median_ft": 0.0, "left_sw_ft": 15.0, "right_sw_ft": 15.0}, "geometry": {"type": "LineString", "coordinates": [[-74.1935375642876, 40.61631408661382], [-74.19334943817184, 40.61661062738254]]}}, {"type": "Feature", "properties": {"segment_id": 735193, "physicalid": "51795", "street_name": "RIVER RD", "borough": "staten_island", "direction": "TW", "total_row_ft": 50.0, "roadbed_ft": 20.0, "median_ft": 0.0, "left_sw_ft": 15.0, "right_sw_ft": 15.0}, "geometry": {"type": "LineString", "coordinates": [[-74.19360242165466, 40.61633797956564], [-74.19341429575974, 40.61663452043981]]}}, {"type": "Feature", "properties": {"segment_id": 735194, "physicalid": "51795", "street_name": "RIVER RD", "borough": "staten_island", "direction": "TW", "total_row_ft": 50.0, "roadbed_ft": 20.0, "median_ft": 0.0, "left_sw_ft": 15.0, "right_sw_ft": 15.0}, "geometry": {"type": "LineString", "coordinates": [[-74.19366727906818, 40.61636187248083], [-74.19347915339404, 40.616658413460414]]}}, {"type": "Feature", "properties": {"segment_id": 735195, "physicalid": "51795", "street_name": "RIVER RD", "borough": "staten_island", "direction": "TW", "total_row_ft": 50.0, "roadbed_ft": 20.0, "median_ft": 0.0, "left_sw_ft": 15.0, "right_sw_ft": 15.0}, "geometry": {"type": "LineString", "coordinates": [[-74.19373213652813, 40.61638576535936], [-74.19354401107478, 40.61668230644437]]}}, {"type": "Feature", "properties": {"segment_id": 735196, "physicalid": "51795", "street_name": "RIVER RD", "borough": "staten_island", "direction": "TW", "total_row_ft": 50.0, "roadbed_ft": 20.0, "median_ft": 0.0, "left_sw_ft": 15.0, "right_sw_ft": 15.0}, "geometry": {"type": "LineString", "coordinates": [[-74.19379699403451, 40.61640965820127], [-74.19360886880193, 40.61670619939164]]}}, {"type": "Feature", "properties": {"segment_id": 735197, "physicalid": "51795", "street_name": "RIVER RD", "borough": "staten_island", "direction": "TW", "total_row_ft": 50.0, "roadbed_ft": 20.0, "median_ft": 0.0, "left_sw_ft": 15.0, "right_sw_ft": 15.0}, "geometry": {"type": "LineString", "coordinates": [[-74.19386185158733, 40.616433551006494], [-74.19367372657551, 40.61673009230229]]}}, {"type": "Feature", "properties": {"segment_id": 735198, "physicalid": "51795", "street_name": "RIVER RD", "borough": "staten_island", "direction": "TW", "total_row_ft": 50.0, "roadbed_ft": 20.0, "median_ft": 0.0, "left_sw_ft": 15.0, "right_sw_ft": 15.0}, "geometry": {"type": "LineString", "coordinates": [[-74.19392670918654, 40.616457443775076], [-74.19373858439556, 40.616753985176274]]}}, {"type": "Feature", "properties": {"segment_id": 735199, "physicalid": "51795", "street_name": "RIVER RD", "borough": "staten_island", "direction": "TW", "total_row_ft": 50.0, "roadbed_ft": 20.0, "median_ft": 0.0, "left_sw_ft": 15.0, "right_sw_ft": 15.0}, "geometry": {"type": "LineString", "coordinates": [[-74.19399156683221, 40.616481336506986], [-74.19380344226202, 40.616777878013615]]}}, {"type": "Feature", "properties": {"segment_id": 735200, "physicalid": "51795", "street_name": "RIVER RD", "borough": "staten_island", "direction": "TW", "total_row_ft": 50.0, "roadbed_ft": 20.0, "median_ft": 0.0, "left_sw_ft": 15.0, "right_sw_ft": 15.0}, "geometry": {"type": "LineString", "coordinates": [[-74.19405642452429, 40.61650522920226], [-74.19386830017491, 40.61680177081431]]}}, {"type": "Feature", "properties": {"segment_id": 1457884, "physicalid": "98539", "street_name": "8 AVE", "borough": "staten_island", "direction": "TW", "total_row_ft": 30.0, "roadbed_ft": 0.0, "median_ft": 0.0, "left_sw_ft": 15.0, "right_sw_ft": 15.0}, "geometry": {"type": "LineString", "coordinates": [[-74.19359291748934, 40.619878015800076], [-74.19393358407203, 40.62008075573705]]}}, {"type": "Feature", "properties": {"segment_id": 1457885, "physicalid": "98539", "street_name": "8 AVE", "borough": "staten_island", "direction": "TW", "total_row_ft": 30.0, "roadbed_ft": 0.0, "median_ft": 0.0, "left_sw_ft": 15.0, "right_sw_ft": 15.0}, "geometry": {"type": "LineString", "coordinates": [[-74.19363726180703, 40.61983475167404], [-74.19397792830365, 40.620037491480474]]}}, {"type": "Feature", "properties": {"segment_id": 1457886, "physicalid": "98539", "street_name": "8 AVE", "borough": "staten_island", "direction": "TW", "total_row_ft": 30.0, "roadbed_ft": 0.0, "median_ft": 0.0, "left_sw_ft": 15.0, "right_sw_ft": 15.0}, "geometry": {"type": "LineString", "coordinates": [[-74.19368160606727, 40.61979148753067], [-74.19402227247772, 40.619994227206625]]}}, {"type": "Feature", "properties": {"segment_id": 1457887, "physicalid": "98539", "street_name": "8 AVE", "borough": "staten_island", "direction": "TW", "total_row_ft": 30.0, "roadbed_ft": 0.0, "median_ft": 0.0, "left_sw_ft": 15.0, "right_sw_ft": 15.0}, "geometry": {"type": "LineString", "coordinates": [[-74.19372595027002, 40.61974822337], [-74.19406661659436, 40.6199509629155]]}}, {"type": "Feature", "properties": {"segment_id": 1647814, "physicalid": "163826", "street_name": "RIVER RD", "borough": "staten_island", "direction": "TW", "total_row_ft": 50.0, "roadbed_ft": 20.0, "median_ft": 0.0, "left_sw_ft": 15.0, "right_sw_ft": 15.0}, "geometry": {"type": "LineString", "coordinates": [[-74.1941634203457, 40.61654283649417], [-74.1939923211617, 40.616845306909326]]}}, {"type": "Feature", "properties": {"segment_id": 1647815, "physicalid": "163826", "street_name": "RIVER RD", "borough": "staten_island", "direction": "TW", "total_row_ft": 50.0, "roadbed_ft": 20.0, "median_ft": 0.0, "left_sw_ft": 15.0, "right_sw_ft": 15.0}, "geometry": {"type": "LineString", "coordinates": [[-74.1942295748241, 40.61656456686174], [-74.19405847588418, 40.616867037374675]]}}, {"type": "Feature", "properties": {"segment_id": 1647816, "physicalid": "163828", "street_name": "RIVER RD", "borough": "staten_island", "direction": "TW", "total_row_ft": 50.2, "roadbed_ft": 20.2, "median_ft": 0.0, "left_sw_ft": 15.0, "right_sw_ft": 15.0}, "geometry": {"type": "LineString", "coordinates": [[-74.19434408152159, 40.61660183914209], [-74.19417605134261, 40.61690530702362]]}}, {"type": "Feature", "properties": {"segment_id": 1647817, "physicalid": "163828", "street_name": "RIVER RD", "borough": "staten_island", "direction": "TW", "total_row_ft": 50.8, "roadbed_ft": 20.8, "median_ft": 0.0, "left_sw_ft": 15.0, "right_sw_ft": 15.0}, "geometry": {"type": "LineString", "coordinates": [[-74.19441045421733, 40.61662317971239], [-74.19424242428643, 40.61692664769031]]}}, {"type": "Feature", "properties": {"segment_id": 1647818, "physicalid": "163828", "street_name": "RIVER RD", "borough": "staten_island", "direction": "TW", "total_row_ft": 51.3, "roadbed_ft": 21.3, "median_ft": 0.0, "left_sw_ft": 15.0, "right_sw_ft": 15.0}, "geometry": {"type": "LineString", "coordinates": [[-74.19447682695554, 40.61664452024435], [-74.19430879727264, 40.6169479883186]]}}, {"type": "Feature", "properties": {"segment_id": 1647819, "physicalid": "163828", "street_name": "RIVER RD", "borough": "staten_island", "direction": "TW", "total_row_ft": 51.9, "roadbed_ft": 21.9, "median_ft": 0.0, "left_sw_ft": 15.0, "right_sw_ft": 15.0}, "geometry": {"type": "LineString", "coordinates": [[-74.19454319973617, 40.61666586073793], [-74.1943751703013, 40.61696932890852]]}}, {"type": "Feature", "properties": {"segment_id": 1647820, "physicalid": "163828", "street_name": "RIVER RD", "borough": "staten_island", "direction": "TW", "total_row_ft": 53.0, "roadbed_ft": 23.0, "median_ft": 0.0, "left_sw_ft": 15.0, "right_sw_ft": 15.0}, "geometry": {"type": "LineString", "coordinates": [[-74.19460957255926, 40.61668720119315], [-74.19444154337239, 40.61699066946009]]}}, {"type": "Feature", "properties": {"segment_id": 1647821, "physicalid": "163828", "street_name": "RIVER RD", "borough": "staten_island", "direction": "TW", "total_row_ft": 54.7, "roadbed_ft": 24.7, "median_ft": 0.0, "left_sw_ft": 15.0, "right_sw_ft": 15.0}, "geometry": {"type": "LineString", "coordinates": [[-74.19467594542475, 40.61670854160998], [-74.19450791648595, 40.61701200997327]]}}, {"type": "Feature", "properties": {"segment_id": 1647822, "physicalid": "163828", "street_name": "RIVER RD", "borough": "staten_island", "direction": "TW", "total_row_ft": 56.8, "roadbed_ft": 26.8, "median_ft": 0.0, "left_sw_ft": 15.0, "right_sw_ft": 15.0}, "geometry": {"type": "LineString", "coordinates": [[-74.1947423183327, 40.616729881988434], [-74.19457428964195, 40.6170333504481]]}}, {"type": "Feature", "properties": {"segment_id": 1647823, "physicalid": "163828", "street_name": "RIVER RD", "borough": "staten_island", "direction": "TW", "total_row_ft": 58.6, "roadbed_ft": 28.6, "median_ft": 0.0, "left_sw_ft": 15.0, "right_sw_ft": 15.0}, "geometry": {"type": "LineString", "coordinates": [[-74.19480869128311, 40.61675122232853], [-74.19464066284034, 40.61705469088454]]}}, {"type": "Feature", "properties": {"segment_id": 1647824, "physicalid": "163828", "street_name": "RIVER RD", "borough": "staten_island", "direction": "TW", "total_row_ft": 60.3, "roadbed_ft": 30.3, "median_ft": 0.0, "left_sw_ft": 15.0, "right_sw_ft": 15.0}, "geometry": {"type": "LineString", "coordinates": [[-74.19487506427595, 40.616772562630274], [-74.1947070360812, 40.617076031282615]]}}]}