{"type": "FeatureCollection", "features": [{"type": "Feature", "properties": {"segment_id": 194467, "physicalid": "15234", "street_name": "YETMAN AVE", "borough": "staten_island", "direction": "TW", "total_row_ft": 50.9, "roadbed_ft": 32.8, "median_ft": 0.0, "left_sw_ft": 9.7, "right_sw_ft": 8.4}, "geometry": {"type": "LineString", "coordinates": [[-74.23986797162125, 40.49998364813769], [-74.24004508757885, 40.49994805911714]]}}, {"type": "Feature", "properties": {"segment_id": 194468, "physicalid": "15234", "street_name": "YETMAN AVE", "borough": "staten_island", "direction": "TW", "total_row_ft": 120.0, "roadbed_ft": 33.9, "median_ft": 0.0, "left_sw_ft": 42.8, "right_sw_ft": 43.3}, "geometry": {"type": "LineString", "coordinates": [[-74.23973142038676, 40.499954319722875], [-74.24014868635834, 40.499870475850116]]}}, {"type": "Feature", "properties": {"segment_id": 194469, "physicalid": "15235", "street_name": "YETMAN AVE", "borough": "staten_island", "direction": "TW", "total_row_ft": 150.0, "roadbed_ft": 120.0, "median_ft": 0.0, "left_sw_ft": 15.0, "right_sw_ft": 15.0}, "geometry": {"type": "LineString", "coordinates": [[-74.2396937359618, 40.49984393318747], [-74.24011172702869, 40.4997622231232]]}}, {"type": "Feature", "properties": {"segment_id": 194470, "physicalid": "15235", "street_name": "YETMAN AVE", "borough": "staten_island", "direction": "TW", "total_row_ft": 51.9, "roadbed_ft": 32.3, "median_ft": 0.0, "left_sw_ft": 10.2, "right_sw_ft": 9.3}, "geometry": {"type": "LineString", "coordinates": [[-74.239794994174, 40.499767471355796], [-74.23997561793247, 40.499732162518676]]}}, {"type": "Feature", "properties": {"segment_id": 194471, "physicalid": "15235", "street_name": "YETMAN AVE", "borough": "staten_island", "direction": "TW", "total_row_ft": 51.4, "roadbed_ft": 32.2, "median_ft": 0.0, "left_sw_ft": 10.1, "right_sw_ft": 9.1}, "geometry": {"type": "LineString", "coordinates": [[-74.23977706711253, 40.49971430802219], [-74.2399562611704, 40.49967927867005]]}}, {"type": "Feature", "properties": {"segment_id": 194472, "physicalid": "15235", "street_name": "YETMAN AVE", "borough": "staten_island", "direction": "TW", "total_row_ft": 51.0, "roadbed_ft": 32.0, "median_ft": 0.0, "left_sw_ft": 10.1, "right_sw_ft": 9.0}, "geometry": {"type": "LineString", "coordinates": [[-74.23975914007957, 40.499661144685604], [-74.23993690443898, 40.49962639481796]]}}, {"type": "Feature", "properties": {"segment_id": 194473, "physicalid": "15235", "street_name": "YETMAN AVE", "borough": "staten_island", "direction": "TW", "total_row_ft": 50.6, "roadbed_ft": 31.8, "median_ft": 0.0, "left_sw_ft": 10.1, "right_sw_ft": 8.8}, "geometry": {"type": "LineString", "coordinates": [[-74.2397412130751, 40.49960798134601], [-74.23991754773817, 40.49957351096246]]}}, {"type": "Feature", "properties": {"segment_id": 194474, "physicalid": "15235", "street_name": "YETMAN AVE", "borough": "staten_island", "direction": "TW", "total_row_ft": 50.7, "roadbed_ft": 31.6, "median_ft": 0.0, "left_sw_ft": 10.3, "right_sw_ft": 8.8}, "geometry": {"type": "LineString", "coordinates": [[-74.23972247148359, 40.499554977245985], [-74.23989894304178, 40.49952048010493]]}}, {"type": "Feature", "properties": {"segment_id": 194475, "physicalid": "15235", "street_name": "YETMAN AVE", "borough": "staten_island", "direction": "TW", "total_row_ft": 51.3, "roadbed_ft": 31.4, "median_ft": 0.0, "left_sw_ft": 11.1, "right_sw_ft": 8.9}, "geometry": {"type": "LineString", "coordinates": [[-74.23970171706118, 40.49950236662042], [-74.23988041740986, 40.499467433794166]]}}, {"type": "Feature", "properties": {"segment_id": 194476, "physicalid": "15235", "street_name": "YETMAN AVE", "borough": "staten_island", "direction": "TW", "total_row_ft": 51.9, "roadbed_ft": 31.2, "median_ft": 0.0, "left_sw_ft": 11.8, "right_sw_ft": 8.9}, "geometry": {"type": "LineString", "coordinates": [[-74.23968096263415, 40.49944975599815], [-74.23986189180735, 40.49941438748022]]}}, {"type": "Feature", "properties": {"segment_id": 194477, "physicalid": "15235", "street_name": "YETMAN AVE", "borough": "staten_island", "direction": "TW", "total_row_ft": 52.6, "roadbed_ft": 31.0, "median_ft": 0.0, "left_sw_ft": 12.6, "right_sw_ft": 9.0}, "geometry": {"type": "LineString", "coordinates": [[-74.23966020823977, 40.49939714537195], [-74.23984336623423, 40.49936134116309]]}}, {"type": "Feature", "properties": {"segment_id": 194478, "physicalid": "15235", "street_name": "YETMAN AVE", "borough": "staten_island", "direction": "TW", "total_row_ft": 53.2, "roadbed_ft": 30.8, "median_ft": 0.0, "left_sw_ft": 13.4, "right_sw_ft": 9.1}, "geometry": {"type": "LineString", "coordinates": [[-74.23963945526756, 40.499344534470204], [-74.2398249086402, 40.49930828155971]]}}, {"type": "Feature", "properties": {"segment_id": 194479, "physicalid": "15235", "street_name": "YETMAN AVE", "borough": "staten_island", "direction": "TW", "total_row_ft": 54.0, "roadbed_ft": 30.6, "median_ft": 0.0, "left_sw_ft": 14.2, "right_sw_ft": 9.2}, "geometry": {"type": "LineString", "coordinates": [[-74.23961870054443, 40.49929192391318], [-74.23980673246541, 40.499255166946114]]}}, {"type": "Feature", "properties": {"segment_id": 194480, "physicalid": "15235", "street_name": "YETMAN AVE", "borough": "staten_island", "direction": "TW", "total_row_ft": 54.1, "roadbed_ft": 30.3, "median_ft": 0.0, "left_sw_ft": 14.5, "right_sw_ft": 9.4}, "geometry": {"type": "LineString", "coordinates": [[-74.23959996525821, 40.49923891859574], [-74.23978855614615, 40.49920205236331]]}}, {"type": "Feature", "properties": {"segment_id": 194481, "physicalid": "15235", "street_name": "YETMAN AVE", "borough": "staten_island", "direction": "TW", "total_row_ft": 53.9, "roadbed_ft": 29.7, "median_ft": 0.0, "left_sw_ft": 14.5, "right_sw_ft": 9.6}, "geometry": {"type": "LineString", "coordinates": [[-74.23958280253609, 40.49918560587346], [-74.23977037985578, 40.49914893777747]]}}, {"type": "Feature", "properties": {"segment_id": 194482, "physicalid": "15235", "street_name": "YETMAN AVE", "borough": "staten_island", "direction": "TW", "total_row_ft": 53.9, "roadbed_ft": 29.0, "median_ft": 0.0, "left_sw_ft": 15.0, "right_sw_ft": 9.9}, "geometry": {"type": "LineString", "coordinates": [[-74.23946182382761, 40.49915258721992], [-74.2397522036886, 40.499095823170066]]}}, {"type": "Feature", "properties": {"segment_id": 194483, "physicalid": "15235", "street_name": "YETMAN AVE", "borough": "staten_island", "direction": "TW", "total_row_ft": 53.6, "roadbed_ft": 28.3, "median_ft": 0.0, "left_sw_ft": 15.0, "right_sw_ft": 10.3}, "geometry": {"type": "LineString", "coordinates": [[-74.23944398463131, 40.499099406740136], [-74.23973390625217, 40.4990427322714]]}}, {"type": "Feature", "properties": {"segment_id": 194484, "physicalid": "15235", "street_name": "YETMAN AVE", "borough": "staten_island", "direction": "TW", "total_row_ft": 53.1, "roadbed_ft": 27.6, "median_ft": 0.0, "left_sw_ft": 15.0, "right_sw_ft": 10.5}, "geometry": {"type": "LineString", "coordinates": [[-74.23942614546337, 40.49904622625739], [-74.23971545635666, 40.49898967117853]]}}, {"type": "Feature", "properties": {"segment_id": 194485, "physicalid": "15235", "street_name": "YETMAN AVE", "borough": "staten_island", "direction": "TW", "total_row_ft": 52.7, "roadbed_ft": 26.9, "median_ft": 0.0, "left_sw_ft": 15.0, "right_sw_ft": 10.8}, "geometry": {"type": "LineString", "coordinates": [[-74.2394083063238, 40.49899304577166], [-74.23969700721797, 40.498936609940294]]}}, {"type": "Feature", "properties": {"segment_id": 194486, "physicalid": "15235", "street_name": "YETMAN AVE", "borough": "staten_island", "direction": "TW", "total_row_ft": 52.5, "roadbed_ft": 26.4, "median_ft": 0.0, "left_sw_ft": 15.0, "right_sw_ft": 11.0}, "geometry": {"type": "LineString", "coordinates": [[-74.23939046721262, 40.49893986528299], [-74.23967855749294, 40.49888354881924]]}}, {"type": "Feature", "properties": {"segment_id": 194487, "physicalid": "15235", "street_name": "YETMAN AVE", "borough": "staten_island", "direction": "TW", "total_row_ft": 45.6, "roadbed_ft": 26.7, "median_ft": 0.0, "left_sw_ft": 15.0, "right_sw_ft": 3.9}, "geometry": {"type": "LineString", "coordinates": [[-74.23937262812979, 40.498886684791344], [-74.23966010779719, 40.498830487695024]]}}, {"type": "Feature", "properties": {"segment_id": 848933, "physicalid": "59432", "street_name": "BILLOP AVE", "borough": "staten_island", "direction": "TW", "total_row_ft": 150.0, "roadbed_ft": 120.0, "median_ft": 0.0, "left_sw_ft": 15.0, "right_sw_ft": 15.0}, "geometry": {"type": "LineString", "coordinates": [[-74.23991275070983, 40.499673225286514], [-74.24002371405649, 40.49999152545629]]}}, {"type": "Feature", "properties": {"segment_id": 848947, "physicalid": "59433", "street_name": "BILLOP AVE", "borough": "staten_island", "direction": "TW", "total_row_ft": 56.0, "roadbed_ft": 37.7, "median_ft": 0.0, "left_sw_ft": 8.8, "right_sw_ft": 9.4}, "geometry": {"type": "LineString", "coordinates": [[-74.23917806239359, 40.49991217474], [-74.23922930543418, 40.5000607126147]]}}, {"type": "Feature", "properties": {"segment_id": 848948, "physicalid": "59433", "street_name": "BILLOP AVE", "borough": "staten_island", "direction": "TW", "total_row_ft": 56.0, "roadbed_ft": 37.6, "median_ft": 0.0, "left_sw_ft": 8.9, "right_sw_ft": 9.5}, "geometry": {"type": "LineString", "coordinates": [[-74.23924756444285, 40.49989807822665], [-74.2392988500539, 40.50004673905231]]}}, {"type": "Feature", "properties": {"segment_id": 848949, "physicalid": "59433", "street_name": "BILLOP AVE", "borough": "staten_island", "direction": "TW", "total_row_ft": 56.1, "roadbed_ft": 37.6, "median_ft": 0.0, "left_sw_ft": 9.0, "right_sw_ft": 9.5}, "geometry": {"type": "LineString", "coordinates": [[-74.23931706646282, 40.4998839816712], [-74.23936839464454, 40.500032765447756]]}}, {"type": "Feature", "properties": {"segment_id": 848950, "physicalid": "59433", "street_name": "BILLOP AVE", "borough": "staten_island", "direction": "TW", "total_row_ft": 56.1, "roadbed_ft": 37.5, "median_ft": 0.0, "left_sw_ft": 9.1, "right_sw_ft": 9.5}, "geometry": {"type": "LineString", "coordinates": [[-74.23938656845347, 40.49986988507365], [-74.23943792310774, 40.50001874513728]]}}, {"type": "Feature", "properties": {"segment_id": 848951, "physicalid": "59433", "street_name": "BILLOP AVE", "borough": "staten_island", "direction": "TW", "total_row_ft": 56.1, "roadbed_ft": 37.4, "median_ft": 0.0, "left_sw_ft": 9.1, "right_sw_ft": 9.5}, "geometry": {"type": "LineString", "coordinates": [[-74.23945607041482, 40.49985578843399], [-74.23950744010959, 40.50000469164675]]}}, {"type": "Feature", "properties": {"segment_id": 848952, "physicalid": "59433", "street_name": "BILLOP AVE", "borough": "staten_island", "direction": "TW", "total_row_ft": 56.1, "roadbed_ft": 37.3, "median_ft": 0.0, "left_sw_ft": 9.2, "right_sw_ft": 9.6}, "geometry": {"type": "LineString", "coordinates": [[-74.23952557234686, 40.49984169175221], [-74.23957695708224, 40.49999063811407]]}}, {"type": "Feature", "properties": {"segment_id": 848953, "physicalid": "59433", "street_name": "BILLOP AVE", "borough": "staten_island", "direction": "TW", "total_row_ft": 56.1, "roadbed_ft": 37.2, "median_ft": 0.0, "left_sw_ft": 9.3, "right_sw_ft": 9.6}, "geometry": {"type": "LineString", "coordinates": [[-74.2395950742496, 40.49982759502832], [-74.23964647490078, 40.49997658707598]]}}, {"type": "Feature", "properties": {"segment_id": 848954, "physicalid": "59433", "street_name": "BILLOP AVE", "borough": "staten_island", "direction": "TW", "total_row_ft": 56.3, "roadbed_ft": 37.2, "median_ft": 0.0, "left_sw_ft": 9.4, "right_sw_ft": 9.7}, "geometry": {"type": "LineString", "coordinates": [[-74.23966453052515, 40.49981336609045], [-74.23971606072327, 40.49996273319841]]}}, {"type": "Feature", "properties": {"segment_id": 848955, "physicalid": "59433", "street_name": "BILLOP AVE", "borough": "staten_island", "direction": "TW", "total_row_ft": 56.4, "roadbed_ft": 37.1, "median_ft": 0.0, "left_sw_ft": 9.6, "right_sw_ft": 9.8}, "geometry": {"type": "LineString", "coordinates": [[-74.23973396227163, 40.49979906609552], [-74.23978564651694, 40.49994887927865]]}}, {"type": "Feature", "properties": {"segment_id": 848956, "physicalid": "59433", "street_name": "BILLOP AVE", "borough": "staten_island", "direction": "TW", "total_row_ft": 120.0, "roadbed_ft": 38.0, "median_ft": 0.0, "left_sw_ft": 40.9, "right_sw_ft": 41.1}, "geometry": {"type": "LineString", "coordinates": [[-74.2397745371935, 40.49970112101475], [-74.23988442341704, 40.50001963887292]]}}, {"type": "Feature", "properties": {"segment_id": 1432479, "physicalid": "97170", "street_name": "SURF AVE", "borough": "staten_island", "direction": "TW", "total_row_ft": 47.6, "roadbed_ft": 22.6, "median_ft": 0.0, "left_sw_ft": 15.0, "right_sw_ft": 10.0}, "geometry": {"type": "LineString", "coordinates": [[-74.23712060017573, 40.4998847109739], [-74.23727753442441, 40.500059193376224]]}}, {"type": "Feature", "properties": {"segment_id": 1432480, "physicalid": "97170", "street_name": "SURF AVE", "borough": "staten_island", "direction": "TW", "total_row_ft": 47.5, "roadbed_ft": 22.7, "median_ft": 0.0, "left_sw_ft": 15.0, "right_sw_ft": 9.8}, "geometry": {"type": "LineString", "coordinates": [[-74.23717988468579, 40.49985363840895], [-74.2373370347404, 40.50002836057567]]}}, {"type": "Feature", "properties": {"segment_id": 1432481, "physicalid": "97170", "street_name": "SURF AVE", "borough": "staten_island", "direction": "TW", "total_row_ft": 47.4, "roadbed_ft": 22.9, "median_ft": 0.0, "left_sw_ft": 15.0, "right_sw_ft": 9.5}, "geometry": {"type": "LineString", "coordinates": [[-74.23723916914076, 40.4998225658133], [-74.23739653500152, 40.49999752774419]]}}, {"type": "Feature", "properties": {"segment_id": 1432482, "physicalid": "97170", "street_name": "SURF AVE", "borough": "staten_island", "direction": "TW", "total_row_ft": 47.3, "roadbed_ft": 23.0, "median_ft": 0.0, "left_sw_ft": 15.0, "right_sw_ft": 9.3}, "geometry": {"type": "LineString", "coordinates": [[-74.2372984535406, 40.499791493186976], [-74.23745603520779, 40.4999666948818]]}}, {"type": "Feature", "properties": {"segment_id": 1432483, "physicalid": "97170", "street_name": "SURF AVE", "borough": "staten_island", "direction": "TW", "total_row_ft": 47.4, "roadbed_ft": 23.4, "median_ft": 0.0, "left_sw_ft": 15.0, "right_sw_ft": 9.0}, "geometry": {"type": "LineString", "coordinates": [[-74.2373577378854, 40.499760420529945], [-74.23751553535915, 40.499935861988504]]}}, {"type": "Feature", "properties": {"segment_id": 1432484, "physicalid": "97170", "street_name": "SURF AVE", "borough": "staten_island", "direction": "TW", "total_row_ft": 47.6, "roadbed_ft": 23.5, "median_ft": 0.0, "left_sw_ft": 15.0, "right_sw_ft": 9.1}, "geometry": {"type": "LineString", "coordinates": [[-74.23741702217507, 40.499729347842205], [-74.23757518550984, 40.499905195895906]]}}, {"type": "Feature", "properties": {"segment_id": 1432485, "physicalid": "97170", "street_name": "SURF AVE", "borough": "staten_island", "direction": "TW", "total_row_ft": 47.9, "roadbed_ft": 23.6, "median_ft": 0.0, "left_sw_ft": 15.0, "right_sw_ft": 9.2}, "geometry": {"type": "LineString", "coordinates": [[-74.23747630640966, 40.4996982751238], [-74.23763493270432, 40.49987463772719]]}}, {"type": "Feature", "properties": {"segment_id": 1432486, "physicalid": "97170", "street_name": "SURF AVE", "borough": "staten_island", "direction": "TW", "total_row_ft": 48.1, "roadbed_ft": 23.7, "median_ft": 0.0, "left_sw_ft": 15.0, "right_sw_ft": 9.4}, "geometry": {"type": "LineString", "coordinates": [[-74.23753559058915, 40.49966720237468], [-74.2376946798442, 40.499844079527286]]}}, {"type": "Feature", "properties": {"segment_id": 1432487, "physicalid": "97170", "street_name": "SURF AVE", "borough": "staten_island", "direction": "TW", "total_row_ft": 48.4, "roadbed_ft": 23.8, "median_ft": 0.0, "left_sw_ft": 15.0, "right_sw_ft": 9.5}, "geometry": {"type": "LineString", "coordinates": [[-74.23759487471351, 40.49963612959489], [-74.23775442692946, 40.49981352129623]]}}, {"type": "Feature", "properties": {"segment_id": 1432488, "physicalid": "97170", "street_name": "SURF AVE", "borough": "staten_island", "direction": "TW", "total_row_ft": 61.3, "roadbed_ft": 23.9, "median_ft": 0.0, "left_sw_ft": 15.0, "right_sw_ft": 22.4}, "geometry": {"type": "LineString", "coordinates": [[-74.23765415878282, 40.499605056784375], [-74.23789838740683, 40.49987659179726]]}}, {"type": "Feature", "properties": {"segment_id": 1432489, "physicalid": "97170", "street_name": "SURF AVE", "borough": "staten_island", "direction": "TW", "total_row_ft": 105.0, "roadbed_ft": 75.0, "median_ft": 0.0, "left_sw_ft": 15.0, "right_sw_ft": 15.0}, "geometry": {"type": "LineString", "coordinates": [[-74.23771344279702, 40.49957398394317], [-74.23795767154829, 40.499845518830476]]}}, {"type": "Feature", "properties": {"segment_id": 1455738, "physicalid": "98434", "street_name": "LORETTO ST", "borough": "staten_island", "direction": "TW", "total_row_ft": 55.0, "roadbed_ft": 34.3, "median_ft": 0.0, "left_sw_ft": 11.3, "right_sw_ft": 9.5}, "geometry": {"type": "LineString", "coordinates": [[-74.23791896093466, 40.49997620408877], [-74.23810972803699, 40.49993590339745]]}}, {"type": "Feature", "properties": {"segment_id": 1455739, "physicalid": "98434", "street_name": "LORETTO ST", "borough": "staten_island", "direction": "TW", "total_row_ft": 61.0, "roadbed_ft": 34.7, "median_ft": 0.0, "left_sw_ft": 11.3, "right_sw_ft": 15.0}, "geometry": {"type": "LineString", "coordinates": [[-74.23789981516043, 40.49992328898151], [-74.23819953307628, 40.4998599716186]]}}, {"type": "Feature", "properties": {"segment_id": 1455740, "physicalid": "98434", "street_name": "LORETTO ST", "borough": "staten_island", "direction": "TW", "total_row_ft": 61.5, "roadbed_ft": 35.1, "median_ft": 0.0, "left_sw_ft": 11.4, "right_sw_ft": 15.0}, "geometry": {"type": "LineString", "coordinates": [[-74.2378806694165, 40.49987037387088], [-74.23818035252441, 40.499807063864935]]}}, {"type": "Feature", "properties": {"segment_id": 1455741, "physicalid": "98434", "street_name": "LORETTO ST", "borough": "staten_island", "direction": "TW", "total_row_ft": 61.9, "roadbed_ft": 35.5, "median_ft": 0.0, "left_sw_ft": 11.5, "right_sw_ft": 15.0}, "geometry": {"type": "LineString", "coordinates": [[-74.23786152370288, 40.499817458756866], [-74.2381611720029, 40.49975415610786]]}}, {"type": "Feature", "properties": {"segment_id": 1455742, "physicalid": "98434", "street_name": "LORETTO ST", "borough": "staten_island", "direction": "TW", "total_row_ft": 89.0, "roadbed_ft": 38.3, "median_ft": 0.0, "left_sw_ft": 35.7, "right_sw_ft": 15.0}, "geometry": {"type": "LineString", "coordinates": [[-74.23775020678283, 40.49978401522906], [-74.23814199151174, 40.49970124834742]]}}, {"type": "Feature", "properties": {"segment_id": 1476207, "physicalid": "99768", "street_name": "ROCKAWAY ST", "borough": "staten_island", "direction": "TW", "total_row_ft": 150.0, "roadbed_ft": 120.0, "median_ft": 0.0, "left_sw_ft": 15.0, "right_sw_ft": 15.0}, "geometry": {"type": "LineString", "coordinates": [[-74.23878999678956, 40.50002671721341], [-74.23920728794153, 40.49994294508845]]}}, {"type": "Feature", "properties": {"segment_id": 1476208, "physicalid": "99768", "street_name": "ROCKAWAY ST", "borough": "staten_island", "direction": "TW", "total_row_ft": 52.1, "roadbed_ft": 32.8, "median_ft": 0.0, "left_sw_ft": 10.0, "right_sw_ft": 9.3}, "geometry": {"type": "LineString", "coordinates": [[-74.23888927884101, 40.49995002332633], [-74.23907035648597, 40.49991367159004]]}}, {"type": "Feature", "properties": {"segment_id": 1476209, "physicalid": "99768", "street_name": "ROCKAWAY ST", "borough": "staten_island", "direction": "TW", "total_row_ft": 51.5, "roadbed_ft": 32.6, "median_ft": 0.0, "left_sw_ft": 9.6, "right_sw_ft": 9.3}, "geometry": {"type": "LineString", "coordinates": [[-74.23887255057888, 40.499896618596516], [-74.23905163267078, 40.49986066747277]]}}, {"type": "Feature", "properties": {"segment_id": 1476210, "physicalid": "99768", "street_name": "ROCKAWAY ST", "borough": "staten_island", "direction": "TW", "total_row_ft": 50.9, "roadbed_ft": 32.5, "median_ft": 0.0, "left_sw_ft": 9.2, "right_sw_ft": 9.3}, "geometry": {"type": "LineString", "coordinates": [[-74.23885582234348, 40.49984321386412], [-74.23903290888526, 40.49980766335223]]}}, {"type": "Feature", "properties": {"segment_id": 1476211, "physicalid": "99768", "street_name": "ROCKAWAY ST", "borough": "staten_island", "direction": "TW", "total_row_ft": 47.9, "roadbed_ft": 32.3, "median_ft": 0.0, "left_sw_ft": 6.3, "right_sw_ft": 9.3}, "geometry": {"type": "LineString", "coordinates": [[-74.23884777071927, 40.499788067292855], [-74.23901418512943, 40.49975465922846]]}}, {"type": "Feature", "properties": {"segment_id": 1476212, "physicalid": "99768", "street_name": "ROCKAWAY ST", "borough": "staten_island", "direction": "TW", "total_row_ft": 51.2, "roadbed_ft": 32.1, "median_ft": 0.0, "left_sw_ft": 9.8, "right_sw_ft": 9.3}, "geometry": {"type": "LineString", "coordinates": [[-74.23881742351664, 40.49973739659184], [-74.23899546143261, 40.49970165509554]]}}, {"type": "Feature", "properties": {"segment_id": 1476213, "physicalid": "99768", "street_name": "ROCKAWAY ST", "borough": "staten_island", "direction": "TW", "total_row_ft": 51.5, "roadbed_ft": 31.9, "median_ft": 0.0, "left_sw_ft": 10.3, "right_sw_ft": 9.3}, "geometry": {"type": "LineString", "coordinates": [[-74.2387977983633, 40.49968457342757], [-74.23897673783641, 40.49964865094517]]}}, {"type": "Feature", "properties": {"segment_id": 1476214, "physicalid": "99768", "street_name": "ROCKAWAY ST", "borough": "staten_island", "direction": "TW", "total_row_ft": 51.7, "roadbed_ft": 31.8, "median_ft": 0.0, "left_sw_ft": 10.7, "right_sw_ft": 9.3}, "geometry": {"type": "LineString", "coordinates": [[-74.23877832801281, 40.49963171918914], [-74.23895801388582, 40.499595646868634]]}}, {"type": "Feature", "properties": {"segment_id": 1476215, "physicalid": "99768", "street_name": "ROCKAWAY ST", "borough": "staten_island", "direction": "TW", "total_row_ft": 51.3, "roadbed_ft": 31.6, "median_ft": 0.0, "left_sw_ft": 10.5, "right_sw_ft": 9.2}, "geometry": {"type": "LineString", "coordinates": [[-74.23876077089649, 40.49957848086928], [-74.2389391311877, 40.49954267466385]]}}, {"type": "Feature", "properties": {"segment_id": 1476216, "physicalid": "99768", "street_name": "ROCKAWAY ST", "borough": "staten_island", "direction": "TW", "total_row_ft": 50.9, "roadbed_ft": 31.4, "median_ft": 0.0, "left_sw_ft": 10.4, "right_sw_ft": 9.2}, "geometry": {"type": "LineString", "coordinates": [[-74.23874321372689, 40.49952524256286], [-74.23892024426104, 40.49948970331069]]}}, {"type": "Feature", "properties": {"segment_id": 1476217, "physicalid": "99768", "street_name": "ROCKAWAY ST", "borough": "staten_island", "direction": "TW", "total_row_ft": 50.5, "roadbed_ft": 31.2, "median_ft": 0.0, "left_sw_ft": 10.2, "right_sw_ft": 9.1}, "geometry": {"type": "LineString", "coordinates": [[-74.23872565665486, 40.49947200423959], [-74.23890135738596, 40.49943673194985]]}}, {"type": "Feature", "properties": {"segment_id": 1476218, "physicalid": "99768", "street_name": "ROCKAWAY ST", "borough": "staten_island", "direction": "TW", "total_row_ft": 50.1, "roadbed_ft": 31.2, "median_ft": 0.0, "left_sw_ft": 10.0, "right_sw_ft": 8.9}, "geometry": {"type": "LineString", "coordinates": [[-74.23870834743947, 40.499418716161536], [-74.2388824705408, 40.49938376058575]]}}, {"type": "Feature", "properties": {"segment_id": 1476219, "physicalid": "99768", "street_name": "ROCKAWAY ST", "borough": "staten_island", "direction": "TW", "total_row_ft": 49.6, "roadbed_ft": 31.2, "median_ft": 0.0, "left_sw_ft": 9.8, "right_sw_ft": 8.6}, "geometry": {"type": "LineString", "coordinates": [[-74.23869103873673, 40.49936542798329], [-74.23886358372556, 40.49933078921834]]}}, {"type": "Feature", "properties": {"segment_id": 1476220, "physicalid": "99768", "street_name": "ROCKAWAY ST", "borough": "staten_island", "direction": "TW", "total_row_ft": 55.0, "roadbed_ft": 31.2, "median_ft": 0.0, "left_sw_ft": 15.0, "right_sw_ft": 8.8}, "geometry": {"type": "LineString", "coordinates": [[-74.23855223132965, 40.499336530747726], [-74.23884588229396, 40.49927757988442]]}}]}