{"type": "FeatureCollection", "features": [{"type": "Feature", "properties": {"segment_id": 198351, "physicalid": "15484", "street_name": "HYLAN BLVD", "borough": "staten_island", "direction": "TW", "total_row_ft": 108.9, "roadbed_ft": 85.6, "median_ft": 0.0, "left_sw_ft": 8.3, "right_sw_ft": 15.0}, "geometry": {"type": "LineString", "coordinates": [[-74.21808004827035, 40.50953553364707], [-74.21817698407428, 40.50981131699314]]}}, {"type": "Feature", "properties": {"segment_id": 198352, "physicalid": "15484", "street_name": "HYLAN BLVD", "borough": "staten_island", "direction": "TW", "total_row_ft": 97.1, "roadbed_ft": 70.1, "median_ft": 3.9, "left_sw_ft": 8.1, "right_sw_ft": 15.0}, "geometry": {"type": "LineString", "coordinates": [[-74.21814972244675, 40.509521898276404], [-74.21824645142037, 40.509797092372544]]}}, {"type": "Feature", "properties": {"segment_id": 198353, "physicalid": "15484", "street_name": "HYLAN BLVD", "borough": "staten_island", "direction": "TW", "total_row_ft": 96.8, "roadbed_ft": 70.5, "median_ft": 3.8, "left_sw_ft": 7.5, "right_sw_ft": 15.0}, "geometry": {"type": "LineString", "coordinates": [[-74.21821939659472, 40.50950826286344], [-74.21831591873693, 40.509782867709895]]}}, {"type": "Feature", "properties": {"segment_id": 198354, "physicalid": "15484", "street_name": "HYLAN BLVD", "borough": "staten_island", "direction": "TW", "total_row_ft": 104.3, "roadbed_ft": 70.7, "median_ft": 3.6, "left_sw_ft": 15.0, "right_sw_ft": 15.0}, "geometry": {"type": "LineString", "coordinates": [[-74.21827356532495, 40.5094505145925], [-74.21838538602393, 40.50976864300517]]}}, {"type": "Feature", "properties": {"segment_id": 198355, "physicalid": "15484", "street_name": "HYLAN BLVD", "borough": "staten_island", "direction": "TW", "total_row_ft": 104.1, "roadbed_ft": 70.7, "median_ft": 3.4, "left_sw_ft": 15.0, "right_sw_ft": 15.0}, "geometry": {"type": "LineString", "coordinates": [[-74.21834303227564, 40.509436289913076], [-74.21845485328137, 40.50975441825839]]}}, {"type": "Feature", "properties": {"segment_id": 198356, "physicalid": "15484", "street_name": "HYLAN BLVD", "borough": "staten_island", "direction": "TW", "total_row_ft": 107.3, "roadbed_ft": 70.6, "median_ft": 6.7, "left_sw_ft": 15.0, "right_sw_ft": 15.0}, "geometry": {"type": "LineString", "coordinates": [[-74.21841249919677, 40.50942206519162], [-74.21852432050922, 40.50974019346955]]}}, {"type": "Feature", "properties": {"segment_id": 198357, "physicalid": "15484", "street_name": "HYLAN BLVD", "borough": "staten_island", "direction": "TW", "total_row_ft": 107.0, "roadbed_ft": 70.5, "median_ft": 6.5, "left_sw_ft": 15.0, "right_sw_ft": 15.0}, "geometry": {"type": "LineString", "coordinates": [[-74.21848196608835, 40.509407840428075], [-74.21859378770756, 40.50972596863867]]}}, {"type": "Feature", "properties": {"segment_id": 198358, "physicalid": "15484", "street_name": "HYLAN BLVD", "borough": "staten_island", "direction": "TW", "total_row_ft": 107.1, "roadbed_ft": 70.5, "median_ft": 6.5, "left_sw_ft": 15.0, "right_sw_ft": 15.0}, "geometry": {"type": "LineString", "coordinates": [[-74.21855143295035, 40.50939361562247], [-74.21866325487632, 40.50971174376568]]}}, {"type": "Feature", "properties": {"segment_id": 198359, "physicalid": "15484", "street_name": "HYLAN BLVD", "borough": "staten_island", "direction": "TW", "total_row_ft": 107.3, "roadbed_ft": 70.6, "median_ft": 6.7, "left_sw_ft": 15.0, "right_sw_ft": 15.0}, "geometry": {"type": "LineString", "coordinates": [[-74.2186208997828, 40.50937939077481], [-74.2187327220155, 40.50969751885067]]}}, {"type": "Feature", "properties": {"segment_id": 198360, "physicalid": "15484", "street_name": "HYLAN BLVD", "borough": "staten_island", "direction": "TW", "total_row_ft": 109.5, "roadbed_ft": 70.6, "median_ft": 8.9, "left_sw_ft": 15.0, "right_sw_ft": 15.0}, "geometry": {"type": "LineString", "coordinates": [[-74.21869036658569, 40.5093651658851], [-74.21880218912516, 40.50968329389357]]}}, {"type": "Feature", "properties": {"segment_id": 198361, "physicalid": "15484", "street_name": "HYLAN BLVD", "borough": "staten_island", "direction": "TW", "total_row_ft": 111.7, "roadbed_ft": 70.7, "median_ft": 11.0, "left_sw_ft": 15.0, "right_sw_ft": 15.0}, "geometry": {"type": "LineString", "coordinates": [[-74.21875983335903, 40.50935094095332], [-74.21887165620522, 40.50966906889442]]}}, {"type": "Feature", "properties": {"segment_id": 198362, "physicalid": "15484", "street_name": "HYLAN BLVD", "borough": "staten_island", "direction": "TW", "total_row_ft": 113.8, "roadbed_ft": 70.6, "median_ft": 13.2, "left_sw_ft": 15.0, "right_sw_ft": 15.0}, "geometry": {"type": "LineString", "coordinates": [[-74.2188293001028, 40.50933671597945], [-74.21894112325575, 40.50965484385321]]}}, {"type": "Feature", "properties": {"segment_id": 198363, "physicalid": "15484", "street_name": "HYLAN BLVD", "borough": "staten_island", "direction": "TW", "total_row_ft": 116.0, "roadbed_ft": 70.6, "median_ft": 15.4, "left_sw_ft": 15.0, "right_sw_ft": 15.0}, "geometry": {"type": "LineString", "coordinates": [[-74.21889876681702, 40.50932249096356], [-74.2190105902767, 40.509640618769936]]}}, {"type": "Feature", "properties": {"segment_id": 198364, "physicalid": "15484", "street_name": "HYLAN BLVD", "borough": "staten_island", "direction": "TW", "total_row_ft": 118.2, "roadbed_ft": 70.6, "median_ft": 17.6, "left_sw_ft": 15.0, "right_sw_ft": 15.0}, "geometry": {"type": "LineString", "coordinates": [[-74.21896823350167, 40.50930826590558], [-74.2190800572681, 40.509626393644616]]}}, {"type": "Feature", "properties": {"segment_id": 198365, "physicalid": "15484", "street_name": "HYLAN BLVD", "borough": "staten_island", "direction": "TW", "total_row_ft": 118.6, "roadbed_ft": 70.8, "median_ft": 17.8, "left_sw_ft": 15.0, "right_sw_ft": 15.0}, "geometry": {"type": "LineString", "coordinates": [[-74.21903770015678, 40.509294040805564], [-74.21914952422993, 40.509612168477204]]}}, {"type": "Feature", "properties": {"segment_id": 198366, "physicalid": "15484", "street_name": "HYLAN BLVD", "borough": "staten_island", "direction": "TW", "total_row_ft": 119.0, "roadbed_ft": 71.1, "median_ft": 17.9, "left_sw_ft": 15.0, "right_sw_ft": 15.0}, "geometry": {"type": "LineString", "coordinates": [[-74.21910716678232, 40.509279815663476], [-74.21921899116221, 40.50959794326775]]}}, {"type": "Feature", "properties": {"segment_id": 198367, "physicalid": "15484", "street_name": "HYLAN BLVD", "borough": "staten_island", "direction": "TW", "total_row_ft": 119.4, "roadbed_ft": 71.3, "median_ft": 18.1, "left_sw_ft": 15.0, "right_sw_ft": 15.0}, "geometry": {"type": "LineString", "coordinates": [[-74.2191766333783, 40.509265590479316], [-74.21928845806492, 40.50958371801623]]}}, {"type": "Feature", "properties": {"segment_id": 198368, "physicalid": "15484", "street_name": "HYLAN BLVD", "borough": "staten_island", "direction": "TW", "total_row_ft": 119.5, "roadbed_ft": 71.2, "median_ft": 18.4, "left_sw_ft": 15.0, "right_sw_ft": 15.0}, "geometry": {"type": "LineString", "coordinates": [[-74.2192460999447, 40.5092513652531], [-74.2193579249381, 40.50956949272266]]}}, {"type": "Feature", "properties": {"segment_id": 198369, "physicalid": "15484", "street_name": "HYLAN BLVD", "borough": "staten_island", "direction": "TW", "total_row_ft": 119.3, "roadbed_ft": 70.9, "median_ft": 18.4, "left_sw_ft": 15.0, "right_sw_ft": 15.0}, "geometry": {"type": "LineString", "coordinates": [[-74.21931556648155, 40.509237139984826], [-74.2194273917817, 40.509555267387015]]}}, {"type": "Feature", "properties": {"segment_id": 198370, "physicalid": "15484", "street_name": "HYLAN BLVD", "borough": "staten_island", "direction": "TW", "total_row_ft": 118.6, "roadbed_ft": 70.6, "median_ft": 18.0, "left_sw_ft": 15.0, "right_sw_ft": 15.0}, "geometry": {"type": "LineString", "coordinates": [[-74.21938503298887, 40.509222914674496], [-74.21949685859573, 40.509541042009296]]}}, {"type": "Feature", "properties": {"segment_id": 198371, "physicalid": "15484", "street_name": "HYLAN BLVD", "borough": "staten_island", "direction": "TW", "total_row_ft": 117.3, "roadbed_ft": 70.5, "median_ft": 16.8, "left_sw_ft": 15.0, "right_sw_ft": 15.0}, "geometry": {"type": "LineString", "coordinates": [[-74.21945449946661, 40.509208689322094], [-74.21956632538021, 40.50952681658954]]}}, {"type": "Feature", "properties": {"segment_id": 198372, "physicalid": "15484", "street_name": "HYLAN BLVD", "borough": "staten_island", "direction": "TW", "total_row_ft": 116.2, "roadbed_ft": 70.6, "median_ft": 15.6, "left_sw_ft": 15.0, "right_sw_ft": 15.0}, "geometry": {"type": "LineString", "coordinates": [[-74.21952396591479, 40.50919446392764], [-74.21963579213512, 40.50951259112773]]}}, {"type": "Feature", "properties": {"segment_id": 198373, "physicalid": "15484", "street_name": "HYLAN BLVD", "borough": "staten_island", "direction": "TW", "total_row_ft": 116.3, "roadbed_ft": 70.6, "median_ft": 15.7, "left_sw_ft": 15.0, "right_sw_ft": 15.0}, "geometry": {"type": "LineString", "coordinates": [[-74.2195934323334, 40.50918023849112], [-74.21970525886047, 40.50949836562383]]}}, {"type": "Feature", "properties": {"segment_id": 198374, "physicalid": "15484", "street_name": "HYLAN BLVD", "borough": "staten_island", "direction": "TW", "total_row_ft": 116.6, "roadbed_ft": 70.6, "median_ft": 16.0, "left_sw_ft": 15.0, "right_sw_ft": 15.0}, "geometry": {"type": "LineString", "coordinates": [[-74.21966289872246, 40.509166013012525], [-74.21977472555628, 40.50948414007788]]}}, {"type": "Feature", "properties": {"segment_id": 198375, "physicalid": "15484", "street_name": "HYLAN BLVD", "borough": "staten_island", "direction": "TW", "total_row_ft": 115.3, "roadbed_ft": 70.5, "median_ft": 14.8, "left_sw_ft": 15.0, "right_sw_ft": 15.0}, "geometry": {"type": "LineString", "coordinates": [[-74.21973236508197, 40.50915178749189], [-74.21984419222251, 40.50946991448988]]}}, {"type": "Feature", "properties": {"segment_id": 198376, "physicalid": "15484", "street_name": "HYLAN BLVD", "borough": "staten_island", "direction": "TW", "total_row_ft": 113.0, "roadbed_ft": 70.4, "median_ft": 12.6, "left_sw_ft": 15.0, "right_sw_ft": 15.0}, "geometry": {"type": "LineString", "coordinates": [[-74.2198018314119, 40.50913756192919], [-74.2199136588592, 40.50945568885981]]}}, {"type": "Feature", "properties": {"segment_id": 198377, "physicalid": "15484", "street_name": "HYLAN BLVD", "borough": "staten_island", "direction": "TW", "total_row_ft": 110.8, "roadbed_ft": 70.3, "median_ft": 10.5, "left_sw_ft": 15.0, "right_sw_ft": 15.0}, "geometry": {"type": "LineString", "coordinates": [[-74.21987129771227, 40.50912333632443], [-74.2199831254663, 40.50944146318767]]}}, {"type": "Feature", "properties": {"segment_id": 198378, "physicalid": "15484", "street_name": "HYLAN BLVD", "borough": "staten_island", "direction": "TW", "total_row_ft": 108.5, "roadbed_ft": 70.2, "median_ft": 8.4, "left_sw_ft": 15.0, "right_sw_ft": 15.0}, "geometry": {"type": "LineString", "coordinates": [[-74.21994076398309, 40.509109110677606], [-74.22005259204384, 40.509427237473474]]}}, {"type": "Feature", "properties": {"segment_id": 198491, "physicalid": "15485", "street_name": "HYLAN BLVD", "borough": "staten_island", "direction": "TW", "total_row_ft": 116.1, "roadbed_ft": 68.7, "median_ft": 17.4, "left_sw_ft": 15.0, "right_sw_ft": 15.0}, "geometry": {"type": "LineString", "coordinates": [[-74.21639848922368, 40.50983213229189], [-74.21650956868895, 40.51015041206738]]}}, {"type": "Feature", "properties": {"segment_id": 198492, "physicalid": "15485", "street_name": "HYLAN BLVD", "borough": "staten_island", "direction": "TW", "total_row_ft": 116.0, "roadbed_ft": 68.9, "median_ft": 17.1, "left_sw_ft": 15.0, "right_sw_ft": 15.0}, "geometry": {"type": "LineString", "coordinates": [[-74.21646798962465, 40.5098180019855], [-74.2165790693973, 40.51013628169404]]}}, {"type": "Feature", "properties": {"segment_id": 198493, "physicalid": "15485", "street_name": "HYLAN BLVD", "borough": "staten_island", "direction": "TW", "total_row_ft": 116.3, "roadbed_ft": 69.0, "median_ft": 17.3, "left_sw_ft": 15.0, "right_sw_ft": 15.0}, "geometry": {"type": "LineString", "coordinates": [[-74.21653748999627, 40.50980387163703], [-74.21664857007626, 40.51012215127863]]}}, {"type": "Feature", "properties": {"segment_id": 198494, "physicalid": "15485", "street_name": "HYLAN BLVD", "borough": "staten_island", "direction": "TW", "total_row_ft": 116.3, "roadbed_ft": 69.0, "median_ft": 17.4, "left_sw_ft": 15.0, "right_sw_ft": 15.0}, "geometry": {"type": "LineString", "coordinates": [[-74.21660699033848, 40.509789741246465], [-74.21671807072588, 40.510108020821086]]}}, {"type": "Feature", "properties": {"segment_id": 198495, "physicalid": "15485", "street_name": "HYLAN BLVD", "borough": "staten_island", "direction": "TW", "total_row_ft": 116.2, "roadbed_ft": 68.8, "median_ft": 17.3, "left_sw_ft": 15.0, "right_sw_ft": 15.0}, "geometry": {"type": "LineString", "coordinates": [[-74.21667649065131, 40.50977561081376], [-74.2167875713461, 40.51009389032145]]}}, {"type": "Feature", "properties": {"segment_id": 198496, "physicalid": "15485", "street_name": "HYLAN BLVD", "borough": "staten_island", "direction": "TW", "total_row_ft": 116.0, "roadbed_ft": 68.6, "median_ft": 17.3, "left_sw_ft": 15.0, "right_sw_ft": 15.0}, "geometry": {"type": "LineString", "coordinates": [[-74.21674599093478, 40.50976148033899], [-74.21685707193694, 40.51007975977972]]}}, {"type": "Feature", "properties": {"segment_id": 198497, "physicalid": "15485", "street_name": "HYLAN BLVD", "borough": "staten_island", "direction": "TW", "total_row_ft": 115.8, "roadbed_ft": 68.4, "median_ft": 17.4, "left_sw_ft": 15.0, "right_sw_ft": 15.0}, "geometry": {"type": "LineString", "coordinates": [[-74.21681549118888, 40.5097473498221], [-74.2169265724984, 40.51006562919589]]}}, {"type": "Feature", "properties": {"segment_id": 198498, "physicalid": "15485", "street_name": "HYLAN BLVD", "borough": "staten_island", "direction": "TW", "total_row_ft": 115.6, "roadbed_ft": 68.3, "median_ft": 17.3, "left_sw_ft": 15.0, "right_sw_ft": 15.0}, "geometry": {"type": "LineString", "coordinates": [[-74.21688499141358, 40.509733219263104], [-74.21699607303049, 40.510051498569965]]}}, {"type": "Feature", "properties": {"segment_id": 198499, "physicalid": "15485", "street_name": "HYLAN BLVD", "borough": "staten_island", "direction": "TW", "total_row_ft": 115.5, "roadbed_ft": 68.4, "median_ft": 17.1, "left_sw_ft": 15.0, "right_sw_ft": 15.0}, "geometry": {"type": "LineString", "coordinates": [[-74.21695449160892, 40.50971908866203], [-74.2170655735332, 40.510037367901894]]}}, {"type": "Feature", "properties": {"segment_id": 198500, "physicalid": "15485", "street_name": "HYLAN BLVD", "borough": "staten_island", "direction": "TW", "total_row_ft": 115.5, "roadbed_ft": 68.4, "median_ft": 17.0, "left_sw_ft": 15.0, "right_sw_ft": 15.0}, "geometry": {"type": "LineString", "coordinates": [[-74.21702399177487, 40.50970495801883], [-74.21713507400653, 40.510023237191774]]}}, {"type": "Feature", "properties": {"segment_id": 198501, "physicalid": "15485", "street_name": "HYLAN BLVD", "borough": "staten_island", "direction": "TW", "total_row_ft": 115.4, "roadbed_ft": 68.5, "median_ft": 16.9, "left_sw_ft": 15.0, "right_sw_ft": 15.0}, "geometry": {"type": "LineString", "coordinates": [[-74.21709349191146, 40.50969082733352], [-74.21720457445049, 40.51000910643951]]}}, {"type": "Feature", "properties": {"segment_id": 198502, "physicalid": "15485", "street_name": "HYLAN BLVD", "borough": "staten_island", "direction": "TW", "total_row_ft": 115.0, "roadbed_ft": 68.5, "median_ft": 16.5, "left_sw_ft": 15.0, "right_sw_ft": 15.0}, "geometry": {"type": "LineString", "coordinates": [[-74.21716299201866, 40.50967669660614], [-74.21727407486506, 40.50999497564518]]}}, {"type": "Feature", "properties": {"segment_id": 198503, "physicalid": "15485", "street_name": "HYLAN BLVD", "borough": "staten_island", "direction": "TW", "total_row_ft": 112.5, "roadbed_ft": 68.6, "median_ft": 14.0, "left_sw_ft": 15.0, "right_sw_ft": 15.0}, "geometry": {"type": "LineString", "coordinates": [[-74.21723249209647, 40.50966256583664], [-74.21734357525027, 40.50998084480872]]}}, {"type": "Feature", "properties": {"segment_id": 198504, "physicalid": "15485", "street_name": "HYLAN BLVD", "borough": "staten_island", "direction": "TW", "total_row_ft": 110.1, "roadbed_ft": 68.6, "median_ft": 11.5, "left_sw_ft": 15.0, "right_sw_ft": 15.0}, "geometry": {"type": "LineString", "coordinates": [[-74.21730199214494, 40.50964843502504], [-74.21741307560607, 40.50996671393019]]}}, {"type": "Feature", "properties": {"segment_id": 198505, "physicalid": "15485", "street_name": "HYLAN BLVD", "borough": "staten_island", "direction": "TW", "total_row_ft": 107.7, "roadbed_ft": 68.6, "median_ft": 9.2, "left_sw_ft": 15.0, "right_sw_ft": 15.0}, "geometry": {"type": "LineString", "coordinates": [[-74.21737149216399, 40.50963430417136], [-74.21748257593252, 40.509952583009536]]}}, {"type": "Feature", "properties": {"segment_id": 198506, "physicalid": "15485", "street_name": "HYLAN BLVD", "borough": "staten_island", "direction": "TW", "total_row_ft": 105.4, "roadbed_ft": 68.7, "median_ft": 6.8, "left_sw_ft": 15.0, "right_sw_ft": 15.0}, "geometry": {"type": "LineString", "coordinates": [[-74.21744099215368, 40.50962017327554], [-74.2175520762296, 40.50993845204677]]}}, {"type": "Feature", "properties": {"segment_id": 198507, "physicalid": "15485", "street_name": "HYLAN BLVD", "borough": "staten_island", "direction": "TW", "total_row_ft": 104.8, "roadbed_ft": 68.8, "median_ft": 6.0, "left_sw_ft": 15.0, "right_sw_ft": 15.0}, "geometry": {"type": "LineString", "coordinates": [[-74.217510492114, 40.50960604233765], [-74.21762157649728, 40.509924321041915]]}}, {"type": "Feature", "properties": {"segment_id": 198508, "physicalid": "15485", "street_name": "HYLAN BLVD", "borough": "staten_island", "direction": "TW", "total_row_ft": 104.5, "roadbed_ft": 68.9, "median_ft": 5.6, "left_sw_ft": 15.0, "right_sw_ft": 15.0}, "geometry": {"type": "LineString", "coordinates": [[-74.21757999204493, 40.50959191135763], [-74.21769107673558, 40.509910189994976]]}}, {"type": "Feature", "properties": {"segment_id": 198509, "physicalid": "15485", "street_name": "HYLAN BLVD", "borough": "staten_island", "direction": "TW", "total_row_ft": 102.0, "roadbed_ft": 69.1, "median_ft": 2.9, "left_sw_ft": 15.0, "right_sw_ft": 15.0}, "geometry": {"type": "LineString", "coordinates": [[-74.21764949194649, 40.509577780335555], [-74.2177605769445, 40.50989605890593]]}}, {"type": "Feature", "properties": {"segment_id": 198510, "physicalid": "15485", "street_name": "HYLAN BLVD", "borough": "staten_island", "direction": "TW", "total_row_ft": 102.3, "roadbed_ft": 69.4, "median_ft": 2.9, "left_sw_ft": 15.0, "right_sw_ft": 15.0}, "geometry": {"type": "LineString", "coordinates": [[-74.21771899181866, 40.50956364927135], [-74.21783007712406, 40.50988192777476]]}}, {"type": "Feature", "properties": {"segment_id": 198511, "physicalid": "15485", "street_name": "HYLAN BLVD", "borough": "staten_island", "direction": "TW", "total_row_ft": 93.9, "roadbed_ft": 69.7, "median_ft": 3.0, "left_sw_ft": 15.0, "right_sw_ft": 6.3}, "geometry": {"type": "LineString", "coordinates": [[-74.21778849166147, 40.50954951816505], [-74.2178810938389, 40.509814838756455]]}}, {"type": "Feature", "properties": {"segment_id": 198512, "physicalid": "15485", "street_name": "HYLAN BLVD", "borough": "staten_island", "direction": "TW", "total_row_ft": 94.6, "roadbed_ft": 70.1, "median_ft": 3.1, "left_sw_ft": 15.0, "right_sw_ft": 6.4}, "geometry": {"type": "LineString", "coordinates": [[-74.2178579914749, 40.50953538701662], [-74.21795073273381, 40.50980110530683]]}}, {"type": "Feature", "properties": {"segment_id": 198513, "physicalid": "15485", "street_name": "HYLAN BLVD", "borough": "staten_island", "direction": "TW", "total_row_ft": 103.7, "roadbed_ft": 70.5, "median_ft": 3.2, "left_sw_ft": 15.0, "right_sw_ft": 15.0}, "geometry": {"type": "LineString", "coordinates": [[-74.21792749125893, 40.50952125582612], [-74.21802822430506, 40.50980987088145]]}}, {"type": "Feature", "properties": {"segment_id": 1531263, "physicalid": "103127", "street_name": "CUNNINGHAM RD", "borough": "staten_island", "direction": "TW", "total_row_ft": 50.8, "roadbed_ft": 20.8, "median_ft": 0.0, "left_sw_ft": 15.0, "right_sw_ft": 15.0}, "geometry": {"type": "LineString", "coordinates": [[-74.21871669155973, 40.50391175458083], [-74.21840401049565, 40.50368476747236]]}}, {"type": "Feature", "properties": {"segment_id": 1531264, "physicalid": "103127", "street_name": "CUNNINGHAM RD", "borough": "staten_island", "direction": "TW", "total_row_ft": 48.6, "roadbed_ft": 18.6, "median_ft": 0.0, "left_sw_ft": 15.0, "right_sw_ft": 15.0}, "geometry": {"type": "LineString", "coordinates": [[-74.21866713053481, 40.50395153421557], [-74.21835444945299, 40.50372454697264]]}}, {"type": "Feature", "properties": {"segment_id": 1531265, "physicalid": "103127", "street_name": "CUNNINGHAM RD", "borough": "staten_island", "direction": "TW", "total_row_ft": 47.8, "roadbed_ft": 17.8, "median_ft": 0.0, "left_sw_ft": 15.0, "right_sw_ft": 15.0}, "geometry": {"type": "LineString", "coordinates": [[-74.21861756945096, 40.50399131382878], [-74.21830488835131, 40.50376432645148]]}}, {"type": "Feature", "properties": {"segment_id": 1531266, "physicalid": "103127", "street_name": "CUNNINGHAM RD", "borough": "staten_island", "direction": "TW", "total_row_ft": 48.0, "roadbed_ft": 18.0, "median_ft": 0.0, "left_sw_ft": 15.0, "right_sw_ft": 15.0}, "geometry": {"type": "LineString", "coordinates": [[-74.21856800830811, 40.504031093420465], [-74.2182553271907, 40.50380410590874]]}}, {"type": "Feature", "properties": {"segment_id": 1531267, "physicalid": "103127", "street_name": "CUNNINGHAM RD", "borough": "staten_island", "direction": "TW", "total_row_ft": 48.1, "roadbed_ft": 18.1, "median_ft": 0.0, "left_sw_ft": 15.0, "right_sw_ft": 15.0}, "geometry": {"type": "LineString", "coordinates": [[-74.21851098011396, 40.50407527294469], [-74.21821147890816, 40.503838155631136]]}}, {"type": "Feature", "properties": {"segment_id": 1531268, "physicalid": "103127", "street_name": "CUNNINGHAM RD", "borough": "staten_island", "direction": "TW", "total_row_ft": 47.4, "roadbed_ft": 17.4, "median_ft": 0.0, "left_sw_ft": 15.0, "right_sw_ft": 15.0}, "geometry": {"type": "LineString", "coordinates": [[-74.21845920709293, 40.50411337573383], [-74.21815970590005, 40.50387625828577]]}}, {"type": "Feature", "properties": {"segment_id": 1531269, "physicalid": "103127", "street_name": "CUNNINGHAM RD", "borough": "staten_island", "direction": "TW", "total_row_ft": 47.3, "roadbed_ft": 17.3, "median_ft": 0.0, "left_sw_ft": 15.0, "right_sw_ft": 15.0}, "geometry": {"type": "LineString", "coordinates": [[-74.21840743401289, 40.504151478499516], [-74.21810793283295, 40.50391436091699]]}}, {"type": "Feature", "properties": {"segment_id": 1531270, "physicalid": "103127", "street_name": "CUNNINGHAM RD", "borough": "staten_island", "direction": "TW", "total_row_ft": 47.5, "roadbed_ft": 17.5, "median_ft": 0.0, "left_sw_ft": 15.0, "right_sw_ft": 15.0}, "geometry": {"type": "LineString", "coordinates": [[-74.21835566087384, 40.504189581241754], [-74.21805615970685, 40.503952463524726]]}}, {"type": "Feature", "properties": {"segment_id": 1531271, "physicalid": "103127", "street_name": "CUNNINGHAM RD", "borough": "staten_island", "direction": "TW", "total_row_ft": 47.1, "roadbed_ft": 17.1, "median_ft": 0.0, "left_sw_ft": 15.0, "right_sw_ft": 15.0}, "geometry": {"type": "LineString", "coordinates": [[-74.21825982625518, 40.50424734592833], [-74.21804103155857, 40.503963449009554]]}}, {"type": "Feature", "properties": {"segment_id": 1531272, "physicalid": "103127", "street_name": "CUNNINGHAM RD", "borough": "staten_island", "direction": "TW", "total_row_ft": 47.2, "roadbed_ft": 17.2, "median_ft": 0.0, "left_sw_ft": 15.0, "right_sw_ft": 15.0}, "geometry": {"type": "LineString", "coordinates": [[-74.21819783900477, 40.50427518110845], [-74.21797904448027, 40.50399128407205]]}}, {"type": "Feature", "properties": {"segment_id": 1531273, "physicalid": "103127", "street_name": "CUNNINGHAM RD", "borough": "staten_island", "direction": "TW", "total_row_ft": 49.2, "roadbed_ft": 19.2, "median_ft": 0.0, "left_sw_ft": 15.0, "right_sw_ft": 15.0}, "geometry": {"type": "LineString", "coordinates": [[-74.21813585170277, 40.50430301625505], [-74.21791705735036, 40.50401911910102]]}}, {"type": "Feature", "properties": {"segment_id": 1531274, "physicalid": "103128", "street_name": "CUNNINGHAM RD", "borough": "staten_island", "direction": "TW", "total_row_ft": 48.5, "roadbed_ft": 18.5, "median_ft": 0.0, "left_sw_ft": 15.0, "right_sw_ft": 15.0}, "geometry": {"type": "LineString", "coordinates": [[-74.21891227899398, 40.50367719700904], [-74.21865253270671, 40.503414179141316]]}}, {"type": "Feature", "properties": {"segment_id": 1531275, "physicalid": "103128", "street_name": "CUNNINGHAM RD", "borough": "staten_island", "direction": "TW", "total_row_ft": 47.0, "roadbed_ft": 17.0, "median_ft": 0.0, "left_sw_ft": 15.0, "right_sw_ft": 15.0}, "geometry": {"type": "LineString", "coordinates": [[-74.21887621665884, 40.503699160371106], [-74.2185773721038, 40.50346156203704]]}}, {"type": "Feature", "properties": {"segment_id": 1531276, "physicalid": "103128", "street_name": "CUNNINGHAM RD", "borough": "staten_island", "direction": "TW", "total_row_ft": 45.9, "roadbed_ft": 15.9, "median_ft": 0.0, "left_sw_ft": 15.0, "right_sw_ft": 15.0}, "geometry": {"type": "LineString", "coordinates": [[-74.21884564237442, 40.50372551893824], [-74.2185119328598, 40.50351670595239]]}}, {"type": "Feature", "properties": {"segment_id": 1531277, "physicalid": "103128", "street_name": "CUNNINGHAM RD", "borough": "staten_island", "direction": "TW", "total_row_ft": 45.9, "roadbed_ft": 15.9, "median_ft": 0.0, "left_sw_ft": 15.0, "right_sw_ft": 15.0}, "geometry": {"type": "LineString", "coordinates": [[-74.21883532404188, 40.503739058319596], [-74.21844649346777, 40.50359624053156]]}}, {"type": "Feature", "properties": {"segment_id": 1531278, "physicalid": "103128", "street_name": "CUNNINGHAM RD", "borough": "staten_island", "direction": "TW", "total_row_ft": 45.7, "roadbed_ft": 15.7, "median_ft": 0.0, "left_sw_ft": 15.0, "right_sw_ft": 15.0}, "geometry": {"type": "LineString", "coordinates": [[-74.21881769459847, 40.503771582055876], [-74.21840938856816, 40.50366503921966]]}}, {"type": "Feature", "properties": {"segment_id": 1531377, "physicalid": "103130", "street_name": "CUNNINGHAM RD", "borough": "staten_island", "direction": "TW", "total_row_ft": 56.1, "roadbed_ft": 26.1, "median_ft": 0.0, "left_sw_ft": 15.0, "right_sw_ft": 15.0}, "geometry": {"type": "LineString", "coordinates": [[-74.2197910159215, 40.504037385669726], [-74.22012087714059, 40.503825038401025]]}}, {"type": "Feature", "properties": {"segment_id": 1531378, "physicalid": "103130", "street_name": "CUNNINGHAM RD", "borough": "staten_island", "direction": "TW", "total_row_ft": 58.0, "roadbed_ft": 28.0, "median_ft": 0.0, "left_sw_ft": 15.0, "right_sw_ft": 15.0}, "geometry": {"type": "LineString", "coordinates": [[-74.2197446513874, 40.50399542042408], [-74.2200745125467, 40.50378307328803]]}}, {"type": "Feature", "properties": {"segment_id": 1531379, "physicalid": "103130", "street_name": "CUNNINGHAM RD", "borough": "staten_island", "direction": "TW", "total_row_ft": 58.1, "roadbed_ft": 28.1, "median_ft": 0.0, "left_sw_ft": 15.0, "right_sw_ft": 15.0}, "geometry": {"type": "LineString", "coordinates": [[-74.2196982869115, 40.5039534551596], [-74.22002814801102, 40.5037411081562]]}}, {"type": "Feature", "properties": {"segment_id": 1531380, "physicalid": "103130", "street_name": "CUNNINGHAM RD", "borough": "staten_island", "direction": "TW", "total_row_ft": 58.2, "roadbed_ft": 28.2, "median_ft": 0.0, "left_sw_ft": 15.0, "right_sw_ft": 15.0}, "geometry": {"type": "LineString", "coordinates": [[-74.21965192249378, 40.50391148987625], [-74.21998178353354, 40.503699143005505]]}}, {"type": "Feature", "properties": {"segment_id": 1531381, "physicalid": "103130", "street_name": "CUNNINGHAM RD", "borough": "staten_island", "direction": "TW", "total_row_ft": 58.4, "roadbed_ft": 28.4, "median_ft": 0.0, "left_sw_ft": 15.0, "right_sw_ft": 15.0}, "geometry": {"type": "LineString", "coordinates": [[-74.21960555813428, 40.50386952457403], [-74.21993541911425, 40.50365717783596]]}}, {"type": "Feature", "properties": {"segment_id": 1531382, "physicalid": "103130", "street_name": "CUNNINGHAM RD", "borough": "staten_island", "direction": "TW", "total_row_ft": 58.6, "roadbed_ft": 28.6, "median_ft": 0.0, "left_sw_ft": 15.0, "right_sw_ft": 15.0}, "geometry": {"type": "LineString", "coordinates": [[-74.21955919383296, 40.50382755925299], [-74.21988905475315, 40.50361521264758]]}}, {"type": "Feature", "properties": {"segment_id": 1531383, "physicalid": "103130", "street_name": "CUNNINGHAM RD", "borough": "staten_island", "direction": "TW", "total_row_ft": 56.7, "roadbed_ft": 26.7, "median_ft": 0.0, "left_sw_ft": 15.0, "right_sw_ft": 15.0}, "geometry": {"type": "LineString", "coordinates": [[-74.21951282958985, 40.50378559391308], [-74.21984269045025, 40.503573247440315]]}}, {"type": "Feature", "properties": {"segment_id": 1531384, "physicalid": "103130", "street_name": "CUNNINGHAM RD", "borough": "staten_island", "direction": "TW", "total_row_ft": 51.8, "roadbed_ft": 21.8, "median_ft": 0.0, "left_sw_ft": 15.0, "right_sw_ft": 15.0}, "geometry": {"type": "LineString", "coordinates": [[-74.21946646540493, 40.503743628554325], [-74.21979632620555, 40.5035312822142]]}}, {"type": "Feature", "properties": {"segment_id": 1531385, "physicalid": "103130", "street_name": "CUNNINGHAM RD", "borough": "staten_island", "direction": "TW", "total_row_ft": 47.5, "roadbed_ft": 17.5, "median_ft": 0.0, "left_sw_ft": 15.0, "right_sw_ft": 15.0}, "geometry": {"type": "LineString", "coordinates": [[-74.21942010127822, 40.503701663176706], [-74.21974996201905, 40.503489316969244]]}}, {"type": "Feature", "properties": {"segment_id": 1531386, "physicalid": "103130", "street_name": "CUNNINGHAM RD", "borough": "staten_island", "direction": "TW", "total_row_ft": 45.0, "roadbed_ft": 15.0, "median_ft": 0.0, "left_sw_ft": 15.0, "right_sw_ft": 15.0}, "geometry": {"type": "LineString", "coordinates": [[-74.2193737372097, 40.50365969778022], [-74.21970359789076, 40.50344735170543]]}}, {"type": "Feature", "properties": {"segment_id": 1531387, "physicalid": "103130", "street_name": "CUNNINGHAM RD", "borough": "staten_island", "direction": "TW", "total_row_ft": 42.6, "roadbed_ft": 12.6, "median_ft": 0.0, "left_sw_ft": 15.0, "right_sw_ft": 15.0}, "geometry": {"type": "LineString", "coordinates": [[-74.21932737319938, 40.503617732364894], [-74.21965723382064, 40.503405386422784]]}}, {"type": "Feature", "properties": {"segment_id": 1531388, "physicalid": "103130", "street_name": "CUNNINGHAM RD", "borough": "staten_island", "direction": "TW", "total_row_ft": 46.4, "roadbed_ft": 16.4, "median_ft": 0.0, "left_sw_ft": 15.0, "right_sw_ft": 15.0}, "geometry": {"type": "LineString", "coordinates": [[-74.21928100924724, 40.50357576693073], [-74.21961086980873, 40.50336342112126]]}}, {"type": "Feature", "properties": {"segment_id": 1531389, "physicalid": "103130", "street_name": "CUNNINGHAM RD", "borough": "staten_island", "direction": "TW", "total_row_ft": 54.0, "roadbed_ft": 24.0, "median_ft": 0.0, "left_sw_ft": 15.0, "right_sw_ft": 15.0}, "geometry": {"type": "LineString", "coordinates": [[-74.21923464535331, 40.50353380147771], [-74.21956450585502, 40.50332145580089]]}}, {"type": "Feature", "properties": {"segment_id": 1531390, "physicalid": "103130", "street_name": "CUNNINGHAM RD", "borough": "staten_island", "direction": "TW", "total_row_ft": 48.8, "roadbed_ft": 18.8, "median_ft": 0.0, "left_sw_ft": 15.0, "right_sw_ft": 15.0}, "geometry": {"type": "LineString", "coordinates": [[-74.21937233985602, 40.50359473464119], [-74.21929024797852, 40.503271371975586]]}}, {"type": "Feature", "properties": {"segment_id": 1531391, "physicalid": "103131", "street_name": "CUNNINGHAM RD", "borough": "staten_island", "direction": "TW", "total_row_ft": 46.5, "roadbed_ft": 16.5, "median_ft": 0.0, "left_sw_ft": 15.0, "right_sw_ft": 15.0}, "geometry": {"type": "LineString", "coordinates": [[-74.21920846761438, 40.50360723739326], [-74.21921253128671, 40.503277873665276]]}}, {"type": "Feature", "properties": {"segment_id": 1531392, "physicalid": "103131", "street_name": "CUNNINGHAM RD", "borough": "staten_island", "direction": "TW", "total_row_ft": 47.9, "roadbed_ft": 17.9, "median_ft": 0.0, "left_sw_ft": 15.0, "right_sw_ft": 15.0}, "geometry": {"type": "LineString", "coordinates": [[-74.21915836949903, 40.50360986986177], [-74.21911920993318, 40.503281850691714]]}}, {"type": "Feature", "properties": {"segment_id": 1531393, "physicalid": "103131", "street_name": "CUNNINGHAM RD", "borough": "staten_island", "direction": "TW", "total_row_ft": 48.8, "roadbed_ft": 18.8, "median_ft": 0.0, "left_sw_ft": 15.0, "right_sw_ft": 15.0}, "geometry": {"type": "LineString", "coordinates": [[-74.21910881269945, 40.50361601835321], [-74.21902682345616, 40.50329264051212]]}}, {"type": "Feature", "properties": {"segment_id": 1531394, "physicalid": "103131", "street_name": "CUNNINGHAM RD", "borough": "staten_island", "direction": "TW", "total_row_ft": 49.1, "roadbed_ft": 19.1, "median_ft": 0.0, "left_sw_ft": 15.0, "right_sw_ft": 15.0}, "geometry": {"type": "LineString", "coordinates": [[-74.2190602164238, 40.503625629610525], [-74.21893622195859, 40.50331014312106]]}}, {"type": "Feature", "properties": {"segment_id": 1531395, "physicalid": "103131", "street_name": "CUNNINGHAM RD", "borough": "staten_island", "direction": "TW", "total_row_ft": 48.3, "roadbed_ft": 18.3, "median_ft": 0.0, "left_sw_ft": 15.0, "right_sw_ft": 15.0}, "geometry": {"type": "LineString", "coordinates": [[-74.21901299241387, 40.5036386214546], [-74.21884823847087, 40.503334197190405]]}}, {"type": "Feature", "properties": {"segment_id": 1639504, "physicalid": "161163", "street_name": "CUNNINGHAM RD", "borough": "staten_island", "direction": "TW", "total_row_ft": 100.0, "roadbed_ft": 70.0, "median_ft": 0.0, "left_sw_ft": 15.0, "right_sw_ft": 15.0}, "geometry": {"type": "LineString", "coordinates": [[-74.21795111904655, 40.504369812504315], [-74.21782395047835, 40.50405506274866]]}}, {"type": "Feature", "properties": {"segment_id": 1639505, "physicalid": "161163", "street_name": "CUNNINGHAM RD", "borough": "staten_island", "direction": "TW", "total_row_ft": 48.1, "roadbed_ft": 18.1, "median_ft": 0.0, "left_sw_ft": 15.0, "right_sw_ft": 15.0}, "geometry": {"type": "LineString", "coordinates": [[-74.21786631590662, 40.504388214329374], [-74.2177706125782, 40.504067039248945]]}}, {"type": "Feature", "properties": {"segment_id": 1639506, "physicalid": "161163", "street_name": "CUNNINGHAM RD", "borough": "staten_island", "direction": "TW", "total_row_ft": 46.7, "roadbed_ft": 16.7, "median_ft": 0.0, "left_sw_ft": 15.0, "right_sw_ft": 15.0}, "geometry": {"type": "LineString", "coordinates": [[-74.21779618901047, 40.50440038972572], [-74.21770048600148, 40.50407921458707]]}}, {"type": "Feature", "properties": {"segment_id": 1639507, "physicalid": "161163", "street_name": "CUNNINGHAM RD", "borough": "staten_island", "direction": "TW", "total_row_ft": 45.9, "roadbed_ft": 15.9, "median_ft": 0.0, "left_sw_ft": 15.0, "right_sw_ft": 15.0}, "geometry": {"type": "LineString", "coordinates": [[-74.21770931018393, 40.50441183188479], [-74.21764561775142, 40.50408606142748]]}}, {"type": "Feature", "properties": {"segment_id": 1639508, "physicalid": "161163", "street_name": "CUNNINGHAM RD", "borough": "staten_island", "direction": "TW", "total_row_ft": 45.5, "roadbed_ft": 15.5, "median_ft": 0.0, "left_sw_ft": 15.0, "right_sw_ft": 15.0}, "geometry": {"type": "LineString", "coordinates": [[-74.2176218491106, 40.504420310310856], [-74.21759052977913, 40.50409180072875]]}}, {"type": "Feature", "properties": {"segment_id": 1639509, "physicalid": "161163", "street_name": "CUNNINGHAM RD", "borough": "staten_island", "direction": "TW", "total_row_ft": 48.5, "roadbed_ft": 18.5, "median_ft": 0.0, "left_sw_ft": 15.0, "right_sw_ft": 15.0}, "geometry": {"type": "LineString", "coordinates": [[-74.21755012073068, 40.504424294745505], [-74.21751880174975, 40.50409578514391]]}}, {"type": "Feature", "properties": {"segment_id": 1639510, "physicalid": "161163", "street_name": "CUNNINGHAM RD", "borough": "staten_island", "direction": "TW", "total_row_ft": 59.1, "roadbed_ft": 29.1, "median_ft": 0.0, "left_sw_ft": 15.0, "right_sw_ft": 15.0}, "geometry": {"type": "LineString", "coordinates": [[-74.21746197665401, 40.50442565454866], [-74.21746320960648, 40.50409627757729]]}}, {"type": "Feature", "properties": {"segment_id": 1639511, "physicalid": "161163", "street_name": "CUNNINGHAM RD", "borough": "staten_island", "direction": "TW", "total_row_ft": 71.1, "roadbed_ft": 41.1, "median_ft": 0.0, "left_sw_ft": 15.0, "right_sw_ft": 15.0}, "geometry": {"type": "LineString", "coordinates": [[-74.21737383849191, 40.5044240174573], [-74.21740761635252, 40.50409564983551]]}}, {"type": "Feature", "properties": {"segment_id": 1639512, "physicalid": "161164", "street_name": "KENNY RD", "borough": "staten_island", "direction": "TW", "total_row_ft": 103.9, "roadbed_ft": 73.9, "median_ft": 0.0, "left_sw_ft": 15.0, "right_sw_ft": 15.0}, "geometry": {"type": "LineString", "coordinates": [[-74.21815560277945, 40.504239043480936], [-74.21772414246855, 40.504243899404564]]}}, {"type": "Feature", "properties": {"segment_id": 1639513, "physicalid": "161164", "street_name": "KENNY RD", "borough": "staten_island", "direction": "TW", "total_row_ft": 51.8, "roadbed_ft": 21.8, "median_ft": 0.0, "left_sw_ft": 15.0, "right_sw_ft": 15.0}, "geometry": {"type": "LineString", "coordinates": [[-74.21815666322047, 40.50429393389882], [-74.21772520255546, 40.504298789826336]]}}, {"type": "Feature", "properties": {"segment_id": 1639514, "physicalid": "161164", "street_name": "KENNY RD", "borough": "staten_island", "direction": "TW", "total_row_ft": 47.1, "roadbed_ft": 17.1, "median_ft": 0.0, "left_sw_ft": 15.0, "right_sw_ft": 15.0}, "geometry": {"type": "LineString", "coordinates": [[-74.21815772366323, 40.50434882431647], [-74.2177262626441, 40.504353680247974]]}}, {"type": "Feature", "properties": {"segment_id": 1639515, "physicalid": "161164", "street_name": "KENNY RD", "borough": "staten_island", "direction": "TW", "total_row_ft": 45.4, "roadbed_ft": 15.4, "median_ft": 0.0, "left_sw_ft": 15.0, "right_sw_ft": 15.0}, "geometry": {"type": "LineString", "coordinates": [[-74.21815878410773, 40.50440371473386], [-74.21772732273448, 40.50440857066939]]}}, {"type": "Feature", "properties": {"segment_id": 1639516, "physicalid": "161164", "street_name": "KENNY RD", "borough": "staten_island", "direction": "TW", "total_row_ft": 44.4, "roadbed_ft": 14.4, "median_ft": 0.0, "left_sw_ft": 15.0, "right_sw_ft": 15.0}, "geometry": {"type": "LineString", "coordinates": [[-74.21815984455395, 40.50445860515111], [-74.21772838282659, 40.50446346109054]]}}, {"type": "Feature", "properties": {"segment_id": 1639517, "physicalid": "161164", "street_name": "KENNY RD", "borough": "staten_island", "direction": "TW", "total_row_ft": 43.6, "roadbed_ft": 13.6, "median_ft": 0.0, "left_sw_ft": 15.0, "right_sw_ft": 15.0}, "geometry": {"type": "LineString", "coordinates": [[-74.21816090500194, 40.50451349556809], [-74.21772944292046, 40.50451835151151]]}}, {"type": "Feature", "properties": {"segment_id": 1639518, "physicalid": "161164", "street_name": "KENNY RD", "borough": "staten_island", "direction": "TW", "total_row_ft": 43.6, "roadbed_ft": 13.6, "median_ft": 0.0, "left_sw_ft": 15.0, "right_sw_ft": 15.0}, "geometry": {"type": "LineString", "coordinates": [[-74.21816196545167, 40.50456838598483], [-74.21773050301607, 40.50457324193228]]}}, {"type": "Feature", "properties": {"segment_id": 1639519, "physicalid": "161164", "street_name": "KENNY RD", "borough": "staten_island", "direction": "TW", "total_row_ft": 43.7, "roadbed_ft": 13.7, "median_ft": 0.0, "left_sw_ft": 15.0, "right_sw_ft": 15.0}, "geometry": {"type": "LineString", "coordinates": [[-74.21816302590312, 40.50462327640141], [-74.21773156311342, 40.50462813235274]]}}, {"type": "Feature", "properties": {"segment_id": 1639520, "physicalid": "161164", "street_name": "KENNY RD", "borough": "staten_island", "direction": "TW", "total_row_ft": 43.7, "roadbed_ft": 13.7, "median_ft": 0.0, "left_sw_ft": 15.0, "right_sw_ft": 15.0}, "geometry": {"type": "LineString", "coordinates": [[-74.21816408635632, 40.50467816681776], [-74.2177326232125, 40.50468302277308]]}}, {"type": "Feature", "properties": {"segment_id": 1639521, "physicalid": "161164", "street_name": "KENNY RD", "borough": "staten_island", "direction": "TW", "total_row_ft": 43.5, "roadbed_ft": 13.5, "median_ft": 0.0, "left_sw_ft": 15.0, "right_sw_ft": 15.0}, "geometry": {"type": "LineString", "coordinates": [[-74.21816514681127, 40.50473305723384], [-74.21773368331331, 40.50473791319318]]}}, {"type": "Feature", "properties": {"segment_id": 1639522, "physicalid": "161164", "street_name": "KENNY RD", "borough": "staten_island", "direction": "TW", "total_row_ft": 43.2, "roadbed_ft": 13.2, "median_ft": 0.0, "left_sw_ft": 15.0, "right_sw_ft": 15.0}, "geometry": {"type": "LineString", "coordinates": [[-74.21816620726796, 40.50478794764979], [-74.21773474341587, 40.504792803613014]]}}, {"type": "Feature", "properties": {"segment_id": 1639523, "physicalid": "161164", "street_name": "KENNY RD", "borough": "staten_island", "direction": "TW", "total_row_ft": 43.2, "roadbed_ft": 13.2, "median_ft": 0.0, "left_sw_ft": 15.0, "right_sw_ft": 15.0}, "geometry": {"type": "LineString", "coordinates": [[-74.21816726772639, 40.504842838065464], [-74.21773580352018, 40.50484769403269]]}}, {"type": "Feature", "properties": {"segment_id": 1639524, "physicalid": "161164", "street_name": "KENNY RD", "borough": "staten_island", "direction": "TW", "total_row_ft": 43.2, "roadbed_ft": 13.2, "median_ft": 0.0, "left_sw_ft": 15.0, "right_sw_ft": 15.0}, "geometry": {"type": "LineString", "coordinates": [[-74.21816832818656, 40.50489772848089], [-74.21773686362623, 40.504902584452154]]}}, {"type": "Feature", "properties": {"segment_id": 1639525, "physicalid": "161164", "street_name": "KENNY RD", "borough": "staten_island", "direction": "TW", "total_row_ft": 43.8, "roadbed_ft": 13.8, "median_ft": 0.0, "left_sw_ft": 15.0, "right_sw_ft": 15.0}, "geometry": {"type": "LineString", "coordinates": [[-74.21816938864846, 40.504952618896176], [-74.21773792373402, 40.50495747487134]]}}, {"type": "Feature", "properties": {"segment_id": 1639526, "physicalid": "161164", "street_name": "KENNY RD", "borough": "staten_island", "direction": "TW", "total_row_ft": 44.3, "roadbed_ft": 14.3, "median_ft": 0.0, "left_sw_ft": 15.0, "right_sw_ft": 15.0}, "geometry": {"type": "LineString", "coordinates": [[-74.21817044911212, 40.50500750931122], [-74.21773898384355, 40.50501236529034]]}}, {"type": "Feature", "properties": {"segment_id": 1639527, "physicalid": "161164", "street_name": "KENNY RD", "borough": "staten_island", "direction": "TW", "total_row_ft": 44.1, "roadbed_ft": 14.1, "median_ft": 0.0, "left_sw_ft": 15.0, "right_sw_ft": 15.0}, "geometry": {"type": "LineString", "coordinates": [[-74.21817150957752, 40.50506239972599], [-74.21774004395482, 40.50506725570915]]}}, {"type": "Feature", "properties": {"segment_id": 1639528, "physicalid": "161164", "street_name": "KENNY RD", "borough": "staten_island", "direction": "TW", "total_row_ft": 43.9, "roadbed_ft": 13.9, "median_ft": 0.0, "left_sw_ft": 15.0, "right_sw_ft": 15.0}, "geometry": {"type": "LineString", "coordinates": [[-74.21817257004464, 40.50511729014062], [-74.21774110406783, 40.505122146127675]]}}, {"type": "Feature", "properties": {"segment_id": 1639529, "physicalid": "161164", "street_name": "KENNY RD", "borough": "staten_island", "direction": "TW", "total_row_ft": 43.9, "roadbed_ft": 13.9, "median_ft": 0.0, "left_sw_ft": 15.0, "right_sw_ft": 15.0}, "geometry": {"type": "LineString", "coordinates": [[-74.21817363051352, 40.505172180554986], [-74.21774216418257, 40.50517703654602]]}}, {"type": "Feature", "properties": {"segment_id": 1639530, "physicalid": "161164", "street_name": "KENNY RD", "borough": "staten_island", "direction": "TW", "total_row_ft": 44.2, "roadbed_ft": 14.2, "median_ft": 0.0, "left_sw_ft": 15.0, "right_sw_ft": 15.0}, "geometry": {"type": "LineString", "coordinates": [[-74.21817469098413, 40.50522707096913], [-74.21774322429906, 40.50523192696417]]}}, {"type": "Feature", "properties": {"segment_id": 1639531, "physicalid": "161164", "street_name": "KENNY RD", "borough": "staten_island", "direction": "TW", "total_row_ft": 48.4, "roadbed_ft": 18.4, "median_ft": 0.0, "left_sw_ft": 15.0, "right_sw_ft": 15.0}, "geometry": {"type": "LineString", "coordinates": [[-74.21817575145649, 40.50528196138309], [-74.21774428441728, 40.50528681738206]]}}, {"type": "Feature", "properties": {"segment_id": 1639532, "physicalid": "161164", "street_name": "KENNY RD", "borough": "staten_island", "direction": "TW", "total_row_ft": 89.6, "roadbed_ft": 59.6, "median_ft": 0.0, "left_sw_ft": 15.0, "right_sw_ft": 15.0}, "geometry": {"type": "LineString", "coordinates": [[-74.21817681193059, 40.50533685179682], [-74.21774534453725, 40.50534170779974]]}}, {"type": "Feature", "properties": {"segment_id": 1639533, "physicalid": "161166", "street_name": "KENNY RD", "borough": "staten_island", "direction": "TW", "total_row_ft": 45.7, "roadbed_ft": 15.7, "median_ft": 0.0, "left_sw_ft": 15.0, "right_sw_ft": 15.0}, "geometry": {"type": "LineString", "coordinates": [[-74.21817841678676, 40.50542931398663], [-74.21774692994767, 40.5054330692294]]}}, {"type": "Feature", "properties": {"segment_id": 1639534, "physicalid": "161166", "street_name": "KENNY RD", "borough": "staten_island", "direction": "TW", "total_row_ft": 43.9, "roadbed_ft": 13.9, "median_ft": 0.0, "left_sw_ft": 15.0, "right_sw_ft": 15.0}, "geometry": {"type": "LineString", "coordinates": [[-74.21817923691492, 40.5054842067986], [-74.21774774972165, 40.505487962044505]]}}, {"type": "Feature", "properties": {"segment_id": 1639535, "physicalid": "161166", "street_name": "KENNY RD", "borough": "staten_island", "direction": "TW", "total_row_ft": 44.0, "roadbed_ft": 14.0, "median_ft": 0.0, "left_sw_ft": 15.0, "right_sw_ft": 15.0}, "geometry": {"type": "LineString", "coordinates": [[-74.21818005704444, 40.50553909961039], [-74.21774856949698, 40.50554285485935]]}}, {"type": "Feature", "properties": {"segment_id": 1639536, "physicalid": "161166", "street_name": "KENNY RD", "borough": "staten_island", "direction": "TW", "total_row_ft": 43.8, "roadbed_ft": 13.8, "median_ft": 0.0, "left_sw_ft": 15.0, "right_sw_ft": 15.0}, "geometry": {"type": "LineString", "coordinates": [[-74.21818087717531, 40.505593992421986], [-74.21774938927366, 40.505597747673946]]}}, {"type": "Feature", "properties": {"segment_id": 1639537, "physicalid": "161166", "street_name": "KENNY RD", "borough": "staten_island", "direction": "TW", "total_row_ft": 43.6, "roadbed_ft": 13.6, "median_ft": 0.0, "left_sw_ft": 15.0, "right_sw_ft": 15.0}, "geometry": {"type": "LineString", "coordinates": [[-74.21818169730751, 40.5056488852333], [-74.21775020905169, 40.50565264048842]]}}, {"type": "Feature", "properties": {"segment_id": 1639538, "physicalid": "161166", "street_name": "KENNY RD", "borough": "staten_island", "direction": "TW", "total_row_ft": 43.7, "roadbed_ft": 13.7, "median_ft": 0.0, "left_sw_ft": 15.0, "right_sw_ft": 15.0}, "geometry": {"type": "LineString", "coordinates": [[-74.21818251744108, 40.50570377804445], [-74.21775102883106, 40.505707533302626]]}}, {"type": "Feature", "properties": {"segment_id": 1639539, "physicalid": "161166", "street_name": "KENNY RD", "borough": "staten_island", "direction": "TW", "total_row_ft": 43.9, "roadbed_ft": 13.9, "median_ft": 0.0, "left_sw_ft": 15.0, "right_sw_ft": 15.0}, "geometry": {"type": "LineString", "coordinates": [[-74.218183337576, 40.50575867085537], [-74.21775184861175, 40.50576242611662]]}}, {"type": "Feature", "properties": {"segment_id": 1639540, "physicalid": "161166", "street_name": "KENNY RD", "borough": "staten_island", "direction": "TW", "total_row_ft": 43.5, "roadbed_ft": 13.5, "median_ft": 0.0, "left_sw_ft": 15.0, "right_sw_ft": 15.0}, "geometry": {"type": "LineString", "coordinates": [[-74.21818415771224, 40.505813563666116], [-74.21775266839383, 40.50581731893035]]}}, {"type": "Feature", "properties": {"segment_id": 1639541, "physicalid": "161166", "street_name": "KENNY RD", "borough": "staten_island", "direction": "TW", "total_row_ft": 42.9, "roadbed_ft": 12.9, "median_ft": 0.0, "left_sw_ft": 15.0, "right_sw_ft": 15.0}, "geometry": {"type": "LineString", "coordinates": [[-74.21818497784984, 40.505868456476556], [-74.21775348817722, 40.50587221174394]]}}, {"type": "Feature", "properties": {"segment_id": 1639542, "physicalid": "161166", "street_name": "KENNY RD", "borough": "staten_island", "direction": "TW", "total_row_ft": 42.5, "roadbed_ft": 12.5, "median_ft": 0.0, "left_sw_ft": 15.0, "right_sw_ft": 15.0}, "geometry": {"type": "LineString", "coordinates": [[-74.2181857979888, 40.50592334928684], [-74.21775430796198, 40.5059271045573]]}}, {"type": "Feature", "properties": {"segment_id": 1639543, "physicalid": "161166", "street_name": "KENNY RD", "borough": "staten_island", "direction": "TW", "total_row_ft": 42.5, "roadbed_ft": 12.5, "median_ft": 0.0, "left_sw_ft": 15.0, "right_sw_ft": 15.0}, "geometry": {"type": "LineString", "coordinates": [[-74.21818661812908, 40.505978242096944], [-74.21775512774808, 40.505981997370384]]}}, {"type": "Feature", "properties": {"segment_id": 1639544, "physicalid": "161166", "street_name": "KENNY RD", "borough": "staten_island", "direction": "TW", "total_row_ft": 42.7, "roadbed_ft": 12.7, "median_ft": 0.0, "left_sw_ft": 15.0, "right_sw_ft": 15.0}, "geometry": {"type": "LineString", "coordinates": [[-74.21818743827072, 40.50603313490676], [-74.21775594753551, 40.50603689018334]]}}, {"type": "Feature", "properties": {"segment_id": 1639545, "physicalid": "161166", "street_name": "KENNY RD", "borough": "staten_island", "direction": "TW", "total_row_ft": 42.9, "roadbed_ft": 12.9, "median_ft": 0.0, "left_sw_ft": 15.0, "right_sw_ft": 15.0}, "geometry": {"type": "LineString", "coordinates": [[-74.2181882584137, 40.50608802771638], [-74.2177567673243, 40.50609178299603]]}}, {"type": "Feature", "properties": {"segment_id": 1639546, "physicalid": "161166", "street_name": "KENNY RD", "borough": "staten_island", "direction": "TW", "total_row_ft": 43.0, "roadbed_ft": 13.0, "median_ft": 0.0, "left_sw_ft": 15.0, "right_sw_ft": 15.0}, "geometry": {"type": "LineString", "coordinates": [[-74.21818907855804, 40.50614292052583], [-74.21775758711443, 40.506146675808495]]}}, {"type": "Feature", "properties": {"segment_id": 1639547, "physicalid": "161166", "street_name": "KENNY RD", "borough": "staten_island", "direction": "TW", "total_row_ft": 43.1, "roadbed_ft": 13.1, "median_ft": 0.0, "left_sw_ft": 15.0, "right_sw_ft": 15.0}, "geometry": {"type": "LineString", "coordinates": [[-74.21818989870371, 40.50619781333499], [-74.21775840690592, 40.5062015686208]]}}, {"type": "Feature", "properties": {"segment_id": 1639548, "physicalid": "161166", "street_name": "KENNY RD", "borough": "staten_island", "direction": "TW", "total_row_ft": 43.4, "roadbed_ft": 13.4, "median_ft": 0.0, "left_sw_ft": 15.0, "right_sw_ft": 15.0}, "geometry": {"type": "LineString", "coordinates": [[-74.21819071885075, 40.506252706143975], [-74.21775922669875, 40.50625646143287]]}}, {"type": "Feature", "properties": {"segment_id": 1639549, "physicalid": "161166", "street_name": "KENNY RD", "borough": "staten_island", "direction": "TW", "total_row_ft": 43.6, "roadbed_ft": 13.6, "median_ft": 0.0, "left_sw_ft": 15.0, "right_sw_ft": 15.0}, "geometry": {"type": "LineString", "coordinates": [[-74.21819153899912, 40.50630759895274], [-74.21776004649293, 40.50631135424469]]}}, {"type": "Feature", "properties": {"segment_id": 1639550, "physicalid": "161166", "street_name": "KENNY RD", "borough": "staten_island", "direction": "TW", "total_row_ft": 43.2, "roadbed_ft": 13.2, "median_ft": 0.0, "left_sw_ft": 15.0, "right_sw_ft": 15.0}, "geometry": {"type": "LineString", "coordinates": [[-74.21819235914883, 40.506362491761344], [-74.21776086628844, 40.506366247056285]]}}, {"type": "Feature", "properties": {"segment_id": 1639551, "physicalid": "161166", "street_name": "KENNY RD", "borough": "staten_island", "direction": "TW", "total_row_ft": 43.0, "roadbed_ft": 13.0, "median_ft": 0.0, "left_sw_ft": 15.0, "right_sw_ft": 15.0}, "geometry": {"type": "LineString", "coordinates": [[-74.2181931792999, 40.50641738456966], [-74.2177616860853, 40.50642113986774]]}}, {"type": "Feature", "properties": {"segment_id": 1639552, "physicalid": "161166", "street_name": "KENNY RD", "borough": "staten_island", "direction": "TW", "total_row_ft": 42.7, "roadbed_ft": 12.7, "median_ft": 0.0, "left_sw_ft": 15.0, "right_sw_ft": 15.0}, "geometry": {"type": "LineString", "coordinates": [[-74.21819399945232, 40.50647227737779], [-74.21776250588353, 40.506476032678925]]}}, {"type": "Feature", "properties": {"segment_id": 1639553, "physicalid": "161166", "street_name": "KENNY RD", "borough": "staten_island", "direction": "TW", "total_row_ft": 42.7, "roadbed_ft": 12.7, "median_ft": 0.0, "left_sw_ft": 15.0, "right_sw_ft": 15.0}, "geometry": {"type": "LineString", "coordinates": [[-74.21819481960608, 40.50652717018573], [-74.21776332568307, 40.50653092548988]]}}, {"type": "Feature", "properties": {"segment_id": 1639554, "physicalid": "161166", "street_name": "KENNY RD", "borough": "staten_island", "direction": "TW", "total_row_ft": 42.9, "roadbed_ft": 12.9, "median_ft": 0.0, "left_sw_ft": 15.0, "right_sw_ft": 15.0}, "geometry": {"type": "LineString", "coordinates": [[-74.21819563976119, 40.50658206299339], [-74.21776414548398, 40.506585818300664]]}}, {"type": "Feature", "properties": {"segment_id": 1639555, "physicalid": "161166", "street_name": "KENNY RD", "borough": "staten_island", "direction": "TW", "total_row_ft": 43.0, "roadbed_ft": 13.0, "median_ft": 0.0, "left_sw_ft": 15.0, "right_sw_ft": 15.0}, "geometry": {"type": "LineString", "coordinates": [[-74.21819645991764, 40.506636955800865], [-74.21776496528624, 40.50664071111121]]}}, {"type": "Feature", "properties": {"segment_id": 1639556, "physicalid": "161166", "street_name": "KENNY RD", "borough": "staten_island", "direction": "TW", "total_row_ft": 43.1, "roadbed_ft": 13.1, "median_ft": 0.0, "left_sw_ft": 15.0, "right_sw_ft": 15.0}, "geometry": {"type": "LineString", "coordinates": [[-74.21819728007543, 40.50669184860816], [-74.21776578508982, 40.5066956039215]]}}, {"type": "Feature", "properties": {"segment_id": 1639557, "physicalid": "161166", "street_name": "KENNY RD", "borough": "staten_island", "direction": "TW", "total_row_ft": 43.1, "roadbed_ft": 13.1, "median_ft": 0.0, "left_sw_ft": 15.0, "right_sw_ft": 15.0}, "geometry": {"type": "LineString", "coordinates": [[-74.21819810023459, 40.50674674141521], [-74.21776660489476, 40.50675049673162]]}}, {"type": "Feature", "properties": {"segment_id": 1639558, "physicalid": "161166", "street_name": "KENNY RD", "borough": "staten_island", "direction": "TW", "total_row_ft": 43.1, "roadbed_ft": 13.1, "median_ft": 0.0, "left_sw_ft": 15.0, "right_sw_ft": 15.0}, "geometry": {"type": "LineString", "coordinates": [[-74.21819892039507, 40.50680163422199], [-74.21776742470105, 40.506805389541555]]}}, {"type": "Feature", "properties": {"segment_id": 1639559, "physicalid": "161166", "street_name": "KENNY RD", "borough": "staten_island", "direction": "TW", "total_row_ft": 43.4, "roadbed_ft": 13.4, "median_ft": 0.0, "left_sw_ft": 15.0, "right_sw_ft": 15.0}, "geometry": {"type": "LineString", "coordinates": [[-74.21819974055691, 40.50685652702861], [-74.21776824450869, 40.50686028235123]]}}, {"type": "Feature", "properties": {"segment_id": 1639560, "physicalid": "161166", "street_name": "KENNY RD", "borough": "staten_island", "direction": "TW", "total_row_ft": 43.6, "roadbed_ft": 13.6, "median_ft": 0.0, "left_sw_ft": 15.0, "right_sw_ft": 15.0}, "geometry": {"type": "LineString", "coordinates": [[-74.2182005607201, 40.50691141983505], [-74.21776906431766, 40.506915175160664]]}}, {"type": "Feature", "properties": {"segment_id": 1639561, "physicalid": "161166", "street_name": "KENNY RD", "borough": "staten_island", "direction": "TW", "total_row_ft": 43.8, "roadbed_ft": 13.8, "median_ft": 0.0, "left_sw_ft": 15.0, "right_sw_ft": 15.0}, "geometry": {"type": "LineString", "coordinates": [[-74.21820138088462, 40.5069663126412], [-74.217769884128, 40.50697006796995]]}}, {"type": "Feature", "properties": {"segment_id": 1639562, "physicalid": "161166", "street_name": "KENNY RD", "borough": "staten_island", "direction": "TW", "total_row_ft": 43.6, "roadbed_ft": 13.6, "median_ft": 0.0, "left_sw_ft": 15.0, "right_sw_ft": 15.0}, "geometry": {"type": "LineString", "coordinates": [[-74.21820220105052, 40.50702120544717], [-74.21777070393968, 40.507024960778985]]}}, {"type": "Feature", "properties": {"segment_id": 1639563, "physicalid": "161166", "street_name": "KENNY RD", "borough": "staten_island", "direction": "TW", "total_row_ft": 43.4, "roadbed_ft": 13.4, "median_ft": 0.0, "left_sw_ft": 15.0, "right_sw_ft": 15.0}, "geometry": {"type": "LineString", "coordinates": [[-74.21820302121775, 40.507076098252945], [-74.21777152375269, 40.50707985358778]]}}, {"type": "Feature", "properties": {"segment_id": 1639564, "physicalid": "161166", "street_name": "KENNY RD", "borough": "staten_island", "direction": "TW", "total_row_ft": 43.1, "roadbed_ft": 13.1, "median_ft": 0.0, "left_sw_ft": 15.0, "right_sw_ft": 15.0}, "geometry": {"type": "LineString", "coordinates": [[-74.21820384138631, 40.507130991058446], [-74.21777234356705, 40.50713474639642]]}}, {"type": "Feature", "properties": {"segment_id": 1639565, "physicalid": "161166", "street_name": "KENNY RD", "borough": "staten_island", "direction": "TW", "total_row_ft": 43.0, "roadbed_ft": 13.0, "median_ft": 0.0, "left_sw_ft": 15.0, "right_sw_ft": 15.0}, "geometry": {"type": "LineString", "coordinates": [[-74.21820466155624, 40.50718588386377], [-74.21777316338276, 40.50718963920481]]}}, {"type": "Feature", "properties": {"segment_id": 1639566, "physicalid": "161166", "street_name": "KENNY RD", "borough": "staten_island", "direction": "TW", "total_row_ft": 43.0, "roadbed_ft": 13.0, "median_ft": 0.0, "left_sw_ft": 15.0, "right_sw_ft": 15.0}, "geometry": {"type": "LineString", "coordinates": [[-74.21820548172751, 40.50724077666887], [-74.21777398319982, 40.50724453201298]]}}, {"type": "Feature", "properties": {"segment_id": 1639567, "physicalid": "161166", "street_name": "KENNY RD", "borough": "staten_island", "direction": "TW", "total_row_ft": 43.1, "roadbed_ft": 13.1, "median_ft": 0.0, "left_sw_ft": 15.0, "right_sw_ft": 15.0}, "geometry": {"type": "LineString", "coordinates": [[-74.21820630190011, 40.50729566947379], [-74.21777480301823, 40.5072994248209]]}}, {"type": "Feature", "properties": {"segment_id": 1639568, "physicalid": "161166", "street_name": "KENNY RD", "borough": "staten_island", "direction": "TW", "total_row_ft": 43.1, "roadbed_ft": 13.1, "median_ft": 0.0, "left_sw_ft": 15.0, "right_sw_ft": 15.0}, "geometry": {"type": "LineString", "coordinates": [[-74.21820712207408, 40.507350562278425], [-74.21777562283798, 40.507354317628675]]}}, {"type": "Feature", "properties": {"segment_id": 1639569, "physicalid": "161166", "street_name": "KENNY RD", "borough": "staten_island", "direction": "TW", "total_row_ft": 43.0, "roadbed_ft": 13.0, "median_ft": 0.0, "left_sw_ft": 15.0, "right_sw_ft": 15.0}, "geometry": {"type": "LineString", "coordinates": [[-74.21820794224938, 40.507405455082875], [-74.21777644265906, 40.5074092104362]]}}, {"type": "Feature", "properties": {"segment_id": 1639570, "physicalid": "161166", "street_name": "KENNY RD", "borough": "staten_island", "direction": "TW", "total_row_ft": 42.9, "roadbed_ft": 12.9, "median_ft": 0.0, "left_sw_ft": 15.0, "right_sw_ft": 15.0}, "geometry": {"type": "LineString", "coordinates": [[-74.21820876242603, 40.50746034788715], [-74.2177772624815, 40.507464103243464]]}}, {"type": "Feature", "properties": {"segment_id": 1639571, "physicalid": "161166", "street_name": "KENNY RD", "borough": "staten_island", "direction": "TW", "total_row_ft": 42.9, "roadbed_ft": 12.9, "median_ft": 0.0, "left_sw_ft": 15.0, "right_sw_ft": 15.0}, "geometry": {"type": "LineString", "coordinates": [[-74.21820958260403, 40.507515240691134], [-74.21777808230529, 40.50751899605059]]}}, {"type": "Feature", "properties": {"segment_id": 1639572, "physicalid": "161166", "street_name": "KENNY RD", "borough": "staten_island", "direction": "TW", "total_row_ft": 43.2, "roadbed_ft": 13.2, "median_ft": 0.0, "left_sw_ft": 15.0, "right_sw_ft": 15.0}, "geometry": {"type": "LineString", "coordinates": [[-74.21821040278338, 40.50757013349494], [-74.21777890213043, 40.507573888857465]]}}, {"type": "Feature", "properties": {"segment_id": 1639573, "physicalid": "161166", "street_name": "KENNY RD", "borough": "staten_island", "direction": "TW", "total_row_ft": 43.6, "roadbed_ft": 13.6, "median_ft": 0.0, "left_sw_ft": 15.0, "right_sw_ft": 15.0}, "geometry": {"type": "LineString", "coordinates": [[-74.21821122296407, 40.50762502629857], [-74.21777972195692, 40.50762878166407]]}}, {"type": "Feature", "properties": {"segment_id": 1639574, "physicalid": "161166", "street_name": "KENNY RD", "borough": "staten_island", "direction": "TW", "total_row_ft": 44.1, "roadbed_ft": 14.1, "median_ft": 0.0, "left_sw_ft": 15.0, "right_sw_ft": 15.0}, "geometry": {"type": "LineString", "coordinates": [[-74.21821204314611, 40.50767991910193], [-74.21778054178475, 40.50768367447051]]}}, {"type": "Feature", "properties": {"segment_id": 1639575, "physicalid": "161166", "street_name": "KENNY RD", "borough": "staten_island", "direction": "TW", "total_row_ft": 44.4, "roadbed_ft": 14.4, "median_ft": 0.0, "left_sw_ft": 15.0, "right_sw_ft": 15.0}, "geometry": {"type": "LineString", "coordinates": [[-74.2182128633295, 40.507734811905046], [-74.2177813616139, 40.507738567276775]]}}, {"type": "Feature", "properties": {"segment_id": 1639576, "physicalid": "161166", "street_name": "KENNY RD", "borough": "staten_island", "direction": "TW", "total_row_ft": 44.6, "roadbed_ft": 14.6, "median_ft": 0.0, "left_sw_ft": 15.0, "right_sw_ft": 15.0}, "geometry": {"type": "LineString", "coordinates": [[-74.21821368351424, 40.50778970470798], [-74.21778218144443, 40.50779346008277]]}}, {"type": "Feature", "properties": {"segment_id": 1639577, "physicalid": "161166", "street_name": "KENNY RD", "borough": "staten_island", "direction": "TW", "total_row_ft": 44.6, "roadbed_ft": 14.6, "median_ft": 0.0, "left_sw_ft": 15.0, "right_sw_ft": 15.0}, "geometry": {"type": "LineString", "coordinates": [[-74.21821450370031, 40.50784459751075], [-74.21778300127629, 40.50784835288854]]}}, {"type": "Feature", "properties": {"segment_id": 1639578, "physicalid": "161166", "street_name": "KENNY RD", "borough": "staten_island", "direction": "TW", "total_row_ft": 44.7, "roadbed_ft": 14.7, "median_ft": 0.0, "left_sw_ft": 15.0, "right_sw_ft": 15.0}, "geometry": {"type": "LineString", "coordinates": [[-74.21821532388775, 40.5078994903132], [-74.2177838211095, 40.507903245694145]]}}, {"type": "Feature", "properties": {"segment_id": 1639579, "physicalid": "161166", "street_name": "KENNY RD", "borough": "staten_island", "direction": "TW", "total_row_ft": 44.9, "roadbed_ft": 14.9, "median_ft": 0.0, "left_sw_ft": 15.0, "right_sw_ft": 15.0}, "geometry": {"type": "LineString", "coordinates": [[-74.21821614407652, 40.5079543831155], [-74.21778464094406, 40.50795813849949]]}}, {"type": "Feature", "properties": {"segment_id": 1639580, "physicalid": "161166", "street_name": "KENNY RD", "borough": "staten_island", "direction": "TW", "total_row_ft": 45.1, "roadbed_ft": 15.1, "median_ft": 0.0, "left_sw_ft": 15.0, "right_sw_ft": 15.0}, "geometry": {"type": "LineString", "coordinates": [[-74.21821696426663, 40.5080092759176], [-74.21778546077996, 40.50801303130459]]}}, {"type": "Feature", "properties": {"segment_id": 1639581, "physicalid": "161166", "street_name": "KENNY RD", "borough": "staten_island", "direction": "TW", "total_row_ft": 45.4, "roadbed_ft": 15.4, "median_ft": 0.0, "left_sw_ft": 15.0, "right_sw_ft": 15.0}, "geometry": {"type": "LineString", "coordinates": [[-74.2182177844581, 40.50806416871942], [-74.2177862806172, 40.508067924109554]]}}, {"type": "Feature", "properties": {"segment_id": 1639582, "physicalid": "161166", "street_name": "KENNY RD", "borough": "staten_island", "direction": "TW", "total_row_ft": 45.9, "roadbed_ft": 15.9, "median_ft": 0.0, "left_sw_ft": 15.0, "right_sw_ft": 15.0}, "geometry": {"type": "LineString", "coordinates": [[-74.21821860465091, 40.508119061521064], [-74.21778710045581, 40.508122816914266]]}}, {"type": "Feature", "properties": {"segment_id": 1639583, "physicalid": "161166", "street_name": "KENNY RD", "borough": "staten_island", "direction": "TW", "total_row_ft": 45.8, "roadbed_ft": 15.8, "median_ft": 0.0, "left_sw_ft": 15.0, "right_sw_ft": 15.0}, "geometry": {"type": "LineString", "coordinates": [[-74.21821942484507, 40.50817395432247], [-74.21778792029575, 40.508177709718744]]}}, {"type": "Feature", "properties": {"segment_id": 1639584, "physicalid": "161166", "street_name": "KENNY RD", "borough": "staten_island", "direction": "TW", "total_row_ft": 45.4, "roadbed_ft": 15.4, "median_ft": 0.0, "left_sw_ft": 15.0, "right_sw_ft": 15.0}, "geometry": {"type": "LineString", "coordinates": [[-74.21822024504058, 40.50822884712371], [-74.21778874013704, 40.50823260252299]]}}, {"type": "Feature", "properties": {"segment_id": 1639585, "physicalid": "161166", "street_name": "KENNY RD", "borough": "staten_island", "direction": "TW", "total_row_ft": 45.0, "roadbed_ft": 15.0, "median_ft": 0.0, "left_sw_ft": 15.0, "right_sw_ft": 15.0}, "geometry": {"type": "LineString", "coordinates": [[-74.21822106523744, 40.508283739924664], [-74.21778955997968, 40.508287495327075]]}}, {"type": "Feature", "properties": {"segment_id": 1639586, "physicalid": "161166", "street_name": "KENNY RD", "borough": "staten_island", "direction": "TW", "total_row_ft": 44.4, "roadbed_ft": 14.4, "median_ft": 0.0, "left_sw_ft": 15.0, "right_sw_ft": 15.0}, "geometry": {"type": "LineString", "coordinates": [[-74.21822188543564, 40.508338632725426], [-74.21779037982365, 40.508342388130906]]}}, {"type": "Feature", "properties": {"segment_id": 1639587, "physicalid": "161166", "street_name": "KENNY RD", "borough": "staten_island", "direction": "TW", "total_row_ft": 44.0, "roadbed_ft": 14.0, "median_ft": 0.0, "left_sw_ft": 15.0, "right_sw_ft": 15.0}, "geometry": {"type": "LineString", "coordinates": [[-74.21822270563518, 40.50839352552602], [-74.21779119966898, 40.508397280934496]]}}, {"type": "Feature", "properties": {"segment_id": 1639588, "physicalid": "161166", "street_name": "KENNY RD", "borough": "staten_island", "direction": "TW", "total_row_ft": 43.9, "roadbed_ft": 13.9, "median_ft": 0.0, "left_sw_ft": 15.0, "right_sw_ft": 15.0}, "geometry": {"type": "LineString", "coordinates": [[-74.21822352583608, 40.50844841832632], [-74.21779201951566, 40.508452173737936]]}}, {"type": "Feature", "properties": {"segment_id": 1639589, "physicalid": "161166", "street_name": "KENNY RD", "borough": "staten_island", "direction": "TW", "total_row_ft": 43.8, "roadbed_ft": 13.8, "median_ft": 0.0, "left_sw_ft": 15.0, "right_sw_ft": 15.0}, "geometry": {"type": "LineString", "coordinates": [[-74.21822434603833, 40.50850331112643], [-74.21779283936367, 40.50850706654109]]}}, {"type": "Feature", "properties": {"segment_id": 1639590, "physicalid": "161166", "street_name": "KENNY RD", "borough": "staten_island", "direction": "TW", "total_row_ft": 43.7, "roadbed_ft": 13.7, "median_ft": 0.0, "left_sw_ft": 15.0, "right_sw_ft": 15.0}, "geometry": {"type": "LineString", "coordinates": [[-74.21822516624191, 40.50855820392637], [-74.21779365921304, 40.50856195934403]]}}, {"type": "Feature", "properties": {"segment_id": 1639591, "physicalid": "161166", "street_name": "KENNY RD", "borough": "staten_island", "direction": "TW", "total_row_ft": 43.7, "roadbed_ft": 13.7, "median_ft": 0.0, "left_sw_ft": 15.0, "right_sw_ft": 15.0}, "geometry": {"type": "LineString", "coordinates": [[-74.21822598644685, 40.508613096725995], [-74.21779447906374, 40.50861685214683]]}}, {"type": "Feature", "properties": {"segment_id": 1639592, "physicalid": "161166", "street_name": "KENNY RD", "borough": "staten_island", "direction": "TW", "total_row_ft": 43.9, "roadbed_ft": 13.9, "median_ft": 0.0, "left_sw_ft": 15.0, "right_sw_ft": 15.0}, "geometry": {"type": "LineString", "coordinates": [[-74.21822680665312, 40.508667989525456], [-74.2177952989158, 40.50867174494934]]}}, {"type": "Feature", "properties": {"segment_id": 1639593, "physicalid": "161166", "street_name": "KENNY RD", "borough": "staten_island", "direction": "TW", "total_row_ft": 44.0, "roadbed_ft": 14.0, "median_ft": 0.0, "left_sw_ft": 15.0, "right_sw_ft": 15.0}, "geometry": {"type": "LineString", "coordinates": [[-74.21822762686077, 40.5087228823247], [-74.2177961187692, 40.50872663775167]]}}, {"type": "Feature", "properties": {"segment_id": 1639594, "physicalid": "161166", "street_name": "KENNY RD", "borough": "staten_island", "direction": "TW", "total_row_ft": 44.4, "roadbed_ft": 14.4, "median_ft": 0.0, "left_sw_ft": 15.0, "right_sw_ft": 15.0}, "geometry": {"type": "LineString", "coordinates": [[-74.21822844706973, 40.50877777512376], [-74.21779693862395, 40.50878153055374]]}}, {"type": "Feature", "properties": {"segment_id": 1639595, "physicalid": "161166", "street_name": "KENNY RD", "borough": "staten_island", "direction": "TW", "total_row_ft": 44.8, "roadbed_ft": 14.8, "median_ft": 0.0, "left_sw_ft": 15.0, "right_sw_ft": 15.0}, "geometry": {"type": "LineString", "coordinates": [[-74.21822926728007, 40.50883266792254], [-74.21779775848005, 40.508836423355625]]}}, {"type": "Feature", "properties": {"segment_id": 1639596, "physicalid": "161166", "street_name": "KENNY RD", "borough": "staten_island", "direction": "TW", "total_row_ft": 45.2, "roadbed_ft": 15.2, "median_ft": 0.0, "left_sw_ft": 15.0, "right_sw_ft": 15.0}, "geometry": {"type": "LineString", "coordinates": [[-74.21823008749173, 40.50888756072113], [-74.2177985783375, 40.50889131615731]]}}, {"type": "Feature", "properties": {"segment_id": 1639597, "physicalid": "161166", "street_name": "KENNY RD", "borough": "staten_island", "direction": "TW", "total_row_ft": 45.5, "roadbed_ft": 15.5, "median_ft": 0.0, "left_sw_ft": 15.0, "right_sw_ft": 15.0}, "geometry": {"type": "LineString", "coordinates": [[-74.21823090770475, 40.50894245351955], [-74.21779939819629, 40.508946208958704]]}}, {"type": "Feature", "properties": {"segment_id": 1639598, "physicalid": "161166", "street_name": "KENNY RD", "borough": "staten_island", "direction": "TW", "total_row_ft": 45.5, "roadbed_ft": 15.5, "median_ft": 0.0, "left_sw_ft": 15.0, "right_sw_ft": 15.0}, "geometry": {"type": "LineString", "coordinates": [[-74.2182317279191, 40.508997346317656], [-74.21780021805641, 40.50900110175998]]}}, {"type": "Feature", "properties": {"segment_id": 1639599, "physicalid": "161166", "street_name": "KENNY RD", "borough": "staten_island", "direction": "TW", "total_row_ft": 45.4, "roadbed_ft": 15.4, "median_ft": 0.0, "left_sw_ft": 15.0, "right_sw_ft": 15.0}, "geometry": {"type": "LineString", "coordinates": [[-74.21823254813482, 40.5090522391156], [-74.2178010379179, 40.50905599456099]]}}, {"type": "Feature", "properties": {"segment_id": 1639600, "physicalid": "161166", "street_name": "KENNY RD", "borough": "staten_island", "direction": "TW", "total_row_ft": 45.2, "roadbed_ft": 15.2, "median_ft": 0.0, "left_sw_ft": 15.0, "right_sw_ft": 15.0}, "geometry": {"type": "LineString", "coordinates": [[-74.21823336835187, 40.50910713191337], [-74.21780185778073, 40.50911088736172]]}}, {"type": "Feature", "properties": {"segment_id": 1639601, "physicalid": "161166", "street_name": "KENNY RD", "borough": "staten_island", "direction": "TW", "total_row_ft": 45.1, "roadbed_ft": 15.1, "median_ft": 0.0, "left_sw_ft": 15.0, "right_sw_ft": 15.0}, "geometry": {"type": "LineString", "coordinates": [[-74.21823418857026, 40.50916202471086], [-74.2178026776449, 40.509165780162306]]}}, {"type": "Feature", "properties": {"segment_id": 1639602, "physicalid": "161166", "street_name": "KENNY RD", "borough": "staten_island", "direction": "TW", "total_row_ft": 45.0, "roadbed_ft": 15.0, "median_ft": 0.0, "left_sw_ft": 15.0, "right_sw_ft": 15.0}, "geometry": {"type": "LineString", "coordinates": [[-74.21823500879002, 40.50921691750811], [-74.21780349751042, 40.50922067296269]]}}, {"type": "Feature", "properties": {"segment_id": 1639603, "physicalid": "161166", "street_name": "KENNY RD", "borough": "staten_island", "direction": "TW", "total_row_ft": 45.0, "roadbed_ft": 15.0, "median_ft": 0.0, "left_sw_ft": 15.0, "right_sw_ft": 15.0}, "geometry": {"type": "LineString", "coordinates": [[-74.21823582901112, 40.509271810305165], [-74.21780431737729, 40.509275565762835]]}}, {"type": "Feature", "properties": {"segment_id": 1639604, "physicalid": "161166", "street_name": "KENNY RD", "borough": "staten_island", "direction": "TW", "total_row_ft": 45.5, "roadbed_ft": 15.5, "median_ft": 0.0, "left_sw_ft": 15.0, "right_sw_ft": 15.0}, "geometry": {"type": "LineString", "coordinates": [[-74.21823664923356, 40.50932670310206], [-74.21780513724549, 40.509330458562715]]}}, {"type": "Feature", "properties": {"segment_id": 1639605, "physicalid": "161166", "street_name": "KENNY RD", "borough": "staten_island", "direction": "TW", "total_row_ft": 46.1, "roadbed_ft": 16.1, "median_ft": 0.0, "left_sw_ft": 15.0, "right_sw_ft": 15.0}, "geometry": {"type": "LineString", "coordinates": [[-74.21823746945735, 40.50938159589865], [-74.21780595711506, 40.50938535136246]]}}, {"type": "Feature", "properties": {"segment_id": 1639606, "physicalid": "161166", "street_name": "KENNY RD", "borough": "staten_island", "direction": "TW", "total_row_ft": 46.9, "roadbed_ft": 16.9, "median_ft": 0.0, "left_sw_ft": 15.0, "right_sw_ft": 15.0}, "geometry": {"type": "LineString", "coordinates": [[-74.2182382896825, 40.509436488695066], [-74.21780677698597, 40.50944024416192]]}}, {"type": "Feature", "properties": {"segment_id": 1639607, "physicalid": "161166", "street_name": "KENNY RD", "borough": "staten_island", "direction": "TW", "total_row_ft": 46.2, "roadbed_ft": 16.2, "median_ft": 0.0, "left_sw_ft": 15.0, "right_sw_ft": 15.0}, "geometry": {"type": "LineString", "coordinates": [[-74.21823910990898, 40.509491381491294], [-74.21780759685821, 40.50949513696114]]}}, {"type": "Feature", "properties": {"segment_id": 1639608, "physicalid": "161166", "street_name": "KENNY RD", "borough": "staten_island", "direction": "TW", "total_row_ft": 76.7, "roadbed_ft": 16.0, "median_ft": 0.0, "left_sw_ft": 45.6, "right_sw_ft": 15.0}, "geometry": {"type": "LineString", "coordinates": [[-74.2182251500382, 40.509507425685904], [-74.21782007193181, 40.509590375862174]]}}, {"type": "Feature", "properties": {"segment_id": 1639609, "physicalid": "161166", "street_name": "KENNY RD", "borough": "staten_island", "direction": "TW", "total_row_ft": 150.0, "roadbed_ft": 120.0, "median_ft": 0.0, "left_sw_ft": 15.0, "right_sw_ft": 15.0}, "geometry": {"type": "LineString", "coordinates": [[-74.21825551083496, 40.5095580462657], [-74.21783870914663, 40.5096433971763]]}}, {"type": "Feature", "properties": {"segment_id": 1639610, "physicalid": "161167", "street_name": "KENNY RD", "borough": "staten_island", "direction": "TW", "total_row_ft": 150.0, "roadbed_ft": 120.0, "median_ft": 0.0, "left_sw_ft": 15.0, "right_sw_ft": 15.0}, "geometry": {"type": "LineString", "coordinates": [[-74.21829073870686, 40.50964998541489], [-74.21788127367793, 40.509753988304396]]}}, {"type": "Feature", "properties": {"segment_id": 1639611, "physicalid": "161167", "street_name": "KENNY RD", "borough": "staten_island", "direction": "TW", "total_row_ft": 135.0, "roadbed_ft": 76.2, "median_ft": 0.0, "left_sw_ft": 15.0, "right_sw_ft": 43.8}, "geometry": {"type": "LineString", "coordinates": [[-74.21831344916458, 40.50970207327645], [-74.21790398385198, 40.5098060762466]]}}, {"type": "Feature", "properties": {"segment_id": 1639612, "physicalid": "161167", "street_name": "KENNY RD", "borough": "staten_island", "direction": "TW", "total_row_ft": 50.7, "roadbed_ft": 20.7, "median_ft": 0.0, "left_sw_ft": 15.0, "right_sw_ft": 15.0}, "geometry": {"type": "LineString", "coordinates": [[-74.21832687504478, 40.509710734931765], [-74.21796546464606, 40.50989072758148]]}}, {"type": "Feature", "properties": {"segment_id": 1639613, "physicalid": "161167", "street_name": "KENNY RD", "borough": "staten_island", "direction": "TW", "total_row_ft": 50.8, "roadbed_ft": 20.8, "median_ft": 0.0, "left_sw_ft": 15.0, "right_sw_ft": 15.0}, "geometry": {"type": "LineString", "coordinates": [[-74.21836617878976, 40.50975670968655], [-74.21800476824832, 40.50993670245945]]}}, {"type": "Feature", "properties": {"segment_id": 1639614, "physicalid": "161167", "street_name": "KENNY RD", "borough": "staten_island", "direction": "TW", "total_row_ft": 50.7, "roadbed_ft": 20.7, "median_ft": 0.0, "left_sw_ft": 15.0, "right_sw_ft": 15.0}, "geometry": {"type": "LineString", "coordinates": [[-74.21840548258879, 40.50980268442774], [-74.21804407190464, 40.50998267732379]]}}, {"type": "Feature", "properties": {"segment_id": 1639615, "physicalid": "161167", "street_name": "KENNY RD", "borough": "staten_island", "direction": "TW", "total_row_ft": 49.9, "roadbed_ft": 19.9, "median_ft": 0.0, "left_sw_ft": 15.0, "right_sw_ft": 15.0}, "geometry": {"type": "LineString", "coordinates": [[-74.21844478644185, 40.50984865915527], [-74.21808337561505, 40.51002865217456]]}}, {"type": "Feature", "properties": {"segment_id": 1639616, "physicalid": "161167", "street_name": "KENNY RD", "borough": "staten_island", "direction": "TW", "total_row_ft": 49.1, "roadbed_ft": 19.1, "median_ft": 0.0, "left_sw_ft": 15.0, "right_sw_ft": 15.0}, "geometry": {"type": "LineString", "coordinates": [[-74.21848409034898, 40.50989463386924], [-74.21812267937948, 40.51007462701172]]}}]}