{"type": "FeatureCollection", "features": [{"type": "Feature", "properties": {"segment_id": 1678212, "physicalid": "170279", "street_name": "VICTORY BLVD", "borough": "staten_island", "direction": "TW", "total_row_ft": 58.0, "roadbed_ft": 28.0, "median_ft": 0.0, "left_sw_ft": 15.0, "right_sw_ft": 15.0}, "geometry": {"type": "LineString", "coordinates": [[-74.19994406794912, 40.58638986355959], [-74.20015274782823, 40.58667826985093]]}}, {"type": "Feature", "properties": {"segment_id": 1678213, "physicalid": "170279", "street_name": "VICTORY BLVD", "borough": "staten_island", "direction": "TW", "total_row_ft": 57.7, "roadbed_ft": 27.7, "median_ft": 0.0, "left_sw_ft": 15.0, "right_sw_ft": 15.0}, "geometry": {"type": "LineString", "coordinates": [[-74.20000711770982, 40.586363348177464], [-74.20021579777838, 40.58665175435501]]}}, {"type": "Feature", "properties": {"segment_id": 1678214, "physicalid": "170279", "street_name": "VICTORY BLVD", "borough": "staten_island", "direction": "TW", "total_row_ft": 57.2, "roadbed_ft": 27.2, "median_ft": 0.0, "left_sw_ft": 15.0, "right_sw_ft": 15.0}, "geometry": {"type": "LineString", "coordinates": [[-74.20007016742044, 40.58633683276071], [-74.20027884767845, 40.58662523882443]]}}, {"type": "Feature", "properties": {"segment_id": 1678215, "physicalid": "170279", "street_name": "VICTORY BLVD", "borough": "staten_island", "direction": "TW", "total_row_ft": 57.0, "roadbed_ft": 27.0, "median_ft": 0.0, "left_sw_ft": 15.0, "right_sw_ft": 15.0}, "geometry": {"type": "LineString", "coordinates": [[-74.20013321708102, 40.586310317309255], [-74.20034189752846, 40.58659872325921]]}}, {"type": "Feature", "properties": {"segment_id": 1678216, "physicalid": "170279", "street_name": "VICTORY BLVD", "borough": "staten_island", "direction": "TW", "total_row_ft": 57.5, "roadbed_ft": 27.5, "median_ft": 0.0, "left_sw_ft": 15.0, "right_sw_ft": 15.0}, "geometry": {"type": "LineString", "coordinates": [[-74.2001962666915, 40.58628380182314], [-74.2004049473284, 40.5865722076593]]}}, {"type": "Feature", "properties": {"segment_id": 1678217, "physicalid": "170279", "street_name": "VICTORY BLVD", "borough": "staten_island", "direction": "TW", "total_row_ft": 58.2, "roadbed_ft": 28.2, "median_ft": 0.0, "left_sw_ft": 15.0, "right_sw_ft": 15.0}, "geometry": {"type": "LineString", "coordinates": [[-74.20025931625196, 40.58625728630236], [-74.20046799707825, 40.58654569202474]]}}, {"type": "Feature", "properties": {"segment_id": 1678218, "physicalid": "170279", "street_name": "VICTORY BLVD", "borough": "staten_island", "direction": "TW", "total_row_ft": 58.9, "roadbed_ft": 28.9, "median_ft": 0.0, "left_sw_ft": 15.0, "right_sw_ft": 15.0}, "geometry": {"type": "LineString", "coordinates": [[-74.20032236576232, 40.58623077074695], [-74.20053104677808, 40.586519176355516]]}}, {"type": "Feature", "properties": {"segment_id": 1678219, "physicalid": "170279", "street_name": "VICTORY BLVD", "borough": "staten_island", "direction": "TW", "total_row_ft": 59.6, "roadbed_ft": 29.6, "median_ft": 0.0, "left_sw_ft": 15.0, "right_sw_ft": 15.0}, "geometry": {"type": "LineString", "coordinates": [[-74.20038541522264, 40.58620425515686], [-74.20059409642779, 40.58649266065163]]}}, {"type": "Feature", "properties": {"segment_id": 1678220, "physicalid": "170279", "street_name": "VICTORY BLVD", "borough": "staten_island", "direction": "TW", "total_row_ft": 59.7, "roadbed_ft": 29.7, "median_ft": 0.0, "left_sw_ft": 15.0, "right_sw_ft": 15.0}, "geometry": {"type": "LineString", "coordinates": [[-74.20044846463286, 40.5861777395321], [-74.2006571460275, 40.58646614491307]]}}, {"type": "Feature", "properties": {"segment_id": 1678221, "physicalid": "170279", "street_name": "VICTORY BLVD", "borough": "staten_island", "direction": "TW", "total_row_ft": 59.7, "roadbed_ft": 29.7, "median_ft": 0.0, "left_sw_ft": 15.0, "right_sw_ft": 15.0}, "geometry": {"type": "LineString", "coordinates": [[-74.20051151399305, 40.586151223872655], [-74.20072019557706, 40.58643962913985]]}}, {"type": "Feature", "properties": {"segment_id": 1678222, "physicalid": "170279", "street_name": "VICTORY BLVD", "borough": "staten_island", "direction": "TW", "total_row_ft": 59.8, "roadbed_ft": 29.8, "median_ft": 0.0, "left_sw_ft": 15.0, "right_sw_ft": 15.0}, "geometry": {"type": "LineString", "coordinates": [[-74.20057456330315, 40.58612470817857], [-74.20078324507658, 40.586413113331986]]}}, {"type": "Feature", "properties": {"segment_id": 1678223, "physicalid": "170279", "street_name": "VICTORY BLVD", "borough": "staten_island", "direction": "TW", "total_row_ft": 59.9, "roadbed_ft": 29.9, "median_ft": 0.0, "left_sw_ft": 15.0, "right_sw_ft": 15.0}, "geometry": {"type": "LineString", "coordinates": [[-74.2006376125632, 40.5860981924498], [-74.20084629452604, 40.58638659748944]]}}, {"type": "Feature", "properties": {"segment_id": 1678224, "physicalid": "170279", "street_name": "VICTORY BLVD", "borough": "staten_island", "direction": "TW", "total_row_ft": 59.7, "roadbed_ft": 29.7, "median_ft": 0.0, "left_sw_ft": 15.0, "right_sw_ft": 15.0}, "geometry": {"type": "LineString", "coordinates": [[-74.20070066177317, 40.5860716766864], [-74.20090934392545, 40.58636008161224]]}}, {"type": "Feature", "properties": {"segment_id": 1678225, "physicalid": "170279", "street_name": "VICTORY BLVD", "borough": "staten_island", "direction": "TW", "total_row_ft": 59.5, "roadbed_ft": 29.5, "median_ft": 0.0, "left_sw_ft": 15.0, "right_sw_ft": 15.0}, "geometry": {"type": "LineString", "coordinates": [[-74.20076371093305, 40.58604516088834], [-74.20097239327478, 40.58633356570034]]}}, {"type": "Feature", "properties": {"segment_id": 1678226, "physicalid": "170279", "street_name": "VICTORY BLVD", "borough": "staten_island", "direction": "TW", "total_row_ft": 59.2, "roadbed_ft": 29.2, "median_ft": 0.0, "left_sw_ft": 15.0, "right_sw_ft": 15.0}, "geometry": {"type": "LineString", "coordinates": [[-74.20082676004289, 40.586018645055574], [-74.20103544257404, 40.58630704975382]]}}, {"type": "Feature", "properties": {"segment_id": 1678227, "physicalid": "170279", "street_name": "VICTORY BLVD", "borough": "staten_island", "direction": "TW", "total_row_ft": 58.7, "roadbed_ft": 28.7, "median_ft": 0.0, "left_sw_ft": 15.0, "right_sw_ft": 15.0}, "geometry": {"type": "LineString", "coordinates": [[-74.20088980910263, 40.58599212918819], [-74.20109849182326, 40.5862805337726]]}}, {"type": "Feature", "properties": {"segment_id": 1678228, "physicalid": "170279", "street_name": "VICTORY BLVD", "borough": "staten_island", "direction": "TW", "total_row_ft": 58.2, "roadbed_ft": 28.2, "median_ft": 0.0, "left_sw_ft": 15.0, "right_sw_ft": 15.0}, "geometry": {"type": "LineString", "coordinates": [[-74.20095285811237, 40.58596561328613], [-74.20116154102236, 40.58625401775675]]}}, {"type": "Feature", "properties": {"segment_id": 1678229, "physicalid": "170279", "street_name": "VICTORY BLVD", "borough": "staten_island", "direction": "TW", "total_row_ft": 57.7, "roadbed_ft": 27.7, "median_ft": 0.0, "left_sw_ft": 15.0, "right_sw_ft": 15.0}, "geometry": {"type": "LineString", "coordinates": [[-74.20101590707198, 40.585939097349396], [-74.20122459017144, 40.58622750170623]]}}, {"type": "Feature", "properties": {"segment_id": 1678230, "physicalid": "170279", "street_name": "VICTORY BLVD", "borough": "staten_island", "direction": "TW", "total_row_ft": 57.2, "roadbed_ft": 27.2, "median_ft": 0.0, "left_sw_ft": 15.0, "right_sw_ft": 15.0}, "geometry": {"type": "LineString", "coordinates": [[-74.20107895598157, 40.58591258137801], [-74.2012876392704, 40.58620098562107]]}}, {"type": "Feature", "properties": {"segment_id": 1678231, "physicalid": "170279", "street_name": "VICTORY BLVD", "borough": "staten_island", "direction": "TW", "total_row_ft": 56.7, "roadbed_ft": 26.7, "median_ft": 0.0, "left_sw_ft": 15.0, "right_sw_ft": 15.0}, "geometry": {"type": "LineString", "coordinates": [[-74.20114200484105, 40.58588606537196], [-74.20135068831935, 40.5861744695012]]}}, {"type": "Feature", "properties": {"segment_id": 1678232, "physicalid": "170279", "street_name": "VICTORY BLVD", "borough": "staten_island", "direction": "TW", "total_row_ft": 56.2, "roadbed_ft": 26.2, "median_ft": 0.0, "left_sw_ft": 15.0, "right_sw_ft": 15.0}, "geometry": {"type": "LineString", "coordinates": [[-74.2012050536505, 40.585859549331225], [-74.20141373731819, 40.5861479533467]]}}, {"type": "Feature", "properties": {"segment_id": 1678233, "physicalid": "170279", "street_name": "VICTORY BLVD", "borough": "staten_island", "direction": "TW", "total_row_ft": 55.9, "roadbed_ft": 25.9, "median_ft": 0.0, "left_sw_ft": 15.0, "right_sw_ft": 15.0}, "geometry": {"type": "LineString", "coordinates": [[-74.20126810240986, 40.58583303325584], [-74.20147678626698, 40.5861214371575]]}}, {"type": "Feature", "properties": {"segment_id": 1678234, "physicalid": "170279", "street_name": "VICTORY BLVD", "borough": "staten_island", "direction": "TW", "total_row_ft": 55.6, "roadbed_ft": 25.6, "median_ft": 0.0, "left_sw_ft": 15.0, "right_sw_ft": 15.0}, "geometry": {"type": "LineString", "coordinates": [[-74.20133115111916, 40.5858065171458], [-74.20153983516569, 40.58609492093369]]}}, {"type": "Feature", "properties": {"segment_id": 1678235, "physicalid": "170279", "street_name": "VICTORY BLVD", "borough": "staten_island", "direction": "TW", "total_row_ft": 55.2, "roadbed_ft": 25.2, "median_ft": 0.0, "left_sw_ft": 15.0, "right_sw_ft": 15.0}, "geometry": {"type": "LineString", "coordinates": [[-74.2013941997784, 40.58578000100109], [-74.20160288401435, 40.58606840467519]]}}, {"type": "Feature", "properties": {"segment_id": 1678236, "physicalid": "170279", "street_name": "VICTORY BLVD", "borough": "staten_island", "direction": "TW", "total_row_ft": 55.0, "roadbed_ft": 25.0, "median_ft": 0.0, "left_sw_ft": 15.0, "right_sw_ft": 15.0}, "geometry": {"type": "LineString", "coordinates": [[-74.20145724838754, 40.585753484821744], [-74.20166593281294, 40.58604188838203]]}}, {"type": "Feature", "properties": {"segment_id": 1678237, "physicalid": "170279", "street_name": "VICTORY BLVD", "borough": "staten_island", "direction": "TW", "total_row_ft": 54.9, "roadbed_ft": 24.9, "median_ft": 0.0, "left_sw_ft": 15.0, "right_sw_ft": 15.0}, "geometry": {"type": "LineString", "coordinates": [[-74.20152029694667, 40.58572696860771], [-74.20172898156144, 40.58601537205419]]}}, {"type": "Feature", "properties": {"segment_id": 1678238, "physicalid": "170279", "street_name": "VICTORY BLVD", "borough": "staten_island", "direction": "TW", "total_row_ft": 54.7, "roadbed_ft": 24.7, "median_ft": 0.0, "left_sw_ft": 15.0, "right_sw_ft": 15.0}, "geometry": {"type": "LineString", "coordinates": [[-74.20158334545567, 40.58570045235901], [-74.20179203025992, 40.585988855691696]]}}, {"type": "Feature", "properties": {"segment_id": 1678239, "physicalid": "170279", "street_name": "VICTORY BLVD", "borough": "staten_island", "direction": "TW", "total_row_ft": 54.6, "roadbed_ft": 24.6, "median_ft": 0.0, "left_sw_ft": 15.0, "right_sw_ft": 15.0}, "geometry": {"type": "LineString", "coordinates": [[-74.20164639391466, 40.58567393607565], [-74.20185507890828, 40.585962339294554]]}}, {"type": "Feature", "properties": {"segment_id": 1678240, "physicalid": "170279", "street_name": "VICTORY BLVD", "borough": "staten_island", "direction": "TW", "total_row_ft": 55.3, "roadbed_ft": 25.3, "median_ft": 0.0, "left_sw_ft": 15.0, "right_sw_ft": 15.0}, "geometry": {"type": "LineString", "coordinates": [[-74.20170944231413, 40.58564741975976], [-74.20191812751398, 40.58593582285778]]}}, {"type": "Feature", "properties": {"segment_id": 1678241, "physicalid": "170279", "street_name": "VICTORY BLVD", "borough": "staten_island", "direction": "TW", "total_row_ft": 64.4, "roadbed_ft": 34.4, "median_ft": 0.0, "left_sw_ft": 15.0, "right_sw_ft": 15.0}, "geometry": {"type": "LineString", "coordinates": [[-74.2017724906714, 40.58562090340495], [-74.20198117606067, 40.58590930638919]]}}, {"type": "Feature", "properties": {"segment_id": 1678242, "physicalid": "170279", "street_name": "VICTORY BLVD", "borough": "staten_island", "direction": "TW", "total_row_ft": 64.4, "roadbed_ft": 34.4, "median_ft": 0.0, "left_sw_ft": 15.0, "right_sw_ft": 15.0}, "geometry": {"type": "LineString", "coordinates": [[-74.20183553897864, 40.58559438701546], [-74.20204422455731, 40.58588278988591]]}}, {"type": "Feature", "properties": {"segment_id": 1678243, "physicalid": "170279", "street_name": "VICTORY BLVD", "borough": "staten_island", "direction": "TW", "total_row_ft": 63.9, "roadbed_ft": 33.9, "median_ft": 0.0, "left_sw_ft": 15.0, "right_sw_ft": 15.0}, "geometry": {"type": "LineString", "coordinates": [[-74.20189858723577, 40.58556787059132], [-74.20210727300388, 40.58585627334797]]}}, {"type": "Feature", "properties": {"segment_id": 1678244, "physicalid": "170279", "street_name": "VICTORY BLVD", "borough": "staten_island", "direction": "TW", "total_row_ft": 63.8, "roadbed_ft": 33.8, "median_ft": 0.0, "left_sw_ft": 15.0, "right_sw_ft": 15.0}, "geometry": {"type": "LineString", "coordinates": [[-74.20196163544286, 40.585541354132516], [-74.20217032140037, 40.58582975677537]]}}, {"type": "Feature", "properties": {"segment_id": 1678245, "physicalid": "170279", "street_name": "VICTORY BLVD", "borough": "staten_island", "direction": "TW", "total_row_ft": 55.9, "roadbed_ft": 25.9, "median_ft": 0.0, "left_sw_ft": 15.0, "right_sw_ft": 15.0}, "geometry": {"type": "LineString", "coordinates": [[-74.20202468359987, 40.58551483763907], [-74.20223336974679, 40.58580324016812]]}}, {"type": "Feature", "properties": {"segment_id": 1678246, "physicalid": "170279", "street_name": "VICTORY BLVD", "borough": "staten_island", "direction": "TW", "total_row_ft": 53.3, "roadbed_ft": 23.3, "median_ft": 0.0, "left_sw_ft": 15.0, "right_sw_ft": 15.0}, "geometry": {"type": "LineString", "coordinates": [[-74.20208773170681, 40.58548832111094], [-74.20229641804318, 40.585776723526195]]}}, {"type": "Feature", "properties": {"segment_id": 1678247, "physicalid": "170279", "street_name": "VICTORY BLVD", "borough": "staten_island", "direction": "TW", "total_row_ft": 53.3, "roadbed_ft": 23.3, "median_ft": 0.0, "left_sw_ft": 15.0, "right_sw_ft": 15.0}, "geometry": {"type": "LineString", "coordinates": [[-74.20215077976373, 40.58546180454814], [-74.20235946628947, 40.58575020684962]]}}, {"type": "Feature", "properties": {"segment_id": 1678248, "physicalid": "170279", "street_name": "VICTORY BLVD", "borough": "staten_island", "direction": "TW", "total_row_ft": 53.9, "roadbed_ft": 23.9, "median_ft": 0.0, "left_sw_ft": 15.0, "right_sw_ft": 15.0}, "geometry": {"type": "LineString", "coordinates": [[-74.20221382777054, 40.58543528795071], [-74.2024225144857, 40.58572369013836]]}}, {"type": "Feature", "properties": {"segment_id": 1678249, "physicalid": "170279", "street_name": "VICTORY BLVD", "borough": "staten_island", "direction": "TW", "total_row_ft": 54.3, "roadbed_ft": 24.3, "median_ft": 0.0, "left_sw_ft": 15.0, "right_sw_ft": 15.0}, "geometry": {"type": "LineString", "coordinates": [[-74.20227687572726, 40.58540877131858], [-74.20248556263186, 40.58569717339244]]}}, {"type": "Feature", "properties": {"segment_id": 1678250, "physicalid": "170279", "street_name": "VICTORY BLVD", "borough": "staten_island", "direction": "TW", "total_row_ft": 53.8, "roadbed_ft": 23.8, "median_ft": 0.0, "left_sw_ft": 15.0, "right_sw_ft": 15.0}, "geometry": {"type": "LineString", "coordinates": [[-74.20233992363394, 40.58538225465183], [-74.20254861072797, 40.585670656611896]]}}, {"type": "Feature", "properties": {"segment_id": 1678251, "physicalid": "170279", "street_name": "VICTORY BLVD", "borough": "staten_island", "direction": "TW", "total_row_ft": 53.8, "roadbed_ft": 23.8, "median_ft": 0.0, "left_sw_ft": 15.0, "right_sw_ft": 15.0}, "geometry": {"type": "LineString", "coordinates": [[-74.20240297149057, 40.585355737950366], [-74.20261165877398, 40.58564413979666]]}}, {"type": "Feature", "properties": {"segment_id": 1678252, "physicalid": "170279", "street_name": "VICTORY BLVD", "borough": "staten_island", "direction": "TW", "total_row_ft": 54.3, "roadbed_ft": 24.3, "median_ft": 0.0, "left_sw_ft": 15.0, "right_sw_ft": 15.0}, "geometry": {"type": "LineString", "coordinates": [[-74.20253068132129, 40.5853178732539], [-74.2026157301792, 40.58564080418612]]}}, {"type": "Feature", "properties": {"segment_id": 1678253, "physicalid": "170279", "street_name": "VICTORY BLVD", "borough": "staten_island", "direction": "TW", "total_row_ft": 55.3, "roadbed_ft": 25.3, "median_ft": 0.0, "left_sw_ft": 15.0, "right_sw_ft": 15.0}, "geometry": {"type": "LineString", "coordinates": [[-74.20260127750164, 40.58530706655183], [-74.20268632668717, 40.58562999743212]]}}, {"type": "Feature", "properties": {"segment_id": 1678254, "physicalid": "170279", "street_name": "VICTORY BLVD", "borough": "staten_island", "direction": "TW", "total_row_ft": 56.7, "roadbed_ft": 26.7, "median_ft": 0.0, "left_sw_ft": 15.0, "right_sw_ft": 15.0}, "geometry": {"type": "LineString", "coordinates": [[-74.20267187365917, 40.58529625980637], [-74.20275692317227, 40.58561919063476]]}}, {"type": "Feature", "properties": {"segment_id": 1678255, "physicalid": "170279", "street_name": "VICTORY BLVD", "borough": "staten_island", "direction": "TW", "total_row_ft": 59.7, "roadbed_ft": 29.7, "median_ft": 0.0, "left_sw_ft": 15.0, "right_sw_ft": 15.0}, "geometry": {"type": "LineString", "coordinates": [[-74.20274246979383, 40.58528545301755], [-74.20282751963455, 40.58560838379401]]}}, {"type": "Feature", "properties": {"segment_id": 1678256, "physicalid": "170279", "street_name": "VICTORY BLVD", "borough": "staten_island", "direction": "TW", "total_row_ft": 63.3, "roadbed_ft": 33.3, "median_ft": 0.0, "left_sw_ft": 15.0, "right_sw_ft": 15.0}, "geometry": {"type": "LineString", "coordinates": [[-74.20281306590564, 40.58527464618534], [-74.20289811607398, 40.585597576909855]]}}, {"type": "Feature", "properties": {"segment_id": 1678257, "physicalid": "170279", "street_name": "VICTORY BLVD", "borough": "staten_island", "direction": "TW", "total_row_ft": 67.2, "roadbed_ft": 37.2, "median_ft": 0.0, "left_sw_ft": 15.0, "right_sw_ft": 15.0}, "geometry": {"type": "LineString", "coordinates": [[-74.20288366199462, 40.58526383930973], [-74.20296871249056, 40.585586769982314]]}}, {"type": "Feature", "properties": {"segment_id": 1678258, "physicalid": "170279", "street_name": "VICTORY BLVD", "borough": "staten_island", "direction": "TW", "total_row_ft": 70.5, "roadbed_ft": 40.5, "median_ft": 0.0, "left_sw_ft": 15.0, "right_sw_ft": 15.0}, "geometry": {"type": "LineString", "coordinates": [[-74.20295425806073, 40.58525303239077], [-74.2030393088843, 40.585575963011394]]}}, {"type": "Feature", "properties": {"segment_id": 1678259, "physicalid": "170279", "street_name": "VICTORY BLVD", "borough": "staten_island", "direction": "TW", "total_row_ft": 74.2, "roadbed_ft": 44.2, "median_ft": 0.0, "left_sw_ft": 15.0, "right_sw_ft": 15.0}, "geometry": {"type": "LineString", "coordinates": [[-74.20302485410402, 40.58524222542837], [-74.20310990525515, 40.58556515599709]]}}, {"type": "Feature", "properties": {"segment_id": 1678260, "physicalid": "170279", "street_name": "VICTORY BLVD", "borough": "staten_island", "direction": "TW", "total_row_ft": 77.1, "roadbed_ft": 47.1, "median_ft": 0.0, "left_sw_ft": 15.0, "right_sw_ft": 15.0}, "geometry": {"type": "LineString", "coordinates": [[-74.20309545012444, 40.5852314184226], [-74.20318050160319, 40.585554348939404]]}}, {"type": "Feature", "properties": {"segment_id": 1678261, "physicalid": "170279", "street_name": "VICTORY BLVD", "borough": "staten_island", "direction": "TW", "total_row_ft": 79.3, "roadbed_ft": 49.3, "median_ft": 0.0, "left_sw_ft": 15.0, "right_sw_ft": 15.0}, "geometry": {"type": "LineString", "coordinates": [[-74.20316604612202, 40.58522061137346], [-74.20325109792839, 40.585543541838334]]}}, {"type": "Feature", "properties": {"segment_id": 1678262, "physicalid": "170279", "street_name": "VICTORY BLVD", "borough": "staten_island", "direction": "TW", "total_row_ft": 81.1, "roadbed_ft": 51.1, "median_ft": 0.0, "left_sw_ft": 15.0, "right_sw_ft": 15.0}, "geometry": {"type": "LineString", "coordinates": [[-74.20323664209675, 40.58520980428093], [-74.20332169423071, 40.585532734693864]]}}, {"type": "Feature", "properties": {"segment_id": 1678263, "physicalid": "170279", "street_name": "VICTORY BLVD", "borough": "staten_island", "direction": "TW", "total_row_ft": 85.3, "roadbed_ft": 55.3, "median_ft": 0.0, "left_sw_ft": 15.0, "right_sw_ft": 15.0}, "geometry": {"type": "LineString", "coordinates": [[-74.20330723804861, 40.58519899714502], [-74.20339229051021, 40.585521927506]]}}, {"type": "Feature", "properties": {"segment_id": 1678264, "physicalid": "170279", "street_name": "VICTORY BLVD", "borough": "staten_island", "direction": "TW", "total_row_ft": 87.4, "roadbed_ft": 57.4, "median_ft": 0.0, "left_sw_ft": 15.0, "right_sw_ft": 15.0}, "geometry": {"type": "LineString", "coordinates": [[-74.20337783397767, 40.58518818996569], [-74.20346288676683, 40.585511120274774]]}}, {"type": "Feature", "properties": {"segment_id": 1678265, "physicalid": "170279", "street_name": "VICTORY BLVD", "borough": "staten_island", "direction": "TW", "total_row_ft": 86.8, "roadbed_ft": 56.8, "median_ft": 0.0, "left_sw_ft": 15.0, "right_sw_ft": 15.0}, "geometry": {"type": "LineString", "coordinates": [[-74.20344842988386, 40.585177382743005], [-74.20353348300061, 40.585500313000146]]}}, {"type": "Feature", "properties": {"segment_id": 1678266, "physicalid": "170279", "street_name": "VICTORY BLVD", "borough": "staten_island", "direction": "TW", "total_row_ft": 83.5, "roadbed_ft": 53.5, "median_ft": 0.0, "left_sw_ft": 15.0, "right_sw_ft": 15.0}, "geometry": {"type": "LineString", "coordinates": [[-74.20351902576718, 40.585166575476926], [-74.20360407921157, 40.58548950568211]]}}, {"type": "Feature", "properties": {"segment_id": 1678267, "physicalid": "170279", "street_name": "VICTORY BLVD", "borough": "staten_island", "direction": "TW", "total_row_ft": 79.7, "roadbed_ft": 49.7, "median_ft": 0.0, "left_sw_ft": 15.0, "right_sw_ft": 15.0}, "geometry": {"type": "LineString", "coordinates": [[-74.20358962162769, 40.58515576816746], [-74.20367467539965, 40.58547869832072]]}}, {"type": "Feature", "properties": {"segment_id": 1678268, "physicalid": "170279", "street_name": "VICTORY BLVD", "borough": "staten_island", "direction": "TW", "total_row_ft": 30.0, "roadbed_ft": 0.0, "median_ft": 0.0, "left_sw_ft": 15.0, "right_sw_ft": 15.0}, "geometry": {"type": "LineString", "coordinates": [[-74.20366021746533, 40.585144960814596], [-74.2037452715649, 40.58546789091593]]}}, {"type": "Feature", "properties": {"segment_id": 1678269, "physicalid": "170279", "street_name": "VICTORY BLVD", "borough": "staten_island", "direction": "TW", "total_row_ft": 30.0, "roadbed_ft": 0.0, "median_ft": 0.0, "left_sw_ft": 15.0, "right_sw_ft": 15.0}, "geometry": {"type": "LineString", "coordinates": [[-74.20373081328009, 40.585134153418366], [-74.2038158677073, 40.585457083467766]]}}, {"type": "Feature", "properties": {"segment_id": 1678270, "physicalid": "170279", "street_name": "VICTORY BLVD", "borough": "staten_island", "direction": "TW", "total_row_ft": 30.0, "roadbed_ft": 0.0, "median_ft": 0.0, "left_sw_ft": 15.0, "right_sw_ft": 15.0}, "geometry": {"type": "LineString", "coordinates": [[-74.20380140907204, 40.58512334597872], [-74.20388646382683, 40.585446275976196]]}}, {"type": "Feature", "properties": {"segment_id": 1678271, "physicalid": "170279", "street_name": "VICTORY BLVD", "borough": "staten_island", "direction": "TW", "total_row_ft": 30.0, "roadbed_ft": 0.0, "median_ft": 0.0, "left_sw_ft": 15.0, "right_sw_ft": 15.0}, "geometry": {"type": "LineString", "coordinates": [[-74.20387200484113, 40.58511253849571], [-74.20395705992354, 40.58543546844125]]}}, {"type": "Feature", "properties": {"segment_id": 1678272, "physicalid": "170279", "street_name": "VICTORY BLVD", "borough": "staten_island", "direction": "TW", "total_row_ft": 30.0, "roadbed_ft": 0.0, "median_ft": 0.0, "left_sw_ft": 15.0, "right_sw_ft": 15.0}, "geometry": {"type": "LineString", "coordinates": [[-74.2039426005874, 40.58510173096931], [-74.20402765599738, 40.58542466086293]]}}, {"type": "Feature", "properties": {"segment_id": 1678273, "physicalid": "170279", "street_name": "VICTORY BLVD", "borough": "staten_island", "direction": "TW", "total_row_ft": 30.0, "roadbed_ft": 0.0, "median_ft": 0.0, "left_sw_ft": 15.0, "right_sw_ft": 15.0}, "geometry": {"type": "LineString", "coordinates": [[-74.20401319631078, 40.585090923399534], [-74.20409825204837, 40.585413853241185]]}}, {"type": "Feature", "properties": {"segment_id": 1678274, "physicalid": "170279", "street_name": "VICTORY BLVD", "borough": "staten_island", "direction": "TW", "total_row_ft": 30.0, "roadbed_ft": 0.0, "median_ft": 0.0, "left_sw_ft": 15.0, "right_sw_ft": 15.0}, "geometry": {"type": "LineString", "coordinates": [[-74.20408379201132, 40.58508011578634], [-74.20416884807653, 40.585403045576086]]}}, {"type": "Feature", "properties": {"segment_id": 1678275, "physicalid": "170279", "street_name": "VICTORY BLVD", "borough": "staten_island", "direction": "TW", "total_row_ft": 30.0, "roadbed_ft": 0.0, "median_ft": 0.0, "left_sw_ft": 15.0, "right_sw_ft": 15.0}, "geometry": {"type": "LineString", "coordinates": [[-74.20415438768902, 40.58506930812978], [-74.20423944408181, 40.585392237867595]]}}, {"type": "Feature", "properties": {"segment_id": 1678276, "physicalid": "170279", "street_name": "VICTORY BLVD", "borough": "staten_island", "direction": "TW", "total_row_ft": 30.0, "roadbed_ft": 0.0, "median_ft": 0.0, "left_sw_ft": 15.0, "right_sw_ft": 15.0}, "geometry": {"type": "LineString", "coordinates": [[-74.20422498334386, 40.58505850042984], [-74.20431004006427, 40.585381430115724]]}}, {"type": "Feature", "properties": {"segment_id": 1678277, "physicalid": "170279", "street_name": "VICTORY BLVD", "borough": "staten_island", "direction": "TW", "total_row_ft": 30.0, "roadbed_ft": 0.0, "median_ft": 0.0, "left_sw_ft": 15.0, "right_sw_ft": 15.0}, "geometry": {"type": "LineString", "coordinates": [[-74.20429557897587, 40.58504769268651], [-74.20438063602386, 40.58537062232045]]}}]}