{"type": "FeatureCollection", "features": [{"type": "Feature", "properties": {"segment_id": 1103217, "physicalid": "76347", "street_name": "ROBERT F KENNEDY BRG", "borough": "manhattan", "direction": "TF", "total_row_ft": 109.0, "roadbed_ft": 76.3, "median_ft": 2.7, "left_sw_ft": 15.0, "right_sw_ft": 15.0}, "geometry": {"type": "LineString", "coordinates": [[-73.92665307493154, 40.78007866912887], [-73.92702824559015, 40.77991388879797]]}}, {"type": "Feature", "properties": {"segment_id": 1103218, "physicalid": "76347", "street_name": "ROBERT F KENNEDY BRG", "borough": "manhattan", "direction": "TF", "total_row_ft": 109.0, "roadbed_ft": 76.3, "median_ft": 2.6, "left_sw_ft": 15.0, "right_sw_ft": 15.0}, "geometry": {"type": "LineString", "coordinates": [[-73.92661694610676, 40.78003113811222], [-73.92699211658699, 40.77986635789774]]}}, {"type": "Feature", "properties": {"segment_id": 1103219, "physicalid": "76347", "street_name": "ROBERT F KENNEDY BRG", "borough": "manhattan", "direction": "TF", "total_row_ft": 108.9, "roadbed_ft": 76.2, "median_ft": 2.7, "left_sw_ft": 15.0, "right_sw_ft": 15.0}, "geometry": {"type": "LineString", "coordinates": [[-73.92658081733356, 40.77998360708388], [-73.92695598763538, 40.77981882698584]]}}, {"type": "Feature", "properties": {"segment_id": 1103220, "physicalid": "76347", "street_name": "ROBERT F KENNEDY BRG", "borough": "manhattan", "direction": "TF", "total_row_ft": 108.9, "roadbed_ft": 76.1, "median_ft": 2.8, "left_sw_ft": 15.0, "right_sw_ft": 15.0}, "geometry": {"type": "LineString", "coordinates": [[-73.92654468861194, 40.779936076043846], [-73.92691985873537, 40.77977129606227]]}}, {"type": "Feature", "properties": {"segment_id": 1103330, "physicalid": "76361", "street_name": "ROBERT F KENNEDY BRG", "borough": "manhattan", "direction": "FT", "total_row_ft": 111.8, "roadbed_ft": 79.0, "median_ft": 2.8, "left_sw_ft": 15.0, "right_sw_ft": 15.0}, "geometry": {"type": "LineString", "coordinates": [[-73.92682066246097, 40.78003524143908], [-73.92719621015713, 40.77987095845531]]}}, {"type": "Feature", "properties": {"segment_id": 1103331, "physicalid": "76361", "street_name": "ROBERT F KENNEDY BRG", "borough": "manhattan", "direction": "FT", "total_row_ft": 111.6, "roadbed_ft": 79.0, "median_ft": 2.6, "left_sw_ft": 15.0, "right_sw_ft": 15.0}, "geometry": {"type": "LineString", "coordinates": [[-73.92678464270617, 40.77998766262392], [-73.92716019022292, 40.77982337975636]]}}, {"type": "Feature", "properties": {"segment_id": 1103332, "physicalid": "76361", "street_name": "ROBERT F KENNEDY BRG", "borough": "manhattan", "direction": "FT", "total_row_ft": 111.5, "roadbed_ft": 78.8, "median_ft": 2.7, "left_sw_ft": 15.0, "right_sw_ft": 15.0}, "geometry": {"type": "LineString", "coordinates": [[-73.92674862300288, 40.77994008379715], [-73.92712417034015, 40.77977580104581]]}}, {"type": "Feature", "properties": {"segment_id": 1103333, "physicalid": "76361", "street_name": "ROBERT F KENNEDY BRG", "borough": "manhattan", "direction": "FT", "total_row_ft": 111.3, "roadbed_ft": 78.6, "median_ft": 2.8, "left_sw_ft": 15.0, "right_sw_ft": 15.0}, "geometry": {"type": "LineString", "coordinates": [[-73.92671260335108, 40.779892504958816], [-73.92708815050882, 40.779728222323634]]}}, {"type": "Feature", "properties": {"segment_id": 1704877, "physicalid": "178235", "street_name": "ROBERT F KENNEDY BRG", "borough": "manhattan", "direction": "FT", "total_row_ft": 111.1, "roadbed_ft": 78.2, "median_ft": 2.9, "left_sw_ft": 15.0, "right_sw_ft": 15.0}, "geometry": {"type": "LineString", "coordinates": [[-73.92665655036359, 40.779818463865126], [-73.92703209671011, 40.779654180708086]]}}, {"type": "Feature", "properties": {"segment_id": 1704878, "physicalid": "178235", "street_name": "ROBERT F KENNEDY BRG", "borough": "manhattan", "direction": "FT", "total_row_ft": 111.0, "roadbed_ft": 78.0, "median_ft": 3.0, "left_sw_ft": 15.0, "right_sw_ft": 15.0}, "geometry": {"type": "LineString", "coordinates": [[-73.92662053068929, 40.77977088506451], [-73.92699607685634, 40.779606602023655]]}}, {"type": "Feature", "properties": {"segment_id": 1704879, "physicalid": "178235", "street_name": "ROBERT F KENNEDY BRG", "borough": "manhattan", "direction": "FT", "total_row_ft": 110.8, "roadbed_ft": 77.8, "median_ft": 3.0, "left_sw_ft": 15.0, "right_sw_ft": 15.0}, "geometry": {"type": "LineString", "coordinates": [[-73.9265845108687, 40.77972330585463], [-73.92696005740694, 40.77955902365739]]}}, {"type": "Feature", "properties": {"segment_id": 1704880, "physicalid": "178235", "street_name": "ROBERT F KENNEDY BRG", "borough": "manhattan", "direction": "FT", "total_row_ft": 110.7, "roadbed_ft": 77.7, "median_ft": 3.0, "left_sw_ft": 15.0, "right_sw_ft": 15.0}, "geometry": {"type": "LineString", "coordinates": [[-73.92654849145681, 40.77967572696102], [-73.92692403781561, 40.77951144487999]]}}, {"type": "Feature", "properties": {"segment_id": 1704881, "physicalid": "178235", "street_name": "ROBERT F KENNEDY BRG", "borough": "manhattan", "direction": "FT", "total_row_ft": 110.5, "roadbed_ft": 77.5, "median_ft": 3.0, "left_sw_ft": 15.0, "right_sw_ft": 15.0}, "geometry": {"type": "LineString", "coordinates": [[-73.92651247209642, 40.77962814805583], [-73.92688801827573, 40.77946386609098]]}}, {"type": "Feature", "properties": {"segment_id": 1704882, "physicalid": "178235", "street_name": "ROBERT F KENNEDY BRG", "borough": "manhattan", "direction": "FT", "total_row_ft": 110.3, "roadbed_ft": 77.3, "median_ft": 3.0, "left_sw_ft": 15.0, "right_sw_ft": 15.0}, "geometry": {"type": "LineString", "coordinates": [[-73.9264764527875, 40.77958056913902], [-73.92685199878733, 40.779416287290374]]}}, {"type": "Feature", "properties": {"segment_id": 1704883, "physicalid": "178235", "street_name": "ROBERT F KENNEDY BRG", "borough": "manhattan", "direction": "FT", "total_row_ft": 110.3, "roadbed_ft": 77.3, "median_ft": 3.0, "left_sw_ft": 15.0, "right_sw_ft": 15.0}, "geometry": {"type": "LineString", "coordinates": [[-73.92644043353008, 40.77953299021061], [-73.9268159793504, 40.7793687084781]]}}, {"type": "Feature", "properties": {"segment_id": 1704884, "physicalid": "178235", "street_name": "ROBERT F KENNEDY BRG", "borough": "manhattan", "direction": "FT", "total_row_ft": 110.2, "roadbed_ft": 77.2, "median_ft": 3.0, "left_sw_ft": 15.0, "right_sw_ft": 15.0}, "geometry": {"type": "LineString", "coordinates": [[-73.9264044143241, 40.779485411270606], [-73.92677995996495, 40.77932112965429]]}}, {"type": "Feature", "properties": {"segment_id": 1704885, "physicalid": "178235", "street_name": "ROBERT F KENNEDY BRG", "borough": "manhattan", "direction": "FT", "total_row_ft": 110.1, "roadbed_ft": 77.1, "median_ft": 3.0, "left_sw_ft": 15.0, "right_sw_ft": 15.0}, "geometry": {"type": "LineString", "coordinates": [[-73.92636839516958, 40.77943783231894], [-73.92674394063098, 40.779273550818885]]}}, {"type": "Feature", "properties": {"segment_id": 1704886, "physicalid": "178235", "street_name": "ROBERT F KENNEDY BRG", "borough": "manhattan", "direction": "FT", "total_row_ft": 110.1, "roadbed_ft": 77.1, "median_ft": 3.0, "left_sw_ft": 15.0, "right_sw_ft": 15.0}, "geometry": {"type": "LineString", "coordinates": [[-73.92633237606655, 40.77939025335573], [-73.9267079213485, 40.779225971971854]]}}, {"type": "Feature", "properties": {"segment_id": 1704887, "physicalid": "178235", "street_name": "ROBERT F KENNEDY BRG", "borough": "manhattan", "direction": "FT", "total_row_ft": 110.0, "roadbed_ft": 77.0, "median_ft": 3.0, "left_sw_ft": 15.0, "right_sw_ft": 15.0}, "geometry": {"type": "LineString", "coordinates": [[-73.92629635701499, 40.779342674380906], [-73.92667190211746, 40.779178393113234]]}}, {"type": "Feature", "properties": {"segment_id": 1704888, "physicalid": "178235", "street_name": "ROBERT F KENNEDY BRG", "borough": "manhattan", "direction": "FT", "total_row_ft": 109.9, "roadbed_ft": 76.9, "median_ft": 3.0, "left_sw_ft": 15.0, "right_sw_ft": 15.0}, "geometry": {"type": "LineString", "coordinates": [[-73.92626033801491, 40.77929509539447], [-73.9266358829379, 40.77913081424299]]}}, {"type": "Feature", "properties": {"segment_id": 1704889, "physicalid": "178235", "street_name": "ROBERT F KENNEDY BRG", "borough": "manhattan", "direction": "FT", "total_row_ft": 109.8, "roadbed_ft": 76.8, "median_ft": 3.0, "left_sw_ft": 15.0, "right_sw_ft": 15.0}, "geometry": {"type": "LineString", "coordinates": [[-73.9262243190663, 40.77924751639645], [-73.92659986380981, 40.779083235361135]]}}, {"type": "Feature", "properties": {"segment_id": 1704890, "physicalid": "178235", "street_name": "ROBERT F KENNEDY BRG", "borough": "manhattan", "direction": "FT", "total_row_ft": 109.8, "roadbed_ft": 76.8, "median_ft": 3.0, "left_sw_ft": 15.0, "right_sw_ft": 15.0}, "geometry": {"type": "LineString", "coordinates": [[-73.9261883001692, 40.77919993738683], [-73.9265638447332, 40.77903565646766]]}}, {"type": "Feature", "properties": {"segment_id": 1704891, "physicalid": "178235", "street_name": "ROBERT F KENNEDY BRG", "borough": "manhattan", "direction": "FT", "total_row_ft": 109.9, "roadbed_ft": 76.9, "median_ft": 3.0, "left_sw_ft": 15.0, "right_sw_ft": 15.0}, "geometry": {"type": "LineString", "coordinates": [[-73.92615228132352, 40.7791523583656], [-73.92652782570805, 40.77898807756262]]}}, {"type": "Feature", "properties": {"segment_id": 1704892, "physicalid": "178235", "street_name": "ROBERT F KENNEDY BRG", "borough": "manhattan", "direction": "FT", "total_row_ft": 109.9, "roadbed_ft": 76.9, "median_ft": 3.0, "left_sw_ft": 15.0, "right_sw_ft": 15.0}, "geometry": {"type": "LineString", "coordinates": [[-73.92611626252932, 40.77910477933272], [-73.92649180673442, 40.77894049864601]]}}, {"type": "Feature", "properties": {"segment_id": 1704893, "physicalid": "178235", "street_name": "ROBERT F KENNEDY BRG", "borough": "manhattan", "direction": "FT", "total_row_ft": 110.0, "roadbed_ft": 77.0, "median_ft": 3.0, "left_sw_ft": 15.0, "right_sw_ft": 15.0}, "geometry": {"type": "LineString", "coordinates": [[-73.9260802437866, 40.77905720028828], [-73.92645578781223, 40.778892919717734]]}}, {"type": "Feature", "properties": {"segment_id": 1704894, "physicalid": "178235", "street_name": "ROBERT F KENNEDY BRG", "borough": "manhattan", "direction": "FT", "total_row_ft": 110.0, "roadbed_ft": 77.0, "median_ft": 3.0, "left_sw_ft": 15.0, "right_sw_ft": 15.0}, "geometry": {"type": "LineString", "coordinates": [[-73.92604422509537, 40.779009621232234], [-73.92641976894151, 40.778845340777885]]}}, {"type": "Feature", "properties": {"segment_id": 1704895, "physicalid": "178235", "street_name": "ROBERT F KENNEDY BRG", "borough": "manhattan", "direction": "FT", "total_row_ft": 110.1, "roadbed_ft": 77.1, "median_ft": 3.0, "left_sw_ft": 15.0, "right_sw_ft": 15.0}, "geometry": {"type": "LineString", "coordinates": [[-73.92600820645559, 40.77896204216457], [-73.92638375012227, 40.778797761826425]]}}, {"type": "Feature", "properties": {"segment_id": 1704896, "physicalid": "178235", "street_name": "ROBERT F KENNEDY BRG", "borough": "manhattan", "direction": "FT", "total_row_ft": 110.1, "roadbed_ft": 77.1, "median_ft": 3.0, "left_sw_ft": 15.0, "right_sw_ft": 15.0}, "geometry": {"type": "LineString", "coordinates": [[-73.9259721878673, 40.77891446308532], [-73.92634773135451, 40.778750182863355]]}}, {"type": "Feature", "properties": {"segment_id": 1704897, "physicalid": "178235", "street_name": "ROBERT F KENNEDY BRG", "borough": "manhattan", "direction": "FT", "total_row_ft": 110.2, "roadbed_ft": 77.2, "median_ft": 3.0, "left_sw_ft": 15.0, "right_sw_ft": 15.0}, "geometry": {"type": "LineString", "coordinates": [[-73.9259361693305, 40.7788668839945], [-73.92631171263818, 40.77870260388868]]}}, {"type": "Feature", "properties": {"segment_id": 1704898, "physicalid": "178235", "street_name": "ROBERT F KENNEDY BRG", "borough": "manhattan", "direction": "FT", "total_row_ft": 110.2, "roadbed_ft": 77.2, "median_ft": 3.0, "left_sw_ft": 15.0, "right_sw_ft": 15.0}, "geometry": {"type": "LineString", "coordinates": [[-73.92590015084515, 40.77881930489203], [-73.92627569397335, 40.778655024902406]]}}, {"type": "Feature", "properties": {"segment_id": 1704899, "physicalid": "178235", "street_name": "ROBERT F KENNEDY BRG", "borough": "manhattan", "direction": "FT", "total_row_ft": 110.3, "roadbed_ft": 77.3, "median_ft": 3.0, "left_sw_ft": 15.0, "right_sw_ft": 15.0}, "geometry": {"type": "LineString", "coordinates": [[-73.92586413241125, 40.778771725777936], [-73.92623967536002, 40.778607445904555]]}}, {"type": "Feature", "properties": {"segment_id": 1704900, "physicalid": "178235", "street_name": "ROBERT F KENNEDY BRG", "borough": "manhattan", "direction": "FT", "total_row_ft": 110.4, "roadbed_ft": 77.4, "median_ft": 3.0, "left_sw_ft": 15.0, "right_sw_ft": 15.0}, "geometry": {"type": "LineString", "coordinates": [[-73.92582811402883, 40.77872414665227], [-73.92620365679815, 40.778559866895094]]}}, {"type": "Feature", "properties": {"segment_id": 1704901, "physicalid": "178235", "street_name": "ROBERT F KENNEDY BRG", "borough": "manhattan", "direction": "FT", "total_row_ft": 110.5, "roadbed_ft": 77.5, "median_ft": 3.0, "left_sw_ft": 15.0, "right_sw_ft": 15.0}, "geometry": {"type": "LineString", "coordinates": [[-73.9257920956979, 40.778676567515], [-73.92616763828774, 40.77851228787402]]}}, {"type": "Feature", "properties": {"segment_id": 1704902, "physicalid": "178235", "street_name": "ROBERT F KENNEDY BRG", "borough": "manhattan", "direction": "FT", "total_row_ft": 110.6, "roadbed_ft": 77.6, "median_ft": 3.0, "left_sw_ft": 15.0, "right_sw_ft": 15.0}, "geometry": {"type": "LineString", "coordinates": [[-73.92575607741844, 40.77862898836613], [-73.9261316198288, 40.77846470884134]]}}, {"type": "Feature", "properties": {"segment_id": 1704903, "physicalid": "178235", "street_name": "ROBERT F KENNEDY BRG", "borough": "manhattan", "direction": "FT", "total_row_ft": 110.5, "roadbed_ft": 77.5, "median_ft": 3.0, "left_sw_ft": 15.0, "right_sw_ft": 15.0}, "geometry": {"type": "LineString", "coordinates": [[-73.92572005919045, 40.77858140920567], [-73.92609560142134, 40.778417129797056]]}}, {"type": "Feature", "properties": {"segment_id": 1704904, "physicalid": "178235", "street_name": "ROBERT F KENNEDY BRG", "borough": "manhattan", "direction": "FT", "total_row_ft": 110.5, "roadbed_ft": 77.5, "median_ft": 3.0, "left_sw_ft": 15.0, "right_sw_ft": 15.0}, "geometry": {"type": "LineString", "coordinates": [[-73.92568404101395, 40.778533830033616], [-73.92605958306532, 40.77836955074113]]}}, {"type": "Feature", "properties": {"segment_id": 1704905, "physicalid": "178237", "street_name": "ROBERT F KENNEDY BRG", "borough": "manhattan", "direction": "TF", "total_row_ft": 108.8, "roadbed_ft": 75.8, "median_ft": 3.0, "left_sw_ft": 15.0, "right_sw_ft": 15.0}, "geometry": {"type": "LineString", "coordinates": [[-73.92646693797255, 40.77983378655225], [-73.9268421084463, 40.77966900778718]]}}, {"type": "Feature", "properties": {"segment_id": 1704906, "physicalid": "178237", "street_name": "ROBERT F KENNEDY BRG", "borough": "manhattan", "direction": "TF", "total_row_ft": 108.7, "roadbed_ft": 75.7, "median_ft": 3.0, "left_sw_ft": 15.0, "right_sw_ft": 15.0}, "geometry": {"type": "LineString", "coordinates": [[-73.9264308096253, 40.77978625538246], [-73.92680597992063, 40.77962147673378]]}}, {"type": "Feature", "properties": {"segment_id": 1704907, "physicalid": "178237", "street_name": "ROBERT F KENNEDY BRG", "borough": "manhattan", "direction": "TF", "total_row_ft": 108.8, "roadbed_ft": 75.8, "median_ft": 3.0, "left_sw_ft": 15.0, "right_sw_ft": 15.0}, "geometry": {"type": "LineString", "coordinates": [[-73.92639468145467, 40.77973872460636], [-73.92676985104697, 40.77957394538391]]}}, {"type": "Feature", "properties": {"segment_id": 1704908, "physicalid": "178237", "street_name": "ROBERT F KENNEDY BRG", "borough": "manhattan", "direction": "TF", "total_row_ft": 108.8, "roadbed_ft": 75.8, "median_ft": 3.0, "left_sw_ft": 15.0, "right_sw_ft": 15.0}, "geometry": {"type": "LineString", "coordinates": [[-73.92635855305923, 40.77969119347967], [-73.92673372247314, 40.77952641437364]]}}, {"type": "Feature", "properties": {"segment_id": 1704909, "physicalid": "178237", "street_name": "ROBERT F KENNEDY BRG", "borough": "manhattan", "direction": "TF", "total_row_ft": 108.9, "roadbed_ft": 75.9, "median_ft": 3.0, "left_sw_ft": 15.0, "right_sw_ft": 15.0}, "geometry": {"type": "LineString", "coordinates": [[-73.92632242471538, 40.7796436623413], [-73.92669759395089, 40.779478883351715]]}}, {"type": "Feature", "properties": {"segment_id": 1704910, "physicalid": "178237", "street_name": "ROBERT F KENNEDY BRG", "borough": "manhattan", "direction": "TF", "total_row_ft": 109.0, "roadbed_ft": 76.0, "median_ft": 3.0, "left_sw_ft": 15.0, "right_sw_ft": 15.0}, "geometry": {"type": "LineString", "coordinates": [[-73.9262862964231, 40.779596131191276], [-73.92666146548022, 40.77943135231811]]}}, {"type": "Feature", "properties": {"segment_id": 1704911, "physicalid": "178237", "street_name": "ROBERT F KENNEDY BRG", "borough": "manhattan", "direction": "TF", "total_row_ft": 109.2, "roadbed_ft": 76.2, "median_ft": 3.0, "left_sw_ft": 15.0, "right_sw_ft": 15.0}, "geometry": {"type": "LineString", "coordinates": [[-73.9262501681824, 40.77954860002958], [-73.92662533706113, 40.77938382127282]]}}, {"type": "Feature", "properties": {"segment_id": 1704912, "physicalid": "178237", "street_name": "ROBERT F KENNEDY BRG", "borough": "manhattan", "direction": "TF", "total_row_ft": 109.3, "roadbed_ft": 76.3, "median_ft": 3.0, "left_sw_ft": 15.0, "right_sw_ft": 15.0}, "geometry": {"type": "LineString", "coordinates": [[-73.92621403999328, 40.7795010688562], [-73.9265892086936, 40.77933629021588]]}}, {"type": "Feature", "properties": {"segment_id": 1704913, "physicalid": "178237", "street_name": "ROBERT F KENNEDY BRG", "borough": "manhattan", "direction": "TF", "total_row_ft": 109.5, "roadbed_ft": 76.5, "median_ft": 3.0, "left_sw_ft": 15.0, "right_sw_ft": 15.0}, "geometry": {"type": "LineString", "coordinates": [[-73.92617791185573, 40.77945353767115], [-73.92655308037767, 40.779288759147256]]}}, {"type": "Feature", "properties": {"segment_id": 1704914, "physicalid": "178237", "street_name": "ROBERT F KENNEDY BRG", "borough": "manhattan", "direction": "TF", "total_row_ft": 109.7, "roadbed_ft": 76.7, "median_ft": 3.0, "left_sw_ft": 15.0, "right_sw_ft": 15.0}, "geometry": {"type": "LineString", "coordinates": [[-73.92614178376976, 40.77940600647441], [-73.9265169521133, 40.77924122806696]]}}, {"type": "Feature", "properties": {"segment_id": 1704915, "physicalid": "178237", "street_name": "ROBERT F KENNEDY BRG", "borough": "manhattan", "direction": "TF", "total_row_ft": 109.8, "roadbed_ft": 76.8, "median_ft": 3.0, "left_sw_ft": 15.0, "right_sw_ft": 15.0}, "geometry": {"type": "LineString", "coordinates": [[-73.92610565573538, 40.779358475266044], [-73.92648082390052, 40.779193696975014]]}}, {"type": "Feature", "properties": {"segment_id": 1704916, "physicalid": "178237", "street_name": "ROBERT F KENNEDY BRG", "borough": "manhattan", "direction": "TF", "total_row_ft": 109.8, "roadbed_ft": 76.8, "median_ft": 3.0, "left_sw_ft": 15.0, "right_sw_ft": 15.0}, "geometry": {"type": "LineString", "coordinates": [[-73.92606952775257, 40.77931094404597], [-73.9264446957393, 40.77914616587138]]}}, {"type": "Feature", "properties": {"segment_id": 1704917, "physicalid": "178237", "street_name": "ROBERT F KENNEDY BRG", "borough": "manhattan", "direction": "TF", "total_row_ft": 109.8, "roadbed_ft": 76.8, "median_ft": 3.0, "left_sw_ft": 15.0, "right_sw_ft": 15.0}, "geometry": {"type": "LineString", "coordinates": [[-73.92603339982134, 40.77926341281425], [-73.92640856762968, 40.77909863475608]]}}, {"type": "Feature", "properties": {"segment_id": 1704918, "physicalid": "178237", "street_name": "ROBERT F KENNEDY BRG", "borough": "manhattan", "direction": "TF", "total_row_ft": 109.8, "roadbed_ft": 76.8, "median_ft": 3.0, "left_sw_ft": 15.0, "right_sw_ft": 15.0}, "geometry": {"type": "LineString", "coordinates": [[-73.92599727194168, 40.779215881570856], [-73.92637243957162, 40.77905110362909]]}}, {"type": "Feature", "properties": {"segment_id": 1704919, "physicalid": "178237", "street_name": "ROBERT F KENNEDY BRG", "borough": "manhattan", "direction": "TF", "total_row_ft": 109.7, "roadbed_ft": 76.7, "median_ft": 3.0, "left_sw_ft": 15.0, "right_sw_ft": 15.0}, "geometry": {"type": "LineString", "coordinates": [[-73.92596114411361, 40.77916835031578], [-73.92633631156515, 40.779003572490446]]}}, {"type": "Feature", "properties": {"segment_id": 1704920, "physicalid": "178237", "street_name": "ROBERT F KENNEDY BRG", "borough": "manhattan", "direction": "TF", "total_row_ft": 109.6, "roadbed_ft": 76.6, "median_ft": 3.0, "left_sw_ft": 15.0, "right_sw_ft": 15.0}, "geometry": {"type": "LineString", "coordinates": [[-73.9259250163371, 40.779120819049034], [-73.92630018361025, 40.77895604134014]]}}, {"type": "Feature", "properties": {"segment_id": 1704921, "physicalid": "178237", "street_name": "ROBERT F KENNEDY BRG", "borough": "manhattan", "direction": "TF", "total_row_ft": 109.6, "roadbed_ft": 76.6, "median_ft": 3.0, "left_sw_ft": 15.0, "right_sw_ft": 15.0}, "geometry": {"type": "LineString", "coordinates": [[-73.92588888861218, 40.779073287770615], [-73.92626405570692, 40.778908510178155]]}}, {"type": "Feature", "properties": {"segment_id": 1704922, "physicalid": "178237", "street_name": "ROBERT F KENNEDY BRG", "borough": "manhattan", "direction": "TF", "total_row_ft": 109.5, "roadbed_ft": 76.5, "median_ft": 3.0, "left_sw_ft": 15.0, "right_sw_ft": 15.0}, "geometry": {"type": "LineString", "coordinates": [[-73.92585276093884, 40.77902575648053], [-73.9262279278552, 40.77886097900449]]}}, {"type": "Feature", "properties": {"segment_id": 1704923, "physicalid": "178237", "street_name": "ROBERT F KENNEDY BRG", "borough": "manhattan", "direction": "TF", "total_row_ft": 109.5, "roadbed_ft": 76.5, "median_ft": 3.0, "left_sw_ft": 15.0, "right_sw_ft": 15.0}, "geometry": {"type": "LineString", "coordinates": [[-73.92581663331707, 40.77897822517878], [-73.92619180005502, 40.778813447819175]]}}, {"type": "Feature", "properties": {"segment_id": 1704924, "physicalid": "178237", "street_name": "ROBERT F KENNEDY BRG", "borough": "manhattan", "direction": "TF", "total_row_ft": 109.4, "roadbed_ft": 76.4, "median_ft": 3.0, "left_sw_ft": 15.0, "right_sw_ft": 15.0}, "geometry": {"type": "LineString", "coordinates": [[-73.92578050574686, 40.778930693865355], [-73.92615567230642, 40.77876591662216]]}}, {"type": "Feature", "properties": {"segment_id": 1704925, "physicalid": "178237", "street_name": "ROBERT F KENNEDY BRG", "borough": "manhattan", "direction": "TF", "total_row_ft": 109.4, "roadbed_ft": 76.4, "median_ft": 3.0, "left_sw_ft": 15.0, "right_sw_ft": 15.0}, "geometry": {"type": "LineString", "coordinates": [[-73.92574437822825, 40.77888316254025], [-73.9261195446094, 40.7787183854135]]}}, {"type": "Feature", "properties": {"segment_id": 1704926, "physicalid": "178237", "street_name": "ROBERT F KENNEDY BRG", "borough": "manhattan", "direction": "TF", "total_row_ft": 109.4, "roadbed_ft": 76.4, "median_ft": 3.0, "left_sw_ft": 15.0, "right_sw_ft": 15.0}, "geometry": {"type": "LineString", "coordinates": [[-73.9257082507612, 40.77883563120348], [-73.92608341696396, 40.77867085419316]]}}, {"type": "Feature", "properties": {"segment_id": 1704927, "physicalid": "178237", "street_name": "ROBERT F KENNEDY BRG", "borough": "manhattan", "direction": "TF", "total_row_ft": 109.4, "roadbed_ft": 76.4, "median_ft": 3.0, "left_sw_ft": 15.0, "right_sw_ft": 15.0}, "geometry": {"type": "LineString", "coordinates": [[-73.92567212334573, 40.77878809985504], [-73.9260472893701, 40.77862332296116]]}}, {"type": "Feature", "properties": {"segment_id": 1704928, "physicalid": "178237", "street_name": "ROBERT F KENNEDY BRG", "borough": "manhattan", "direction": "TF", "total_row_ft": 109.5, "roadbed_ft": 76.5, "median_ft": 3.0, "left_sw_ft": 15.0, "right_sw_ft": 15.0}, "geometry": {"type": "LineString", "coordinates": [[-73.92563599598185, 40.77874056849496], [-73.92601116182782, 40.77857579171748]]}}, {"type": "Feature", "properties": {"segment_id": 1704929, "physicalid": "178237", "street_name": "ROBERT F KENNEDY BRG", "borough": "manhattan", "direction": "TF", "total_row_ft": 109.6, "roadbed_ft": 76.6, "median_ft": 3.0, "left_sw_ft": 15.0, "right_sw_ft": 15.0}, "geometry": {"type": "LineString", "coordinates": [[-73.92559986866952, 40.77869303712317], [-73.92597503433711, 40.77852826046211]]}}, {"type": "Feature", "properties": {"segment_id": 1704930, "physicalid": "178237", "street_name": "ROBERT F KENNEDY BRG", "borough": "manhattan", "direction": "TF", "total_row_ft": 109.7, "roadbed_ft": 76.7, "median_ft": 3.0, "left_sw_ft": 15.0, "right_sw_ft": 15.0}, "geometry": {"type": "LineString", "coordinates": [[-73.9255637414088, 40.77864550573972], [-73.92593890689798, 40.77848072919511]]}}, {"type": "Feature", "properties": {"segment_id": 1704931, "physicalid": "178237", "street_name": "ROBERT F KENNEDY BRG", "borough": "manhattan", "direction": "TF", "total_row_ft": 109.7, "roadbed_ft": 76.7, "median_ft": 3.0, "left_sw_ft": 15.0, "right_sw_ft": 15.0}, "geometry": {"type": "LineString", "coordinates": [[-73.92552761419962, 40.7785979743446], [-73.92590277951041, 40.77843319791641]]}}, {"type": "Feature", "properties": {"segment_id": 1704932, "physicalid": "178237", "street_name": "ROBERT F KENNEDY BRG", "borough": "manhattan", "direction": "TF", "total_row_ft": 109.8, "roadbed_ft": 76.8, "median_ft": 3.0, "left_sw_ft": 15.0, "right_sw_ft": 15.0}, "geometry": {"type": "LineString", "coordinates": [[-73.92549148704205, 40.77855044293781], [-73.92586665217443, 40.77838566662605]]}}, {"type": "Feature", "properties": {"segment_id": 1704955, "physicalid": "178238", "street_name": "RFK BR QUEENS PED AND BIKE PATH", "borough": "manhattan", "direction": "NV", "total_row_ft": 84.7, "roadbed_ft": 52.1, "median_ft": 2.7, "left_sw_ft": 15.0, "right_sw_ft": 15.0}, "geometry": {"type": "LineString", "coordinates": [[-73.9265324550822, 40.78005293909521], [-73.92690727496077, 40.77988769833123]]}}, {"type": "Feature", "properties": {"segment_id": 1704956, "physicalid": "178238", "street_name": "RFK BR QUEENS PED AND BIKE PATH", "borough": "manhattan", "direction": "NV", "total_row_ft": 84.6, "roadbed_ft": 51.9, "median_ft": 2.7, "left_sw_ft": 15.0, "right_sw_ft": 15.0}, "geometry": {"type": "LineString", "coordinates": [[-73.9264962253189, 40.780005452500575], [-73.92687104502008, 40.77984021185325]]}}, {"type": "Feature", "properties": {"segment_id": 1704957, "physicalid": "178238", "street_name": "RFK BR QUEENS PED AND BIKE PATH", "borough": "manhattan", "direction": "NV", "total_row_ft": 84.6, "roadbed_ft": 51.7, "median_ft": 2.8, "left_sw_ft": 15.0, "right_sw_ft": 15.0}, "geometry": {"type": "LineString", "coordinates": [[-73.92645999560726, 40.779957965894205], [-73.92683481513106, 40.77979272536353]]}}, {"type": "Feature", "properties": {"segment_id": 1704958, "physicalid": "178239", "street_name": "RFK BR QUEENS PED AND BIKE PATH", "borough": "manhattan", "direction": "NV", "total_row_ft": 84.4, "roadbed_ft": 51.4, "median_ft": 3.0, "left_sw_ft": 15.0, "right_sw_ft": 15.0}, "geometry": {"type": "LineString", "coordinates": [[-73.92637208800573, 40.779842744294925], [-73.92674690707538, 40.779677504016206]]}}, {"type": "Feature", "properties": {"segment_id": 1704959, "physicalid": "178239", "street_name": "RFK BR QUEENS PED AND BIKE PATH", "borough": "manhattan", "direction": "NV", "total_row_ft": 84.3, "roadbed_ft": 51.3, "median_ft": 3.0, "left_sw_ft": 15.0, "right_sw_ft": 15.0}, "geometry": {"type": "LineString", "coordinates": [[-73.92633585846436, 40.779795257651365], [-73.92671067735661, 40.77963001748928]]}}, {"type": "Feature", "properties": {"segment_id": 1704960, "physicalid": "178239", "street_name": "RFK BR QUEENS PED AND BIKE PATH", "borough": "manhattan", "direction": "NV", "total_row_ft": 84.3, "roadbed_ft": 51.3, "median_ft": 3.0, "left_sw_ft": 15.0, "right_sw_ft": 15.0}, "geometry": {"type": "LineString", "coordinates": [[-73.92629962897465, 40.77974777099605], [-73.92667444768952, 40.779582530950634]]}}, {"type": "Feature", "properties": {"segment_id": 1704961, "physicalid": "178239", "street_name": "RFK BR QUEENS PED AND BIKE PATH", "borough": "manhattan", "direction": "NV", "total_row_ft": 84.4, "roadbed_ft": 51.4, "median_ft": 3.0, "left_sw_ft": 15.0, "right_sw_ft": 15.0}, "geometry": {"type": "LineString", "coordinates": [[-73.92626339953664, 40.77970028432901], [-73.92663821807409, 40.77953504440023]]}}, {"type": "Feature", "properties": {"segment_id": 1704962, "physicalid": "178239", "street_name": "RFK BR QUEENS PED AND BIKE PATH", "borough": "manhattan", "direction": "NV", "total_row_ft": 84.4, "roadbed_ft": 51.4, "median_ft": 3.0, "left_sw_ft": 15.0, "right_sw_ft": 15.0}, "geometry": {"type": "LineString", "coordinates": [[-73.92622717015027, 40.779652797650236], [-73.92660198851034, 40.779487557838095]]}}, {"type": "Feature", "properties": {"segment_id": 1704963, "physicalid": "178239", "street_name": "RFK BR QUEENS PED AND BIKE PATH", "borough": "manhattan", "direction": "NV", "total_row_ft": 84.6, "roadbed_ft": 51.6, "median_ft": 3.0, "left_sw_ft": 15.0, "right_sw_ft": 15.0}, "geometry": {"type": "LineString", "coordinates": [[-73.9261909408156, 40.77960531095971], [-73.92656575899827, 40.77944007126422]]}}, {"type": "Feature", "properties": {"segment_id": 1704964, "physicalid": "178239", "street_name": "RFK BR QUEENS PED AND BIKE PATH", "borough": "manhattan", "direction": "NV", "total_row_ft": 84.7, "roadbed_ft": 51.7, "median_ft": 3.0, "left_sw_ft": 15.0, "right_sw_ft": 15.0}, "geometry": {"type": "LineString", "coordinates": [[-73.92615471153259, 40.77955782425746], [-73.92652952953786, 40.77939258467862]]}}, {"type": "Feature", "properties": {"segment_id": 1704965, "physicalid": "178239", "street_name": "RFK BR QUEENS PED AND BIKE PATH", "borough": "manhattan", "direction": "NV", "total_row_ft": 84.8, "roadbed_ft": 51.8, "median_ft": 3.0, "left_sw_ft": 15.0, "right_sw_ft": 15.0}, "geometry": {"type": "LineString", "coordinates": [[-73.92611848230123, 40.779510337543485], [-73.92649330012915, 40.77934509808132]]}}, {"type": "Feature", "properties": {"segment_id": 1704966, "physicalid": "178239", "street_name": "RFK BR QUEENS PED AND BIKE PATH", "borough": "manhattan", "direction": "NV", "total_row_ft": 85.0, "roadbed_ft": 52.0, "median_ft": 3.0, "left_sw_ft": 15.0, "right_sw_ft": 15.0}, "geometry": {"type": "LineString", "coordinates": [[-73.9260822531216, 40.77946285081778], [-73.92645707077207, 40.77929761147221]]}}, {"type": "Feature", "properties": {"segment_id": 1704967, "physicalid": "178239", "street_name": "RFK BR QUEENS PED AND BIKE PATH", "borough": "manhattan", "direction": "NV", "total_row_ft": 85.1, "roadbed_ft": 52.1, "median_ft": 3.0, "left_sw_ft": 15.0, "right_sw_ft": 15.0}, "geometry": {"type": "LineString", "coordinates": [[-73.92604602399359, 40.779415364080315], [-73.92642084146672, 40.77925012485144]]}}, {"type": "Feature", "properties": {"segment_id": 1704968, "physicalid": "178239", "street_name": "RFK BR QUEENS PED AND BIKE PATH", "borough": "manhattan", "direction": "NV", "total_row_ft": 85.1, "roadbed_ft": 52.1, "median_ft": 3.0, "left_sw_ft": 15.0, "right_sw_ft": 15.0}, "geometry": {"type": "LineString", "coordinates": [[-73.92600979491729, 40.779367877331175], [-73.926384612213, 40.77920263821889]]}}, {"type": "Feature", "properties": {"segment_id": 1704969, "physicalid": "178239", "street_name": "RFK BR QUEENS PED AND BIKE PATH", "borough": "manhattan", "direction": "NV", "total_row_ft": 85.1, "roadbed_ft": 52.1, "median_ft": 3.0, "left_sw_ft": 15.0, "right_sw_ft": 15.0}, "geometry": {"type": "LineString", "coordinates": [[-73.92597356589263, 40.77932039057022], [-73.92634838301099, 40.77915515157465]]}}, {"type": "Feature", "properties": {"segment_id": 1704970, "physicalid": "178239", "street_name": "RFK BR QUEENS PED AND BIKE PATH", "borough": "manhattan", "direction": "NV", "total_row_ft": 85.1, "roadbed_ft": 52.1, "median_ft": 3.0, "left_sw_ft": 15.0, "right_sw_ft": 15.0}, "geometry": {"type": "LineString", "coordinates": [[-73.92593708626707, 40.779272126628115], [-73.92631291337486, 40.779108218959095]]}}, {"type": "Feature", "properties": {"segment_id": 1704971, "physicalid": "178239", "street_name": "RFK BR QUEENS PED AND BIKE PATH", "borough": "manhattan", "direction": "NV", "total_row_ft": 85.1, "roadbed_ft": 52.1, "median_ft": 3.0, "left_sw_ft": 15.0, "right_sw_ft": 15.0}, "geometry": {"type": "LineString", "coordinates": [[-73.92590114921825, 40.77922451186288], [-73.92627697614574, 40.77906060430987]]}}, {"type": "Feature", "properties": {"segment_id": 1704972, "physicalid": "178239", "street_name": "RFK BR QUEENS PED AND BIKE PATH", "borough": "manhattan", "direction": "NV", "total_row_ft": 85.1, "roadbed_ft": 52.1, "median_ft": 3.0, "left_sw_ft": 15.0, "right_sw_ft": 15.0}, "geometry": {"type": "LineString", "coordinates": [[-73.92586521222081, 40.77917689708608], [-73.92624103896803, 40.779012989649125]]}}, {"type": "Feature", "properties": {"segment_id": 1704973, "physicalid": "178239", "street_name": "RFK BR QUEENS PED AND BIKE PATH", "borough": "manhattan", "direction": "NV", "total_row_ft": 85.1, "roadbed_ft": 52.1, "median_ft": 3.0, "left_sw_ft": 15.0, "right_sw_ft": 15.0}, "geometry": {"type": "LineString", "coordinates": [[-73.92582927527478, 40.77912928229776], [-73.92620510184172, 40.77896537497678]]}}, {"type": "Feature", "properties": {"segment_id": 1704974, "physicalid": "178239", "street_name": "RFK BR QUEENS PED AND BIKE PATH", "borough": "manhattan", "direction": "NV", "total_row_ft": 85.1, "roadbed_ft": 52.1, "median_ft": 3.0, "left_sw_ft": 15.0, "right_sw_ft": 15.0}, "geometry": {"type": "LineString", "coordinates": [[-73.92579333838015, 40.77908166749786], [-73.9261691647668, 40.778917760292934]]}}, {"type": "Feature", "properties": {"segment_id": 1704975, "physicalid": "178239", "street_name": "RFK BR QUEENS PED AND BIKE PATH", "borough": "manhattan", "direction": "NV", "total_row_ft": 85.1, "roadbed_ft": 52.1, "median_ft": 3.0, "left_sw_ft": 15.0, "right_sw_ft": 15.0}, "geometry": {"type": "LineString", "coordinates": [[-73.9257574015369, 40.77903405268644], [-73.92613322774326, 40.778870145597494]]}}, {"type": "Feature", "properties": {"segment_id": 1704976, "physicalid": "178239", "street_name": "RFK BR QUEENS PED AND BIKE PATH", "borough": "manhattan", "direction": "NV", "total_row_ft": 85.1, "roadbed_ft": 52.1, "median_ft": 3.0, "left_sw_ft": 15.0, "right_sw_ft": 15.0}, "geometry": {"type": "LineString", "coordinates": [[-73.92572146474504, 40.77898643786344], [-73.92609729077114, 40.77882253089051]]}}, {"type": "Feature", "properties": {"segment_id": 1704977, "physicalid": "178239", "street_name": "RFK BR QUEENS PED AND BIKE PATH", "borough": "manhattan", "direction": "NV", "total_row_ft": 85.1, "roadbed_ft": 52.1, "median_ft": 3.0, "left_sw_ft": 15.0, "right_sw_ft": 15.0}, "geometry": {"type": "LineString", "coordinates": [[-73.92568552800456, 40.778938823028874], [-73.92606135385041, 40.77877491617202]]}}, {"type": "Feature", "properties": {"segment_id": 1704978, "physicalid": "178239", "street_name": "RFK BR QUEENS PED AND BIKE PATH", "borough": "manhattan", "direction": "NV", "total_row_ft": 85.2, "roadbed_ft": 52.2, "median_ft": 3.0, "left_sw_ft": 15.0, "right_sw_ft": 15.0}, "geometry": {"type": "LineString", "coordinates": [[-73.92564959131552, 40.778891208182785], [-73.92602541698105, 40.77872730144191]]}}, {"type": "Feature", "properties": {"segment_id": 1704979, "physicalid": "178239", "street_name": "RFK BR QUEENS PED AND BIKE PATH", "borough": "manhattan", "direction": "NV", "total_row_ft": 85.3, "roadbed_ft": 52.3, "median_ft": 3.0, "left_sw_ft": 15.0, "right_sw_ft": 15.0}, "geometry": {"type": "LineString", "coordinates": [[-73.92561365467785, 40.77884359332514], [-73.92598948016311, 40.77867968670027]]}}, {"type": "Feature", "properties": {"segment_id": 1704980, "physicalid": "178239", "street_name": "RFK BR QUEENS PED AND BIKE PATH", "borough": "manhattan", "direction": "NV", "total_row_ft": 85.4, "roadbed_ft": 52.4, "median_ft": 3.0, "left_sw_ft": 15.0, "right_sw_ft": 15.0}, "geometry": {"type": "LineString", "coordinates": [[-73.92557771809157, 40.77879597845594], [-73.92595354339655, 40.778632071947094]]}}, {"type": "Feature", "properties": {"segment_id": 1704981, "physicalid": "178239", "street_name": "RFK BR QUEENS PED AND BIKE PATH", "borough": "manhattan", "direction": "NV", "total_row_ft": 85.5, "roadbed_ft": 52.5, "median_ft": 3.0, "left_sw_ft": 15.0, "right_sw_ft": 15.0}, "geometry": {"type": "LineString", "coordinates": [[-73.92554178155669, 40.778748363575176], [-73.92591760668138, 40.77858445718233]]}}, {"type": "Feature", "properties": {"segment_id": 1704982, "physicalid": "178239", "street_name": "RFK BR QUEENS PED AND BIKE PATH", "borough": "manhattan", "direction": "NV", "total_row_ft": 85.7, "roadbed_ft": 52.7, "median_ft": 3.0, "left_sw_ft": 15.0, "right_sw_ft": 15.0}, "geometry": {"type": "LineString", "coordinates": [[-73.92550584507318, 40.778700748682844], [-73.92588167001765, 40.77853684240608]]}}, {"type": "Feature", "properties": {"segment_id": 1704983, "physicalid": "178239", "street_name": "RFK BR QUEENS PED AND BIKE PATH", "borough": "manhattan", "direction": "NV", "total_row_ft": 85.8, "roadbed_ft": 52.8, "median_ft": 3.0, "left_sw_ft": 15.0, "right_sw_ft": 15.0}, "geometry": {"type": "LineString", "coordinates": [[-73.9254699086411, 40.77865313377902], [-73.92584573340525, 40.7784892276182]]}}, {"type": "Feature", "properties": {"segment_id": 1704984, "physicalid": "178239", "street_name": "RFK BR QUEENS PED AND BIKE PATH", "borough": "manhattan", "direction": "NV", "total_row_ft": 85.9, "roadbed_ft": 52.9, "median_ft": 3.0, "left_sw_ft": 15.0, "right_sw_ft": 15.0}, "geometry": {"type": "LineString", "coordinates": [[-73.92543397226042, 40.778605518863614], [-73.92580979684426, 40.77844161281881]]}}]}