{"type": "FeatureCollection", "features": [{"type": "Feature", "properties": {"segment_id": 335962, "physicalid": "24914", "street_name": "9 AVE", "borough": "manhattan", "direction": "FT", "total_row_ft": 150.0, "roadbed_ft": 120.0, "median_ft": 0.0, "left_sw_ft": 15.0, "right_sw_ft": 15.0}, "geometry": {"type": "LineString", "coordinates": [[-73.92000868054085, 40.860014419073195], [-73.91963061181508, 40.85985289912034]]}}, {"type": "Feature", "properties": {"segment_id": 335963, "physicalid": "24914", "street_name": "9 AVE", "borough": "manhattan", "direction": "FT", "total_row_ft": 73.6, "roadbed_ft": 39.2, "median_ft": 0.0, "left_sw_ft": 17.1, "right_sw_ft": 17.3}, "geometry": {"type": "LineString", "coordinates": [[-73.91989775660836, 40.86003001801403], [-73.91966583216966, 40.859930934347354]]}}, {"type": "Feature", "properties": {"segment_id": 1358515, "physicalid": "92678", "street_name": "W 201 ST", "borough": "manhattan", "direction": "TF", "total_row_ft": 102.4, "roadbed_ft": 73.2, "median_ft": 0.0, "left_sw_ft": 15.0, "right_sw_ft": 14.1}, "geometry": {"type": "LineString", "coordinates": [[-73.91994139057002, 40.85985171499323], [-73.9197894233483, 40.86006195740763]]}}, {"type": "Feature", "properties": {"segment_id": 1358516, "physicalid": "92678", "street_name": "W 201 ST", "borough": "manhattan", "direction": "TF", "total_row_ft": 87.2, "roadbed_ft": 33.8, "median_ft": 0.0, "left_sw_ft": 39.4, "right_sw_ft": 14.0}, "geometry": {"type": "LineString", "coordinates": [[-73.92000451774949, 40.85987848125222], [-73.91985280859683, 40.860088366909814]]}}, {"type": "Feature", "properties": {"segment_id": 1358536, "physicalid": "92679", "street_name": "W 201 ST", "borough": "manhattan", "direction": "TW", "total_row_ft": 55.0, "roadbed_ft": 28.6, "median_ft": 0.0, "left_sw_ft": 16.1, "right_sw_ft": 10.4}, "geometry": {"type": "LineString", "coordinates": [[-73.91929357562277, 40.85957690461444], [-73.91919334408347, 40.859707436701385]]}}, {"type": "Feature", "properties": {"segment_id": 1358537, "physicalid": "92679", "street_name": "W 201 ST", "borough": "manhattan", "direction": "TW", "total_row_ft": 55.2, "roadbed_ft": 28.2, "median_ft": 0.0, "left_sw_ft": 15.7, "right_sw_ft": 11.3}, "geometry": {"type": "LineString", "coordinates": [[-73.91935646994882, 40.85960398942624], [-73.91925587379437, 40.859734996514625]]}}, {"type": "Feature", "properties": {"segment_id": 1358538, "physicalid": "92679", "street_name": "W 201 ST", "borough": "manhattan", "direction": "TW", "total_row_ft": 55.5, "roadbed_ft": 28.3, "median_ft": 0.0, "left_sw_ft": 15.4, "right_sw_ft": 11.7}, "geometry": {"type": "LineString", "coordinates": [[-73.9194193643261, 40.85963107420363], [-73.91931840355707, 40.85976255629382]]}}, {"type": "Feature", "properties": {"segment_id": 1358539, "physicalid": "92679", "street_name": "W 201 ST", "borough": "manhattan", "direction": "TW", "total_row_ft": 55.7, "roadbed_ft": 28.7, "median_ft": 0.0, "left_sw_ft": 15.1, "right_sw_ft": 12.0}, "geometry": {"type": "LineString", "coordinates": [[-73.91948236000981, 40.85965802708055], [-73.9193809333716, 40.859790116039015]]}}, {"type": "Feature", "properties": {"segment_id": 1358540, "physicalid": "92679", "street_name": "W 201 ST", "borough": "manhattan", "direction": "TW", "total_row_ft": 56.1, "roadbed_ft": 29.4, "median_ft": 0.0, "left_sw_ft": 14.4, "right_sw_ft": 12.2}, "geometry": {"type": "LineString", "coordinates": [[-73.91954559698777, 40.85968466574836], [-73.91944346323795, 40.859817675750165]]}}, {"type": "Feature", "properties": {"segment_id": 1358541, "physicalid": "92679", "street_name": "W 201 ST", "borough": "manhattan", "direction": "TW", "total_row_ft": 56.5, "roadbed_ft": 30.0, "median_ft": 0.0, "left_sw_ft": 14.0, "right_sw_ft": 12.5}, "geometry": {"type": "LineString", "coordinates": [[-73.91960883433867, 40.85971130396164], [-73.91950599316108, 40.85984523542087]]}}, {"type": "Feature", "properties": {"segment_id": 1358542, "physicalid": "92679", "street_name": "W 201 ST", "borough": "manhattan", "direction": "TW", "total_row_ft": 56.9, "roadbed_ft": 30.0, "median_ft": 0.0, "left_sw_ft": 14.1, "right_sw_ft": 12.8}, "geometry": {"type": "LineString", "coordinates": [[-73.91967207157121, 40.85973794236029], [-73.91956852313689, 40.8598727950564]]}}, {"type": "Feature", "properties": {"segment_id": 1358543, "physicalid": "92679", "street_name": "W 201 ST", "borough": "manhattan", "direction": "TW", "total_row_ft": 57.3, "roadbed_ft": 30.1, "median_ft": 0.0, "left_sw_ft": 14.2, "right_sw_ft": 13.0}, "geometry": {"type": "LineString", "coordinates": [[-73.9197353088544, 40.85976458072413], [-73.91963105316455, 40.8599003546579]]}}, {"type": "Feature", "properties": {"segment_id": 1358544, "physicalid": "92679", "street_name": "W 201 ST", "borough": "manhattan", "direction": "TW", "total_row_ft": 86.9, "roadbed_ft": 30.2, "median_ft": 0.0, "left_sw_ft": 14.2, "right_sw_ft": 42.4}, "geometry": {"type": "LineString", "coordinates": [[-73.91979854618826, 40.859791219053214], [-73.91964033114458, 40.85999726516095]]}}]}