{"type": "FeatureCollection", "features": [{"type": "Feature", "properties": {"segment_id": 1599997, "physicalid": "135959", "street_name": "6 DR", "borough": "manhattan", "direction": "TW", "total_row_ft": 42.1, "roadbed_ft": 19.4, "median_ft": 0.0, "left_sw_ft": 7.7, "right_sw_ft": 15.0}, "geometry": {"type": "LineString", "coordinates": [[-73.92010209428679, 40.788953685709124], [-73.91987350158225, 40.78885419444347]]}}, {"type": "Feature", "properties": {"segment_id": 1601350, "physicalid": "135938", "street_name": "J RD", "borough": "manhattan", "direction": "TW", "total_row_ft": 84.3, "roadbed_ft": 54.3, "median_ft": 0.0, "left_sw_ft": 15.0, "right_sw_ft": 15.0}, "geometry": {"type": "LineString", "coordinates": [[-73.91878142690695, 40.789745130127386], [-73.91907276600469, 40.78950130152927]]}}, {"type": "Feature", "properties": {"segment_id": 1601351, "physicalid": "135938", "street_name": "J RD", "borough": "manhattan", "direction": "TW", "total_row_ft": 74.1, "roadbed_ft": 44.1, "median_ft": 0.0, "left_sw_ft": 15.0, "right_sw_ft": 15.0}, "geometry": {"type": "LineString", "coordinates": [[-73.91872795842863, 40.78970822523697], [-73.91901929756068, 40.78946439677259]]}}, {"type": "Feature", "properties": {"segment_id": 1601352, "physicalid": "135938", "street_name": "J RD", "borough": "manhattan", "direction": "TW", "total_row_ft": 65.6, "roadbed_ft": 35.6, "median_ft": 0.0, "left_sw_ft": 15.0, "right_sw_ft": 15.0}, "geometry": {"type": "LineString", "coordinates": [[-73.91867449000961, 40.789671320321524], [-73.91896582917597, 40.789427491990914]]}}, {"type": "Feature", "properties": {"segment_id": 1601353, "physicalid": "135938", "street_name": "J RD", "borough": "manhattan", "direction": "TW", "total_row_ft": 57.6, "roadbed_ft": 27.6, "median_ft": 0.0, "left_sw_ft": 15.0, "right_sw_ft": 15.0}, "geometry": {"type": "LineString", "coordinates": [[-73.91862102164983, 40.789634415381066], [-73.91891236085054, 40.789390587184215]]}}, {"type": "Feature", "properties": {"segment_id": 1601354, "physicalid": "135938", "street_name": "J RD", "borough": "manhattan", "direction": "TW", "total_row_ft": 56.2, "roadbed_ft": 26.2, "median_ft": 0.0, "left_sw_ft": 15.0, "right_sw_ft": 15.0}, "geometry": {"type": "LineString", "coordinates": [[-73.91856755334935, 40.789597510415575], [-73.91885889258438, 40.78935368235249]]}}, {"type": "Feature", "properties": {"segment_id": 1601355, "physicalid": "135944", "street_name": "8 DR", "borough": "manhattan", "direction": "TW", "total_row_ft": 56.1, "roadbed_ft": 26.1, "median_ft": 0.0, "left_sw_ft": 15.0, "right_sw_ft": 15.0}, "geometry": {"type": "LineString", "coordinates": [[-73.91936700680343, 40.78888226413145], [-73.91900700951781, 40.7886989123044]]}}, {"type": "Feature", "properties": {"segment_id": 1601356, "physicalid": "135944", "street_name": "8 DR", "borough": "manhattan", "direction": "TW", "total_row_ft": 56.9, "roadbed_ft": 26.9, "median_ft": 0.0, "left_sw_ft": 15.0, "right_sw_ft": 15.0}, "geometry": {"type": "LineString", "coordinates": [[-73.91932680064289, 40.788927866715504], [-73.91896680322145, 40.78874451476415]]}}, {"type": "Feature", "properties": {"segment_id": 1601357, "physicalid": "135944", "street_name": "8 DR", "borough": "manhattan", "direction": "TW", "total_row_ft": 62.0, "roadbed_ft": 32.0, "median_ft": 0.0, "left_sw_ft": 15.0, "right_sw_ft": 15.0}, "geometry": {"type": "LineString", "coordinates": [[-73.91928659442732, 40.78897346928518], [-73.91892659687, 40.788790117209544]]}}, {"type": "Feature", "properties": {"segment_id": 1601358, "physicalid": "135944", "street_name": "8 DR", "borough": "manhattan", "direction": "TW", "total_row_ft": 62.3, "roadbed_ft": 32.3, "median_ft": 0.0, "left_sw_ft": 15.0, "right_sw_ft": 15.0}, "geometry": {"type": "LineString", "coordinates": [[-73.91924638815664, 40.78901907184051], [-73.91888639046344, 40.78883571964061]]}}, {"type": "Feature", "properties": {"segment_id": 1601359, "physicalid": "135944", "street_name": "8 DR", "borough": "manhattan", "direction": "TW", "total_row_ft": 62.5, "roadbed_ft": 32.5, "median_ft": 0.0, "left_sw_ft": 15.0, "right_sw_ft": 15.0}, "geometry": {"type": "LineString", "coordinates": [[-73.91920618183089, 40.7890646743815], [-73.91884618400184, 40.78888132205732]]}}, {"type": "Feature", "properties": {"segment_id": 1601360, "physicalid": "135944", "street_name": "8 DR", "borough": "manhattan", "direction": "TW", "total_row_ft": 62.8, "roadbed_ft": 32.8, "median_ft": 0.0, "left_sw_ft": 15.0, "right_sw_ft": 15.0}, "geometry": {"type": "LineString", "coordinates": [[-73.91916597545004, 40.78911027690814], [-73.91880597748515, 40.78892692445966]]}}, {"type": "Feature", "properties": {"segment_id": 1601361, "physicalid": "135944", "street_name": "8 DR", "borough": "manhattan", "direction": "TW", "total_row_ft": 62.8, "roadbed_ft": 32.8, "median_ft": 0.0, "left_sw_ft": 15.0, "right_sw_ft": 15.0}, "geometry": {"type": "LineString", "coordinates": [[-73.91912576901413, 40.789155879420434], [-73.91876577091338, 40.78897252684767]]}}, {"type": "Feature", "properties": {"segment_id": 1601362, "physicalid": "135944", "street_name": "8 DR", "borough": "manhattan", "direction": "TW", "total_row_ft": 62.9, "roadbed_ft": 32.9, "median_ft": 0.0, "left_sw_ft": 15.0, "right_sw_ft": 15.0}, "geometry": {"type": "LineString", "coordinates": [[-73.91908556252314, 40.78920148191838], [-73.91872556428653, 40.789018129221326]]}}, {"type": "Feature", "properties": {"segment_id": 1601363, "physicalid": "135944", "street_name": "8 DR", "borough": "manhattan", "direction": "TW", "total_row_ft": 66.6, "roadbed_ft": 36.6, "median_ft": 0.0, "left_sw_ft": 15.0, "right_sw_ft": 15.0}, "geometry": {"type": "LineString", "coordinates": [[-73.91904535597706, 40.78924708440198], [-73.9186853576046, 40.789063731580626]]}}, {"type": "Feature", "properties": {"segment_id": 1601364, "physicalid": "135944", "street_name": "8 DR", "borough": "manhattan", "direction": "TW", "total_row_ft": 66.7, "roadbed_ft": 36.7, "median_ft": 0.0, "left_sw_ft": 15.0, "right_sw_ft": 15.0}, "geometry": {"type": "LineString", "coordinates": [[-73.9190051493759, 40.789292686871214], [-73.9186451508676, 40.789109333925595]]}}, {"type": "Feature", "properties": {"segment_id": 1601365, "physicalid": "135944", "street_name": "8 DR", "borough": "manhattan", "direction": "TW", "total_row_ft": 66.8, "roadbed_ft": 36.8, "median_ft": 0.0, "left_sw_ft": 15.0, "right_sw_ft": 15.0}, "geometry": {"type": "LineString", "coordinates": [[-73.91896494271968, 40.78933828932612], [-73.91860494407553, 40.7891549362562]]}}, {"type": "Feature", "properties": {"segment_id": 1601366, "physicalid": "135944", "street_name": "8 DR", "borough": "manhattan", "direction": "TW", "total_row_ft": 62.6, "roadbed_ft": 32.6, "median_ft": 0.0, "left_sw_ft": 15.0, "right_sw_ft": 15.0}, "geometry": {"type": "LineString", "coordinates": [[-73.91892473600836, 40.78938389176667], [-73.91856473722837, 40.78920053857245]]}}, {"type": "Feature", "properties": {"segment_id": 1601367, "physicalid": "135944", "street_name": "8 DR", "borough": "manhattan", "direction": "TW", "total_row_ft": 59.7, "roadbed_ft": 29.7, "median_ft": 0.0, "left_sw_ft": 15.0, "right_sw_ft": 15.0}, "geometry": {"type": "LineString", "coordinates": [[-73.91888452924198, 40.78942949419286], [-73.91852453032612, 40.78924614087436]]}}, {"type": "Feature", "properties": {"segment_id": 1601368, "physicalid": "135944", "street_name": "8 DR", "borough": "manhattan", "direction": "TW", "total_row_ft": 66.7, "roadbed_ft": 36.7, "median_ft": 0.0, "left_sw_ft": 15.0, "right_sw_ft": 15.0}, "geometry": {"type": "LineString", "coordinates": [[-73.9188443224205, 40.78947509660474], [-73.91848432336882, 40.78929174316189]]}}, {"type": "Feature", "properties": {"segment_id": 1601369, "physicalid": "135945", "street_name": "H RD", "borough": "manhattan", "direction": "TW", "total_row_ft": 76.5, "roadbed_ft": 46.5, "median_ft": 0.0, "left_sw_ft": 15.0, "right_sw_ft": 15.0}, "geometry": {"type": "LineString", "coordinates": [[-73.91936107939526, 40.78894497112225], [-73.91977302066321, 40.78884272179144]]}}, {"type": "Feature", "properties": {"segment_id": 1601370, "physicalid": "135945", "street_name": "H RD", "borough": "manhattan", "direction": "TW", "total_row_ft": 58.4, "roadbed_ft": 28.4, "median_ft": 0.0, "left_sw_ft": 15.0, "right_sw_ft": 15.0}, "geometry": {"type": "LineString", "coordinates": [[-73.9193551493963, 40.78893779679473], [-73.91971346912783, 40.788752556091126]]}}, {"type": "Feature", "properties": {"segment_id": 1601371, "physicalid": "135945", "street_name": "H RD", "borough": "manhattan", "direction": "TW", "total_row_ft": 54.8, "roadbed_ft": 24.8, "median_ft": 0.0, "left_sw_ft": 15.0, "right_sw_ft": 15.0}, "geometry": {"type": "LineString", "coordinates": [[-73.9193497542045, 40.788931371648694], [-73.91962433587801, 40.78867655901399]]}}, {"type": "Feature", "properties": {"segment_id": 1601372, "physicalid": "135945", "street_name": "H RD", "borough": "manhattan", "direction": "TW", "total_row_ft": 55.7, "roadbed_ft": 25.7, "median_ft": 0.0, "left_sw_ft": 15.0, "right_sw_ft": 15.0}, "geometry": {"type": "LineString", "coordinates": [[-73.91932016496459, 40.78891565086849], [-73.91953555210588, 40.78862984679984]]}}, {"type": "Feature", "properties": {"segment_id": 1601373, "physicalid": "135945", "street_name": "H RD", "borough": "manhattan", "direction": "TW", "total_row_ft": 98.7, "roadbed_ft": 68.7, "median_ft": 0.0, "left_sw_ft": 15.0, "right_sw_ft": 15.0}, "geometry": {"type": "LineString", "coordinates": [[-73.91930599100674, 40.78891383743416], [-73.91941408092775, 40.78859487983536]]}}, {"type": "Feature", "properties": {"segment_id": 1601374, "physicalid": "135945", "street_name": "H RD", "borough": "manhattan", "direction": "TW", "total_row_ft": 91.0, "roadbed_ft": 61.0, "median_ft": 0.0, "left_sw_ft": 15.0, "right_sw_ft": 15.0}, "geometry": {"type": "LineString", "coordinates": [[-73.91929892977438, 40.7889133280376], [-73.91927807677297, 40.788584341780194]]}}, {"type": "Feature", "properties": {"segment_id": 1601382, "physicalid": "135947", "street_name": "8 DR", "borough": "manhattan", "direction": "TW", "total_row_ft": 80.0, "roadbed_ft": 50.0, "median_ft": 0.0, "left_sw_ft": 15.0, "right_sw_ft": 15.0}, "geometry": {"type": "LineString", "coordinates": [[-73.92015480562087, 40.788007501423266], [-73.919797304097, 40.787821355241896]]}}, {"type": "Feature", "properties": {"segment_id": 1601383, "physicalid": "135947", "street_name": "8 DR", "borough": "manhattan", "direction": "TW", "total_row_ft": 79.4, "roadbed_ft": 49.4, "median_ft": 0.0, "left_sw_ft": 15.0, "right_sw_ft": 15.0}, "geometry": {"type": "LineString", "coordinates": [[-73.92011398724104, 40.78805278845998], [-73.91975648558811, 40.78786664215329]]}}, {"type": "Feature", "properties": {"segment_id": 1601384, "physicalid": "135947", "street_name": "8 DR", "borough": "manhattan", "direction": "TW", "total_row_ft": 78.8, "roadbed_ft": 48.8, "median_ft": 0.0, "left_sw_ft": 15.0, "right_sw_ft": 15.0}, "geometry": {"type": "LineString", "coordinates": [[-73.92007316880567, 40.78809807548193], [-73.9197156670237, 40.787911929049926]]}}, {"type": "Feature", "properties": {"segment_id": 1601385, "physicalid": "135947", "street_name": "8 DR", "borough": "manhattan", "direction": "TW", "total_row_ft": 78.2, "roadbed_ft": 48.2, "median_ft": 0.0, "left_sw_ft": 15.0, "right_sw_ft": 15.0}, "geometry": {"type": "LineString", "coordinates": [[-73.92003235031476, 40.78814336248911], [-73.91967484840377, 40.78795721593176]]}}, {"type": "Feature", "properties": {"segment_id": 1601386, "physicalid": "135947", "street_name": "8 DR", "borough": "manhattan", "direction": "TW", "total_row_ft": 77.5, "roadbed_ft": 47.5, "median_ft": 0.0, "left_sw_ft": 15.0, "right_sw_ft": 15.0}, "geometry": {"type": "LineString", "coordinates": [[-73.91999153176836, 40.78818864948148], [-73.91963402972827, 40.78800250279888]]}}, {"type": "Feature", "properties": {"segment_id": 1601387, "physicalid": "135947", "street_name": "8 DR", "borough": "manhattan", "direction": "TW", "total_row_ft": 76.9, "roadbed_ft": 46.9, "median_ft": 0.0, "left_sw_ft": 15.0, "right_sw_ft": 15.0}, "geometry": {"type": "LineString", "coordinates": [[-73.9199507131664, 40.78823393645911], [-73.91959321099728, 40.788047789651166]]}}, {"type": "Feature", "properties": {"segment_id": 1601388, "physicalid": "135947", "street_name": "8 DR", "borough": "manhattan", "direction": "TW", "total_row_ft": 76.3, "roadbed_ft": 46.3, "median_ft": 0.0, "left_sw_ft": 15.0, "right_sw_ft": 15.0}, "geometry": {"type": "LineString", "coordinates": [[-73.91990989450892, 40.78827922342193], [-73.91955239221075, 40.78809307648872]]}}, {"type": "Feature", "properties": {"segment_id": 1601389, "physicalid": "135947", "street_name": "8 DR", "borough": "manhattan", "direction": "TW", "total_row_ft": 76.0, "roadbed_ft": 46.0, "median_ft": 0.0, "left_sw_ft": 15.0, "right_sw_ft": 15.0}, "geometry": {"type": "LineString", "coordinates": [[-73.9198690757959, 40.788324510370025], [-73.9195115733687, 40.78813836331146]]}}, {"type": "Feature", "properties": {"segment_id": 1601390, "physicalid": "135947", "street_name": "8 DR", "borough": "manhattan", "direction": "TW", "total_row_ft": 75.8, "roadbed_ft": 45.8, "median_ft": 0.0, "left_sw_ft": 15.0, "right_sw_ft": 15.0}, "geometry": {"type": "LineString", "coordinates": [[-73.91982825702733, 40.78836979730334], [-73.91947075447112, 40.78818365011945]]}}, {"type": "Feature", "properties": {"segment_id": 1601391, "physicalid": "135947", "street_name": "8 DR", "borough": "manhattan", "direction": "TW", "total_row_ft": 75.8, "roadbed_ft": 45.8, "median_ft": 0.0, "left_sw_ft": 15.0, "right_sw_ft": 15.0}, "geometry": {"type": "LineString", "coordinates": [[-73.91978743820329, 40.78841508422182], [-73.91942993551797, 40.78822893691266]]}}, {"type": "Feature", "properties": {"segment_id": 1601392, "physicalid": "135947", "street_name": "8 DR", "borough": "manhattan", "direction": "TW", "total_row_ft": 75.8, "roadbed_ft": 45.8, "median_ft": 0.0, "left_sw_ft": 15.0, "right_sw_ft": 15.0}, "geometry": {"type": "LineString", "coordinates": [[-73.91974661932367, 40.78846037112557], [-73.91938911650931, 40.788274223691104]]}}, {"type": "Feature", "properties": {"segment_id": 1601393, "physicalid": "135947", "street_name": "8 DR", "borough": "manhattan", "direction": "TW", "total_row_ft": 75.5, "roadbed_ft": 45.5, "median_ft": 0.0, "left_sw_ft": 15.0, "right_sw_ft": 15.0}, "geometry": {"type": "LineString", "coordinates": [[-73.91970580038854, 40.788505658014536], [-73.91934829744513, 40.788319510454755]]}}, {"type": "Feature", "properties": {"segment_id": 1601394, "physicalid": "135947", "street_name": "8 DR", "borough": "manhattan", "direction": "TW", "total_row_ft": 75.2, "roadbed_ft": 45.2, "median_ft": 0.0, "left_sw_ft": 15.0, "right_sw_ft": 15.0}, "geometry": {"type": "LineString", "coordinates": [[-73.91966498139786, 40.788550944888755], [-73.91930747832544, 40.78836479720361]]}}, {"type": "Feature", "properties": {"segment_id": 1601395, "physicalid": "135947", "street_name": "8 DR", "borough": "manhattan", "direction": "TW", "total_row_ft": 75.1, "roadbed_ft": 45.1, "median_ft": 0.0, "left_sw_ft": 15.0, "right_sw_ft": 15.0}, "geometry": {"type": "LineString", "coordinates": [[-73.9196241623517, 40.788596231748144], [-73.91926665915018, 40.78841008393774]]}}, {"type": "Feature", "properties": {"segment_id": 1601396, "physicalid": "135947", "street_name": "8 DR", "borough": "manhattan", "direction": "TW", "total_row_ft": 75.1, "roadbed_ft": 45.1, "median_ft": 0.0, "left_sw_ft": 15.0, "right_sw_ft": 15.0}, "geometry": {"type": "LineString", "coordinates": [[-73.91958334324995, 40.78864151859278], [-73.9192258399194, 40.78845537065708]]}}, {"type": "Feature", "properties": {"segment_id": 1601397, "physicalid": "135947", "street_name": "8 DR", "borough": "manhattan", "direction": "TW", "total_row_ft": 75.0, "roadbed_ft": 45.0, "median_ft": 0.0, "left_sw_ft": 15.0, "right_sw_ft": 15.0}, "geometry": {"type": "LineString", "coordinates": [[-73.9195425240927, 40.78868680542265], [-73.91918502063311, 40.78850065736164]]}}, {"type": "Feature", "properties": {"segment_id": 1601398, "physicalid": "135947", "street_name": "8 DR", "borough": "manhattan", "direction": "TW", "total_row_ft": 74.9, "roadbed_ft": 44.9, "median_ft": 0.0, "left_sw_ft": 15.0, "right_sw_ft": 15.0}, "geometry": {"type": "LineString", "coordinates": [[-73.91950170487992, 40.788732092237744], [-73.91914420129126, 40.78854594405142]]}}, {"type": "Feature", "properties": {"segment_id": 1601399, "physicalid": "135947", "street_name": "8 DR", "borough": "manhattan", "direction": "TW", "total_row_ft": 107.8, "roadbed_ft": 77.8, "median_ft": 0.0, "left_sw_ft": 15.0, "right_sw_ft": 15.0}, "geometry": {"type": "LineString", "coordinates": [[-73.91946088561157, 40.788777379038095], [-73.91910338189392, 40.7885912307264]]}}, {"type": "Feature", "properties": {"segment_id": 1601545, "physicalid": "135969", "street_name": "J RD", "borough": "manhattan", "direction": "TW", "total_row_ft": 44.2, "roadbed_ft": 23.5, "median_ft": 0.0, "left_sw_ft": 15.0, "right_sw_ft": 5.7}, "geometry": {"type": "LineString", "coordinates": [[-73.91925472577002, 40.79006638346107], [-73.91940761128647, 40.78988491864924]]}}, {"type": "Feature", "properties": {"segment_id": 1601546, "physicalid": "135969", "street_name": "J RD", "borough": "manhattan", "direction": "TW", "total_row_ft": 42.9, "roadbed_ft": 23.2, "median_ft": 0.0, "left_sw_ft": 15.0, "right_sw_ft": 4.7}, "geometry": {"type": "LineString", "coordinates": [[-73.91919390066312, 40.790036781277024], [-73.91934379445189, 40.789858867647986]]}}, {"type": "Feature", "properties": {"segment_id": 1601547, "physicalid": "135969", "street_name": "J RD", "borough": "manhattan", "direction": "TW", "total_row_ft": 52.6, "roadbed_ft": 22.6, "median_ft": 0.0, "left_sw_ft": 15.0, "right_sw_ft": 15.0}, "geometry": {"type": "LineString", "coordinates": [[-73.91913307561025, 40.790007179060744], [-73.91936676606302, 40.78972980434673]]}}, {"type": "Feature", "properties": {"segment_id": 1601548, "physicalid": "135969", "street_name": "J RD", "borough": "manhattan", "direction": "TW", "total_row_ft": 51.8, "roadbed_ft": 21.8, "median_ft": 0.0, "left_sw_ft": 15.0, "right_sw_ft": 15.0}, "geometry": {"type": "LineString", "coordinates": [[-73.91907225061148, 40.78997757681221], [-73.91930594121378, 40.78970020222023]]}}, {"type": "Feature", "properties": {"segment_id": 1601549, "physicalid": "135969", "street_name": "J RD", "borough": "manhattan", "direction": "TW", "total_row_ft": 51.1, "roadbed_ft": 21.1, "median_ft": 0.0, "left_sw_ft": 15.0, "right_sw_ft": 15.0}, "geometry": {"type": "LineString", "coordinates": [[-73.91901142566681, 40.78994797453144], [-73.91924511641861, 40.789670600061534]]}}, {"type": "Feature", "properties": {"segment_id": 1601550, "physicalid": "135969", "street_name": "J RD", "borough": "manhattan", "direction": "TW", "total_row_ft": 52.2, "roadbed_ft": 22.2, "median_ft": 0.0, "left_sw_ft": 15.0, "right_sw_ft": 15.0}, "geometry": {"type": "LineString", "coordinates": [[-73.91895060077621, 40.78991837221847], [-73.91918429167754, 40.78964099787059]]}}, {"type": "Feature", "properties": {"segment_id": 1601551, "physicalid": "135969", "street_name": "J RD", "borough": "manhattan", "direction": "TW", "total_row_ft": 62.7, "roadbed_ft": 32.7, "median_ft": 0.0, "left_sw_ft": 15.0, "right_sw_ft": 15.0}, "geometry": {"type": "LineString", "coordinates": [[-73.91881074255622, 40.789820488285436], [-73.91920250044656, 40.789679677022995]]}}, {"type": "Feature", "properties": {"segment_id": 1601552, "physicalid": "135969", "street_name": "J RD", "borough": "manhattan", "direction": "TW", "total_row_ft": 80.5, "roadbed_ft": 50.5, "median_ft": 0.0, "left_sw_ft": 15.0, "right_sw_ft": 15.0}, "geometry": {"type": "LineString", "coordinates": [[-73.91877810649477, 40.789744953464066], [-73.91919318578852, 40.78965030597068]]}}, {"type": "Feature", "properties": {"segment_id": 1604594, "physicalid": "138303", "street_name": "7 DR", "borough": "manhattan", "direction": "TW", "total_row_ft": 101.4, "roadbed_ft": 71.4, "median_ft": 0.0, "left_sw_ft": 15.0, "right_sw_ft": 15.0}, "geometry": {"type": "LineString", "coordinates": [[-73.91973318571175, 40.78905784730032], [-73.91936991288325, 40.78887826519874]]}}, {"type": "Feature", "properties": {"segment_id": 1604595, "physicalid": "138303", "street_name": "7 DR", "borough": "manhattan", "direction": "TW", "total_row_ft": 79.5, "roadbed_ft": 49.5, "median_ft": 0.0, "left_sw_ft": 15.0, "right_sw_ft": 15.0}, "geometry": {"type": "LineString", "coordinates": [[-73.9196938060921, 40.78910386468822], [-73.91933053311874, 40.78892428246379]]}}, {"type": "Feature", "properties": {"segment_id": 1604596, "physicalid": "138303", "street_name": "7 DR", "borough": "manhattan", "direction": "TW", "total_row_ft": 65.7, "roadbed_ft": 35.7, "median_ft": 0.0, "left_sw_ft": 15.0, "right_sw_ft": 15.0}, "geometry": {"type": "LineString", "coordinates": [[-73.919654426418, 40.78914988206233], [-73.91929115329978, 40.78897029971508]]}}, {"type": "Feature", "properties": {"segment_id": 1604597, "physicalid": "138303", "street_name": "7 DR", "borough": "manhattan", "direction": "TW", "total_row_ft": 67.0, "roadbed_ft": 37.0, "median_ft": 0.0, "left_sw_ft": 15.0, "right_sw_ft": 15.0}, "geometry": {"type": "LineString", "coordinates": [[-73.91961504668949, 40.78919589942268], [-73.9192517734264, 40.78901631695256]]}}, {"type": "Feature", "properties": {"segment_id": 1604598, "physicalid": "138303", "street_name": "7 DR", "borough": "manhattan", "direction": "TW", "total_row_ft": 68.4, "roadbed_ft": 38.4, "median_ft": 0.0, "left_sw_ft": 15.0, "right_sw_ft": 15.0}, "geometry": {"type": "LineString", "coordinates": [[-73.91957566690652, 40.78924191676923], [-73.91921239349855, 40.789062334176286]]}}, {"type": "Feature", "properties": {"segment_id": 1604599, "physicalid": "138303", "street_name": "7 DR", "borough": "manhattan", "direction": "TW", "total_row_ft": 67.0, "roadbed_ft": 37.0, "median_ft": 0.0, "left_sw_ft": 15.0, "right_sw_ft": 15.0}, "geometry": {"type": "LineString", "coordinates": [[-73.91953628706912, 40.789287934102], [-73.91917301351629, 40.78910835138622]]}}, {"type": "Feature", "properties": {"segment_id": 1604600, "physicalid": "138303", "street_name": "7 DR", "borough": "manhattan", "direction": "TW", "total_row_ft": 70.7, "roadbed_ft": 40.7, "median_ft": 0.0, "left_sw_ft": 15.0, "right_sw_ft": 15.0}, "geometry": {"type": "LineString", "coordinates": [[-73.91949690717729, 40.78933395142099], [-73.91913363347959, 40.78915436858234]]}}, {"type": "Feature", "properties": {"segment_id": 1604601, "physicalid": "138303", "street_name": "7 DR", "borough": "manhattan", "direction": "TW", "total_row_ft": 72.5, "roadbed_ft": 42.5, "median_ft": 0.0, "left_sw_ft": 15.0, "right_sw_ft": 15.0}, "geometry": {"type": "LineString", "coordinates": [[-73.919457527231, 40.78937996872618], [-73.91909425338844, 40.78920038576471]]}}, {"type": "Feature", "properties": {"segment_id": 1604602, "physicalid": "138303", "street_name": "7 DR", "borough": "manhattan", "direction": "TW", "total_row_ft": 76.9, "roadbed_ft": 46.9, "median_ft": 0.0, "left_sw_ft": 15.0, "right_sw_ft": 15.0}, "geometry": {"type": "LineString", "coordinates": [[-73.91941814723029, 40.7894259860176], [-73.91905487324286, 40.78924640293329]]}}, {"type": "Feature", "properties": {"segment_id": 1604603, "physicalid": "138303", "street_name": "7 DR", "borough": "manhattan", "direction": "TW", "total_row_ft": 78.1, "roadbed_ft": 48.1, "median_ft": 0.0, "left_sw_ft": 15.0, "right_sw_ft": 15.0}, "geometry": {"type": "LineString", "coordinates": [[-73.91937876717513, 40.78947200329523], [-73.91901549304283, 40.78929242008807]]}}, {"type": "Feature", "properties": {"segment_id": 1604604, "physicalid": "138303", "street_name": "7 DR", "borough": "manhattan", "direction": "TW", "total_row_ft": 79.3, "roadbed_ft": 49.3, "median_ft": 0.0, "left_sw_ft": 15.0, "right_sw_ft": 15.0}, "geometry": {"type": "LineString", "coordinates": [[-73.91933938706558, 40.789518020559036], [-73.91897611278836, 40.78933843722909]]}}, {"type": "Feature", "properties": {"segment_id": 1604605, "physicalid": "138303", "street_name": "7 DR", "borough": "manhattan", "direction": "TW", "total_row_ft": 76.4, "roadbed_ft": 46.4, "median_ft": 0.0, "left_sw_ft": 15.0, "right_sw_ft": 15.0}, "geometry": {"type": "LineString", "coordinates": [[-73.91930000690152, 40.78956403780912], [-73.91893673247951, 40.789384454356274]]}}, {"type": "Feature", "properties": {"segment_id": 1604606, "physicalid": "138303", "street_name": "7 DR", "borough": "manhattan", "direction": "TW", "total_row_ft": 50.5, "roadbed_ft": 20.5, "median_ft": 0.0, "left_sw_ft": 15.0, "right_sw_ft": 15.0}, "geometry": {"type": "LineString", "coordinates": [[-73.91926062668306, 40.78961005504541], [-73.91889735211616, 40.78943047146971]]}}, {"type": "Feature", "properties": {"segment_id": 1604607, "physicalid": "138303", "street_name": "7 DR", "borough": "manhattan", "direction": "TW", "total_row_ft": 54.4, "roadbed_ft": 24.4, "median_ft": 0.0, "left_sw_ft": 15.0, "right_sw_ft": 15.0}, "geometry": {"type": "LineString", "coordinates": [[-73.91922124641016, 40.78965607226789], [-73.91885797169839, 40.78947648856937]]}}, {"type": "Feature", "properties": {"segment_id": 1604608, "physicalid": "138303", "street_name": "7 DR", "borough": "manhattan", "direction": "TW", "total_row_ft": 115.1, "roadbed_ft": 85.1, "median_ft": 0.0, "left_sw_ft": 15.0, "right_sw_ft": 15.0}, "geometry": {"type": "LineString", "coordinates": [[-73.91918186608281, 40.78970208947659], [-73.91881859122618, 40.78952250565523]]}}, {"type": "Feature", "properties": {"segment_id": 1608704, "physicalid": "141257", "street_name": "H RD", "borough": "manhattan", "direction": "TW", "total_row_ft": 102.9, "roadbed_ft": 72.9, "median_ft": 0.0, "left_sw_ft": 15.0, "right_sw_ft": 15.0}, "geometry": {"type": "LineString", "coordinates": [[-73.91991398094981, 40.78915502669978], [-73.92000314583062, 40.78883270626635]]}}, {"type": "Feature", "properties": {"segment_id": 1608705, "physicalid": "141257", "street_name": "H RD", "borough": "manhattan", "direction": "TW", "total_row_ft": 113.3, "roadbed_ft": 83.3, "median_ft": 0.0, "left_sw_ft": 15.0, "right_sw_ft": 15.0}, "geometry": {"type": "LineString", "coordinates": [[-73.91984330072766, 40.78914373175609], [-73.91993246593552, 40.78882141137676]]}}, {"type": "Feature", "properties": {"segment_id": 1608706, "physicalid": "141257", "street_name": "H RD", "borough": "manhattan", "direction": "TW", "total_row_ft": 114.6, "roadbed_ft": 84.6, "median_ft": 0.0, "left_sw_ft": 15.0, "right_sw_ft": 15.0}, "geometry": {"type": "LineString", "coordinates": [[-73.9197726205295, 40.78913243676903], [-73.91986178606442, 40.78881011644379]]}}, {"type": "Feature", "properties": {"segment_id": 1608707, "physicalid": "141257", "street_name": "H RD", "borough": "manhattan", "direction": "TW", "total_row_ft": 111.2, "roadbed_ft": 81.2, "median_ft": 0.0, "left_sw_ft": 15.0, "right_sw_ft": 15.0}, "geometry": {"type": "LineString", "coordinates": [[-73.91970194035531, 40.78912114173862], [-73.91979110621728, 40.7887988214675]]}}, {"type": "Feature", "properties": {"segment_id": 1608708, "physicalid": "141257", "street_name": "H RD", "borough": "manhattan", "direction": "TW", "total_row_ft": 106.9, "roadbed_ft": 76.9, "median_ft": 0.0, "left_sw_ft": 15.0, "right_sw_ft": 15.0}, "geometry": {"type": "LineString", "coordinates": [[-73.91963126020511, 40.78910984666481], [-73.91972042639412, 40.78878752644782]]}}]}