{"type": "FeatureCollection", "features": [{"type": "Feature", "properties": {"segment_id": 1233, "physicalid": "173", "street_name": "HENRY HUDSON PKWY", "borough": "manhattan", "direction": "FT", "total_row_ft": 91.6, "roadbed_ft": 59.6, "median_ft": 2.0, "left_sw_ft": 15.0, "right_sw_ft": 15.0}, "geometry": {"type": "LineString", "coordinates": [[-73.98201075044769, 40.79007606179414], [-73.98161441324655, 40.78994285595371]]}}, {"type": "Feature", "properties": {"segment_id": 1234, "physicalid": "173", "street_name": "HENRY HUDSON PKWY", "borough": "manhattan", "direction": "FT", "total_row_ft": 91.0, "roadbed_ft": 59.0, "median_ft": 2.0, "left_sw_ft": 15.0, "right_sw_ft": 15.0}, "geometry": {"type": "LineString", "coordinates": [[-73.98198154003879, 40.79012626678632], [-73.98158520259717, 40.78999306084655]]}}, {"type": "Feature", "properties": {"segment_id": 1235, "physicalid": "173", "street_name": "HENRY HUDSON PKWY", "borough": "manhattan", "direction": "FT", "total_row_ft": 90.4, "roadbed_ft": 58.4, "median_ft": 2.0, "left_sw_ft": 15.0, "right_sw_ft": 15.0}, "geometry": {"type": "LineString", "coordinates": [[-73.98195232958582, 40.790176471770714], [-73.98155599190378, 40.79004326573152]]}}, {"type": "Feature", "properties": {"segment_id": 1236, "physicalid": "173", "street_name": "HENRY HUDSON PKWY", "borough": "manhattan", "direction": "FT", "total_row_ft": 90.2, "roadbed_ft": 58.2, "median_ft": 2.0, "left_sw_ft": 15.0, "right_sw_ft": 15.0}, "geometry": {"type": "LineString", "coordinates": [[-73.98192311908878, 40.790226676747324], [-73.98152678116631, 40.790093470608724]]}}, {"type": "Feature", "properties": {"segment_id": 1237, "physicalid": "173", "street_name": "HENRY HUDSON PKWY", "borough": "manhattan", "direction": "FT", "total_row_ft": 90.5, "roadbed_ft": 58.5, "median_ft": 2.0, "left_sw_ft": 15.0, "right_sw_ft": 15.0}, "geometry": {"type": "LineString", "coordinates": [[-73.9818939085477, 40.79027688171615], [-73.98149757038479, 40.79014367547813]]}}, {"type": "Feature", "properties": {"segment_id": 1238, "physicalid": "173", "street_name": "HENRY HUDSON PKWY", "borough": "manhattan", "direction": "FT", "total_row_ft": 90.5, "roadbed_ft": 58.5, "median_ft": 2.0, "left_sw_ft": 15.0, "right_sw_ft": 15.0}, "geometry": {"type": "LineString", "coordinates": [[-73.98186469796254, 40.790327086677195], [-73.98146835955924, 40.79019388033969]]}}, {"type": "Feature", "properties": {"segment_id": 1239, "physicalid": "173", "street_name": "HENRY HUDSON PKWY", "borough": "manhattan", "direction": "FT", "total_row_ft": 90.6, "roadbed_ft": 58.5, "median_ft": 2.0, "left_sw_ft": 15.0, "right_sw_ft": 15.0}, "geometry": {"type": "LineString", "coordinates": [[-73.98183548733337, 40.79037729163037], [-73.9814391486896, 40.79024408519356]]}}, {"type": "Feature", "properties": {"segment_id": 1240, "physicalid": "173", "street_name": "HENRY HUDSON PKWY", "borough": "manhattan", "direction": "FT", "total_row_ft": 90.6, "roadbed_ft": 58.6, "median_ft": 2.0, "left_sw_ft": 15.0, "right_sw_ft": 15.0}, "geometry": {"type": "LineString", "coordinates": [[-73.98180627666012, 40.7904274965758], [-73.98140993777592, 40.79029429003957]]}}, {"type": "Feature", "properties": {"segment_id": 1241, "physicalid": "173", "street_name": "HENRY HUDSON PKWY", "borough": "manhattan", "direction": "FT", "total_row_ft": 90.8, "roadbed_ft": 58.8, "median_ft": 2.0, "left_sw_ft": 15.0, "right_sw_ft": 15.0}, "geometry": {"type": "LineString", "coordinates": [[-73.98177742315725, 40.79047756272522], [-73.98138083341144, 40.790344787668296]]}}, {"type": "Feature", "properties": {"segment_id": 1242, "physicalid": "173", "street_name": "HENRY HUDSON PKWY", "borough": "manhattan", "direction": "FT", "total_row_ft": 90.8, "roadbed_ft": 58.8, "median_ft": 2.0, "left_sw_ft": 15.0, "right_sw_ft": 15.0}, "geometry": {"type": "LineString", "coordinates": [[-73.98174830703714, 40.790527799401474], [-73.98135171705012, 40.79039502424538]]}}, {"type": "Feature", "properties": {"segment_id": 1243, "physicalid": "173", "street_name": "HENRY HUDSON PKWY", "borough": "manhattan", "direction": "FT", "total_row_ft": 92.9, "roadbed_ft": 60.9, "median_ft": 2.0, "left_sw_ft": 15.0, "right_sw_ft": 15.0}, "geometry": {"type": "LineString", "coordinates": [[-73.98171467921169, 40.79058323580728], [-73.98132489897031, 40.790439282192494]]}}, {"type": "Feature", "properties": {"segment_id": 1244, "physicalid": "173", "street_name": "HENRY HUDSON PKWY", "borough": "manhattan", "direction": "FT", "total_row_ft": 104.0, "roadbed_ft": 72.0, "median_ft": 2.0, "left_sw_ft": 15.0, "right_sw_ft": 15.0}, "geometry": {"type": "LineString", "coordinates": [[-73.98168311168799, 40.79063260984081], [-73.98129333122584, 40.79048865612032]]}}, {"type": "Feature", "properties": {"segment_id": 1245, "physicalid": "173", "street_name": "HENRY HUDSON PKWY", "borough": "manhattan", "direction": "FT", "total_row_ft": 108.8, "roadbed_ft": 76.8, "median_ft": 2.0, "left_sw_ft": 15.0, "right_sw_ft": 15.0}, "geometry": {"type": "LineString", "coordinates": [[-73.98165154411747, 40.79068198386529], [-73.9812617634345, 40.79053803003914]]}}, {"type": "Feature", "properties": {"segment_id": 1246, "physicalid": "173", "street_name": "HENRY HUDSON PKWY", "borough": "manhattan", "direction": "FT", "total_row_ft": 108.5, "roadbed_ft": 76.5, "median_ft": 2.0, "left_sw_ft": 15.0, "right_sw_ft": 15.0}, "geometry": {"type": "LineString", "coordinates": [[-73.98161997660144, 40.790731357745535], [-73.98123019551912, 40.790587404092996]]}}, {"type": "Feature", "properties": {"segment_id": 1247, "physicalid": "173", "street_name": "HENRY HUDSON PKWY", "borough": "manhattan", "direction": "FT", "total_row_ft": 108.2, "roadbed_ft": 76.2, "median_ft": 2.0, "left_sw_ft": 15.0, "right_sw_ft": 15.0}, "geometry": {"type": "LineString", "coordinates": [[-73.98158840899852, 40.79078073177456], [-73.98119862769539, 40.79063677801638]]}}, {"type": "Feature", "properties": {"segment_id": 1248, "physicalid": "173", "street_name": "HENRY HUDSON PKWY", "borough": "manhattan", "direction": "FT", "total_row_ft": 107.2, "roadbed_ft": 75.2, "median_ft": 2.0, "left_sw_ft": 15.0, "right_sw_ft": 15.0}, "geometry": {"type": "LineString", "coordinates": [[-73.98155684134878, 40.79083010579458], [-73.98116705982483, 40.790686151930764]]}}, {"type": "Feature", "properties": {"segment_id": 1249, "physicalid": "173", "street_name": "HENRY HUDSON PKWY", "borough": "manhattan", "direction": "FT", "total_row_ft": 97.1, "roadbed_ft": 65.1, "median_ft": 2.0, "left_sw_ft": 15.0, "right_sw_ft": 15.0}, "geometry": {"type": "LineString", "coordinates": [[-73.98152527365222, 40.79087947980552], [-73.98113549190744, 40.79073552583612]]}}, {"type": "Feature", "properties": {"segment_id": 1250, "physicalid": "173", "street_name": "HENRY HUDSON PKWY", "borough": "manhattan", "direction": "FT", "total_row_ft": 88.9, "roadbed_ft": 56.9, "median_ft": 2.0, "left_sw_ft": 15.0, "right_sw_ft": 15.0}, "geometry": {"type": "LineString", "coordinates": [[-73.98149370590882, 40.79092885380752], [-73.98110392394327, 40.790784899732394]]}}, {"type": "Feature", "properties": {"segment_id": 1251, "physicalid": "173", "street_name": "HENRY HUDSON PKWY", "borough": "manhattan", "direction": "FT", "total_row_ft": 88.7, "roadbed_ft": 56.7, "median_ft": 2.0, "left_sw_ft": 15.0, "right_sw_ft": 15.0}, "geometry": {"type": "LineString", "coordinates": [[-73.98146213811863, 40.79097822780042], [-73.98107235593221, 40.790834273619694]]}}, {"type": "Feature", "properties": {"segment_id": 1252, "physicalid": "173", "street_name": "HENRY HUDSON PKWY", "borough": "manhattan", "direction": "FT", "total_row_ft": 88.4, "roadbed_ft": 56.4, "median_ft": 2.0, "left_sw_ft": 15.0, "right_sw_ft": 15.0}, "geometry": {"type": "LineString", "coordinates": [[-73.98142804962607, 40.79103120031289], [-73.98104307354969, 40.79087995944017]]}}, {"type": "Feature", "properties": {"segment_id": 1253, "physicalid": "173", "street_name": "HENRY HUDSON PKWY", "borough": "manhattan", "direction": "FT", "total_row_ft": 87.7, "roadbed_ft": 55.7, "median_ft": 2.0, "left_sw_ft": 15.0, "right_sw_ft": 15.0}, "geometry": {"type": "LineString", "coordinates": [[-73.98139488384685, 40.791079965469095], [-73.9810099075638, 40.79092872448676]]}}, {"type": "Feature", "properties": {"segment_id": 1254, "physicalid": "173", "street_name": "HENRY HUDSON PKWY", "borough": "manhattan", "direction": "FT", "total_row_ft": 87.3, "roadbed_ft": 55.3, "median_ft": 2.0, "left_sw_ft": 15.0, "right_sw_ft": 15.0}, "geometry": {"type": "LineString", "coordinates": [[-73.98136171801902, 40.7911287306154], [-73.98097674152937, 40.79097748952338]]}}, {"type": "Feature", "properties": {"segment_id": 1255, "physicalid": "173", "street_name": "HENRY HUDSON PKWY", "borough": "manhattan", "direction": "FT", "total_row_ft": 87.0, "roadbed_ft": 55.0, "median_ft": 2.0, "left_sw_ft": 15.0, "right_sw_ft": 15.0}, "geometry": {"type": "LineString", "coordinates": [[-73.98132855214263, 40.79117749575173], [-73.98094357544632, 40.79102625455014]]}}, {"type": "Feature", "properties": {"segment_id": 1256, "physicalid": "173", "street_name": "HENRY HUDSON PKWY", "borough": "manhattan", "direction": "FT", "total_row_ft": 86.8, "roadbed_ft": 54.8, "median_ft": 2.0, "left_sw_ft": 15.0, "right_sw_ft": 15.0}, "geometry": {"type": "LineString", "coordinates": [[-73.98129538621764, 40.79122626087819], [-73.98091040931469, 40.79107501956697]]}}, {"type": "Feature", "properties": {"segment_id": 1257, "physicalid": "173", "street_name": "HENRY HUDSON PKWY", "borough": "manhattan", "direction": "FT", "total_row_ft": 87.0, "roadbed_ft": 54.9, "median_ft": 2.1, "left_sw_ft": 15.0, "right_sw_ft": 15.0}, "geometry": {"type": "LineString", "coordinates": [[-73.98126222024405, 40.79127502599475], [-73.98087724313449, 40.79112378457382]]}}, {"type": "Feature", "properties": {"segment_id": 1258, "physicalid": "173", "street_name": "HENRY HUDSON PKWY", "borough": "manhattan", "direction": "FT", "total_row_ft": 87.3, "roadbed_ft": 54.9, "median_ft": 2.4, "left_sw_ft": 15.0, "right_sw_ft": 15.0}, "geometry": {"type": "LineString", "coordinates": [[-73.98122905422191, 40.79132379110136], [-73.98084407690567, 40.79117254957087]]}}, {"type": "Feature", "properties": {"segment_id": 1259, "physicalid": "173", "street_name": "HENRY HUDSON PKWY", "borough": "manhattan", "direction": "FT", "total_row_ft": 87.8, "roadbed_ft": 55.1, "median_ft": 2.7, "left_sw_ft": 15.0, "right_sw_ft": 15.0}, "geometry": {"type": "LineString", "coordinates": [[-73.98119588815116, 40.79137255619806], [-73.98081091062828, 40.79122131455796]]}}, {"type": "Feature", "properties": {"segment_id": 1260, "physicalid": "173", "street_name": "HENRY HUDSON PKWY", "borough": "manhattan", "direction": "FT", "total_row_ft": 88.3, "roadbed_ft": 55.3, "median_ft": 3.0, "left_sw_ft": 15.0, "right_sw_ft": 15.0}, "geometry": {"type": "LineString", "coordinates": [[-73.98116272203181, 40.79142132128488], [-73.98077774430233, 40.79127007953508]]}}, {"type": "Feature", "properties": {"segment_id": 1261, "physicalid": "173", "street_name": "HENRY HUDSON PKWY", "borough": "manhattan", "direction": "FT", "total_row_ft": 88.2, "roadbed_ft": 55.2, "median_ft": 3.0, "left_sw_ft": 15.0, "right_sw_ft": 15.0}, "geometry": {"type": "LineString", "coordinates": [[-73.9811295558639, 40.791470086361755], [-73.98074457792774, 40.791318844502364]]}}, {"type": "Feature", "properties": {"segment_id": 1262, "physicalid": "173", "street_name": "HENRY HUDSON PKWY", "borough": "manhattan", "direction": "FT", "total_row_ft": 88.2, "roadbed_ft": 55.2, "median_ft": 3.0, "left_sw_ft": 15.0, "right_sw_ft": 15.0}, "geometry": {"type": "LineString", "coordinates": [[-73.98109638964738, 40.79151885142873], [-73.98071141150461, 40.79136760945966]]}}, {"type": "Feature", "properties": {"segment_id": 1263, "physicalid": "173", "street_name": "HENRY HUDSON PKWY", "borough": "manhattan", "direction": "FT", "total_row_ft": 88.4, "roadbed_ft": 55.4, "median_ft": 3.0, "left_sw_ft": 15.0, "right_sw_ft": 15.0}, "geometry": {"type": "LineString", "coordinates": [[-73.98106322338228, 40.79156761648578], [-73.98067824503288, 40.791416374407085]]}}, {"type": "Feature", "properties": {"segment_id": 1264, "physicalid": "173", "street_name": "HENRY HUDSON PKWY", "borough": "manhattan", "direction": "FT", "total_row_ft": 88.6, "roadbed_ft": 55.6, "median_ft": 3.0, "left_sw_ft": 15.0, "right_sw_ft": 15.0}, "geometry": {"type": "LineString", "coordinates": [[-73.98103005706862, 40.791616381532876], [-73.98064507851252, 40.79146513934464]]}}, {"type": "Feature", "properties": {"segment_id": 1265, "physicalid": "173", "street_name": "HENRY HUDSON PKWY", "borough": "manhattan", "direction": "FT", "total_row_ft": 88.8, "roadbed_ft": 55.8, "median_ft": 3.0, "left_sw_ft": 15.0, "right_sw_ft": 15.0}, "geometry": {"type": "LineString", "coordinates": [[-73.98099689070632, 40.79166514657014], [-73.98061191194363, 40.79151390427219]]}}, {"type": "Feature", "properties": {"segment_id": 1266, "physicalid": "173", "street_name": "HENRY HUDSON PKWY", "borough": "manhattan", "direction": "FT", "total_row_ft": 89.1, "roadbed_ft": 56.1, "median_ft": 3.0, "left_sw_ft": 15.0, "right_sw_ft": 15.0}, "geometry": {"type": "LineString", "coordinates": [[-73.98096372429548, 40.791713911597455], [-73.98057874532613, 40.791562669189865]]}}, {"type": "Feature", "properties": {"segment_id": 1267, "physicalid": "173", "street_name": "HENRY HUDSON PKWY", "borough": "manhattan", "direction": "FT", "total_row_ft": 89.5, "roadbed_ft": 56.5, "median_ft": 3.0, "left_sw_ft": 15.0, "right_sw_ft": 15.0}, "geometry": {"type": "LineString", "coordinates": [[-73.98093055783605, 40.791762676614816], [-73.98054557866003, 40.791611434097646]]}}, {"type": "Feature", "properties": {"segment_id": 1268, "physicalid": "173", "street_name": "HENRY HUDSON PKWY", "borough": "manhattan", "direction": "FT", "total_row_ft": 89.9, "roadbed_ft": 56.9, "median_ft": 3.0, "left_sw_ft": 15.0, "right_sw_ft": 15.0}, "geometry": {"type": "LineString", "coordinates": [[-73.980897391328, 40.79181144162231], [-73.98051241194536, 40.791660198995466]]}}, {"type": "Feature", "properties": {"segment_id": 1269, "physicalid": "173", "street_name": "HENRY HUDSON PKWY", "borough": "manhattan", "direction": "FT", "total_row_ft": 89.6, "roadbed_ft": 56.6, "median_ft": 3.0, "left_sw_ft": 15.0, "right_sw_ft": 15.0}, "geometry": {"type": "LineString", "coordinates": [[-73.9808582247089, 40.791864711040425], [-73.98048091952832, 40.79170268175031]]}}, {"type": "Feature", "properties": {"segment_id": 1270, "physicalid": "173", "street_name": "HENRY HUDSON PKWY", "borough": "manhattan", "direction": "FT", "total_row_ft": 94.9, "roadbed_ft": 61.9, "median_ft": 3.0, "left_sw_ft": 15.0, "right_sw_ft": 15.0}, "geometry": {"type": "LineString", "coordinates": [[-73.98082269266106, 40.791912503921914], [-73.98044538729611, 40.79175047451668]]}}, {"type": "Feature", "properties": {"segment_id": 1271, "physicalid": "173", "street_name": "HENRY HUDSON PKWY", "borough": "manhattan", "direction": "FT", "total_row_ft": 106.7, "roadbed_ft": 73.7, "median_ft": 3.0, "left_sw_ft": 15.0, "right_sw_ft": 15.0}, "geometry": {"type": "LineString", "coordinates": [[-73.98078716056222, 40.791960296792126], [-73.98040985501291, 40.79179826727174]]}}, {"type": "Feature", "properties": {"segment_id": 1272, "physicalid": "173", "street_name": "HENRY HUDSON PKWY", "borough": "manhattan", "direction": "FT", "total_row_ft": 110.6, "roadbed_ft": 77.6, "median_ft": 3.0, "left_sw_ft": 15.0, "right_sw_ft": 15.0}, "geometry": {"type": "LineString", "coordinates": [[-73.9807516286169, 40.7920080894027], [-73.98037432250436, 40.791846060276775]]}}, {"type": "Feature", "properties": {"segment_id": 1273, "physicalid": "173", "street_name": "HENRY HUDSON PKWY", "borough": "manhattan", "direction": "FT", "total_row_ft": 110.5, "roadbed_ft": 77.5, "median_ft": 3.0, "left_sw_ft": 15.0, "right_sw_ft": 15.0}, "geometry": {"type": "LineString", "coordinates": [[-73.98071609652776, 40.79205588229824], [-73.98033879023085, 40.79189385305718]]}}, {"type": "Feature", "properties": {"segment_id": 1274, "physicalid": "173", "street_name": "HENRY HUDSON PKWY", "borough": "manhattan", "direction": "FT", "total_row_ft": 110.4, "roadbed_ft": 77.4, "median_ft": 3.0, "left_sw_ft": 15.0, "right_sw_ft": 15.0}, "geometry": {"type": "LineString", "coordinates": [[-73.9806805643876, 40.79210367518245], [-73.9803032579063, 40.7919416458263]]}}, {"type": "Feature", "properties": {"segment_id": 1275, "physicalid": "173", "street_name": "HENRY HUDSON PKWY", "borough": "manhattan", "direction": "FT", "total_row_ft": 108.4, "roadbed_ft": 75.4, "median_ft": 3.0, "left_sw_ft": 15.0, "right_sw_ft": 15.0}, "geometry": {"type": "LineString", "coordinates": [[-73.98064503219643, 40.79215146805537], [-73.98026772553077, 40.791989438584096]]}}, {"type": "Feature", "properties": {"segment_id": 1276, "physicalid": "173", "street_name": "HENRY HUDSON PKWY", "borough": "manhattan", "direction": "FT", "total_row_ft": 98.1, "roadbed_ft": 65.1, "median_ft": 3.0, "left_sw_ft": 15.0, "right_sw_ft": 15.0}, "geometry": {"type": "LineString", "coordinates": [[-73.98060949995424, 40.79219926091697], [-73.98023219310417, 40.79203723133062]]}}, {"type": "Feature", "properties": {"segment_id": 1277, "physicalid": "173", "street_name": "HENRY HUDSON PKWY", "borough": "manhattan", "direction": "FT", "total_row_ft": 89.7, "roadbed_ft": 56.7, "median_ft": 3.0, "left_sw_ft": 15.0, "right_sw_ft": 15.0}, "geometry": {"type": "LineString", "coordinates": [[-73.98057396766104, 40.792247053767255], [-73.98019666062659, 40.79208502406579]]}}, {"type": "Feature", "properties": {"segment_id": 1278, "physicalid": "173", "street_name": "HENRY HUDSON PKWY", "borough": "manhattan", "direction": "FT", "total_row_ft": 89.5, "roadbed_ft": 56.5, "median_ft": 3.0, "left_sw_ft": 15.0, "right_sw_ft": 15.0}, "geometry": {"type": "LineString", "coordinates": [[-73.98053229222612, 40.79230119284048], [-73.98016556223084, 40.792125695304364]]}}, {"type": "Feature", "properties": {"segment_id": 1279, "physicalid": "173", "street_name": "HENRY HUDSON PKWY", "borough": "manhattan", "direction": "FT", "total_row_ft": 88.9, "roadbed_ft": 55.9, "median_ft": 3.0, "left_sw_ft": 15.0, "right_sw_ft": 15.0}, "geometry": {"type": "LineString", "coordinates": [[-73.98049380640019, 40.792347645874045], [-73.98012707625043, 40.792172148216814]]}}, {"type": "Feature", "properties": {"segment_id": 1280, "physicalid": "173", "street_name": "HENRY HUDSON PKWY", "borough": "manhattan", "direction": "FT", "total_row_ft": 88.3, "roadbed_ft": 55.3, "median_ft": 3.0, "left_sw_ft": 15.0, "right_sw_ft": 15.0}, "geometry": {"type": "LineString", "coordinates": [[-73.98045532052052, 40.79239409889446], [-73.98008859021631, 40.79221860111604]]}}, {"type": "Feature", "properties": {"segment_id": 1281, "physicalid": "173", "street_name": "HENRY HUDSON PKWY", "borough": "manhattan", "direction": "FT", "total_row_ft": 87.6, "roadbed_ft": 54.6, "median_ft": 3.0, "left_sw_ft": 15.0, "right_sw_ft": 15.0}, "geometry": {"type": "LineString", "coordinates": [[-73.98041683364508, 40.79244055299337], [-73.98005010501676, 40.7922650528846]]}}, {"type": "Feature", "properties": {"segment_id": 1282, "physicalid": "173", "street_name": "HENRY HUDSON PKWY", "borough": "manhattan", "direction": "FT", "total_row_ft": 87.0, "roadbed_ft": 54.0, "median_ft": 3.0, "left_sw_ft": 15.0, "right_sw_ft": 15.0}, "geometry": {"type": "LineString", "coordinates": [[-73.98037834717354, 40.79248700575557], [-73.98001161839079, 40.79231150552561]]}}, {"type": "Feature", "properties": {"segment_id": 1283, "physicalid": "173", "street_name": "HENRY HUDSON PKWY", "borough": "manhattan", "direction": "FT", "total_row_ft": 86.6, "roadbed_ft": 53.6, "median_ft": 3.0, "left_sw_ft": 15.0, "right_sw_ft": 15.0}, "geometry": {"type": "LineString", "coordinates": [[-73.9803398606483, 40.79253345850457], [-73.9799731317111, 40.79235795815342]]}}, {"type": "Feature", "properties": {"segment_id": 1284, "physicalid": "173", "street_name": "HENRY HUDSON PKWY", "borough": "manhattan", "direction": "FT", "total_row_ft": 86.3, "roadbed_ft": 53.3, "median_ft": 3.0, "left_sw_ft": 15.0, "right_sw_ft": 15.0}, "geometry": {"type": "LineString", "coordinates": [[-73.98030137406931, 40.792579911240416], [-73.97993464497775, 40.792404410768015]]}}, {"type": "Feature", "properties": {"segment_id": 1285, "physicalid": "173", "street_name": "HENRY HUDSON PKWY", "borough": "manhattan", "direction": "FT", "total_row_ft": 86.4, "roadbed_ft": 53.4, "median_ft": 3.0, "left_sw_ft": 15.0, "right_sw_ft": 15.0}, "geometry": {"type": "LineString", "coordinates": [[-73.98026288743667, 40.792626363963], [-73.97989615819061, 40.79245086336949]]}}, {"type": "Feature", "properties": {"segment_id": 1286, "physicalid": "173", "street_name": "HENRY HUDSON PKWY", "borough": "manhattan", "direction": "FT", "total_row_ft": 86.6, "roadbed_ft": 53.6, "median_ft": 3.0, "left_sw_ft": 15.0, "right_sw_ft": 15.0}, "geometry": {"type": "LineString", "coordinates": [[-73.98022440075029, 40.79267281667242], [-73.97985767134982, 40.79249731595773]]}}, {"type": "Feature", "properties": {"segment_id": 1287, "physicalid": "173", "street_name": "HENRY HUDSON PKWY", "borough": "manhattan", "direction": "FT", "total_row_ft": 86.6, "roadbed_ft": 53.6, "median_ft": 3.0, "left_sw_ft": 15.0, "right_sw_ft": 15.0}, "geometry": {"type": "LineString", "coordinates": [[-73.9801859140102, 40.79271926936867], [-73.9798191844553, 40.79254376853281]]}}, {"type": "Feature", "properties": {"segment_id": 3643, "physicalid": "353", "street_name": "HENRY HUDSON PKWY", "borough": "manhattan", "direction": "TF", "total_row_ft": 90.6, "roadbed_ft": 58.6, "median_ft": 2.0, "left_sw_ft": 15.0, "right_sw_ft": 15.0}, "geometry": {"type": "LineString", "coordinates": [[-73.98220523079634, 40.790094752677916], [-73.98180700846382, 40.789964834945735]]}}, {"type": "Feature", "properties": {"segment_id": 3644, "physicalid": "353", "street_name": "HENRY HUDSON PKWY", "borough": "manhattan", "direction": "TF", "total_row_ft": 90.7, "roadbed_ft": 58.7, "median_ft": 2.0, "left_sw_ft": 15.0, "right_sw_ft": 15.0}, "geometry": {"type": "LineString", "coordinates": [[-73.9821767414262, 40.79014519644766], [-73.98177851884755, 40.79001527861808]]}}, {"type": "Feature", "properties": {"segment_id": 3645, "physicalid": "353", "street_name": "HENRY HUDSON PKWY", "borough": "manhattan", "direction": "TF", "total_row_ft": 90.9, "roadbed_ft": 58.9, "median_ft": 2.0, "left_sw_ft": 15.0, "right_sw_ft": 15.0}, "geometry": {"type": "LineString", "coordinates": [[-73.98214825201288, 40.79019564020995], [-73.9817500291881, 40.79006572228297]]}}, {"type": "Feature", "properties": {"segment_id": 3646, "physicalid": "353", "street_name": "HENRY HUDSON PKWY", "borough": "manhattan", "direction": "TF", "total_row_ft": 91.1, "roadbed_ft": 59.1, "median_ft": 2.0, "left_sw_ft": 15.0, "right_sw_ft": 15.0}, "geometry": {"type": "LineString", "coordinates": [[-73.9821197625564, 40.79024608396484], [-73.98172153948548, 40.79011616594041]]}}, {"type": "Feature", "properties": {"segment_id": 3647, "physicalid": "353", "street_name": "HENRY HUDSON PKWY", "borough": "manhattan", "direction": "TF", "total_row_ft": 91.0, "roadbed_ft": 59.0, "median_ft": 2.0, "left_sw_ft": 15.0, "right_sw_ft": 15.0}, "geometry": {"type": "LineString", "coordinates": [[-73.98209127305674, 40.79029652771224], [-73.98169304973969, 40.790166609590415]]}}, {"type": "Feature", "properties": {"segment_id": 3648, "physicalid": "353", "street_name": "HENRY HUDSON PKWY", "borough": "manhattan", "direction": "TF", "total_row_ft": 91.2, "roadbed_ft": 59.2, "median_ft": 2.0, "left_sw_ft": 15.0, "right_sw_ft": 15.0}, "geometry": {"type": "LineString", "coordinates": [[-73.98206278351391, 40.790346971452244], [-73.98166455995074, 40.790217053233015]]}}, {"type": "Feature", "properties": {"segment_id": 3649, "physicalid": "353", "street_name": "HENRY HUDSON PKWY", "borough": "manhattan", "direction": "TF", "total_row_ft": 91.2, "roadbed_ft": 59.2, "median_ft": 2.0, "left_sw_ft": 15.0, "right_sw_ft": 15.0}, "geometry": {"type": "LineString", "coordinates": [[-73.9820342939279, 40.79039741518479], [-73.98163607011861, 40.79026749686814]]}}, {"type": "Feature", "properties": {"segment_id": 3650, "physicalid": "353", "street_name": "HENRY HUDSON PKWY", "borough": "manhattan", "direction": "TF", "total_row_ft": 91.1, "roadbed_ft": 59.1, "median_ft": 2.0, "left_sw_ft": 15.0, "right_sw_ft": 15.0}, "geometry": {"type": "LineString", "coordinates": [[-73.98200580429874, 40.790447858909914], [-73.9816075802433, 40.79031794049584]]}}, {"type": "Feature", "properties": {"segment_id": 3651, "physicalid": "353", "street_name": "HENRY HUDSON PKWY", "borough": "manhattan", "direction": "TF", "total_row_ft": 90.7, "roadbed_ft": 58.7, "median_ft": 2.0, "left_sw_ft": 15.0, "right_sw_ft": 15.0}, "geometry": {"type": "LineString", "coordinates": [[-73.98197731462638, 40.79049830262758], [-73.98157909032483, 40.79036838411609]]}}, {"type": "Feature", "properties": {"segment_id": 3652, "physicalid": "353", "street_name": "HENRY HUDSON PKWY", "borough": "manhattan", "direction": "TF", "total_row_ft": 91.0, "roadbed_ft": 59.0, "median_ft": 2.0, "left_sw_ft": 15.0, "right_sw_ft": 15.0}, "geometry": {"type": "LineString", "coordinates": [[-73.98194237943824, 40.79055566607943], [-73.98155331162177, 40.79041060372559]]}}, {"type": "Feature", "properties": {"segment_id": 3653, "physicalid": "353", "street_name": "HENRY HUDSON PKWY", "borough": "manhattan", "direction": "TF", "total_row_ft": 91.6, "roadbed_ft": 59.6, "median_ft": 2.0, "left_sw_ft": 15.0, "right_sw_ft": 15.0}, "geometry": {"type": "LineString", "coordinates": [[-73.98191056879138, 40.79060494989038], [-73.9815215007562, 40.790459887430266]]}}, {"type": "Feature", "properties": {"segment_id": 3654, "physicalid": "353", "street_name": "HENRY HUDSON PKWY", "borough": "manhattan", "direction": "TF", "total_row_ft": 92.2, "roadbed_ft": 60.2, "median_ft": 2.0, "left_sw_ft": 15.0, "right_sw_ft": 15.0}, "geometry": {"type": "LineString", "coordinates": [[-73.9818787580974, 40.79065423369221], [-73.98148968984356, 40.79050917112578]]}}, {"type": "Feature", "properties": {"segment_id": 3655, "physicalid": "353", "street_name": "HENRY HUDSON PKWY", "borough": "manhattan", "direction": "TF", "total_row_ft": 92.5, "roadbed_ft": 60.5, "median_ft": 2.0, "left_sw_ft": 15.0, "right_sw_ft": 15.0}, "geometry": {"type": "LineString", "coordinates": [[-73.98184694735636, 40.79070351748484], [-73.98145787888379, 40.790558454812185]]}}, {"type": "Feature", "properties": {"segment_id": 3656, "physicalid": "353", "street_name": "HENRY HUDSON PKWY", "borough": "manhattan", "direction": "TF", "total_row_ft": 92.8, "roadbed_ft": 60.8, "median_ft": 2.0, "left_sw_ft": 15.0, "right_sw_ft": 15.0}, "geometry": {"type": "LineString", "coordinates": [[-73.9818151365682, 40.79075280126832], [-73.98142606787692, 40.79060773848939]]}}, {"type": "Feature", "properties": {"segment_id": 3657, "physicalid": "353", "street_name": "HENRY HUDSON PKWY", "borough": "manhattan", "direction": "TF", "total_row_ft": 93.0, "roadbed_ft": 61.0, "median_ft": 2.0, "left_sw_ft": 15.0, "right_sw_ft": 15.0}, "geometry": {"type": "LineString", "coordinates": [[-73.98178332573295, 40.79080208504264], [-73.98139425682297, 40.79065702215746]]}}, {"type": "Feature", "properties": {"segment_id": 3658, "physicalid": "353", "street_name": "HENRY HUDSON PKWY", "borough": "manhattan", "direction": "TF", "total_row_ft": 93.1, "roadbed_ft": 61.1, "median_ft": 2.0, "left_sw_ft": 15.0, "right_sw_ft": 15.0}, "geometry": {"type": "LineString", "coordinates": [[-73.98175151470294, 40.790851368955025], [-73.98136244578471, 40.79070630563752]]}}, {"type": "Feature", "properties": {"segment_id": 3659, "physicalid": "353", "street_name": "HENRY HUDSON PKWY", "borough": "manhattan", "direction": "TF", "total_row_ft": 93.2, "roadbed_ft": 61.2, "median_ft": 2.0, "left_sw_ft": 15.0, "right_sw_ft": 15.0}, "geometry": {"type": "LineString", "coordinates": [[-73.981719703702, 40.79090065268436], [-73.98133063456507, 40.7907555892606]]}}, {"type": "Feature", "properties": {"segment_id": 3660, "physicalid": "353", "street_name": "HENRY HUDSON PKWY", "borough": "manhattan", "direction": "TF", "total_row_ft": 93.0, "roadbed_ft": 61.0, "median_ft": 2.0, "left_sw_ft": 15.0, "right_sw_ft": 15.0}, "geometry": {"type": "LineString", "coordinates": [[-73.98168789265397, 40.79094993640456], [-73.98129882329833, 40.790804872874524]]}}, {"type": "Feature", "properties": {"segment_id": 3661, "physicalid": "353", "street_name": "HENRY HUDSON PKWY", "borough": "manhattan", "direction": "TF", "total_row_ft": 92.8, "roadbed_ft": 60.8, "median_ft": 2.0, "left_sw_ft": 15.0, "right_sw_ft": 15.0}, "geometry": {"type": "LineString", "coordinates": [[-73.98165608155882, 40.79099922011561], [-73.9812670119845, 40.7908541564793]]}}, {"type": "Feature", "properties": {"segment_id": 3662, "physicalid": "353", "street_name": "HENRY HUDSON PKWY", "borough": "manhattan", "direction": "TF", "total_row_ft": 92.7, "roadbed_ft": 60.7, "median_ft": 2.0, "left_sw_ft": 15.0, "right_sw_ft": 15.0}, "geometry": {"type": "LineString", "coordinates": [[-73.9816216441172, 40.791051261775394], [-73.98123655040209, 40.79090019382604]]}}, {"type": "Feature", "properties": {"segment_id": 3663, "physicalid": "353", "street_name": "HENRY HUDSON PKWY", "borough": "manhattan", "direction": "TF", "total_row_ft": 92.7, "roadbed_ft": 60.7, "median_ft": 2.0, "left_sw_ft": 15.0, "right_sw_ft": 15.0}, "geometry": {"type": "LineString", "coordinates": [[-73.98158851624865, 40.791100041818034], [-73.9812034223266, 40.790948973759065]]}}, {"type": "Feature", "properties": {"segment_id": 3664, "physicalid": "353", "street_name": "HENRY HUDSON PKWY", "borough": "manhattan", "direction": "TF", "total_row_ft": 92.3, "roadbed_ft": 60.3, "median_ft": 2.0, "left_sw_ft": 15.0, "right_sw_ft": 15.0}, "geometry": {"type": "LineString", "coordinates": [[-73.98155538833161, 40.79114882185072], [-73.98117029420253, 40.79099775368226]]}}, {"type": "Feature", "properties": {"segment_id": 3665, "physicalid": "353", "street_name": "HENRY HUDSON PKWY", "borough": "manhattan", "direction": "TF", "total_row_ft": 92.2, "roadbed_ft": 60.2, "median_ft": 2.0, "left_sw_ft": 15.0, "right_sw_ft": 15.0}, "geometry": {"type": "LineString", "coordinates": [[-73.98152226036599, 40.79119760187353], [-73.98113716602992, 40.791046533595555]]}}, {"type": "Feature", "properties": {"segment_id": 3666, "physicalid": "353", "street_name": "HENRY HUDSON PKWY", "borough": "manhattan", "direction": "TF", "total_row_ft": 92.3, "roadbed_ft": 60.3, "median_ft": 2.0, "left_sw_ft": 15.0, "right_sw_ft": 15.0}, "geometry": {"type": "LineString", "coordinates": [[-73.98148913235181, 40.79124638188647], [-73.9811040378088, 40.79109531349889]]}}, {"type": "Feature", "properties": {"segment_id": 3667, "physicalid": "353", "street_name": "HENRY HUDSON PKWY", "borough": "manhattan", "direction": "TF", "total_row_ft": 92.3, "roadbed_ft": 60.3, "median_ft": 2.0, "left_sw_ft": 15.0, "right_sw_ft": 15.0}, "geometry": {"type": "LineString", "coordinates": [[-73.9814560042891, 40.791295161889494], [-73.9810709095391, 40.7911440933924]]}}, {"type": "Feature", "properties": {"segment_id": 3668, "physicalid": "353", "street_name": "HENRY HUDSON PKWY", "borough": "manhattan", "direction": "TF", "total_row_ft": 92.5, "roadbed_ft": 60.4, "median_ft": 2.1, "left_sw_ft": 15.0, "right_sw_ft": 15.0}, "geometry": {"type": "LineString", "coordinates": [[-73.98142287617787, 40.79134394188261], [-73.98103778122083, 40.791192873276024]]}}, {"type": "Feature", "properties": {"segment_id": 3669, "physicalid": "353", "street_name": "HENRY HUDSON PKWY", "borough": "manhattan", "direction": "TF", "total_row_ft": 92.9, "roadbed_ft": 60.5, "median_ft": 2.4, "left_sw_ft": 15.0, "right_sw_ft": 15.0}, "geometry": {"type": "LineString", "coordinates": [[-73.98138974801806, 40.79139272186589], [-73.98100465285407, 40.791241653149704]]}}, {"type": "Feature", "properties": {"segment_id": 3670, "physicalid": "353", "street_name": "HENRY HUDSON PKWY", "borough": "manhattan", "direction": "TF", "total_row_ft": 93.6, "roadbed_ft": 60.8, "median_ft": 2.8, "left_sw_ft": 15.0, "right_sw_ft": 15.0}, "geometry": {"type": "LineString", "coordinates": [[-73.9813566198097, 40.79144150183922], [-73.98097152443874, 40.791290433013515]]}}, {"type": "Feature", "properties": {"segment_id": 3671, "physicalid": "353", "street_name": "HENRY HUDSON PKWY", "borough": "manhattan", "direction": "TF", "total_row_ft": 94.1, "roadbed_ft": 61.1, "median_ft": 3.0, "left_sw_ft": 15.0, "right_sw_ft": 15.0}, "geometry": {"type": "LineString", "coordinates": [[-73.98132349155284, 40.79149028180265], [-73.98093839597485, 40.79133921286747]]}}, {"type": "Feature", "properties": {"segment_id": 3672, "physicalid": "353", "street_name": "HENRY HUDSON PKWY", "borough": "manhattan", "direction": "TF", "total_row_ft": 94.0, "roadbed_ft": 61.0, "median_ft": 3.0, "left_sw_ft": 15.0, "right_sw_ft": 15.0}, "geometry": {"type": "LineString", "coordinates": [[-73.98128777194107, 40.79154181506805], [-73.98090680493442, 40.79138481560703]]}}, {"type": "Feature", "properties": {"segment_id": 3673, "physicalid": "353", "street_name": "HENRY HUDSON PKWY", "borough": "manhattan", "direction": "TF", "total_row_ft": 94.2, "roadbed_ft": 61.2, "median_ft": 3.0, "left_sw_ft": 15.0, "right_sw_ft": 15.0}, "geometry": {"type": "LineString", "coordinates": [[-73.98125334307979, 40.791590072022714], [-73.98087237587819, 40.79143307244908]]}}, {"type": "Feature", "properties": {"segment_id": 3674, "physicalid": "353", "street_name": "HENRY HUDSON PKWY", "borough": "manhattan", "direction": "TF", "total_row_ft": 94.3, "roadbed_ft": 61.3, "median_ft": 3.0, "left_sw_ft": 15.0, "right_sw_ft": 15.0}, "geometry": {"type": "LineString", "coordinates": [[-73.98121891416861, 40.79163832896675], [-73.98083794677206, 40.79148132928049]]}}, {"type": "Feature", "properties": {"segment_id": 3675, "physicalid": "353", "street_name": "HENRY HUDSON PKWY", "borough": "manhattan", "direction": "TF", "total_row_ft": 94.3, "roadbed_ft": 61.3, "median_ft": 3.0, "left_sw_ft": 15.0, "right_sw_ft": 15.0}, "geometry": {"type": "LineString", "coordinates": [[-73.9811844852075, 40.791686585900116], [-73.98080351761601, 40.79152958610125]]}}, {"type": "Feature", "properties": {"segment_id": 3676, "physicalid": "353", "street_name": "HENRY HUDSON PKWY", "borough": "manhattan", "direction": "TF", "total_row_ft": 94.3, "roadbed_ft": 61.3, "median_ft": 3.0, "left_sw_ft": 15.0, "right_sw_ft": 15.0}, "geometry": {"type": "LineString", "coordinates": [[-73.9811500561965, 40.79173484282284], [-73.98076908841004, 40.79157784291134]]}}, {"type": "Feature", "properties": {"segment_id": 3677, "physicalid": "353", "street_name": "HENRY HUDSON PKWY", "borough": "manhattan", "direction": "TF", "total_row_ft": 94.4, "roadbed_ft": 61.4, "median_ft": 3.0, "left_sw_ft": 15.0, "right_sw_ft": 15.0}, "geometry": {"type": "LineString", "coordinates": [[-73.98111562713558, 40.79178309973493], [-73.98073465915418, 40.79162609971082]]}}, {"type": "Feature", "properties": {"segment_id": 3678, "physicalid": "353", "street_name": "HENRY HUDSON PKWY", "borough": "manhattan", "direction": "TF", "total_row_ft": 94.1, "roadbed_ft": 61.1, "median_ft": 3.0, "left_sw_ft": 15.0, "right_sw_ft": 15.0}, "geometry": {"type": "LineString", "coordinates": [[-73.98108119802475, 40.79183135663635], [-73.98070022984841, 40.79167435649962]]}}, {"type": "Feature", "properties": {"segment_id": 3679, "physicalid": "353", "street_name": "HENRY HUDSON PKWY", "borough": "manhattan", "direction": "TF", "total_row_ft": 93.6, "roadbed_ft": 60.6, "median_ft": 3.0, "left_sw_ft": 15.0, "right_sw_ft": 15.0}, "geometry": {"type": "LineString", "coordinates": [[-73.981046768864, 40.791879613527115], [-73.9806658004927, 40.79172261327778]]}}, {"type": "Feature", "properties": {"segment_id": 3680, "physicalid": "353", "street_name": "HENRY HUDSON PKWY", "borough": "manhattan", "direction": "TF", "total_row_ft": 93.1, "roadbed_ft": 60.1, "median_ft": 3.0, "left_sw_ft": 15.0, "right_sw_ft": 15.0}, "geometry": {"type": "LineString", "coordinates": [[-73.98101233965336, 40.79192787040725], [-73.9806313710871, 40.79177087004528]]}}, {"type": "Feature", "properties": {"segment_id": 3681, "physicalid": "353", "street_name": "HENRY HUDSON PKWY", "borough": "manhattan", "direction": "TF", "total_row_ft": 92.6, "roadbed_ft": 59.6, "median_ft": 3.0, "left_sw_ft": 15.0, "right_sw_ft": 15.0}, "geometry": {"type": "LineString", "coordinates": [[-73.9809779103928, 40.79197612727673], [-73.98059694163157, 40.791819126802146]]}}, {"type": "Feature", "properties": {"segment_id": 3682, "physicalid": "353", "street_name": "HENRY HUDSON PKWY", "borough": "manhattan", "direction": "TF", "total_row_ft": 92.7, "roadbed_ft": 59.7, "median_ft": 3.0, "left_sw_ft": 15.0, "right_sw_ft": 15.0}, "geometry": {"type": "LineString", "coordinates": [[-73.98094091467921, 40.79202714408903], [-73.98056423934973, 40.7918642692977]]}}, {"type": "Feature", "properties": {"segment_id": 3683, "physicalid": "353", "street_name": "HENRY HUDSON PKWY", "borough": "manhattan", "direction": "TF", "total_row_ft": 93.2, "roadbed_ft": 60.2, "median_ft": 3.0, "left_sw_ft": 15.0, "right_sw_ft": 15.0}, "geometry": {"type": "LineString", "coordinates": [[-73.98090519712889, 40.792074857070794], [-73.98052852161685, 40.79191198216395]]}}, {"type": "Feature", "properties": {"segment_id": 3684, "physicalid": "353", "street_name": "HENRY HUDSON PKWY", "borough": "manhattan", "direction": "TF", "total_row_ft": 93.3, "roadbed_ft": 60.3, "median_ft": 3.0, "left_sw_ft": 15.0, "right_sw_ft": 15.0}, "geometry": {"type": "LineString", "coordinates": [[-73.98086947955069, 40.79212257001855], [-73.9804928038191, 40.79195969504556]]}}, {"type": "Feature", "properties": {"segment_id": 3685, "physicalid": "353", "street_name": "HENRY HUDSON PKWY", "borough": "manhattan", "direction": "TF", "total_row_ft": 93.4, "roadbed_ft": 60.4, "median_ft": 3.0, "left_sw_ft": 15.0, "right_sw_ft": 15.0}, "geometry": {"type": "LineString", "coordinates": [[-73.98083376190885, 40.79217028298212], [-73.98045708599463, 40.792007407893685]]}}, {"type": "Feature", "properties": {"segment_id": 3686, "physicalid": "353", "street_name": "HENRY HUDSON PKWY", "borough": "manhattan", "direction": "TF", "total_row_ft": 93.2, "roadbed_ft": 60.2, "median_ft": 3.0, "left_sw_ft": 15.0, "right_sw_ft": 15.0}, "geometry": {"type": "LineString", "coordinates": [[-73.98079804421575, 40.79221799593434], [-73.98042136811901, 40.79205512073033]]}}, {"type": "Feature", "properties": {"segment_id": 3687, "physicalid": "353", "street_name": "HENRY HUDSON PKWY", "borough": "manhattan", "direction": "TF", "total_row_ft": 93.1, "roadbed_ft": 60.1, "median_ft": 3.0, "left_sw_ft": 15.0, "right_sw_ft": 15.0}, "geometry": {"type": "LineString", "coordinates": [[-73.98076232647149, 40.79226570887508], [-73.98038565019216, 40.7921028335556]]}}, {"type": "Feature", "properties": {"segment_id": 3688, "physicalid": "353", "street_name": "HENRY HUDSON PKWY", "borough": "manhattan", "direction": "TF", "total_row_ft": 92.8, "roadbed_ft": 59.8, "median_ft": 3.0, "left_sw_ft": 15.0, "right_sw_ft": 15.0}, "geometry": {"type": "LineString", "coordinates": [[-73.98072660867602, 40.79231342180444], [-73.98034993221414, 40.79215054636939]]}}, {"type": "Feature", "properties": {"segment_id": 3689, "physicalid": "353", "street_name": "HENRY HUDSON PKWY", "borough": "manhattan", "direction": "TF", "total_row_ft": 92.4, "roadbed_ft": 59.4, "median_ft": 3.0, "left_sw_ft": 15.0, "right_sw_ft": 15.0}, "geometry": {"type": "LineString", "coordinates": [[-73.98069089082938, 40.79236113472232], [-73.98031421418489, 40.79219825917182]]}}, {"type": "Feature", "properties": {"segment_id": 3690, "physicalid": "353", "street_name": "HENRY HUDSON PKWY", "borough": "manhattan", "direction": "TF", "total_row_ft": 92.0, "roadbed_ft": 59.0, "median_ft": 3.0, "left_sw_ft": 15.0, "right_sw_ft": 15.0}, "geometry": {"type": "LineString", "coordinates": [[-73.9806551729315, 40.79240884762882], [-73.98027849610446, 40.792245971962764]]}}, {"type": "Feature", "properties": {"segment_id": 3691, "physicalid": "353", "street_name": "HENRY HUDSON PKWY", "borough": "manhattan", "direction": "TF", "total_row_ft": 91.7, "roadbed_ft": 58.7, "median_ft": 3.0, "left_sw_ft": 15.0, "right_sw_ft": 15.0}, "geometry": {"type": "LineString", "coordinates": [[-73.98061945498245, 40.79245656052389], [-73.98024277797285, 40.7922936847423]]}}, {"type": "Feature", "properties": {"segment_id": 3692, "physicalid": "353", "street_name": "HENRY HUDSON PKWY", "borough": "manhattan", "direction": "TF", "total_row_ft": 91.4, "roadbed_ft": 58.4, "median_ft": 3.0, "left_sw_ft": 15.0, "right_sw_ft": 15.0}, "geometry": {"type": "LineString", "coordinates": [[-73.98058085343843, 40.79250739970146], [-73.9802092279021, 40.792337953495164]]}}, {"type": "Feature", "properties": {"segment_id": 3693, "physicalid": "353", "street_name": "HENRY HUDSON PKWY", "borough": "manhattan", "direction": "TF", "total_row_ft": 91.4, "roadbed_ft": 58.4, "median_ft": 3.0, "left_sw_ft": 15.0, "right_sw_ft": 15.0}, "geometry": {"type": "LineString", "coordinates": [[-73.98054369453324, 40.79255447269342], [-73.98017206882875, 40.792385026368535]]}}, {"type": "Feature", "properties": {"segment_id": 3694, "physicalid": "353", "street_name": "HENRY HUDSON PKWY", "borough": "manhattan", "direction": "TF", "total_row_ft": 91.2, "roadbed_ft": 58.2, "median_ft": 3.0, "left_sw_ft": 15.0, "right_sw_ft": 15.0}, "geometry": {"type": "LineString", "coordinates": [[-73.98050653557551, 40.79260154567303], [-73.98013490970284, 40.79243209922958]]}}, {"type": "Feature", "properties": {"segment_id": 3695, "physicalid": "353", "street_name": "HENRY HUDSON PKWY", "borough": "manhattan", "direction": "TF", "total_row_ft": 91.0, "roadbed_ft": 58.0, "median_ft": 3.0, "left_sw_ft": 15.0, "right_sw_ft": 15.0}, "geometry": {"type": "LineString", "coordinates": [[-73.98046937656524, 40.79264861864035], [-73.9800977505244, 40.79247917207831]]}}, {"type": "Feature", "properties": {"segment_id": 3696, "physicalid": "353", "street_name": "HENRY HUDSON PKWY", "borough": "manhattan", "direction": "TF", "total_row_ft": 91.3, "roadbed_ft": 58.3, "median_ft": 3.0, "left_sw_ft": 15.0, "right_sw_ft": 15.0}, "geometry": {"type": "LineString", "coordinates": [[-73.98043221750244, 40.792695691595306], [-73.9800605912934, 40.79252624491472]]}}, {"type": "Feature", "properties": {"segment_id": 3697, "physicalid": "353", "street_name": "HENRY HUDSON PKWY", "borough": "manhattan", "direction": "TF", "total_row_ft": 91.6, "roadbed_ft": 58.6, "median_ft": 3.0, "left_sw_ft": 15.0, "right_sw_ft": 15.0}, "geometry": {"type": "LineString", "coordinates": [[-73.98039505838709, 40.79274276453794], [-73.98002343200984, 40.7925733177388]]}}, {"type": "Feature", "properties": {"segment_id": 3698, "physicalid": "353", "street_name": "HENRY HUDSON PKWY", "borough": "manhattan", "direction": "TF", "total_row_ft": 91.8, "roadbed_ft": 58.8, "median_ft": 3.0, "left_sw_ft": 15.0, "right_sw_ft": 15.0}, "geometry": {"type": "LineString", "coordinates": [[-73.98035414622979, 40.7927931819181], [-73.97998853023572, 40.79261634369728]]}}, {"type": "Feature", "properties": {"segment_id": 3699, "physicalid": "353", "street_name": "HENRY HUDSON PKWY", "borough": "manhattan", "direction": "TF", "total_row_ft": 92.1, "roadbed_ft": 59.1, "median_ft": 3.0, "left_sw_ft": 15.0, "right_sw_ft": 15.0}, "geometry": {"type": "LineString", "coordinates": [[-73.98031536610638, 40.792839493498185], [-73.97994974996104, 40.79266265515558]]}}, {"type": "Feature", "properties": {"segment_id": 3700, "physicalid": "353", "street_name": "HENRY HUDSON PKWY", "borough": "manhattan", "direction": "TF", "total_row_ft": 92.5, "roadbed_ft": 59.5, "median_ft": 3.0, "left_sw_ft": 15.0, "right_sw_ft": 15.0}, "geometry": {"type": "LineString", "coordinates": [[-73.98027658592908, 40.79288580506482], [-73.97991096963236, 40.79270896660052]]}}, {"type": "Feature", "properties": {"segment_id": 3701, "physicalid": "353", "street_name": "HENRY HUDSON PKWY", "borough": "manhattan", "direction": "TF", "total_row_ft": 93.2, "roadbed_ft": 60.1, "median_ft": 3.1, "left_sw_ft": 15.0, "right_sw_ft": 15.0}, "geometry": {"type": "LineString", "coordinates": [[-73.98023780569777, 40.792932116618125], [-73.97987218924976, 40.792755278032026]]}}, {"type": "Feature", "properties": {"segment_id": 3702, "physicalid": "353", "street_name": "HENRY HUDSON PKWY", "borough": "manhattan", "direction": "TF", "total_row_ft": 93.7, "roadbed_ft": 60.3, "median_ft": 3.4, "left_sw_ft": 15.0, "right_sw_ft": 15.0}, "geometry": {"type": "LineString", "coordinates": [[-73.98019902541252, 40.792978428158], [-73.97983340881319, 40.79280158945021]]}}, {"type": "Feature", "properties": {"segment_id": 35860, "physicalid": "3111", "street_name": "RIVERSIDE DR", "borough": "manhattan", "direction": "TW", "total_row_ft": 110.6, "roadbed_ft": 45.4, "median_ft": 0.0, "left_sw_ft": 29.0, "right_sw_ft": 36.1}, "geometry": {"type": "LineString", "coordinates": [[-73.98045452845321, 40.79009204460838], [-73.98010579048615, 40.78994426923077]]}}, {"type": "Feature", "properties": {"segment_id": 35861, "physicalid": "3111", "street_name": "RIVERSIDE DR", "borough": "manhattan", "direction": "TW", "total_row_ft": 90.6, "roadbed_ft": 43.5, "median_ft": 0.0, "left_sw_ft": 28.9, "right_sw_ft": 18.2}, "geometry": {"type": "LineString", "coordinates": [[-73.98042067193776, 40.79014054811817], [-73.98013481776208, 40.79001941943176]]}}, {"type": "Feature", "properties": {"segment_id": 35862, "physicalid": "3111", "street_name": "RIVERSIDE DR", "borough": "manhattan", "direction": "TW", "total_row_ft": 90.7, "roadbed_ft": 43.8, "median_ft": 0.0, "left_sw_ft": 28.9, "right_sw_ft": 18.0}, "geometry": {"type": "LineString", "coordinates": [[-73.98038598166089, 40.790188698339676], [-73.98010002589118, 40.79006752657897]]}}, {"type": "Feature", "properties": {"segment_id": 35863, "physicalid": "3111", "street_name": "RIVERSIDE DR", "borough": "manhattan", "direction": "TW", "total_row_ft": 90.6, "roadbed_ft": 43.8, "median_ft": 0.0, "left_sw_ft": 29.0, "right_sw_ft": 17.9}, "geometry": {"type": "LineString", "coordinates": [[-73.98035096736031, 40.79023671126945], [-73.98006523384817, 40.790115633663724]]}}, {"type": "Feature", "properties": {"segment_id": 35864, "physicalid": "3111", "street_name": "RIVERSIDE DR", "borough": "manhattan", "direction": "TW", "total_row_ft": 90.5, "roadbed_ft": 43.8, "median_ft": 0.0, "left_sw_ft": 29.1, "right_sw_ft": 17.7}, "geometry": {"type": "LineString", "coordinates": [[-73.98031595300922, 40.79028472418825], [-73.98003044150605, 40.790163740632174]]}}, {"type": "Feature", "properties": {"segment_id": 35865, "physicalid": "3111", "street_name": "RIVERSIDE DR", "borough": "manhattan", "direction": "TW", "total_row_ft": 95.5, "roadbed_ft": 43.8, "median_ft": 0.0, "left_sw_ft": 29.2, "right_sw_ft": 22.5}, "geometry": {"type": "LineString", "coordinates": [[-73.98028093860765, 40.790332737096], [-73.97997986723922, 40.790205160093066]]}}, {"type": "Feature", "properties": {"segment_id": 35866, "physicalid": "3111", "street_name": "RIVERSIDE DR", "borough": "manhattan", "direction": "TW", "total_row_ft": 95.2, "roadbed_ft": 43.8, "median_ft": 0.0, "left_sw_ft": 29.3, "right_sw_ft": 22.2}, "geometry": {"type": "LineString", "coordinates": [[-73.98024592415557, 40.790380749992806], [-73.97994572323577, 40.79025354181169]]}}, {"type": "Feature", "properties": {"segment_id": 35867, "physicalid": "3111", "street_name": "RIVERSIDE DR", "borough": "manhattan", "direction": "TW", "total_row_ft": 94.9, "roadbed_ft": 43.8, "median_ft": 0.0, "left_sw_ft": 29.4, "right_sw_ft": 21.8}, "geometry": {"type": "LineString", "coordinates": [[-73.98021090965294, 40.790428762878626], [-73.97991157916643, 40.79030192351294]]}}, {"type": "Feature", "properties": {"segment_id": 35868, "physicalid": "3111", "street_name": "RIVERSIDE DR", "borough": "manhattan", "direction": "TW", "total_row_ft": 90.4, "roadbed_ft": 43.8, "median_ft": 0.0, "left_sw_ft": 29.5, "right_sw_ft": 17.2}, "geometry": {"type": "LineString", "coordinates": [[-73.98017589509985, 40.79047677575343], [-73.97989079959966, 40.79035596837458]]}}]}