{"type": "FeatureCollection", "features": [{"type": "Feature", "properties": {"segment_id": 1706569, "physicalid": "178641", "street_name": "WILLIAMSBURG BRG", "borough": "manhattan", "direction": "FT", "total_row_ft": 68.5, "roadbed_ft": 34.5, "median_ft": 3.0, "left_sw_ft": 16.0, "right_sw_ft": 15.0}, "geometry": {"type": "LineString", "coordinates": [[-73.96992890826138, 40.712858673531564], [-73.97005004393053, 40.71262728263346]]}}, {"type": "Feature", "properties": {"segment_id": 1706570, "physicalid": "178641", "street_name": "WILLIAMSBURG BRG", "borough": "manhattan", "direction": "FT", "total_row_ft": 68.1, "roadbed_ft": 34.2, "median_ft": 3.0, "left_sw_ft": 15.9, "right_sw_ft": 15.0}, "geometry": {"type": "LineString", "coordinates": [[-73.96986231340476, 40.7128375443042], [-73.96998302309946, 40.712606967533]]}}, {"type": "Feature", "properties": {"segment_id": 1706571, "physicalid": "178641", "street_name": "WILLIAMSBURG BRG", "borough": "manhattan", "direction": "FT", "total_row_ft": 67.6, "roadbed_ft": 33.9, "median_ft": 3.0, "left_sw_ft": 15.8, "right_sw_ft": 15.0}, "geometry": {"type": "LineString", "coordinates": [[-73.96979571859038, 40.71281641503824], [-73.96991600230926, 40.71258665239349]]}}, {"type": "Feature", "properties": {"segment_id": 1706572, "physicalid": "178641", "street_name": "WILLIAMSBURG BRG", "borough": "manhattan", "direction": "FT", "total_row_ft": 67.1, "roadbed_ft": 33.5, "median_ft": 3.0, "left_sw_ft": 15.5, "right_sw_ft": 15.0}, "geometry": {"type": "LineString", "coordinates": [[-73.96972912376718, 40.71279528583116], [-73.96984898155992, 40.712566337214895]]}}, {"type": "Feature", "properties": {"segment_id": 1706573, "physicalid": "178641", "street_name": "WILLIAMSBURG BRG", "borough": "manhattan", "direction": "FT", "total_row_ft": 66.7, "roadbed_ft": 33.5, "median_ft": 3.0, "left_sw_ft": 15.2, "right_sw_ft": 15.0}, "geometry": {"type": "LineString", "coordinates": [[-73.96966252896864, 40.71277415661907], [-73.96978196085142, 40.71254602199724]]}}, {"type": "Feature", "properties": {"segment_id": 1706574, "physicalid": "178641", "street_name": "WILLIAMSBURG BRG", "borough": "manhattan", "direction": "FT", "total_row_ft": 66.6, "roadbed_ft": 33.7, "median_ft": 3.0, "left_sw_ft": 14.9, "right_sw_ft": 15.0}, "geometry": {"type": "LineString", "coordinates": [[-73.96959593421231, 40.712753027368365], [-73.96971494018378, 40.712525706740514]]}}, {"type": "Feature", "properties": {"segment_id": 1706575, "physicalid": "178641", "street_name": "WILLIAMSBURG BRG", "borough": "manhattan", "direction": "FT", "total_row_ft": 66.5, "roadbed_ft": 33.8, "median_ft": 3.0, "left_sw_ft": 14.7, "right_sw_ft": 15.0}, "geometry": {"type": "LineString", "coordinates": [[-73.96952933949821, 40.71273189807909], [-73.96964791955702, 40.712505391444694]]}}, {"type": "Feature", "properties": {"segment_id": 1706576, "physicalid": "178641", "street_name": "WILLIAMSBURG BRG", "borough": "manhattan", "direction": "FT", "total_row_ft": 66.2, "roadbed_ft": 33.9, "median_ft": 3.0, "left_sw_ft": 14.4, "right_sw_ft": 15.0}, "geometry": {"type": "LineString", "coordinates": [[-73.96946274485202, 40.71271076870218], [-73.96958089897106, 40.71248507610981]]}}, {"type": "Feature", "properties": {"segment_id": 1706577, "physicalid": "178641", "street_name": "WILLIAMSBURG BRG", "borough": "manhattan", "direction": "FT", "total_row_ft": 66.3, "roadbed_ft": 34.2, "median_ft": 3.0, "left_sw_ft": 14.1, "right_sw_ft": 15.0}, "geometry": {"type": "LineString", "coordinates": [[-73.96935368850934, 40.712770747199244], [-73.96951387842597, 40.712464760735855]]}}, {"type": "Feature", "properties": {"segment_id": 1706578, "physicalid": "178641", "street_name": "WILLIAMSBURG BRG", "borough": "manhattan", "direction": "FT", "total_row_ft": 66.2, "roadbed_ft": 34.4, "median_ft": 3.0, "left_sw_ft": 13.8, "right_sw_ft": 15.0}, "geometry": {"type": "LineString", "coordinates": [[-73.96928666774626, 40.71275043169378], [-73.96944685792177, 40.712444445322824]]}}, {"type": "Feature", "properties": {"segment_id": 1706579, "physicalid": "178641", "street_name": "WILLIAMSBURG BRG", "borough": "manhattan", "direction": "FT", "total_row_ft": 66.1, "roadbed_ft": 34.6, "median_ft": 3.0, "left_sw_ft": 13.5, "right_sw_ft": 15.0}, "geometry": {"type": "LineString", "coordinates": [[-73.96921964702406, 40.71273011614924], [-73.96937983745838, 40.71242412987072]]}}, {"type": "Feature", "properties": {"segment_id": 1706580, "physicalid": "178641", "street_name": "WILLIAMSBURG BRG", "borough": "manhattan", "direction": "FT", "total_row_ft": 64.6, "roadbed_ft": 33.4, "median_ft": 3.0, "left_sw_ft": 13.2, "right_sw_ft": 15.0}, "geometry": {"type": "LineString", "coordinates": [[-73.96919636675581, 40.71262625068192], [-73.96931281703586, 40.712403814379535]]}}, {"type": "Feature", "properties": {"segment_id": 1706581, "physicalid": "178641", "street_name": "WILLIAMSBURG BRG", "borough": "manhattan", "direction": "FT", "total_row_ft": 64.6, "roadbed_ft": 33.5, "median_ft": 3.0, "left_sw_ft": 13.1, "right_sw_ft": 15.0}, "geometry": {"type": "LineString", "coordinates": [[-73.96912951548371, 40.71260561170393], [-73.9692457966542, 40.712383498849285]]}}, {"type": "Feature", "properties": {"segment_id": 1706582, "physicalid": "178641", "street_name": "WILLIAMSBURG BRG", "borough": "manhattan", "direction": "FT", "total_row_ft": 64.9, "roadbed_ft": 33.7, "median_ft": 3.0, "left_sw_ft": 13.1, "right_sw_ft": 15.0}, "geometry": {"type": "LineString", "coordinates": [[-73.96906248121691, 40.71258532230905], [-73.9691787763134, 40.71236318327998]]}}, {"type": "Feature", "properties": {"segment_id": 1706583, "physicalid": "178641", "street_name": "WILLIAMSBURG BRG", "borough": "manhattan", "direction": "FT", "total_row_ft": 65.1, "roadbed_ft": 34.0, "median_ft": 3.0, "left_sw_ft": 13.2, "right_sw_ft": 15.0}, "geometry": {"type": "LineString", "coordinates": [[-73.96899544699089, 40.71256503287505], [-73.96911175601342, 40.71234286767159]]}}, {"type": "Feature", "properties": {"segment_id": 1706621, "physicalid": "178644", "street_name": "WILLIAMSBURG BRG", "borough": "manhattan", "direction": "FT", "total_row_ft": 56.4, "roadbed_ft": 27.7, "median_ft": 0.0, "left_sw_ft": 27.1, "right_sw_ft": 1.7}, "geometry": {"type": "LineString", "coordinates": [[-73.96994441746314, 40.71298786779414], [-73.97002175168402, 40.71284024367704]]}}, {"type": "Feature", "properties": {"segment_id": 1706622, "physicalid": "178644", "street_name": "WILLIAMSBURG BRG", "borough": "manhattan", "direction": "FT", "total_row_ft": 56.2, "roadbed_ft": 27.6, "median_ft": 0.0, "left_sw_ft": 26.8, "right_sw_ft": 1.9}, "geometry": {"type": "LineString", "coordinates": [[-73.96987743096008, 40.71296748646987], [-73.96995500293039, 40.712819408792825]]}}, {"type": "Feature", "properties": {"segment_id": 1706623, "physicalid": "178644", "street_name": "WILLIAMSBURG BRG", "borough": "manhattan", "direction": "FT", "total_row_ft": 56.1, "roadbed_ft": 27.5, "median_ft": 0.0, "left_sw_ft": 26.4, "right_sw_ft": 2.1}, "geometry": {"type": "LineString", "coordinates": [[-73.96981044449801, 40.71294710510657], [-73.96988825421847, 40.71279857386986]]}}, {"type": "Feature", "properties": {"segment_id": 1706624, "physicalid": "178644", "street_name": "WILLIAMSBURG BRG", "borough": "manhattan", "direction": "FT", "total_row_ft": 55.9, "roadbed_ft": 27.5, "median_ft": 0.0, "left_sw_ft": 26.1, "right_sw_ft": 2.3}, "geometry": {"type": "LineString", "coordinates": [[-73.96974345807688, 40.71292672370423], [-73.96982150554828, 40.71277773890815]]}}, {"type": "Feature", "properties": {"segment_id": 1706625, "physicalid": "178644", "street_name": "WILLIAMSBURG BRG", "borough": "manhattan", "direction": "FT", "total_row_ft": 55.5, "roadbed_ft": 27.3, "median_ft": 0.0, "left_sw_ft": 25.8, "right_sw_ft": 2.4}, "geometry": {"type": "LineString", "coordinates": [[-73.96967647169673, 40.712906342262876], [-73.96975462567465, 40.71275715444167]]}}, {"type": "Feature", "properties": {"segment_id": 1706626, "physicalid": "178644", "street_name": "WILLIAMSBURG BRG", "borough": "manhattan", "direction": "FT", "total_row_ft": 55.2, "roadbed_ft": 27.3, "median_ft": 0.0, "left_sw_ft": 25.5, "right_sw_ft": 2.4}, "geometry": {"type": "LineString", "coordinates": [[-73.96960948535752, 40.71288596078247], [-73.96968764209853, 40.712736767972515]]}}, {"type": "Feature", "properties": {"segment_id": 1706627, "physicalid": "178644", "street_name": "WILLIAMSBURG BRG", "borough": "manhattan", "direction": "FT", "total_row_ft": 55.0, "roadbed_ft": 27.4, "median_ft": 0.0, "left_sw_ft": 25.2, "right_sw_ft": 2.4}, "geometry": {"type": "LineString", "coordinates": [[-73.96954249905932, 40.712865579263045], [-73.96962065856339, 40.71271638146432]]}}, {"type": "Feature", "properties": {"segment_id": 1706628, "physicalid": "178644", "street_name": "WILLIAMSBURG BRG", "borough": "manhattan", "direction": "FT", "total_row_ft": 54.6, "roadbed_ft": 27.3, "median_ft": 0.0, "left_sw_ft": 24.9, "right_sw_ft": 2.5}, "geometry": {"type": "LineString", "coordinates": [[-73.96947551280205, 40.712845197704574], [-73.96955367506922, 40.71269599491711]]}}, {"type": "Feature", "properties": {"segment_id": 1706629, "physicalid": "178644", "street_name": "WILLIAMSBURG BRG", "borough": "manhattan", "direction": "FT", "total_row_ft": 54.2, "roadbed_ft": 27.1, "median_ft": 0.0, "left_sw_ft": 24.6, "right_sw_ft": 2.5}, "geometry": {"type": "LineString", "coordinates": [[-73.96940852658577, 40.71282481610708], [-73.96948669161603, 40.71267560833085]]}}, {"type": "Feature", "properties": {"segment_id": 1706630, "physicalid": "178644", "street_name": "WILLIAMSBURG BRG", "borough": "manhattan", "direction": "FT", "total_row_ft": 53.7, "roadbed_ft": 27.0, "median_ft": 0.0, "left_sw_ft": 24.2, "right_sw_ft": 2.5}, "geometry": {"type": "LineString", "coordinates": [[-73.96934154041043, 40.71280443447055], [-73.9694197082038, 40.71265522170557]]}}, {"type": "Feature", "properties": {"segment_id": 1706631, "physicalid": "178644", "street_name": "WILLIAMSBURG BRG", "borough": "manhattan", "direction": "FT", "total_row_ft": 53.3, "roadbed_ft": 26.8, "median_ft": 0.0, "left_sw_ft": 23.9, "right_sw_ft": 2.5}, "geometry": {"type": "LineString", "coordinates": [[-73.96927455427607, 40.71278405279499], [-73.96935272483256, 40.71263483504127]]}}, {"type": "Feature", "properties": {"segment_id": 1706632, "physicalid": "178644", "street_name": "WILLIAMSBURG BRG", "borough": "manhattan", "direction": "FT", "total_row_ft": 52.9, "roadbed_ft": 26.7, "median_ft": 0.0, "left_sw_ft": 23.6, "right_sw_ft": 2.5}, "geometry": {"type": "LineString", "coordinates": [[-73.9692075261871, 40.71276375124431], [-73.96928574150228, 40.71261444833793]]}}, {"type": "Feature", "properties": {"segment_id": 1706633, "physicalid": "178644", "street_name": "WILLIAMSBURG BRG", "borough": "manhattan", "direction": "FT", "total_row_ft": 52.5, "roadbed_ft": 26.6, "median_ft": 0.0, "left_sw_ft": 23.3, "right_sw_ft": 2.6}, "geometry": {"type": "LineString", "coordinates": [[-73.9691404709041, 40.712743501642194], [-73.96921875821297, 40.712594061595546]]}}, {"type": "Feature", "properties": {"segment_id": 1706634, "physicalid": "178644", "street_name": "WILLIAMSBURG BRG", "borough": "manhattan", "direction": "FT", "total_row_ft": 52.3, "roadbed_ft": 26.6, "median_ft": 0.0, "left_sw_ft": 23.2, "right_sw_ft": 2.6}, "geometry": {"type": "LineString", "coordinates": [[-73.96907341566178, 40.712723252000956], [-73.96915177496466, 40.71257367481414]]}}, {"type": "Feature", "properties": {"segment_id": 1706635, "physicalid": "178644", "street_name": "WILLIAMSBURG BRG", "borough": "manhattan", "direction": "FT", "total_row_ft": 52.3, "roadbed_ft": 26.5, "median_ft": 0.0, "left_sw_ft": 23.2, "right_sw_ft": 2.6}, "geometry": {"type": "LineString", "coordinates": [[-73.96900636046027, 40.712703002320644], [-73.96908479175731, 40.712553287993714]]}}, {"type": "Feature", "properties": {"segment_id": 1706636, "physicalid": "178644", "street_name": "WILLIAMSBURG BRG", "borough": "manhattan", "direction": "FT", "total_row_ft": 52.2, "roadbed_ft": 26.4, "median_ft": 0.0, "left_sw_ft": 23.2, "right_sw_ft": 2.6}, "geometry": {"type": "LineString", "coordinates": [[-73.96893930529946, 40.71268275260119], [-73.96901780859093, 40.712532901134274]]}}, {"type": "Feature", "properties": {"segment_id": 1706674, "physicalid": "178647", "street_name": "WILLIAMSBURG BR PEDESTRIAN PTH", "borough": "manhattan", "direction": "NV", "total_row_ft": 56.4, "roadbed_ft": 27.7, "median_ft": 0.0, "left_sw_ft": 18.5, "right_sw_ft": 10.2}, "geometry": {"type": "LineString", "coordinates": [[-73.96994536117579, 40.712988154927935], [-73.97002283107574, 40.71284058059679]]}}, {"type": "Feature", "properties": {"segment_id": 1706675, "physicalid": "178647", "street_name": "WILLIAMSBURG BR PEDESTRIAN PTH", "borough": "manhattan", "direction": "NV", "total_row_ft": 56.2, "roadbed_ft": 27.6, "median_ft": 0.0, "left_sw_ft": 18.2, "right_sw_ft": 10.4}, "geometry": {"type": "LineString", "coordinates": [[-73.9698783747064, 40.71296777361465], [-73.96995608278273, 40.7128197458572]]}}, {"type": "Feature", "properties": {"segment_id": 1706676, "physicalid": "178647", "street_name": "WILLIAMSBURG BR PEDESTRIAN PTH", "borough": "manhattan", "direction": "NV", "total_row_ft": 56.1, "roadbed_ft": 27.5, "median_ft": 0.0, "left_sw_ft": 17.9, "right_sw_ft": 10.6}, "geometry": {"type": "LineString", "coordinates": [[-73.96981138827796, 40.71294739226229], [-73.96988933453147, 40.71279891107886]]}}, {"type": "Feature", "properties": {"segment_id": 1706677, "physicalid": "178647", "street_name": "WILLIAMSBURG BR PEDESTRIAN PTH", "borough": "manhattan", "direction": "NV", "total_row_ft": 55.9, "roadbed_ft": 27.5, "median_ft": 0.0, "left_sw_ft": 17.6, "right_sw_ft": 10.8}, "geometry": {"type": "LineString", "coordinates": [[-73.9697444018905, 40.71292701087092], [-73.96982258632192, 40.71277807626175]]}}, {"type": "Feature", "properties": {"segment_id": 1706678, "physicalid": "178647", "street_name": "WILLIAMSBURG BR PEDESTRIAN PTH", "borough": "manhattan", "direction": "NV", "total_row_ft": 55.5, "roadbed_ft": 27.3, "median_ft": 0.0, "left_sw_ft": 17.3, "right_sw_ft": 10.9}, "geometry": {"type": "LineString", "coordinates": [[-73.969677415544, 40.71290662944053], [-73.96975571048552, 40.71275748460372]]}}, {"type": "Feature", "properties": {"segment_id": 1706679, "physicalid": "178647", "street_name": "WILLIAMSBURG BR PEDESTRIAN PTH", "borough": "manhattan", "direction": "NV", "total_row_ft": 55.2, "roadbed_ft": 27.3, "median_ft": 0.0, "left_sw_ft": 17.0, "right_sw_ft": 10.9}, "geometry": {"type": "LineString", "coordinates": [[-73.96961042923844, 40.71288624797109], [-73.96968872694771, 40.712737098147045]]}}, {"type": "Feature", "properties": {"segment_id": 1706680, "physicalid": "178647", "street_name": "WILLIAMSBURG BR PEDESTRIAN PTH", "borough": "manhattan", "direction": "NV", "total_row_ft": 55.0, "roadbed_ft": 27.4, "median_ft": 0.0, "left_sw_ft": 16.7, "right_sw_ft": 10.9}, "geometry": {"type": "LineString", "coordinates": [[-73.96954344297386, 40.71286586646263], [-73.96962174345089, 40.71271671165137]]}}, {"type": "Feature", "properties": {"segment_id": 1706681, "physicalid": "178647", "street_name": "WILLIAMSBURG BR PEDESTRIAN PTH", "borough": "manhattan", "direction": "NV", "total_row_ft": 54.6, "roadbed_ft": 27.3, "median_ft": 0.0, "left_sw_ft": 16.4, "right_sw_ft": 10.9}, "geometry": {"type": "LineString", "coordinates": [[-73.96947645675026, 40.71284548491513], [-73.96955475999503, 40.71269632511665]]}}, {"type": "Feature", "properties": {"segment_id": 1706682, "physicalid": "178647", "street_name": "WILLIAMSBURG BR PEDESTRIAN PTH", "borough": "manhattan", "direction": "NV", "total_row_ft": 54.2, "roadbed_ft": 27.1, "median_ft": 0.0, "left_sw_ft": 16.1, "right_sw_ft": 10.9}, "geometry": {"type": "LineString", "coordinates": [[-73.96940947056761, 40.71282510332858], [-73.96948777658017, 40.71267593854288]]}}, {"type": "Feature", "properties": {"segment_id": 1706683, "physicalid": "178647", "street_name": "WILLIAMSBURG BR PEDESTRIAN PTH", "borough": "manhattan", "direction": "NV", "total_row_ft": 53.7, "roadbed_ft": 27.0, "median_ft": 0.0, "left_sw_ft": 15.8, "right_sw_ft": 10.9}, "geometry": {"type": "LineString", "coordinates": [[-73.96934248442594, 40.71280472170302], [-73.96942079320625, 40.712655551930105]]}}, {"type": "Feature", "properties": {"segment_id": 1706684, "physicalid": "178647", "street_name": "WILLIAMSBURG BR PEDESTRIAN PTH", "borough": "manhattan", "direction": "NV", "total_row_ft": 53.3, "roadbed_ft": 26.8, "median_ft": 0.0, "left_sw_ft": 15.5, "right_sw_ft": 10.9}, "geometry": {"type": "LineString", "coordinates": [[-73.96927549832523, 40.712784340038425], [-73.96935380987333, 40.7126351652783]]}}, {"type": "Feature", "properties": {"segment_id": 1706685, "physicalid": "178647", "street_name": "WILLIAMSBURG BR PEDESTRIAN PTH", "borough": "manhattan", "direction": "NV", "total_row_ft": 52.9, "roadbed_ft": 26.7, "median_ft": 0.0, "left_sw_ft": 15.2, "right_sw_ft": 10.9}, "geometry": {"type": "LineString", "coordinates": [[-73.96920847117156, 40.712764036613855], [-73.96928682658137, 40.71261477858744]]}}, {"type": "Feature", "properties": {"segment_id": 1706686, "physicalid": "178647", "street_name": "WILLIAMSBURG BR PEDESTRIAN PTH", "borough": "manhattan", "direction": "NV", "total_row_ft": 52.5, "roadbed_ft": 26.6, "median_ft": 0.0, "left_sw_ft": 14.9, "right_sw_ft": 11.0}, "geometry": {"type": "LineString", "coordinates": [[-73.96914141579718, 40.712743786984866], [-73.9692198433304, 40.71259439185758]]}}, {"type": "Feature", "properties": {"segment_id": 1706687, "physicalid": "178647", "street_name": "WILLIAMSBURG BR PEDESTRIAN PTH", "borough": "manhattan", "direction": "NV", "total_row_ft": 52.3, "roadbed_ft": 26.6, "median_ft": 0.0, "left_sw_ft": 14.8, "right_sw_ft": 11.0}, "geometry": {"type": "LineString", "coordinates": [[-73.96907436046354, 40.71272353731678], [-73.96915286012039, 40.71257400508868]]}}, {"type": "Feature", "properties": {"segment_id": 1706688, "physicalid": "178647", "street_name": "WILLIAMSBURG BR PEDESTRIAN PTH", "borough": "manhattan", "direction": "NV", "total_row_ft": 52.3, "roadbed_ft": 26.5, "median_ft": 0.0, "left_sw_ft": 14.8, "right_sw_ft": 11.0}, "geometry": {"type": "LineString", "coordinates": [[-73.96900730517065, 40.71270328760959], [-73.96908587695137, 40.712553618280744]]}}, {"type": "Feature", "properties": {"segment_id": 1706689, "physicalid": "178647", "street_name": "WILLIAMSBURG BR PEDESTRIAN PTH", "borough": "manhattan", "direction": "NV", "total_row_ft": 52.2, "roadbed_ft": 26.4, "median_ft": 0.0, "left_sw_ft": 14.8, "right_sw_ft": 11.0}, "geometry": {"type": "LineString", "coordinates": [[-73.96894024991849, 40.71268303786327], [-73.9690188938233, 40.71253323143377]]}}, {"type": "Feature", "properties": {"segment_id": 1706727, "physicalid": "178652", "street_name": "WILLIAMSBURG BRIDGE BIKE PTH", "borough": "manhattan", "direction": "NV", "total_row_ft": 56.4, "roadbed_ft": 27.7, "median_ft": 0.0, "left_sw_ft": 6.6, "right_sw_ft": 22.2}, "geometry": {"type": "LineString", "coordinates": [[-73.96994945001633, 40.71298939899751], [-73.97002679238206, 40.71284181707299]]}}, {"type": "Feature", "properties": {"segment_id": 1706728, "physicalid": "178652", "street_name": "WILLIAMSBURG BRIDGE BIKE PTH", "borough": "manhattan", "direction": "NV", "total_row_ft": 56.3, "roadbed_ft": 27.6, "median_ft": 0.0, "left_sw_ft": 6.6, "right_sw_ft": 22.1}, "geometry": {"type": "LineString", "coordinates": [[-73.96988246351924, 40.712969017678915], [-73.96996004371421, 40.71282098221949]]}}, {"type": "Feature", "properties": {"segment_id": 1706729, "physicalid": "178652", "street_name": "WILLIAMSBURG BRIDGE BIKE PTH", "borough": "manhattan", "direction": "NV", "total_row_ft": 56.1, "roadbed_ft": 27.5, "median_ft": 0.0, "left_sw_ft": 6.6, "right_sw_ft": 22.0}, "geometry": {"type": "LineString", "coordinates": [[-73.96981547706311, 40.71294863632133], [-73.96989329508806, 40.712800147327215]]}}, {"type": "Feature", "properties": {"segment_id": 1706730, "physicalid": "178652", "street_name": "WILLIAMSBURG BRIDGE BIKE PTH", "borough": "manhattan", "direction": "NV", "total_row_ft": 55.9, "roadbed_ft": 27.5, "median_ft": 0.0, "left_sw_ft": 6.5, "right_sw_ft": 21.9}, "geometry": {"type": "LineString", "coordinates": [[-73.96974849064794, 40.712928254924655], [-73.96982654650367, 40.71277931239619]]}}, {"type": "Feature", "properties": {"segment_id": 1706731, "physicalid": "178652", "street_name": "WILLIAMSBURG BRIDGE BIKE PTH", "borough": "manhattan", "direction": "NV", "total_row_ft": 55.5, "roadbed_ft": 27.3, "median_ft": 0.0, "left_sw_ft": 6.5, "right_sw_ft": 21.7}, "geometry": {"type": "LineString", "coordinates": [[-73.96968150427377, 40.712907873488966], [-73.96975968442453, 40.71275869407146]]}}, {"type": "Feature", "properties": {"segment_id": 1706732, "physicalid": "178652", "street_name": "WILLIAMSBURG BRIDGE BIKE PTH", "borough": "manhattan", "direction": "NV", "total_row_ft": 55.2, "roadbed_ft": 27.3, "median_ft": 0.0, "left_sw_ft": 6.5, "right_sw_ft": 21.4}, "geometry": {"type": "LineString", "coordinates": [[-73.96961451794054, 40.71288749201427], [-73.96969270085526, 40.71273830760824]]}}, {"type": "Feature", "properties": {"segment_id": 1706733, "physicalid": "178652", "street_name": "WILLIAMSBURG BRIDGE BIKE PTH", "borough": "manhattan", "direction": "NV", "total_row_ft": 55.0, "roadbed_ft": 27.4, "median_ft": 0.0, "left_sw_ft": 6.5, "right_sw_ft": 21.2}, "geometry": {"type": "LineString", "coordinates": [[-73.96954753164829, 40.712867110500504], [-73.96962571732693, 40.71271792110605]]}}, {"type": "Feature", "properties": {"segment_id": 1706734, "physicalid": "178652", "street_name": "WILLIAMSBURG BRIDGE BIKE PTH", "borough": "manhattan", "direction": "NV", "total_row_ft": 54.7, "roadbed_ft": 27.3, "median_ft": 0.0, "left_sw_ft": 6.5, "right_sw_ft": 20.9}, "geometry": {"type": "LineString", "coordinates": [[-73.96948054539699, 40.71284672894774], [-73.96955873383962, 40.7126975345648]]}}, {"type": "Feature", "properties": {"segment_id": 1706735, "physicalid": "178652", "street_name": "WILLIAMSBURG BRIDGE BIKE PTH", "borough": "manhattan", "direction": "NV", "total_row_ft": 54.2, "roadbed_ft": 27.2, "median_ft": 0.0, "left_sw_ft": 6.4, "right_sw_ft": 20.6}, "geometry": {"type": "LineString", "coordinates": [[-73.96941355918665, 40.71282634735592], [-73.96949175039326, 40.7126771479845]]}}, {"type": "Feature", "properties": {"segment_id": 1706736, "physicalid": "178652", "street_name": "WILLIAMSBURG BRIDGE BIKE PTH", "borough": "manhattan", "direction": "NV", "total_row_ft": 53.8, "roadbed_ft": 27.0, "median_ft": 0.0, "left_sw_ft": 6.4, "right_sw_ft": 20.3}, "geometry": {"type": "LineString", "coordinates": [[-73.96934657301729, 40.71280596572506], [-73.96942476698787, 40.712656761365196]]}}, {"type": "Feature", "properties": {"segment_id": 1706737, "physicalid": "178652", "street_name": "WILLIAMSBURG BRIDGE BIKE PTH", "borough": "manhattan", "direction": "NV", "total_row_ft": 53.3, "roadbed_ft": 26.9, "median_ft": 0.0, "left_sw_ft": 6.4, "right_sw_ft": 20.1}, "geometry": {"type": "LineString", "coordinates": [[-73.96927958688889, 40.71278558405519], [-73.96935778362347, 40.712636374706854]]}}, {"type": "Feature", "properties": {"segment_id": 1706738, "physicalid": "178652", "street_name": "WILLIAMSBURG BRIDGE BIKE PTH", "borough": "manhattan", "direction": "NV", "total_row_ft": 52.9, "roadbed_ft": 26.7, "median_ft": 0.0, "left_sw_ft": 6.4, "right_sw_ft": 19.8}, "geometry": {"type": "LineString", "coordinates": [[-73.9692125639947, 40.71276527257798], [-73.9692908003, 40.712615988009496]]}}, {"type": "Feature", "properties": {"segment_id": 1706739, "physicalid": "178652", "street_name": "WILLIAMSBURG BRIDGE BIKE PTH", "borough": "manhattan", "direction": "NV", "total_row_ft": 52.5, "roadbed_ft": 26.6, "median_ft": 0.0, "left_sw_ft": 6.5, "right_sw_ft": 19.4}, "geometry": {"type": "LineString", "coordinates": [[-73.96914550869425, 40.712745022974474], [-73.96922381701756, 40.712595601273094]]}}, {"type": "Feature", "properties": {"segment_id": 1706740, "physicalid": "178652", "street_name": "WILLIAMSBURG BRIDGE BIKE PTH", "borough": "manhattan", "direction": "NV", "total_row_ft": 52.3, "roadbed_ft": 26.6, "median_ft": 0.0, "left_sw_ft": 6.5, "right_sw_ft": 19.3}, "geometry": {"type": "LineString", "coordinates": [[-73.96907845343458, 40.71272477333186], [-73.96915683377607, 40.71257521449766]]}}, {"type": "Feature", "properties": {"segment_id": 1706741, "physicalid": "178652", "street_name": "WILLIAMSBURG BRIDGE BIKE PTH", "borough": "manhattan", "direction": "NV", "total_row_ft": 52.3, "roadbed_ft": 26.5, "median_ft": 0.0, "left_sw_ft": 6.5, "right_sw_ft": 19.3}, "geometry": {"type": "LineString", "coordinates": [[-73.96901139821563, 40.71270452365013], [-73.96908985057556, 40.712554827683206]]}}, {"type": "Feature", "properties": {"segment_id": 1706742, "physicalid": "178652", "street_name": "WILLIAMSBURG BRIDGE BIKE PTH", "borough": "manhattan", "direction": "NV", "total_row_ft": 52.2, "roadbed_ft": 26.4, "median_ft": 0.0, "left_sw_ft": 6.5, "right_sw_ft": 19.3}, "geometry": {"type": "LineString", "coordinates": [[-73.96894434303742, 40.71268427392929], [-73.969022867416, 40.71253444082972]]}}, {"type": "Feature", "properties": {"segment_id": 1706780, "physicalid": "178656", "street_name": "WILLIAMSBURG BRG", "borough": "manhattan", "direction": "TF", "total_row_ft": 94.4, "roadbed_ft": 49.7, "median_ft": 3.0, "left_sw_ft": 26.7, "right_sw_ft": 15.0}, "geometry": {"type": "LineString", "coordinates": [[-73.9698654260727, 40.7131537128914], [-73.97002573498428, 40.71284776224957]]}}, {"type": "Feature", "properties": {"segment_id": 1706781, "physicalid": "178656", "street_name": "WILLIAMSBURG BRG", "borough": "manhattan", "direction": "TF", "total_row_ft": 93.8, "roadbed_ft": 49.5, "median_ft": 3.0, "left_sw_ft": 26.3, "right_sw_ft": 15.0}, "geometry": {"type": "LineString", "coordinates": [[-73.96979841276733, 40.71313338241268], [-73.96995872193762, 40.712827431863346]]}}, {"type": "Feature", "properties": {"segment_id": 1706782, "physicalid": "178656", "street_name": "WILLIAMSBURG BRG", "borough": "manhattan", "direction": "TF", "total_row_ft": 93.3, "roadbed_ft": 49.2, "median_ft": 3.0, "left_sw_ft": 26.0, "right_sw_ft": 15.0}, "geometry": {"type": "LineString", "coordinates": [[-73.96973139950285, 40.71311305189491], [-73.96989170893183, 40.71280710143808]]}}, {"type": "Feature", "properties": {"segment_id": 1706783, "physicalid": "178656", "street_name": "WILLIAMSBURG BRG", "borough": "manhattan", "direction": "TF", "total_row_ft": 92.6, "roadbed_ft": 49.0, "median_ft": 2.9, "left_sw_ft": 25.7, "right_sw_ft": 15.0}, "geometry": {"type": "LineString", "coordinates": [[-73.96966438627922, 40.71309272133807], [-73.96982469596692, 40.712786770973764]]}}, {"type": "Feature", "properties": {"segment_id": 1706784, "physicalid": "178656", "street_name": "WILLIAMSBURG BRG", "borough": "manhattan", "direction": "TF", "total_row_ft": 92.0, "roadbed_ft": 48.7, "median_ft": 2.9, "left_sw_ft": 25.4, "right_sw_ft": 15.0}, "geometry": {"type": "LineString", "coordinates": [[-73.96959737309649, 40.71307239074219], [-73.9697576830429, 40.712766440470354]]}}, {"type": "Feature", "properties": {"segment_id": 1706785, "physicalid": "178656", "street_name": "WILLIAMSBURG BRG", "borough": "manhattan", "direction": "TF", "total_row_ft": 91.8, "roadbed_ft": 48.7, "median_ft": 3.0, "left_sw_ft": 25.1, "right_sw_ft": 15.0}, "geometry": {"type": "LineString", "coordinates": [[-73.96953035995463, 40.71305206010722], [-73.96969067015974, 40.71274610992788]]}}, {"type": "Feature", "properties": {"segment_id": 1706786, "physicalid": "178656", "street_name": "WILLIAMSBURG BRG", "borough": "manhattan", "direction": "TF", "total_row_ft": 91.5, "roadbed_ft": 48.7, "median_ft": 3.0, "left_sw_ft": 24.8, "right_sw_ft": 15.0}, "geometry": {"type": "LineString", "coordinates": [[-73.96946334685367, 40.71303172943321], [-73.96962365731746, 40.71272577934637]]}}, {"type": "Feature", "properties": {"segment_id": 1706787, "physicalid": "178656", "street_name": "WILLIAMSBURG BRG", "borough": "manhattan", "direction": "TF", "total_row_ft": 91.1, "roadbed_ft": 48.7, "median_ft": 3.0, "left_sw_ft": 24.5, "right_sw_ft": 15.0}, "geometry": {"type": "LineString", "coordinates": [[-73.96939633379358, 40.71301139872013], [-73.96955664451606, 40.71270544872578]]}}, {"type": "Feature", "properties": {"segment_id": 1706788, "physicalid": "178656", "street_name": "WILLIAMSBURG BRG", "borough": "manhattan", "direction": "TF", "total_row_ft": 90.6, "roadbed_ft": 48.5, "median_ft": 3.0, "left_sw_ft": 24.2, "right_sw_ft": 15.0}, "geometry": {"type": "LineString", "coordinates": [[-73.96932932077438, 40.712991067967955], [-73.96948963175554, 40.712685118066105]]}}, {"type": "Feature", "properties": {"segment_id": 1706789, "physicalid": "178656", "street_name": "WILLIAMSBURG BRG", "borough": "manhattan", "direction": "TF", "total_row_ft": 90.2, "roadbed_ft": 48.3, "median_ft": 3.0, "left_sw_ft": 23.8, "right_sw_ft": 15.0}, "geometry": {"type": "LineString", "coordinates": [[-73.96926230779604, 40.71297073717676], [-73.96942261903591, 40.7126647873674]]}}, {"type": "Feature", "properties": {"segment_id": 1706790, "physicalid": "178656", "street_name": "WILLIAMSBURG BRG", "borough": "manhattan", "direction": "TF", "total_row_ft": 89.7, "roadbed_ft": 48.2, "median_ft": 3.0, "left_sw_ft": 23.5, "right_sw_ft": 15.0}, "geometry": {"type": "LineString", "coordinates": [[-73.9691952948586, 40.71295040634648], [-73.96935560635715, 40.71264445662962]]}}, {"type": "Feature", "properties": {"segment_id": 1706791, "physicalid": "178656", "street_name": "WILLIAMSBURG BRG", "borough": "manhattan", "direction": "TF", "total_row_ft": 89.2, "roadbed_ft": 48.0, "median_ft": 3.0, "left_sw_ft": 23.2, "right_sw_ft": 15.0}, "geometry": {"type": "LineString", "coordinates": [[-73.96912828196203, 40.71293007547714], [-73.96928859371928, 40.71262412585277]]}}, {"type": "Feature", "properties": {"segment_id": 1706792, "physicalid": "178656", "street_name": "WILLIAMSBURG BRG", "borough": "manhattan", "direction": "TF", "total_row_ft": 88.7, "roadbed_ft": 47.8, "median_ft": 3.0, "left_sw_ft": 22.9, "right_sw_ft": 15.0}, "geometry": {"type": "LineString", "coordinates": [[-73.96906126910633, 40.712909744568734], [-73.9692215811223, 40.71260379503686]]}}, {"type": "Feature", "properties": {"segment_id": 1706793, "physicalid": "178656", "street_name": "WILLIAMSBURG BRG", "borough": "manhattan", "direction": "TF", "total_row_ft": 88.4, "roadbed_ft": 47.6, "median_ft": 3.0, "left_sw_ft": 22.7, "right_sw_ft": 15.0}, "geometry": {"type": "LineString", "coordinates": [[-73.96899425629152, 40.71288941362126], [-73.96915456856618, 40.71258346418189]]}}, {"type": "Feature", "properties": {"segment_id": 1706794, "physicalid": "178656", "street_name": "WILLIAMSBURG BRG", "borough": "manhattan", "direction": "TF", "total_row_ft": 88.2, "roadbed_ft": 47.5, "median_ft": 3.0, "left_sw_ft": 22.7, "right_sw_ft": 15.0}, "geometry": {"type": "LineString", "coordinates": [[-73.96892724351758, 40.71286908263472], [-73.96908755605095, 40.712563133287865]]}}, {"type": "Feature", "properties": {"segment_id": 1706795, "physicalid": "178656", "street_name": "WILLIAMSBURG BRG", "borough": "manhattan", "direction": "TF", "total_row_ft": 88.1, "roadbed_ft": 47.3, "median_ft": 3.0, "left_sw_ft": 22.8, "right_sw_ft": 15.0}, "geometry": {"type": "LineString", "coordinates": [[-73.96886023078454, 40.71284875160913], [-73.96902054357658, 40.712542802354754]]}}, {"type": "Feature", "properties": {"segment_id": 1706832, "physicalid": "178661", "street_name": "WILLIAMSBURG BRG", "borough": "manhattan", "direction": "TF", "total_row_ft": 67.5, "roadbed_ft": 36.8, "median_ft": 3.0, "left_sw_ft": 12.7, "right_sw_ft": 15.0}, "geometry": {"type": "LineString", "coordinates": [[-73.9699095374821, 40.713219436592226], [-73.97003559019974, 40.712978198146125]]}}, {"type": "Feature", "properties": {"segment_id": 1706833, "physicalid": "178661", "street_name": "WILLIAMSBURG BRG", "borough": "manhattan", "direction": "TF", "total_row_ft": 67.5, "roadbed_ft": 36.8, "median_ft": 3.0, "left_sw_ft": 12.7, "right_sw_ft": 15.0}, "geometry": {"type": "LineString", "coordinates": [[-73.96984249873769, 40.71319915460476], [-73.96996860360058, 40.712957816827135]]}}, {"type": "Feature", "properties": {"segment_id": 1706834, "physicalid": "178661", "street_name": "WILLIAMSBURG BRG", "borough": "manhattan", "direction": "TF", "total_row_ft": 67.5, "roadbed_ft": 36.8, "median_ft": 3.0, "left_sw_ft": 12.7, "right_sw_ft": 15.0}, "geometry": {"type": "LineString", "coordinates": [[-73.9697754600341, 40.71317887257822], [-73.96990161704237, 40.712937435469094]]}}, {"type": "Feature", "properties": {"segment_id": 1706835, "physicalid": "178661", "street_name": "WILLIAMSBURG BRG", "borough": "manhattan", "direction": "TF", "total_row_ft": 67.5, "roadbed_ft": 36.9, "median_ft": 3.0, "left_sw_ft": 12.7, "right_sw_ft": 15.0}, "geometry": {"type": "LineString", "coordinates": [[-73.9697084213713, 40.71315859051257], [-73.96983463052514, 40.71291705407202]]}}, {"type": "Feature", "properties": {"segment_id": 1706836, "physicalid": "178661", "street_name": "WILLIAMSBURG BRG", "borough": "manhattan", "direction": "TF", "total_row_ft": 67.5, "roadbed_ft": 36.9, "median_ft": 2.9, "left_sw_ft": 12.7, "right_sw_ft": 15.0}, "geometry": {"type": "LineString", "coordinates": [[-73.96964138274929, 40.713138308407814], [-73.96976764404887, 40.71289667263592]]}}, {"type": "Feature", "properties": {"segment_id": 1706837, "physicalid": "178661", "street_name": "WILLIAMSBURG BRG", "borough": "manhattan", "direction": "TF", "total_row_ft": 67.4, "roadbed_ft": 36.9, "median_ft": 2.9, "left_sw_ft": 12.7, "right_sw_ft": 15.0}, "geometry": {"type": "LineString", "coordinates": [[-73.9695743441681, 40.713118026263984], [-73.96970065761357, 40.712876291160775]]}}, {"type": "Feature", "properties": {"segment_id": 1706838, "physicalid": "178661", "street_name": "WILLIAMSBURG BRG", "borough": "manhattan", "direction": "TF", "total_row_ft": 67.5, "roadbed_ft": 36.9, "median_ft": 3.0, "left_sw_ft": 12.7, "right_sw_ft": 15.0}, "geometry": {"type": "LineString", "coordinates": [[-73.96950730562769, 40.71309774408104], [-73.96963367121924, 40.71285590964661]]}}, {"type": "Feature", "properties": {"segment_id": 1706839, "physicalid": "178661", "street_name": "WILLIAMSBURG BRG", "borough": "manhattan", "direction": "TF", "total_row_ft": 67.5, "roadbed_ft": 36.9, "median_ft": 3.0, "left_sw_ft": 12.7, "right_sw_ft": 15.0}, "geometry": {"type": "LineString", "coordinates": [[-73.96944026712808, 40.71307746185901], [-73.96956668486587, 40.7128355280934]]}}, {"type": "Feature", "properties": {"segment_id": 1706840, "physicalid": "178661", "street_name": "WILLIAMSBURG BRG", "borough": "manhattan", "direction": "TF", "total_row_ft": 67.5, "roadbed_ft": 36.9, "median_ft": 3.0, "left_sw_ft": 12.7, "right_sw_ft": 15.0}, "geometry": {"type": "LineString", "coordinates": [[-73.96937322866926, 40.7130571795979], [-73.96949969855346, 40.71281514650117]]}}, {"type": "Feature", "properties": {"segment_id": 1706841, "physicalid": "178661", "street_name": "WILLIAMSBURG BRG", "borough": "manhattan", "direction": "TF", "total_row_ft": 67.5, "roadbed_ft": 36.9, "median_ft": 3.0, "left_sw_ft": 12.7, "right_sw_ft": 15.0}, "geometry": {"type": "LineString", "coordinates": [[-73.96930619025123, 40.713036897297684], [-73.96943271228157, 40.712794764870786]]}}, {"type": "Feature", "properties": {"segment_id": 1706842, "physicalid": "178661", "street_name": "WILLIAMSBURG BRG", "borough": "manhattan", "direction": "TF", "total_row_ft": 67.4, "roadbed_ft": 36.7, "median_ft": 3.0, "left_sw_ft": 12.7, "right_sw_ft": 15.0}, "geometry": {"type": "LineString", "coordinates": [[-73.96923915187404, 40.71301661495838], [-73.96936572604841, 40.7127743832056]]}}, {"type": "Feature", "properties": {"segment_id": 1706843, "physicalid": "178661", "street_name": "WILLIAMSBURG BRG", "borough": "manhattan", "direction": "TF", "total_row_ft": 67.2, "roadbed_ft": 36.6, "median_ft": 3.0, "left_sw_ft": 12.7, "right_sw_ft": 15.0}, "geometry": {"type": "LineString", "coordinates": [[-73.96917211353761, 40.71299633257999], [-73.96929873985621, 40.7127540015014]]}}, {"type": "Feature", "properties": {"segment_id": 1706844, "physicalid": "178661", "street_name": "WILLIAMSBURG BRG", "borough": "manhattan", "direction": "TF", "total_row_ft": 67.1, "roadbed_ft": 36.4, "median_ft": 3.0, "left_sw_ft": 12.7, "right_sw_ft": 15.0}, "geometry": {"type": "LineString", "coordinates": [[-73.96910507524198, 40.71297605016249], [-73.9692317192707, 40.71273368565697]]}}, {"type": "Feature", "properties": {"segment_id": 1706845, "physicalid": "178661", "street_name": "WILLIAMSBURG BRG", "borough": "manhattan", "direction": "TF", "total_row_ft": 66.9, "roadbed_ft": 36.2, "median_ft": 3.0, "left_sw_ft": 12.7, "right_sw_ft": 15.0}, "geometry": {"type": "LineString", "coordinates": [[-73.96903803698717, 40.712955767705914], [-73.96916466398159, 40.71271343626558]]}}, {"type": "Feature", "properties": {"segment_id": 1706846, "physicalid": "178661", "street_name": "WILLIAMSBURG BRG", "borough": "manhattan", "direction": "TF", "total_row_ft": 66.7, "roadbed_ft": 36.1, "median_ft": 3.0, "left_sw_ft": 12.7, "right_sw_ft": 15.0}, "geometry": {"type": "LineString", "coordinates": [[-73.96897099877314, 40.712935485210224], [-73.96909760873322, 40.71269318683507]]}}, {"type": "Feature", "properties": {"segment_id": 1706847, "physicalid": "178661", "street_name": "WILLIAMSBURG BRG", "borough": "manhattan", "direction": "TF", "total_row_ft": 66.6, "roadbed_ft": 35.9, "median_ft": 3.0, "left_sw_ft": 12.7, "right_sw_ft": 15.0}, "geometry": {"type": "LineString", "coordinates": [[-73.96890396059992, 40.71291520267547], [-73.96903055352561, 40.712672937365454]]}}, {"type": "Feature", "properties": {"segment_id": 1706848, "physicalid": "178661", "street_name": "WILLIAMSBURG BRG", "borough": "manhattan", "direction": "TF", "total_row_ft": 66.4, "roadbed_ft": 35.7, "median_ft": 3.0, "left_sw_ft": 12.7, "right_sw_ft": 15.0}, "geometry": {"type": "LineString", "coordinates": [[-73.96883692246749, 40.7128949201016], [-73.96896349835875, 40.712652687856725]]}}]}