{"type": "FeatureCollection", "features": [{"type": "Feature", "properties": {"segment_id": 5626, "physicalid": "411", "street_name": "HENRY HUDSON PKWY", "borough": "manhattan", "direction": "FT", "total_row_ft": 67.1, "roadbed_ft": 37.1, "median_ft": 0.0, "left_sw_ft": 15.0, "right_sw_ft": 15.0}, "geometry": {"type": "LineString", "coordinates": [[-73.93027137069673, 40.87008053352784], [-73.929876018972, 40.86994484695992]]}}, {"type": "Feature", "properties": {"segment_id": 5627, "physicalid": "411", "street_name": "HENRY HUDSON PKWY", "borough": "manhattan", "direction": "FT", "total_row_ft": 67.0, "roadbed_ft": 37.0, "median_ft": 0.0, "left_sw_ft": 15.0, "right_sw_ft": 15.0}, "geometry": {"type": "LineString", "coordinates": [[-73.93023974870408, 40.87013225384862], [-73.92984673751869, 40.86999270361349]]}}, {"type": "Feature", "properties": {"segment_id": 5628, "physicalid": "411", "street_name": "HENRY HUDSON PKWY", "borough": "manhattan", "direction": "FT", "total_row_ft": 66.9, "roadbed_ft": 36.9, "median_ft": 0.0, "left_sw_ft": 15.0, "right_sw_ft": 15.0}, "geometry": {"type": "LineString", "coordinates": [[-73.93020910978396, 40.870181976999184], [-73.929816098369, 40.87004242666096]]}}, {"type": "Feature", "properties": {"segment_id": 5835, "physicalid": "419", "street_name": "HENRY HUDSON PKWY", "borough": "manhattan", "direction": "TF", "total_row_ft": 84.6, "roadbed_ft": 54.6, "median_ft": 0.0, "left_sw_ft": 15.0, "right_sw_ft": 15.0}, "geometry": {"type": "LineString", "coordinates": [[-73.93057286175872, 40.870679685396404], [-73.93017147827645, 40.87055461244163]]}}, {"type": "Feature", "properties": {"segment_id": 5836, "physicalid": "419", "street_name": "HENRY HUDSON PKWY", "borough": "manhattan", "direction": "TF", "total_row_ft": 83.2, "roadbed_ft": 53.2, "median_ft": 0.0, "left_sw_ft": 15.0, "right_sw_ft": 15.0}, "geometry": {"type": "LineString", "coordinates": [[-73.93054540118692, 40.87073046736341], [-73.93014401744978, 40.87060539431429]]}}, {"type": "Feature", "properties": {"segment_id": 5837, "physicalid": "419", "street_name": "HENRY HUDSON PKWY", "borough": "manhattan", "direction": "TF", "total_row_ft": 81.8, "roadbed_ft": 51.8, "median_ft": 0.0, "left_sw_ft": 15.0, "right_sw_ft": 15.0}, "geometry": {"type": "LineString", "coordinates": [[-73.93051794057317, 40.87078124932345], [-73.93011655658114, 40.87065617617992]]}}, {"type": "Feature", "properties": {"segment_id": 5838, "physicalid": "419", "street_name": "HENRY HUDSON PKWY", "borough": "manhattan", "direction": "TF", "total_row_ft": 80.6, "roadbed_ft": 50.6, "median_ft": 0.0, "left_sw_ft": 15.0, "right_sw_ft": 15.0}, "geometry": {"type": "LineString", "coordinates": [[-73.93049047991748, 40.87083203127646], [-73.93008909567057, 40.870706958038575]]}}, {"type": "Feature", "properties": {"segment_id": 5839, "physicalid": "419", "street_name": "HENRY HUDSON PKWY", "borough": "manhattan", "direction": "TF", "total_row_ft": 79.0, "roadbed_ft": 49.0, "median_ft": 0.0, "left_sw_ft": 15.0, "right_sw_ft": 15.0}, "geometry": {"type": "LineString", "coordinates": [[-73.93046301921984, 40.8708828132225], [-73.93006163471804, 40.87075773989023]]}}, {"type": "Feature", "properties": {"segment_id": 5840, "physicalid": "419", "street_name": "HENRY HUDSON PKWY", "borough": "manhattan", "direction": "TF", "total_row_ft": 77.4, "roadbed_ft": 47.4, "median_ft": 0.0, "left_sw_ft": 15.0, "right_sw_ft": 15.0}, "geometry": {"type": "LineString", "coordinates": [[-73.93043555869949, 40.87093359482301], [-73.93003417356627, 40.87080852209267]]}}, {"type": "Feature", "properties": {"segment_id": 5841, "physicalid": "419", "street_name": "HENRY HUDSON PKWY", "borough": "manhattan", "direction": "TF", "total_row_ft": 76.0, "roadbed_ft": 46.0, "median_ft": 0.0, "left_sw_ft": 15.0, "right_sw_ft": 15.0}, "geometry": {"type": "LineString", "coordinates": [[-73.93040809807084, 40.870984376802646], [-73.93000671268274, 40.87085930397796]]}}, {"type": "Feature", "properties": {"segment_id": 5842, "physicalid": "419", "street_name": "HENRY HUDSON PKWY", "borough": "manhattan", "direction": "TF", "total_row_ft": 74.8, "roadbed_ft": 44.8, "median_ft": 0.0, "left_sw_ft": 15.0, "right_sw_ft": 15.0}, "geometry": {"type": "LineString", "coordinates": [[-73.93038063740023, 40.87103515877534], [-73.92997925175727, 40.8709100858562]]}}, {"type": "Feature", "properties": {"segment_id": 5843, "physicalid": "419", "street_name": "HENRY HUDSON PKWY", "borough": "manhattan", "direction": "TF", "total_row_ft": 73.6, "roadbed_ft": 43.6, "median_ft": 0.0, "left_sw_ft": 15.0, "right_sw_ft": 15.0}, "geometry": {"type": "LineString", "coordinates": [[-73.93035317668772, 40.87108594074097], [-73.92995179078986, 40.87096086772751]]}}, {"type": "Feature", "properties": {"segment_id": 5844, "physicalid": "419", "street_name": "HENRY HUDSON PKWY", "borough": "manhattan", "direction": "TF", "total_row_ft": 72.6, "roadbed_ft": 42.6, "median_ft": 0.0, "left_sw_ft": 15.0, "right_sw_ft": 15.0}, "geometry": {"type": "LineString", "coordinates": [[-73.93032571593324, 40.87113672269964], [-73.92992432978049, 40.8710116495918]]}}, {"type": "Feature", "properties": {"segment_id": 5845, "physicalid": "419", "street_name": "HENRY HUDSON PKWY", "borough": "manhattan", "direction": "TF", "total_row_ft": 71.9, "roadbed_ft": 41.9, "median_ft": 0.0, "left_sw_ft": 15.0, "right_sw_ft": 15.0}, "geometry": {"type": "LineString", "coordinates": [[-73.93029825513682, 40.87118750465128], [-73.92989686872917, 40.87106243144912]]}}, {"type": "Feature", "properties": {"segment_id": 5846, "physicalid": "419", "street_name": "HENRY HUDSON PKWY", "borough": "manhattan", "direction": "TF", "total_row_ft": 71.2, "roadbed_ft": 41.2, "median_ft": 0.0, "left_sw_ft": 15.0, "right_sw_ft": 15.0}, "geometry": {"type": "LineString", "coordinates": [[-73.93027079429844, 40.871238286595975], [-73.92986940763595, 40.871113213299346]]}}, {"type": "Feature", "properties": {"segment_id": 5847, "physicalid": "419", "street_name": "HENRY HUDSON PKWY", "borough": "manhattan", "direction": "TF", "total_row_ft": 70.7, "roadbed_ft": 40.7, "median_ft": 0.0, "left_sw_ft": 15.0, "right_sw_ft": 15.0}, "geometry": {"type": "LineString", "coordinates": [[-73.93024333341815, 40.87128906853361], [-73.92984194650073, 40.87116399514267]]}}, {"type": "Feature", "properties": {"segment_id": 5848, "physicalid": "419", "street_name": "HENRY HUDSON PKWY", "borough": "manhattan", "direction": "TF", "total_row_ft": 70.3, "roadbed_ft": 40.3, "median_ft": 0.0, "left_sw_ft": 15.0, "right_sw_ft": 15.0}, "geometry": {"type": "LineString", "coordinates": [[-73.93021587249589, 40.87133985046426], [-73.92981448532359, 40.87121477697896]]}}, {"type": "Feature", "properties": {"segment_id": 1415672, "physicalid": "95963", "street_name": "HENRY HUDSON PARKWAY ET 17 SB", "borough": "manhattan", "direction": "FT", "total_row_ft": 86.8, "roadbed_ft": 56.8, "median_ft": 0.0, "left_sw_ft": 15.0, "right_sw_ft": 15.0}, "geometry": {"type": "LineString", "coordinates": [[-73.93020370653636, 40.87048840728245], [-73.93061578170455, 40.87059151565035]]}}, {"type": "Feature", "properties": {"segment_id": 1415673, "physicalid": "95963", "street_name": "HENRY HUDSON PARKWAY ET 17 SB", "borough": "manhattan", "direction": "FT", "total_row_ft": 88.3, "roadbed_ft": 58.3, "median_ft": 0.0, "left_sw_ft": 15.0, "right_sw_ft": 15.0}, "geometry": {"type": "LineString", "coordinates": [[-73.93022634482921, 40.87043627265296], [-73.93063841970947, 40.87053938094092]]}}, {"type": "Feature", "properties": {"segment_id": 1415674, "physicalid": "95963", "street_name": "HENRY HUDSON PARKWAY ET 17 SB", "borough": "manhattan", "direction": "FT", "total_row_ft": 91.4, "roadbed_ft": 61.4, "median_ft": 0.0, "left_sw_ft": 15.0, "right_sw_ft": 15.0}, "geometry": {"type": "LineString", "coordinates": [[-73.9302489830866, 40.87038413801849], [-73.93066105767883, 40.87048724622664]]}}, {"type": "Feature", "properties": {"segment_id": 1415675, "physicalid": "95963", "street_name": "HENRY HUDSON PARKWAY ET 17 SB", "borough": "manhattan", "direction": "FT", "total_row_ft": 92.5, "roadbed_ft": 62.5, "median_ft": 0.0, "left_sw_ft": 15.0, "right_sw_ft": 15.0}, "geometry": {"type": "LineString", "coordinates": [[-73.93027162130845, 40.87033200337915], [-73.93068369561276, 40.87043511150735]]}}, {"type": "Feature", "properties": {"segment_id": 1415676, "physicalid": "95963", "street_name": "HENRY HUDSON PARKWAY ET 17 SB", "borough": "manhattan", "direction": "FT", "total_row_ft": 92.7, "roadbed_ft": 62.7, "median_ft": 0.0, "left_sw_ft": 15.0, "right_sw_ft": 15.0}, "geometry": {"type": "LineString", "coordinates": [[-73.93029425949483, 40.870279868734826], [-73.93070633351114, 40.87038297678318]]}}, {"type": "Feature", "properties": {"segment_id": 1415677, "physicalid": "95963", "street_name": "HENRY HUDSON PARKWAY ET 17 SB", "borough": "manhattan", "direction": "FT", "total_row_ft": 93.1, "roadbed_ft": 63.1, "median_ft": 0.0, "left_sw_ft": 15.0, "right_sw_ft": 15.0}, "geometry": {"type": "LineString", "coordinates": [[-73.93031689764571, 40.870227734085596], [-73.93072897137405, 40.87033084205406]]}}, {"type": "Feature", "properties": {"segment_id": 1415678, "physicalid": "95963", "street_name": "HENRY HUDSON PARKWAY ET 17 SB", "borough": "manhattan", "direction": "FT", "total_row_ft": 86.1, "roadbed_ft": 56.1, "median_ft": 0.0, "left_sw_ft": 15.0, "right_sw_ft": 15.0}, "geometry": {"type": "LineString", "coordinates": [[-73.93033953576109, 40.870175599431434], [-73.93075160920145, 40.870278707320026]]}}, {"type": "Feature", "properties": {"segment_id": 1415679, "physicalid": "95963", "street_name": "HENRY HUDSON PARKWAY ET 17 SB", "borough": "manhattan", "direction": "FT", "total_row_ft": 84.8, "roadbed_ft": 54.8, "median_ft": 0.0, "left_sw_ft": 15.0, "right_sw_ft": 15.0}, "geometry": {"type": "LineString", "coordinates": [[-73.93036217384099, 40.8701234647723], [-73.93077424699334, 40.870226572581096]]}}, {"type": "Feature", "properties": {"segment_id": 1415680, "physicalid": "95963", "street_name": "HENRY HUDSON PARKWAY ET 17 SB", "borough": "manhattan", "direction": "FT", "total_row_ft": 85.2, "roadbed_ft": 55.2, "median_ft": 0.0, "left_sw_ft": 15.0, "right_sw_ft": 15.0}, "geometry": {"type": "LineString", "coordinates": [[-73.93038481188536, 40.870071330108324], [-73.93079688474977, 40.87017443783717]]}}, {"type": "Feature", "properties": {"segment_id": 1415681, "physicalid": "95963", "street_name": "HENRY HUDSON PARKWAY ET 17 SB", "borough": "manhattan", "direction": "FT", "total_row_ft": 85.6, "roadbed_ft": 55.6, "median_ft": 0.0, "left_sw_ft": 15.0, "right_sw_ft": 15.0}, "geometry": {"type": "LineString", "coordinates": [[-73.93040744989426, 40.87001919543932], [-73.93081952247066, 40.87012230308836]]}}, {"type": "Feature", "properties": {"segment_id": 1415682, "physicalid": "95963", "street_name": "HENRY HUDSON PARKWAY ET 17 SB", "borough": "manhattan", "direction": "FT", "total_row_ft": 85.9, "roadbed_ft": 55.9, "median_ft": 0.0, "left_sw_ft": 15.0, "right_sw_ft": 15.0}, "geometry": {"type": "LineString", "coordinates": [[-73.93043008786762, 40.86996706076546], [-73.93084216015609, 40.870070168334564]]}}, {"type": "Feature", "properties": {"segment_id": 1591826, "physicalid": "130302", "street_name": "HENRY HUDSON PKWY", "borough": "manhattan", "direction": "TF", "total_row_ft": 86.1, "roadbed_ft": 56.1, "median_ft": 0.0, "left_sw_ft": 15.0, "right_sw_ft": 15.0}, "geometry": {"type": "LineString", "coordinates": [[-73.93088577932217, 40.87006778414131], [-73.93048109548506, 40.869949004728575]]}}, {"type": "Feature", "properties": {"segment_id": 1591827, "physicalid": "130302", "street_name": "HENRY HUDSON PKWY", "borough": "manhattan", "direction": "TF", "total_row_ft": 85.6, "roadbed_ft": 55.6, "median_ft": 0.0, "left_sw_ft": 15.0, "right_sw_ft": 15.0}, "geometry": {"type": "LineString", "coordinates": [[-73.9308597007909, 40.870118984132745], [-73.93045501668881, 40.87000020462957]]}}, {"type": "Feature", "properties": {"segment_id": 1591828, "physicalid": "130302", "street_name": "HENRY HUDSON PKWY", "borough": "manhattan", "direction": "TF", "total_row_ft": 85.5, "roadbed_ft": 55.5, "median_ft": 0.0, "left_sw_ft": 15.0, "right_sw_ft": 15.0}, "geometry": {"type": "LineString", "coordinates": [[-73.93083362221948, 40.87017018411775], [-73.93042893785238, 40.87005140452425]]}}, {"type": "Feature", "properties": {"segment_id": 1591829, "physicalid": "130302", "street_name": "HENRY HUDSON PKWY", "borough": "manhattan", "direction": "TF", "total_row_ft": 84.8, "roadbed_ft": 54.8, "median_ft": 0.0, "left_sw_ft": 15.0, "right_sw_ft": 15.0}, "geometry": {"type": "LineString", "coordinates": [[-73.9308075436079, 40.87022138409644], [-73.9304028589758, 40.870102604412544]]}}, {"type": "Feature", "properties": {"segment_id": 1591830, "physicalid": "130302", "street_name": "HENRY HUDSON PKWY", "borough": "manhattan", "direction": "TF", "total_row_ft": 85.2, "roadbed_ft": 55.2, "median_ft": 0.0, "left_sw_ft": 15.0, "right_sw_ft": 15.0}, "geometry": {"type": "LineString", "coordinates": [[-73.9307814649562, 40.8702725840687], [-73.93037678005904, 40.870153804294496]]}}, {"type": "Feature", "properties": {"segment_id": 1591831, "physicalid": "130302", "street_name": "HENRY HUDSON PKWY", "borough": "manhattan", "direction": "TF", "total_row_ft": 93.3, "roadbed_ft": 63.3, "median_ft": 0.0, "left_sw_ft": 15.0, "right_sw_ft": 15.0}, "geometry": {"type": "LineString", "coordinates": [[-73.9307553862643, 40.87032378403462], [-73.93035070110213, 40.87020500417007]]}}, {"type": "Feature", "properties": {"segment_id": 1591832, "physicalid": "130302", "street_name": "HENRY HUDSON PKWY", "borough": "manhattan", "direction": "TF", "total_row_ft": 92.9, "roadbed_ft": 62.9, "median_ft": 0.0, "left_sw_ft": 15.0, "right_sw_ft": 15.0}, "geometry": {"type": "LineString", "coordinates": [[-73.93072930753222, 40.87037498399421], [-73.93032462210508, 40.870256204039244]]}}, {"type": "Feature", "properties": {"segment_id": 1591833, "physicalid": "130302", "street_name": "HENRY HUDSON PKWY", "borough": "manhattan", "direction": "TF", "total_row_ft": 92.6, "roadbed_ft": 62.6, "median_ft": 0.0, "left_sw_ft": 15.0, "right_sw_ft": 15.0}, "geometry": {"type": "LineString", "coordinates": [[-73.93070322876001, 40.870426183947416], [-73.93029854306785, 40.870307403902075]]}}, {"type": "Feature", "properties": {"segment_id": 1591834, "physicalid": "130302", "street_name": "HENRY HUDSON PKWY", "borough": "manhattan", "direction": "TF", "total_row_ft": 92.4, "roadbed_ft": 62.4, "median_ft": 0.0, "left_sw_ft": 15.0, "right_sw_ft": 15.0}, "geometry": {"type": "LineString", "coordinates": [[-73.93067714994763, 40.87047738389424], [-73.93027246399046, 40.87035860375854]]}}, {"type": "Feature", "properties": {"segment_id": 1591835, "physicalid": "130302", "street_name": "HENRY HUDSON PKWY", "borough": "manhattan", "direction": "TF", "total_row_ft": 89.4, "roadbed_ft": 59.4, "median_ft": 0.0, "left_sw_ft": 15.0, "right_sw_ft": 15.0}, "geometry": {"type": "LineString", "coordinates": [[-73.93065107109511, 40.87052858383469], [-73.93024638487289, 40.870409803608695]]}}, {"type": "Feature", "properties": {"segment_id": 1591836, "physicalid": "130302", "street_name": "HENRY HUDSON PKWY", "borough": "manhattan", "direction": "TF", "total_row_ft": 87.5, "roadbed_ft": 57.5, "median_ft": 0.0, "left_sw_ft": 15.0, "right_sw_ft": 15.0}, "geometry": {"type": "LineString", "coordinates": [[-73.93062499220243, 40.87057978376876], [-73.93022030571518, 40.87046100345242]]}}]}