{"type": "FeatureCollection", "features": [{"type": "Feature", "properties": {"segment_id": 1619846, "physicalid": "147097", "street_name": "BLOOMFIELD ST", "borough": "manhattan", "direction": "TW", "total_row_ft": 53.2, "roadbed_ft": 23.2, "median_ft": 0.0, "left_sw_ft": 15.0, "right_sw_ft": 15.0}, "geometry": {"type": "LineString", "coordinates": [[-74.01002485268864, 40.740336987035185], [-74.00999239656764, 40.74066543078068]]}}, {"type": "Feature", "properties": {"segment_id": 1619847, "physicalid": "147097", "street_name": "BLOOMFIELD ST", "borough": "manhattan", "direction": "TW", "total_row_ft": 53.3, "roadbed_ft": 23.3, "median_ft": 0.0, "left_sw_ft": 15.0, "right_sw_ft": 15.0}, "geometry": {"type": "LineString", "coordinates": [[-74.01009682240188, 40.740341101381695], [-74.01006436663366, 40.74066954514727]]}}, {"type": "Feature", "properties": {"segment_id": 1619848, "physicalid": "147097", "street_name": "BLOOMFIELD ST", "borough": "manhattan", "direction": "TW", "total_row_ft": 51.4, "roadbed_ft": 21.4, "median_ft": 0.0, "left_sw_ft": 15.0, "right_sw_ft": 15.0}, "geometry": {"type": "LineString", "coordinates": [[-74.01016879212399, 40.740345215683234], [-74.01013633670857, 40.74067365946889]]}}, {"type": "Feature", "properties": {"segment_id": 1619849, "physicalid": "147097", "street_name": "BLOOMFIELD ST", "borough": "manhattan", "direction": "TW", "total_row_ft": 51.2, "roadbed_ft": 21.2, "median_ft": 0.0, "left_sw_ft": 15.0, "right_sw_ft": 15.0}, "geometry": {"type": "LineString", "coordinates": [[-74.01024076185502, 40.74034932993979], [-74.01020830679236, 40.74067777374555]]}}, {"type": "Feature", "properties": {"segment_id": 1619850, "physicalid": "147097", "street_name": "BLOOMFIELD ST", "borough": "manhattan", "direction": "TW", "total_row_ft": 52.5, "roadbed_ft": 22.5, "median_ft": 0.0, "left_sw_ft": 15.0, "right_sw_ft": 15.0}, "geometry": {"type": "LineString", "coordinates": [[-74.01031273159492, 40.74035344415137], [-74.01028027688504, 40.740681887977196]]}}, {"type": "Feature", "properties": {"segment_id": 1619851, "physicalid": "147097", "street_name": "BLOOMFIELD ST", "borough": "manhattan", "direction": "TW", "total_row_ft": 51.9, "roadbed_ft": 21.9, "median_ft": 0.0, "left_sw_ft": 15.0, "right_sw_ft": 15.0}, "geometry": {"type": "LineString", "coordinates": [[-74.0103847013437, 40.74035755831797], [-74.01035224698661, 40.740686002163905]]}}, {"type": "Feature", "properties": {"segment_id": 1619852, "physicalid": "147097", "street_name": "BLOOMFIELD ST", "borough": "manhattan", "direction": "TW", "total_row_ft": 51.3, "roadbed_ft": 21.3, "median_ft": 0.0, "left_sw_ft": 15.0, "right_sw_ft": 15.0}, "geometry": {"type": "LineString", "coordinates": [[-74.01045667110138, 40.74036167243959], [-74.01042421709707, 40.74069011630562]]}}, {"type": "Feature", "properties": {"segment_id": 1619853, "physicalid": "147097", "street_name": "BLOOMFIELD ST", "borough": "manhattan", "direction": "TW", "total_row_ft": 50.7, "roadbed_ft": 20.7, "median_ft": 0.0, "left_sw_ft": 15.0, "right_sw_ft": 15.0}, "geometry": {"type": "LineString", "coordinates": [[-74.01052864086796, 40.74036578651622], [-74.0104961872164, 40.74069423040235]]}}, {"type": "Feature", "properties": {"segment_id": 1619854, "physicalid": "147097", "street_name": "BLOOMFIELD ST", "borough": "manhattan", "direction": "TW", "total_row_ft": 50.1, "roadbed_ft": 20.1, "median_ft": 0.0, "left_sw_ft": 15.0, "right_sw_ft": 15.0}, "geometry": {"type": "LineString", "coordinates": [[-74.01060061064341, 40.74036990054789], [-74.01056815734465, 40.74069834445411]]}}, {"type": "Feature", "properties": {"segment_id": 1619855, "physicalid": "147097", "street_name": "BLOOMFIELD ST", "borough": "manhattan", "direction": "TW", "total_row_ft": 49.5, "roadbed_ft": 19.5, "median_ft": 0.0, "left_sw_ft": 15.0, "right_sw_ft": 15.0}, "geometry": {"type": "LineString", "coordinates": [[-74.01067258042775, 40.74037401453457], [-74.01064012748178, 40.74070245846089]]}}, {"type": "Feature", "properties": {"segment_id": 1619856, "physicalid": "147097", "street_name": "BLOOMFIELD ST", "borough": "manhattan", "direction": "TW", "total_row_ft": 48.9, "roadbed_ft": 18.9, "median_ft": 0.0, "left_sw_ft": 15.0, "right_sw_ft": 15.0}, "geometry": {"type": "LineString", "coordinates": [[-74.01074455022099, 40.74037812847629], [-74.01071209762777, 40.7407065724227]]}}, {"type": "Feature", "properties": {"segment_id": 1619857, "physicalid": "147097", "street_name": "BLOOMFIELD ST", "borough": "manhattan", "direction": "TW", "total_row_ft": 49.3, "roadbed_ft": 19.3, "median_ft": 0.0, "left_sw_ft": 15.0, "right_sw_ft": 15.0}, "geometry": {"type": "LineString", "coordinates": [[-74.0108165200231, 40.74038224237304], [-74.0107840677827, 40.74071068633952]]}}, {"type": "Feature", "properties": {"segment_id": 1619858, "physicalid": "147097", "street_name": "BLOOMFIELD ST", "borough": "manhattan", "direction": "TW", "total_row_ft": 50.0, "roadbed_ft": 20.0, "median_ft": 0.0, "left_sw_ft": 15.0, "right_sw_ft": 15.0}, "geometry": {"type": "LineString", "coordinates": [[-74.01088848983412, 40.74038635622479], [-74.01085603794648, 40.74071480021137]]}}, {"type": "Feature", "properties": {"segment_id": 1619859, "physicalid": "147097", "street_name": "BLOOMFIELD ST", "borough": "manhattan", "direction": "TW", "total_row_ft": 50.7, "roadbed_ft": 20.7, "median_ft": 0.0, "left_sw_ft": 15.0, "right_sw_ft": 15.0}, "geometry": {"type": "LineString", "coordinates": [[-74.01096045965402, 40.740390470031585], [-74.01092800811914, 40.74071891403823]]}}, {"type": "Feature", "properties": {"segment_id": 1619860, "physicalid": "147097", "street_name": "BLOOMFIELD ST", "borough": "manhattan", "direction": "TW", "total_row_ft": 51.4, "roadbed_ft": 21.4, "median_ft": 0.0, "left_sw_ft": 15.0, "right_sw_ft": 15.0}, "geometry": {"type": "LineString", "coordinates": [[-74.01103242948278, 40.74039458379338], [-74.01099997830072, 40.740723027820124]]}}, {"type": "Feature", "properties": {"segment_id": 1619861, "physicalid": "147097", "street_name": "BLOOMFIELD ST", "borough": "manhattan", "direction": "TW", "total_row_ft": 93.2, "roadbed_ft": 63.2, "median_ft": 0.0, "left_sw_ft": 15.0, "right_sw_ft": 15.0}, "geometry": {"type": "LineString", "coordinates": [[-74.01110439932046, 40.7403986975102], [-74.01107194849115, 40.74072714155706]]}}, {"type": "Feature", "properties": {"segment_id": 1619862, "physicalid": "147097", "street_name": "BLOOMFIELD ST", "borough": "manhattan", "direction": "TW", "total_row_ft": 116.3, "roadbed_ft": 86.3, "median_ft": 0.0, "left_sw_ft": 15.0, "right_sw_ft": 15.0}, "geometry": {"type": "LineString", "coordinates": [[-74.01117636916702, 40.74040281118206], [-74.0111439186905, 40.74073125524898]]}}, {"type": "Feature", "properties": {"segment_id": 1619863, "physicalid": "147097", "street_name": "BLOOMFIELD ST", "borough": "manhattan", "direction": "TW", "total_row_ft": 117.8, "roadbed_ft": 87.8, "median_ft": 0.0, "left_sw_ft": 15.0, "right_sw_ft": 15.0}, "geometry": {"type": "LineString", "coordinates": [[-74.01124833902244, 40.74040692480893], [-74.01121588889872, 40.74073536889596]]}}, {"type": "Feature", "properties": {"segment_id": 1619864, "physicalid": "147097", "street_name": "BLOOMFIELD ST", "borough": "manhattan", "direction": "TW", "total_row_ft": 119.3, "roadbed_ft": 89.3, "median_ft": 0.0, "left_sw_ft": 15.0, "right_sw_ft": 15.0}, "geometry": {"type": "LineString", "coordinates": [[-74.01132030888678, 40.74041103839083], [-74.01128785911582, 40.740739482497915]]}}, {"type": "Feature", "properties": {"segment_id": 1619865, "physicalid": "147097", "street_name": "BLOOMFIELD ST", "borough": "manhattan", "direction": "TW", "total_row_ft": 52.1, "roadbed_ft": 22.1, "median_ft": 0.0, "left_sw_ft": 15.0, "right_sw_ft": 15.0}, "geometry": {"type": "LineString", "coordinates": [[-74.01139227876, 40.740415151927756], [-74.01135982934183, 40.74074359605492]]}}]}