{"type": "FeatureCollection", "features": [{"type": "Feature", "properties": {"segment_id": 336845, "physicalid": "25023", "street_name": "DIVISION RD", "borough": "manhattan", "direction": "TW", "total_row_ft": 52.7, "roadbed_ft": 22.7, "median_ft": 0.0, "left_sw_ft": 15.0, "right_sw_ft": 15.0}, "geometry": {"type": "LineString", "coordinates": [[-74.02074288901696, 40.689973599747944], [-74.02034397844568, 40.69010121575139]]}}, {"type": "Feature", "properties": {"segment_id": 336846, "physicalid": "25023", "street_name": "DIVISION RD", "borough": "manhattan", "direction": "TW", "total_row_ft": 51.3, "roadbed_ft": 21.3, "median_ft": 0.0, "left_sw_ft": 15.0, "right_sw_ft": 15.0}, "geometry": {"type": "LineString", "coordinates": [[-74.020764949248, 40.69000911655714], [-74.02038362698885, 40.69016479929511]]}}, {"type": "Feature", "properties": {"segment_id": 336847, "physicalid": "25023", "street_name": "DIVISION RD", "borough": "manhattan", "direction": "TW", "total_row_ft": 53.7, "roadbed_ft": 23.7, "median_ft": 0.0, "left_sw_ft": 15.0, "right_sw_ft": 15.0}, "geometry": {"type": "LineString", "coordinates": [[-74.02079077384708, 40.69004313668316], [-74.02043043867997, 40.69022549830879]]}}, {"type": "Feature", "properties": {"segment_id": 336848, "physicalid": "25023", "street_name": "DIVISION RD", "borough": "manhattan", "direction": "TW", "total_row_ft": 64.8, "roadbed_ft": 28.6, "median_ft": 0.0, "left_sw_ft": 15.0, "right_sw_ft": 21.2}, "geometry": {"type": "LineString", "coordinates": [[-74.02082019327813, 40.69007543398725], [-74.02048405704737, 40.690282849067934]]}}, {"type": "Feature", "properties": {"segment_id": 336849, "physicalid": "25024", "street_name": "DIVISION RD", "borough": "manhattan", "direction": "TW", "total_row_ft": 53.8, "roadbed_ft": 25.9, "median_ft": 0.0, "left_sw_ft": 15.0, "right_sw_ft": 12.9}, "geometry": {"type": "LineString", "coordinates": [[-74.02088640130273, 40.69013500577599], [-74.02065773768642, 40.690289118670954]]}}, {"type": "Feature", "properties": {"segment_id": 336850, "physicalid": "25024", "street_name": "DIVISION RD", "borough": "manhattan", "direction": "TW", "total_row_ft": 53.4, "roadbed_ft": 23.5, "median_ft": 0.0, "left_sw_ft": 15.0, "right_sw_ft": 14.8}, "geometry": {"type": "LineString", "coordinates": [[-74.0209342097072, 40.690176105637605], [-74.02070537834247, 40.69033033166361]]}}, {"type": "Feature", "properties": {"segment_id": 336851, "physicalid": "25024", "street_name": "DIVISION RD", "borough": "manhattan", "direction": "TW", "total_row_ft": 53.6, "roadbed_ft": 23.8, "median_ft": 0.0, "left_sw_ft": 15.0, "right_sw_ft": 14.8}, "geometry": {"type": "LineString", "coordinates": [[-74.02098201817061, 40.690217205479144], [-74.02075251739808, 40.69037188273975]]}}, {"type": "Feature", "properties": {"segment_id": 336852, "physicalid": "25024", "street_name": "DIVISION RD", "borough": "manhattan", "direction": "TW", "total_row_ft": 53.8, "roadbed_ft": 24.1, "median_ft": 0.0, "left_sw_ft": 15.0, "right_sw_ft": 14.7}, "geometry": {"type": "LineString", "coordinates": [[-74.02102982669295, 40.69025830530062], [-74.02079965651245, 40.69041343379639]]}}, {"type": "Feature", "properties": {"segment_id": 336853, "physicalid": "25024", "street_name": "DIVISION RD", "borough": "manhattan", "direction": "TW", "total_row_ft": 54.0, "roadbed_ft": 24.5, "median_ft": 0.0, "left_sw_ft": 15.0, "right_sw_ft": 14.6}, "geometry": {"type": "LineString", "coordinates": [[-74.02107763527424, 40.69029940510202], [-74.02084679568559, 40.69045498483349]]}}, {"type": "Feature", "properties": {"segment_id": 336854, "physicalid": "25024", "street_name": "DIVISION RD", "borough": "manhattan", "direction": "TW", "total_row_ft": 54.3, "roadbed_ft": 24.8, "median_ft": 0.0, "left_sw_ft": 15.0, "right_sw_ft": 14.4}, "geometry": {"type": "LineString", "coordinates": [[-74.02112544391446, 40.69034050488333], [-74.02089399533664, 40.69049649513027]]}}, {"type": "Feature", "properties": {"segment_id": 336855, "physicalid": "25024", "street_name": "DIVISION RD", "borough": "manhattan", "direction": "TW", "total_row_ft": 55.7, "roadbed_ft": 26.5, "median_ft": 0.0, "left_sw_ft": 15.0, "right_sw_ft": 14.2}, "geometry": {"type": "LineString", "coordinates": [[-74.02117325261362, 40.69038160464457], [-74.02094119962169, 40.690538002323905]]}}, {"type": "Feature", "properties": {"segment_id": 336856, "physicalid": "25024", "street_name": "DIVISION RD", "borough": "manhattan", "direction": "TW", "total_row_ft": 74.5, "roadbed_ft": 45.6, "median_ft": 0.0, "left_sw_ft": 15.0, "right_sw_ft": 14.0}, "geometry": {"type": "LineString", "coordinates": [[-74.0212210613717, 40.69042270438575], [-74.02098840396552, 40.690579509497965]]}}, {"type": "Feature", "properties": {"segment_id": 336857, "physicalid": "25024", "street_name": "DIVISION RD", "borough": "manhattan", "direction": "TW", "total_row_ft": 74.7, "roadbed_ft": 52.4, "median_ft": 0.0, "left_sw_ft": 15.0, "right_sw_ft": 7.2}, "geometry": {"type": "LineString", "coordinates": [[-74.02126887018875, 40.69046380410686], [-74.02103560836814, 40.690621016652436]]}}, {"type": "Feature", "properties": {"segment_id": 336858, "physicalid": "25025", "street_name": "DIVISION RD", "borough": "manhattan", "direction": "TW", "total_row_ft": 86.0, "roadbed_ft": 56.0, "median_ft": 0.0, "left_sw_ft": 15.0, "right_sw_ft": 15.0}, "geometry": {"type": "LineString", "coordinates": [[-74.02133804336117, 40.69052116556915], [-74.02102477738936, 40.69074838144209]]}}, {"type": "Feature", "properties": {"segment_id": 336859, "physicalid": "25025", "street_name": "DIVISION RD", "borough": "manhattan", "direction": "TW", "total_row_ft": 75.9, "roadbed_ft": 45.9, "median_ft": 0.0, "left_sw_ft": 15.0, "right_sw_ft": 15.0}, "geometry": {"type": "LineString", "coordinates": [[-74.02138779426922, 40.6905609073989], [-74.02107452828024, 40.69078812340615]]}}, {"type": "Feature", "properties": {"segment_id": 336860, "physicalid": "25025", "street_name": "DIVISION RD", "borough": "manhattan", "direction": "TW", "total_row_ft": 75.7, "roadbed_ft": 45.7, "median_ft": 0.0, "left_sw_ft": 15.0, "right_sw_ft": 15.0}, "geometry": {"type": "LineString", "coordinates": [[-74.02143754523658, 40.690600649206985], [-74.0211242792304, 40.69082786534853]]}}, {"type": "Feature", "properties": {"segment_id": 362836, "physicalid": "26867", "street_name": "CRAIG RD N", "borough": "manhattan", "direction": "TW", "total_row_ft": 70.2, "roadbed_ft": 50.8, "median_ft": 0.0, "left_sw_ft": 4.4, "right_sw_ft": 15.0}, "geometry": {"type": "LineString", "coordinates": [[-74.02048550388918, 40.69138857459342], [-74.02079421994821, 40.691577475991586]]}}, {"type": "Feature", "properties": {"segment_id": 362837, "physicalid": "26867", "street_name": "CRAIG RD N", "borough": "manhattan", "direction": "TW", "total_row_ft": 64.2, "roadbed_ft": 44.8, "median_ft": 0.0, "left_sw_ft": 4.4, "right_sw_ft": 15.0}, "geometry": {"type": "LineString", "coordinates": [[-74.02054107050593, 40.69135214165485], [-74.02083940586577, 40.691534691063474]]}}, {"type": "Feature", "properties": {"segment_id": 362838, "physicalid": "26867", "street_name": "CRAIG RD N", "borough": "manhattan", "direction": "TW", "total_row_ft": 64.1, "roadbed_ft": 44.7, "median_ft": 0.0, "left_sw_ft": 4.4, "right_sw_ft": 15.0}, "geometry": {"type": "LineString", "coordinates": [[-74.02059663747498, 40.69131570894211], [-74.02088459172539, 40.69149190611737]]}}, {"type": "Feature", "properties": {"segment_id": 362839, "physicalid": "26867", "street_name": "CRAIG RD N", "borough": "manhattan", "direction": "TW", "total_row_ft": 64.0, "roadbed_ft": 44.6, "median_ft": 0.0, "left_sw_ft": 4.4, "right_sw_ft": 15.0}, "geometry": {"type": "LineString", "coordinates": [[-74.02065220420147, 40.69127927609103], [-74.02092977752697, 40.69144912115332]]}}, {"type": "Feature", "properties": {"segment_id": 362840, "physicalid": "26867", "street_name": "CRAIG RD N", "borough": "manhattan", "direction": "TW", "total_row_ft": 63.9, "roadbed_ft": 44.5, "median_ft": 0.0, "left_sw_ft": 4.4, "right_sw_ft": 15.0}, "geometry": {"type": "LineString", "coordinates": [[-74.02070777086718, 40.69124284321299], [-74.02097496327062, 40.691406336171255]]}}, {"type": "Feature", "properties": {"segment_id": 362841, "physicalid": "26867", "street_name": "CRAIG RD N", "borough": "manhattan", "direction": "TW", "total_row_ft": 63.7, "roadbed_ft": 44.3, "median_ft": 0.0, "left_sw_ft": 4.4, "right_sw_ft": 15.0}, "geometry": {"type": "LineString", "coordinates": [[-74.0207633374722, 40.69120641030793], [-74.02102014895623, 40.69136355117124]]}}, {"type": "Feature", "properties": {"segment_id": 362842, "physicalid": "26867", "street_name": "CRAIG RD N", "borough": "manhattan", "direction": "TW", "total_row_ft": 63.5, "roadbed_ft": 44.1, "median_ft": 0.0, "left_sw_ft": 4.4, "right_sw_ft": 15.0}, "geometry": {"type": "LineString", "coordinates": [[-74.0208189040165, 40.691169977375885], [-74.02106533458387, 40.69132076615328]]}}, {"type": "Feature", "properties": {"segment_id": 362843, "physicalid": "26867", "street_name": "CRAIG RD N", "borough": "manhattan", "direction": "TW", "total_row_ft": 63.2, "roadbed_ft": 43.8, "median_ft": 0.0, "left_sw_ft": 4.4, "right_sw_ft": 15.0}, "geometry": {"type": "LineString", "coordinates": [[-74.02087447050006, 40.69113354441682], [-74.02111052015351, 40.6912779811173]]}}, {"type": "Feature", "properties": {"segment_id": 362844, "physicalid": "26867", "street_name": "CRAIG RD N", "borough": "manhattan", "direction": "TW", "total_row_ft": 63.0, "roadbed_ft": 43.6, "median_ft": 0.0, "left_sw_ft": 4.4, "right_sw_ft": 15.0}, "geometry": {"type": "LineString", "coordinates": [[-74.0209300369229, 40.691097111430786], [-74.02115570566514, 40.6912351960634]]}}, {"type": "Feature", "properties": {"segment_id": 362845, "physicalid": "26867", "street_name": "CRAIG RD N", "borough": "manhattan", "direction": "TW", "total_row_ft": 62.8, "roadbed_ft": 43.4, "median_ft": 0.0, "left_sw_ft": 4.4, "right_sw_ft": 15.0}, "geometry": {"type": "LineString", "coordinates": [[-74.02098560328501, 40.69106067841774], [-74.02120089111882, 40.69119241099149]]}}, {"type": "Feature", "properties": {"segment_id": 362846, "physicalid": "26867", "street_name": "CRAIG RD N", "borough": "manhattan", "direction": "TW", "total_row_ft": 61.8, "roadbed_ft": 43.3, "median_ft": 0.0, "left_sw_ft": 3.5, "right_sw_ft": 15.0}, "geometry": {"type": "LineString", "coordinates": [[-74.02103701305326, 40.69102170202746], [-74.02124607651449, 40.69114962590164]]}}, {"type": "Feature", "properties": {"segment_id": 362847, "physicalid": "26867", "street_name": "CRAIG RD N", "borough": "manhattan", "direction": "TW", "total_row_ft": 61.7, "roadbed_ft": 43.2, "median_ft": 0.0, "left_sw_ft": 3.5, "right_sw_ft": 15.0}, "geometry": {"type": "LineString", "coordinates": [[-74.02108308762558, 40.69097946108754], [-74.0212912618522, 40.69110684079377]]}}, {"type": "Feature", "properties": {"segment_id": 362848, "physicalid": "26867", "street_name": "CRAIG RD N", "borough": "manhattan", "direction": "TW", "total_row_ft": 77.1, "roadbed_ft": 43.1, "median_ft": 0.0, "left_sw_ft": 19.0, "right_sw_ft": 15.0}, "geometry": {"type": "LineString", "coordinates": [[-74.02099919174792, 40.69085769215538], [-74.02133644713189, 40.69106405566796]]}}, {"type": "Feature", "properties": {"segment_id": 362849, "physicalid": "26867", "street_name": "CRAIG RD N", "borough": "manhattan", "direction": "TW", "total_row_ft": 61.5, "roadbed_ft": 43.0, "median_ft": 0.0, "left_sw_ft": 3.5, "right_sw_ft": 15.0}, "geometry": {"type": "LineString", "coordinates": [[-74.0211752363383, 40.6908949789945], [-74.02138163235357, 40.691021270524196]]}}, {"type": "Feature", "properties": {"segment_id": 362850, "physicalid": "26867", "street_name": "CRAIG RD N", "borough": "manhattan", "direction": "TW", "total_row_ft": 61.4, "roadbed_ft": 42.9, "median_ft": 0.0, "left_sw_ft": 3.5, "right_sw_ft": 15.0}, "geometry": {"type": "LineString", "coordinates": [[-74.02122131086382, 40.6908527380771], [-74.02142681751732, 40.69097848536244]]}}, {"type": "Feature", "properties": {"segment_id": 362851, "physicalid": "26867", "street_name": "CRAIG RD N", "borough": "manhattan", "direction": "TW", "total_row_ft": 62.3, "roadbed_ft": 43.8, "median_ft": 0.0, "left_sw_ft": 3.5, "right_sw_ft": 15.0}, "geometry": {"type": "LineString", "coordinates": [[-74.02126738533099, 40.69081049714102], [-74.02147200262303, 40.69093570018273]]}}, {"type": "Feature", "properties": {"segment_id": 363492, "physicalid": "26838", "street_name": "CLAYTON RD", "borough": "manhattan", "direction": "TW", "total_row_ft": 47.7, "roadbed_ft": 17.7, "median_ft": 0.0, "left_sw_ft": 15.0, "right_sw_ft": 15.0}, "geometry": {"type": "LineString", "coordinates": [[-74.02016724158503, 40.69104139091456], [-74.01990112674625, 40.69130111353214]]}}, {"type": "Feature", "properties": {"segment_id": 363493, "physicalid": "26838", "street_name": "CLAYTON RD", "borough": "manhattan", "direction": "TW", "total_row_ft": 48.4, "roadbed_ft": 18.4, "median_ft": 0.0, "left_sw_ft": 15.0, "right_sw_ft": 15.0}, "geometry": {"type": "LineString", "coordinates": [[-74.02022411053298, 40.69107515072786], [-74.01995799578098, 40.69133487347585]]}}, {"type": "Feature", "properties": {"segment_id": 363494, "physicalid": "26839", "street_name": "CLAYTON RD", "borough": "manhattan", "direction": "TW", "total_row_ft": 60.8, "roadbed_ft": 30.8, "median_ft": 0.0, "left_sw_ft": 15.0, "right_sw_ft": 15.0}, "geometry": {"type": "LineString", "coordinates": [[-74.02036429689315, 40.691158814999824], [-74.0200953378925, 40.69141683487315]]}}, {"type": "Feature", "properties": {"segment_id": 363495, "physicalid": "26839", "street_name": "CLAYTON RD", "borough": "manhattan", "direction": "TW", "total_row_ft": 54.4, "roadbed_ft": 24.4, "median_ft": 0.0, "left_sw_ft": 15.0, "right_sw_ft": 15.0}, "geometry": {"type": "LineString", "coordinates": [[-74.02042079311019, 40.691192935569305], [-74.02015183419051, 40.69145095557355]]}}, {"type": "Feature", "properties": {"segment_id": 363496, "physicalid": "26839", "street_name": "CLAYTON RD", "borough": "manhattan", "direction": "TW", "total_row_ft": 42.9, "roadbed_ft": 24.0, "median_ft": 0.0, "left_sw_ft": 3.9, "right_sw_ft": 15.0}, "geometry": {"type": "LineString", "coordinates": [[-74.02046391552362, 40.691239886112285], [-74.02020833054635, 40.69148507624607]]}}, {"type": "Feature", "properties": {"segment_id": 363497, "physicalid": "26839", "street_name": "CLAYTON RD", "borough": "manhattan", "direction": "TW", "total_row_ft": 42.5, "roadbed_ft": 23.6, "median_ft": 0.0, "left_sw_ft": 3.9, "right_sw_ft": 15.0}, "geometry": {"type": "LineString", "coordinates": [[-74.02051187443111, 40.69128219688274], [-74.02026482696004, 40.69151919689074]]}}, {"type": "Feature", "properties": {"segment_id": 363498, "physicalid": "26839", "street_name": "CLAYTON RD", "borough": "manhattan", "direction": "TW", "total_row_ft": 54.8, "roadbed_ft": 23.2, "median_ft": 0.0, "left_sw_ft": 16.6, "right_sw_ft": 15.0}, "geometry": {"type": "LineString", "coordinates": [[-74.02055983339949, 40.69132450763298], [-74.02032132343153, 40.69155331750749]]}}, {"type": "Feature", "properties": {"segment_id": 363499, "physicalid": "26839", "street_name": "CLAYTON RD", "borough": "manhattan", "direction": "TW", "total_row_ft": 52.8, "roadbed_ft": 22.8, "median_ft": 0.0, "left_sw_ft": 15.0, "right_sw_ft": 15.0}, "geometry": {"type": "LineString", "coordinates": [[-74.02064677855657, 40.69132941756839], [-74.02037781996086, 40.69158743809638]]}}, {"type": "Feature", "properties": {"segment_id": 363705, "physicalid": "26866", "street_name": "CRAIG RD N", "borough": "manhattan", "direction": "TW", "total_row_ft": 125.4, "roadbed_ft": 95.4, "median_ft": 0.0, "left_sw_ft": 15.0, "right_sw_ft": 15.0}, "geometry": {"type": "LineString", "coordinates": [[-74.02122768832784, 40.69064192773674], [-74.0215625183117, 40.69085056601051]]}}, {"type": "Feature", "properties": {"segment_id": 363706, "physicalid": "26866", "street_name": "CRAIG RD N", "borough": "manhattan", "direction": "TW", "total_row_ft": 112.7, "roadbed_ft": 82.7, "median_ft": 0.0, "left_sw_ft": 15.0, "right_sw_ft": 15.0}, "geometry": {"type": "LineString", "coordinates": [[-74.0212733715556, 40.69059945027882], [-74.02160820146909, 40.69080808842078]]}}, {"type": "Feature", "properties": {"segment_id": 363707, "physicalid": "26866", "street_name": "CRAIG RD N", "borough": "manhattan", "direction": "TW", "total_row_ft": 58.6, "roadbed_ft": 28.6, "median_ft": 0.0, "left_sw_ft": 15.0, "right_sw_ft": 15.0}, "geometry": {"type": "LineString", "coordinates": [[-74.02131905472514, 40.69055697280254], [-74.02165388456827, 40.690765610812726]]}}, {"type": "Feature", "properties": {"segment_id": 363708, "physicalid": "26866", "street_name": "CRAIG RD N", "borough": "manhattan", "direction": "TW", "total_row_ft": 57.5, "roadbed_ft": 27.5, "median_ft": 0.0, "left_sw_ft": 15.0, "right_sw_ft": 15.0}, "geometry": {"type": "LineString", "coordinates": [[-74.02136473783649, 40.69051449530789], [-74.02169956760926, 40.69072313318625]]}}, {"type": "Feature", "properties": {"segment_id": 363709, "physicalid": "26866", "street_name": "CRAIG RD N", "borough": "manhattan", "direction": "TW", "total_row_ft": 57.5, "roadbed_ft": 27.5, "median_ft": 0.0, "left_sw_ft": 15.0, "right_sw_ft": 15.0}, "geometry": {"type": "LineString", "coordinates": [[-74.02141042088964, 40.6904720177949], [-74.02174525059205, 40.690680655541456]]}}, {"type": "Feature", "properties": {"segment_id": 363710, "physicalid": "26866", "street_name": "CRAIG RD N", "borough": "manhattan", "direction": "TW", "total_row_ft": 57.7, "roadbed_ft": 27.7, "median_ft": 0.0, "left_sw_ft": 15.0, "right_sw_ft": 15.0}, "geometry": {"type": "LineString", "coordinates": [[-74.02145610388457, 40.69042954026353], [-74.02179093351661, 40.69063817787829]]}}, {"type": "Feature", "properties": {"segment_id": 363711, "physicalid": "26866", "street_name": "CRAIG RD N", "borough": "manhattan", "direction": "TW", "total_row_ft": 57.9, "roadbed_ft": 27.9, "median_ft": 0.0, "left_sw_ft": 15.0, "right_sw_ft": 15.0}, "geometry": {"type": "LineString", "coordinates": [[-74.0215017868213, 40.690387062713825], [-74.02183661638298, 40.690595700196766]]}}, {"type": "Feature", "properties": {"segment_id": 363712, "physicalid": "26866", "street_name": "CRAIG RD N", "borough": "manhattan", "direction": "TW", "total_row_ft": 57.9, "roadbed_ft": 27.9, "median_ft": 0.0, "left_sw_ft": 15.0, "right_sw_ft": 15.0}, "geometry": {"type": "LineString", "coordinates": [[-74.02154746969983, 40.69034458514573], [-74.02188229919113, 40.69055322249688]]}}, {"type": "Feature", "properties": {"segment_id": 363713, "physicalid": "26866", "street_name": "CRAIG RD N", "borough": "manhattan", "direction": "TW", "total_row_ft": 58.0, "roadbed_ft": 28.0, "median_ft": 0.0, "left_sw_ft": 15.0, "right_sw_ft": 15.0}, "geometry": {"type": "LineString", "coordinates": [[-74.02159315252013, 40.6903021075593], [-74.02192798194109, 40.690510744778635]]}}, {"type": "Feature", "properties": {"segment_id": 363714, "physicalid": "26866", "street_name": "CRAIG RD N", "borough": "manhattan", "direction": "TW", "total_row_ft": 58.0, "roadbed_ft": 28.0, "median_ft": 0.0, "left_sw_ft": 15.0, "right_sw_ft": 15.0}, "geometry": {"type": "LineString", "coordinates": [[-74.02163883528225, 40.690259629954504], [-74.02197366463284, 40.690468267042014]]}}, {"type": "Feature", "properties": {"segment_id": 363715, "physicalid": "26866", "street_name": "CRAIG RD N", "borough": "manhattan", "direction": "TW", "total_row_ft": 58.0, "roadbed_ft": 28.0, "median_ft": 0.0, "left_sw_ft": 15.0, "right_sw_ft": 15.0}, "geometry": {"type": "LineString", "coordinates": [[-74.02168451798616, 40.69021715233132], [-74.0220193472664, 40.69042578928706]]}}, {"type": "Feature", "properties": {"segment_id": 363716, "physicalid": "26866", "street_name": "CRAIG RD N", "borough": "manhattan", "direction": "TW", "total_row_ft": 58.0, "roadbed_ft": 28.0, "median_ft": 0.0, "left_sw_ft": 15.0, "right_sw_ft": 15.0}, "geometry": {"type": "LineString", "coordinates": [[-74.02173020063182, 40.69017467468982], [-74.02206502984174, 40.69038331151371]]}}, {"type": "Feature", "properties": {"segment_id": 363717, "physicalid": "26866", "street_name": "CRAIG RD N", "borough": "manhattan", "direction": "TW", "total_row_ft": 58.2, "roadbed_ft": 28.2, "median_ft": 0.0, "left_sw_ft": 15.0, "right_sw_ft": 15.0}, "geometry": {"type": "LineString", "coordinates": [[-74.02177588321933, 40.69013219702993], [-74.02211071235887, 40.690340833722004]]}}, {"type": "Feature", "properties": {"segment_id": 363718, "physicalid": "26866", "street_name": "CRAIG RD N", "borough": "manhattan", "direction": "TW", "total_row_ft": 58.3, "roadbed_ft": 28.3, "median_ft": 0.0, "left_sw_ft": 15.0, "right_sw_ft": 15.0}, "geometry": {"type": "LineString", "coordinates": [[-74.02182156574862, 40.69008971935169], [-74.0221563948178, 40.69029835591196]]}}, {"type": "Feature", "properties": {"segment_id": 363719, "physicalid": "26866", "street_name": "CRAIG RD N", "borough": "manhattan", "direction": "TW", "total_row_ft": 58.3, "roadbed_ft": 28.3, "median_ft": 0.0, "left_sw_ft": 15.0, "right_sw_ft": 15.0}, "geometry": {"type": "LineString", "coordinates": [[-74.0218672482197, 40.69004724165508], [-74.02220207721854, 40.690255878083555]]}}, {"type": "Feature", "properties": {"segment_id": 363720, "physicalid": "26866", "street_name": "CRAIG RD N", "borough": "manhattan", "direction": "TW", "total_row_ft": 58.3, "roadbed_ft": 28.3, "median_ft": 0.0, "left_sw_ft": 15.0, "right_sw_ft": 15.0}, "geometry": {"type": "LineString", "coordinates": [[-74.02191293063261, 40.6900047639401], [-74.02224775956101, 40.690213400236814]]}}, {"type": "Feature", "properties": {"segment_id": 363721, "physicalid": "26866", "street_name": "CRAIG RD N", "borough": "manhattan", "direction": "TW", "total_row_ft": 58.4, "roadbed_ft": 28.4, "median_ft": 0.0, "left_sw_ft": 15.0, "right_sw_ft": 15.0}, "geometry": {"type": "LineString", "coordinates": [[-74.02195861298729, 40.68996228620677], [-74.02229344184532, 40.69017092237169]]}}, {"type": "Feature", "properties": {"segment_id": 363722, "physicalid": "26866", "street_name": "CRAIG RD N", "borough": "manhattan", "direction": "TW", "total_row_ft": 58.6, "roadbed_ft": 28.6, "median_ft": 0.0, "left_sw_ft": 15.0, "right_sw_ft": 15.0}, "geometry": {"type": "LineString", "coordinates": [[-74.02200429528376, 40.689919808455095], [-74.02233912407144, 40.69012844448819]]}}, {"type": "Feature", "properties": {"segment_id": 363787, "physicalid": "26868", "street_name": "CRAIG RD N", "borough": "manhattan", "direction": "TW", "total_row_ft": 53.0, "roadbed_ft": 23.0, "median_ft": 0.0, "left_sw_ft": 15.0, "right_sw_ft": 15.0}, "geometry": {"type": "LineString", "coordinates": [[-74.0197961940152, 40.6922787154571], [-74.02020941044604, 40.69237649592736]]}}, {"type": "Feature", "properties": {"segment_id": 363788, "physicalid": "26868", "street_name": "CRAIG RD N", "borough": "manhattan", "direction": "TW", "total_row_ft": 53.2, "roadbed_ft": 23.2, "median_ft": 0.0, "left_sw_ft": 15.0, "right_sw_ft": 15.0}, "geometry": {"type": "LineString", "coordinates": [[-74.01981760456827, 40.69222629489734], [-74.02023082070565, 40.692324075291396]]}}, {"type": "Feature", "properties": {"segment_id": 363789, "physicalid": "26868", "street_name": "CRAIG RD N", "borough": "manhattan", "direction": "TW", "total_row_ft": 53.6, "roadbed_ft": 23.6, "median_ft": 0.0, "left_sw_ft": 15.0, "right_sw_ft": 15.0}, "geometry": {"type": "LineString", "coordinates": [[-74.01983901508767, 40.69217387433326], [-74.02025223093158, 40.692271654651066]]}}, {"type": "Feature", "properties": {"segment_id": 363790, "physicalid": "26868", "street_name": "CRAIG RD N", "borough": "manhattan", "direction": "TW", "total_row_ft": 53.9, "roadbed_ft": 23.9, "median_ft": 0.0, "left_sw_ft": 15.0, "right_sw_ft": 15.0}, "geometry": {"type": "LineString", "coordinates": [[-74.01986042557343, 40.69212145376482], [-74.02027364112386, 40.69221923400643]]}}, {"type": "Feature", "properties": {"segment_id": 363791, "physicalid": "26868", "street_name": "CRAIG RD N", "borough": "manhattan", "direction": "TW", "total_row_ft": 54.3, "roadbed_ft": 24.3, "median_ft": 0.0, "left_sw_ft": 15.0, "right_sw_ft": 15.0}, "geometry": {"type": "LineString", "coordinates": [[-74.0198818360255, 40.69206903319208], [-74.02029505128247, 40.69216681335743]]}}, {"type": "Feature", "properties": {"segment_id": 363792, "physicalid": "26868", "street_name": "CRAIG RD N", "borough": "manhattan", "direction": "TW", "total_row_ft": 54.7, "roadbed_ft": 24.7, "median_ft": 0.0, "left_sw_ft": 15.0, "right_sw_ft": 15.0}, "geometry": {"type": "LineString", "coordinates": [[-74.01990324644392, 40.69201661261501], [-74.0203164614074, 40.69211439270414]]}}, {"type": "Feature", "properties": {"segment_id": 363793, "physicalid": "26868", "street_name": "CRAIG RD N", "borough": "manhattan", "direction": "TW", "total_row_ft": 54.7, "roadbed_ft": 24.7, "median_ft": 0.0, "left_sw_ft": 15.0, "right_sw_ft": 15.0}, "geometry": {"type": "LineString", "coordinates": [[-74.01992465682866, 40.69196419203359], [-74.02033787149868, 40.6920619720465]]}}, {"type": "Feature", "properties": {"segment_id": 363794, "physicalid": "26868", "street_name": "CRAIG RD N", "borough": "manhattan", "direction": "TW", "total_row_ft": 66.4, "roadbed_ft": 36.4, "median_ft": 0.0, "left_sw_ft": 15.0, "right_sw_ft": 15.0}, "geometry": {"type": "LineString", "coordinates": [[-74.01994606717976, 40.69191177144785], [-74.0203592815563, 40.69200955138453]]}}, {"type": "Feature", "properties": {"segment_id": 363795, "physicalid": "26868", "street_name": "CRAIG RD N", "borough": "manhattan", "direction": "TW", "total_row_ft": 51.3, "roadbed_ft": 21.3, "median_ft": 0.0, "left_sw_ft": 15.0, "right_sw_ft": 15.0}, "geometry": {"type": "LineString", "coordinates": [[-74.02000872811008, 40.69180946416654], [-74.02035055339063, 40.692011428984856]]}}, {"type": "Feature", "properties": {"segment_id": 363796, "physicalid": "26868", "street_name": "CRAIG RD N", "borough": "manhattan", "direction": "TW", "total_row_ft": 51.8, "roadbed_ft": 21.8, "median_ft": 0.0, "left_sw_ft": 15.0, "right_sw_ft": 15.0}, "geometry": {"type": "LineString", "coordinates": [[-74.02005295091287, 40.69176610002805], [-74.02039477610504, 40.691968064716136]]}}, {"type": "Feature", "properties": {"segment_id": 363797, "physicalid": "26868", "street_name": "CRAIG RD N", "borough": "manhattan", "direction": "TW", "total_row_ft": 65.4, "roadbed_ft": 35.4, "median_ft": 0.0, "left_sw_ft": 15.0, "right_sw_ft": 15.0}, "geometry": {"type": "LineString", "coordinates": [[-74.02009717365813, 40.69172273587233], [-74.02043899876195, 40.69192470043014]]}}, {"type": "Feature", "properties": {"segment_id": 363798, "physicalid": "26868", "street_name": "CRAIG RD N", "borough": "manhattan", "direction": "TW", "total_row_ft": 72.7, "roadbed_ft": 42.7, "median_ft": 0.0, "left_sw_ft": 15.0, "right_sw_ft": 15.0}, "geometry": {"type": "LineString", "coordinates": [[-74.02014139634586, 40.69167937169938], [-74.02048322136132, 40.69188133612693]]}}, {"type": "Feature", "properties": {"segment_id": 363799, "physicalid": "26868", "street_name": "CRAIG RD N", "borough": "manhattan", "direction": "TW", "total_row_ft": 72.0, "roadbed_ft": 42.0, "median_ft": 0.0, "left_sw_ft": 15.0, "right_sw_ft": 15.0}, "geometry": {"type": "LineString", "coordinates": [[-74.02018561897607, 40.6916360075092], [-74.02052744390318, 40.69183797180653]]}}, {"type": "Feature", "properties": {"segment_id": 363800, "physicalid": "26868", "street_name": "CRAIG RD N", "borough": "manhattan", "direction": "TW", "total_row_ft": 71.3, "roadbed_ft": 41.3, "median_ft": 0.0, "left_sw_ft": 15.0, "right_sw_ft": 15.0}, "geometry": {"type": "LineString", "coordinates": [[-74.02022984154877, 40.691592643301796], [-74.02057166638751, 40.69179460746886]]}}, {"type": "Feature", "properties": {"segment_id": 363801, "physicalid": "26868", "street_name": "CRAIG RD N", "borough": "manhattan", "direction": "TW", "total_row_ft": 72.2, "roadbed_ft": 42.2, "median_ft": 0.0, "left_sw_ft": 15.0, "right_sw_ft": 15.0}, "geometry": {"type": "LineString", "coordinates": [[-74.02027406406394, 40.691549279077165], [-74.02061588881432, 40.69175124311398]]}}, {"type": "Feature", "properties": {"segment_id": 363802, "physicalid": "26868", "street_name": "CRAIG RD N", "borough": "manhattan", "direction": "TW", "total_row_ft": 72.8, "roadbed_ft": 42.8, "median_ft": 0.0, "left_sw_ft": 15.0, "right_sw_ft": 15.0}, "geometry": {"type": "LineString", "coordinates": [[-74.02031828652161, 40.69150591483527], [-74.02066011118359, 40.69170787874189]]}}, {"type": "Feature", "properties": {"segment_id": 363803, "physicalid": "26868", "street_name": "CRAIG RD N", "borough": "manhattan", "direction": "TW", "total_row_ft": 73.3, "roadbed_ft": 43.3, "median_ft": 0.0, "left_sw_ft": 15.0, "right_sw_ft": 15.0}, "geometry": {"type": "LineString", "coordinates": [[-74.02036250892175, 40.69146255057616], [-74.02070433349535, 40.69166451435254]]}}, {"type": "Feature", "properties": {"segment_id": 1188376, "physicalid": "82426", "street_name": "WHEELER AVE", "borough": "manhattan", "direction": "TW", "total_row_ft": 47.5, "roadbed_ft": 18.3, "median_ft": 0.0, "left_sw_ft": 14.2, "right_sw_ft": 15.0}, "geometry": {"type": "LineString", "coordinates": [[-74.01993898588164, 40.69061754162265], [-74.02013784179681, 40.69079285823315]]}}, {"type": "Feature", "properties": {"segment_id": 1188377, "physicalid": "82426", "street_name": "WHEELER AVE", "borough": "manhattan", "direction": "TW", "total_row_ft": 47.7, "roadbed_ft": 18.5, "median_ft": 0.0, "left_sw_ft": 14.1, "right_sw_ft": 15.0}, "geometry": {"type": "LineString", "coordinates": [[-74.01999328108619, 40.690581408742304], [-74.02019243002923, 40.69075698356889]]}}, {"type": "Feature", "properties": {"segment_id": 1188378, "physicalid": "82426", "street_name": "WHEELER AVE", "borough": "manhattan", "direction": "TW", "total_row_ft": 47.8, "roadbed_ft": 18.8, "median_ft": 0.0, "left_sw_ft": 14.1, "right_sw_ft": 15.0}, "geometry": {"type": "LineString", "coordinates": [[-74.0200475762319, 40.690545275836186], [-74.02024701820287, 40.6907211088786]]}}, {"type": "Feature", "properties": {"segment_id": 1188379, "physicalid": "82426", "street_name": "WHEELER AVE", "borough": "manhattan", "direction": "TW", "total_row_ft": 47.9, "roadbed_ft": 19.0, "median_ft": 0.0, "left_sw_ft": 14.0, "right_sw_ft": 15.0}, "geometry": {"type": "LineString", "coordinates": [[-74.02010187127078, 40.6905091429362], [-74.02030160643348, 40.690685234084384]]}}, {"type": "Feature", "properties": {"segment_id": 1188380, "physicalid": "82426", "street_name": "WHEELER AVE", "borough": "manhattan", "direction": "TW", "total_row_ft": 48.1, "roadbed_ft": 19.0, "median_ft": 0.0, "left_sw_ft": 14.0, "right_sw_ft": 15.0}, "geometry": {"type": "LineString", "coordinates": [[-74.02015616629856, 40.69047300997868], [-74.02035619445603, 40.69064935931234]]}}, {"type": "Feature", "properties": {"segment_id": 1188381, "physicalid": "82426", "street_name": "WHEELER AVE", "borough": "manhattan", "direction": "TW", "total_row_ft": 48.2, "roadbed_ft": 19.1, "median_ft": 0.0, "left_sw_ft": 14.1, "right_sw_ft": 15.0}, "geometry": {"type": "LineString", "coordinates": [[-74.02021046126748, 40.69043687699538], [-74.02041078241989, 40.69061348451422]]}}, {"type": "Feature", "properties": {"segment_id": 1188382, "physicalid": "82426", "street_name": "WHEELER AVE", "borough": "manhattan", "direction": "TW", "total_row_ft": 48.3, "roadbed_ft": 19.1, "median_ft": 0.0, "left_sw_ft": 14.2, "right_sw_ft": 15.0}, "geometry": {"type": "LineString", "coordinates": [[-74.02026475617755, 40.690400743986324], [-74.02046537032498, 40.69057760969006]]}}, {"type": "Feature", "properties": {"segment_id": 1188383, "physicalid": "82426", "street_name": "WHEELER AVE", "borough": "manhattan", "direction": "TW", "total_row_ft": 48.6, "roadbed_ft": 19.2, "median_ft": 0.0, "left_sw_ft": 14.4, "right_sw_ft": 15.0}, "geometry": {"type": "LineString", "coordinates": [[-74.02031880450834, 40.690364393613145], [-74.02051995817133, 40.69054173483983]]}}, {"type": "Feature", "properties": {"segment_id": 1188384, "physicalid": "82426", "street_name": "WHEELER AVE", "borough": "manhattan", "direction": "TW", "total_row_ft": 49.0, "roadbed_ft": 19.4, "median_ft": 0.0, "left_sw_ft": 14.6, "right_sw_ft": 15.0}, "geometry": {"type": "LineString", "coordinates": [[-74.02037281776973, 40.69032801234837], [-74.02057454595897, 40.690505859963565]]}}, {"type": "Feature", "properties": {"segment_id": 1188385, "physicalid": "82426", "street_name": "WHEELER AVE", "borough": "manhattan", "direction": "TW", "total_row_ft": 49.3, "roadbed_ft": 19.5, "median_ft": 0.0, "left_sw_ft": 14.8, "right_sw_ft": 15.0}, "geometry": {"type": "LineString", "coordinates": [[-74.02042683097217, 40.69029163105808], [-74.0206291336878, 40.69046998506126]]}}, {"type": "Feature", "properties": {"segment_id": 1188386, "physicalid": "82426", "street_name": "WHEELER AVE", "borough": "manhattan", "direction": "TW", "total_row_ft": 49.7, "roadbed_ft": 19.7, "median_ft": 0.0, "left_sw_ft": 15.0, "right_sw_ft": 15.0}, "geometry": {"type": "LineString", "coordinates": [[-74.02048084414398, 40.69025524976723], [-74.02068372135795, 40.690434110132834]]}}, {"type": "Feature", "properties": {"segment_id": 1188387, "physicalid": "82426", "street_name": "WHEELER AVE", "borough": "manhattan", "direction": "TW", "total_row_ft": 49.8, "roadbed_ft": 19.8, "median_ft": 0.0, "left_sw_ft": 15.0, "right_sw_ft": 15.0}, "geometry": {"type": "LineString", "coordinates": [[-74.02045552626066, 40.69014892844273], [-74.02073830896934, 40.69039823517839]]}}, {"type": "Feature", "properties": {"segment_id": 1358498, "physicalid": "92677", "street_name": "SHORT AVE", "borough": "manhattan", "direction": "TW", "total_row_ft": 107.4, "roadbed_ft": 77.4, "median_ft": 0.0, "left_sw_ft": 15.0, "right_sw_ft": 15.0}, "geometry": {"type": "LineString", "coordinates": [[-74.02008262906884, 40.69111239714474], [-74.0203725667698, 40.69135689861384]]}}, {"type": "Feature", "properties": {"segment_id": 1358499, "physicalid": "92677", "street_name": "SHORT AVE", "borough": "manhattan", "direction": "TW", "total_row_ft": 50.7, "roadbed_ft": 20.7, "median_ft": 0.0, "left_sw_ft": 15.0, "right_sw_ft": 15.0}, "geometry": {"type": "LineString", "coordinates": [[-74.02013616520654, 40.69107561512292], [-74.02042610294392, 40.691320116458236]]}}, {"type": "Feature", "properties": {"segment_id": 1358500, "physicalid": "92677", "street_name": "SHORT AVE", "borough": "manhattan", "direction": "TW", "total_row_ft": 49.9, "roadbed_ft": 19.9, "median_ft": 0.0, "left_sw_ft": 15.0, "right_sw_ft": 15.0}, "geometry": {"type": "LineString", "coordinates": [[-74.02018970128522, 40.691038833076], [-74.02047963905892, 40.691283334277585]]}}, {"type": "Feature", "properties": {"segment_id": 1358501, "physicalid": "92677", "street_name": "SHORT AVE", "borough": "manhattan", "direction": "TW", "total_row_ft": 37.9, "roadbed_ft": 19.1, "median_ft": 0.0, "left_sw_ft": 15.0, "right_sw_ft": 3.8}, "geometry": {"type": "LineString", "coordinates": [[-74.02024323730478, 40.69100205100403], [-74.02046294843285, 40.69118733098785]]}}, {"type": "Feature", "properties": {"segment_id": 1358502, "physicalid": "92677", "street_name": "SHORT AVE", "borough": "manhattan", "direction": "TW", "total_row_ft": 37.2, "roadbed_ft": 18.4, "median_ft": 0.0, "left_sw_ft": 15.0, "right_sw_ft": 3.8}, "geometry": {"type": "LineString", "coordinates": [[-74.02029677326533, 40.69096526890693], [-74.02051702977083, 40.691151008674936]]}}, {"type": "Feature", "properties": {"segment_id": 1358503, "physicalid": "92677", "street_name": "SHORT AVE", "borough": "manhattan", "direction": "TW", "total_row_ft": 36.5, "roadbed_ft": 17.7, "median_ft": 0.0, "left_sw_ft": 15.0, "right_sw_ft": 3.8}, "geometry": {"type": "LineString", "coordinates": [[-74.02035030916677, 40.69092848678484], [-74.0205711110499, 40.69111468633639]]}}, {"type": "Feature", "properties": {"segment_id": 1358504, "physicalid": "92677", "street_name": "SHORT AVE", "borough": "manhattan", "direction": "TW", "total_row_ft": 36.4, "roadbed_ft": 17.6, "median_ft": 0.0, "left_sw_ft": 15.0, "right_sw_ft": 3.8}, "geometry": {"type": "LineString", "coordinates": [[-74.02040384500918, 40.69089170463759], [-74.02062528085732, 40.69107843867654]]}}, {"type": "Feature", "properties": {"segment_id": 1358505, "physicalid": "92677", "street_name": "SHORT AVE", "borough": "manhattan", "direction": "TW", "total_row_ft": 36.6, "roadbed_ft": 17.8, "median_ft": 0.0, "left_sw_ft": 15.0, "right_sw_ft": 3.8}, "geometry": {"type": "LineString", "coordinates": [[-74.02045738316409, 40.69085492099063], [-74.0206796885954, 40.691042393537316]]}}, {"type": "Feature", "properties": {"segment_id": 1358506, "physicalid": "92677", "street_name": "SHORT AVE", "borough": "manhattan", "direction": "TW", "total_row_ft": 36.7, "roadbed_ft": 17.9, "median_ft": 0.0, "left_sw_ft": 15.0, "right_sw_ft": 3.8}, "geometry": {"type": "LineString", "coordinates": [[-74.02051091957145, 40.69081813936938], [-74.0207340974918, 40.69100634756583]]}}, {"type": "Feature", "properties": {"segment_id": 1358507, "physicalid": "92677", "street_name": "SHORT AVE", "borough": "manhattan", "direction": "TW", "total_row_ft": 58.8, "roadbed_ft": 18.1, "median_ft": 0.0, "left_sw_ft": 15.0, "right_sw_ft": 25.7}, "geometry": {"type": "LineString", "coordinates": [[-74.02056445591975, 40.69078135772304], [-74.02078850632938, 40.690970301568484]]}}, {"type": "Feature", "properties": {"segment_id": 1358508, "physicalid": "92677", "street_name": "SHORT AVE", "borough": "manhattan", "direction": "TW", "total_row_ft": 37.2, "roadbed_ft": 18.4, "median_ft": 0.0, "left_sw_ft": 15.0, "right_sw_ft": 3.8}, "geometry": {"type": "LineString", "coordinates": [[-74.02061799220904, 40.69074457605158], [-74.0208429151081, 40.690934255545265]]}}, {"type": "Feature", "properties": {"segment_id": 1358509, "physicalid": "92677", "street_name": "SHORT AVE", "borough": "manhattan", "direction": "TW", "total_row_ft": 37.6, "roadbed_ft": 18.8, "median_ft": 0.0, "left_sw_ft": 15.0, "right_sw_ft": 3.8}, "geometry": {"type": "LineString", "coordinates": [[-74.0206715284392, 40.690707794355106], [-74.02089732382804, 40.69089820949612]]}}, {"type": "Feature", "properties": {"segment_id": 1358510, "physicalid": "92677", "street_name": "SHORT AVE", "borough": "manhattan", "direction": "TW", "total_row_ft": 38.1, "roadbed_ft": 19.2, "median_ft": 0.0, "left_sw_ft": 15.0, "right_sw_ft": 3.9}, "geometry": {"type": "LineString", "coordinates": [[-74.02072506461033, 40.690671012633516], [-74.02095267784384, 40.69086296064285]]}}, {"type": "Feature", "properties": {"segment_id": 1358511, "physicalid": "92677", "street_name": "SHORT AVE", "borough": "manhattan", "direction": "TW", "total_row_ft": 49.6, "roadbed_ft": 19.6, "median_ft": 0.0, "left_sw_ft": 15.0, "right_sw_ft": 15.0}, "geometry": {"type": "LineString", "coordinates": [[-74.02077860072241, 40.69063423088684], [-74.02106853435527, 40.69087873373706]]}}, {"type": "Feature", "properties": {"segment_id": 1358512, "physicalid": "92677", "street_name": "SHORT AVE", "borough": "manhattan", "direction": "TW", "total_row_ft": 50.0, "roadbed_ft": 20.0, "median_ft": 0.0, "left_sw_ft": 15.0, "right_sw_ft": 15.0}, "geometry": {"type": "LineString", "coordinates": [[-74.0208321367754, 40.6905974491151], [-74.02112207044462, 40.69084195183157]]}}, {"type": "Feature", "properties": {"segment_id": 1358513, "physicalid": "92677", "street_name": "SHORT AVE", "borough": "manhattan", "direction": "TW", "total_row_ft": 50.2, "roadbed_ft": 20.2, "median_ft": 0.0, "left_sw_ft": 15.0, "right_sw_ft": 15.0}, "geometry": {"type": "LineString", "coordinates": [[-74.02088567276928, 40.69056066731833], [-74.02117560647496, 40.690805169901026]]}}, {"type": "Feature", "properties": {"segment_id": 1358514, "physicalid": "92677", "street_name": "SHORT AVE", "borough": "manhattan", "direction": "TW", "total_row_ft": 91.1, "roadbed_ft": 29.2, "median_ft": 0.0, "left_sw_ft": 46.9, "right_sw_ft": 15.0}, "geometry": {"type": "LineString", "coordinates": [[-74.02093920870415, 40.69052388549644], [-74.02122914244617, 40.69076838794538]]}}]}