{"type": "FeatureCollection", "features": [{"type": "Feature", "properties": {"segment_id": 1562703, "physicalid": "107481", "street_name": "UNNAMED ST", "borough": "manhattan", "direction": "NV", "total_row_ft": 30.0, "roadbed_ft": 0.0, "median_ft": 0.0, "left_sw_ft": 15.0, "right_sw_ft": 15.0}, "geometry": {"type": "LineString", "coordinates": [[-74.04548264470014, 40.690632291718615], [-74.04584476591448, 40.69045198902253]]}}, {"type": "Feature", "properties": {"segment_id": 1562704, "physicalid": "107481", "street_name": "UNNAMED ST", "borough": "manhattan", "direction": "NV", "total_row_ft": 30.0, "roadbed_ft": 0.0, "median_ft": 0.0, "left_sw_ft": 15.0, "right_sw_ft": 15.0}, "geometry": {"type": "LineString", "coordinates": [[-74.04544316602782, 40.69058635174805], [-74.04580528709943, 40.69040604917517]]}}, {"type": "Feature", "properties": {"segment_id": 1562705, "physicalid": "107481", "street_name": "UNNAMED ST", "borough": "manhattan", "direction": "NV", "total_row_ft": 30.0, "roadbed_ft": 0.0, "median_ft": 0.0, "left_sw_ft": 15.0, "right_sw_ft": 15.0}, "geometry": {"type": "LineString", "coordinates": [[-74.04540368740989, 40.690540411763656], [-74.04576580833879, 40.69036010931402]]}}, {"type": "Feature", "properties": {"segment_id": 1562706, "physicalid": "107481", "street_name": "UNNAMED ST", "borough": "manhattan", "direction": "NV", "total_row_ft": 30.0, "roadbed_ft": 0.0, "median_ft": 0.0, "left_sw_ft": 15.0, "right_sw_ft": 15.0}, "geometry": {"type": "LineString", "coordinates": [[-74.04536420884638, 40.69049447176549], [-74.04572632963253, 40.690314169439034]]}}, {"type": "Feature", "properties": {"segment_id": 1562707, "physicalid": "107481", "street_name": "UNNAMED ST", "borough": "manhattan", "direction": "NV", "total_row_ft": 30.0, "roadbed_ft": 0.0, "median_ft": 0.0, "left_sw_ft": 15.0, "right_sw_ft": 15.0}, "geometry": {"type": "LineString", "coordinates": [[-74.04532473033728, 40.69044853175353], [-74.04568685098064, 40.69026822955022]]}}, {"type": "Feature", "properties": {"segment_id": 1562708, "physicalid": "107481", "street_name": "UNNAMED ST", "borough": "manhattan", "direction": "NV", "total_row_ft": 30.0, "roadbed_ft": 0.0, "median_ft": 0.0, "left_sw_ft": 15.0, "right_sw_ft": 15.0}, "geometry": {"type": "LineString", "coordinates": [[-74.04528525188258, 40.690402591727754], [-74.04564737238319, 40.69022228964763]]}}, {"type": "Feature", "properties": {"segment_id": 1562709, "physicalid": "107481", "street_name": "UNNAMED ST", "borough": "manhattan", "direction": "NV", "total_row_ft": 30.0, "roadbed_ft": 0.0, "median_ft": 0.0, "left_sw_ft": 15.0, "right_sw_ft": 15.0}, "geometry": {"type": "LineString", "coordinates": [[-74.04524577348226, 40.69035665168818], [-74.04560789384013, 40.69017634973121]]}}, {"type": "Feature", "properties": {"segment_id": 1562710, "physicalid": "107481", "street_name": "UNNAMED ST", "borough": "manhattan", "direction": "NV", "total_row_ft": 30.0, "roadbed_ft": 0.0, "median_ft": 0.0, "left_sw_ft": 15.0, "right_sw_ft": 15.0}, "geometry": {"type": "LineString", "coordinates": [[-74.04520629513631, 40.69031071163474], [-74.0455684153515, 40.69013040980104]]}}, {"type": "Feature", "properties": {"segment_id": 1562711, "physicalid": "107481", "street_name": "UNNAMED ST", "borough": "manhattan", "direction": "NV", "total_row_ft": 30.0, "roadbed_ft": 0.0, "median_ft": 0.0, "left_sw_ft": 15.0, "right_sw_ft": 15.0}, "geometry": {"type": "LineString", "coordinates": [[-74.04516681684481, 40.69026477156754], [-74.04552893691724, 40.69008446985702]]}}, {"type": "Feature", "properties": {"segment_id": 1562712, "physicalid": "107481", "street_name": "UNNAMED ST", "borough": "manhattan", "direction": "NV", "total_row_ft": 30.0, "roadbed_ft": 0.0, "median_ft": 0.0, "left_sw_ft": 15.0, "right_sw_ft": 15.0}, "geometry": {"type": "LineString", "coordinates": [[-74.04512733860771, 40.69021883148654], [-74.04548945853736, 40.69003852989918]]}}, {"type": "Feature", "properties": {"segment_id": 1562713, "physicalid": "107481", "street_name": "UNNAMED ST", "borough": "manhattan", "direction": "NV", "total_row_ft": 30.0, "roadbed_ft": 0.0, "median_ft": 0.0, "left_sw_ft": 15.0, "right_sw_ft": 15.0}, "geometry": {"type": "LineString", "coordinates": [[-74.045087860425, 40.69017289139175], [-74.0454499802119, 40.689992589927535]]}}, {"type": "Feature", "properties": {"segment_id": 1562714, "physicalid": "107481", "street_name": "UNNAMED ST", "borough": "manhattan", "direction": "NV", "total_row_ft": 30.0, "roadbed_ft": 0.0, "median_ft": 0.0, "left_sw_ft": 15.0, "right_sw_ft": 15.0}, "geometry": {"type": "LineString", "coordinates": [[-74.0450483822967, 40.69012695128309], [-74.04541050194085, 40.689946649942094]]}}, {"type": "Feature", "properties": {"segment_id": 1657215, "physicalid": "166009", "street_name": "UNNAMED ST", "borough": "manhattan", "direction": "NV", "total_row_ft": 16.5, "roadbed_ft": 0.0, "median_ft": 0.0, "left_sw_ft": 8.2, "right_sw_ft": 8.3}, "geometry": {"type": "LineString", "coordinates": [[-74.04385856595336, 40.6900067011136], [-74.04380782416904, 40.69003009814099]]}}, {"type": "Feature", "properties": {"segment_id": 1657216, "physicalid": "166009", "street_name": "UNNAMED ST", "borough": "manhattan", "direction": "NV", "total_row_ft": 16.3, "roadbed_ft": 0.0, "median_ft": 0.0, "left_sw_ft": 7.9, "right_sw_ft": 8.3}, "geometry": {"type": "LineString", "coordinates": [[-74.0438951436255, 40.69005401703833], [-74.0438449086567, 40.69007718037861]]}}, {"type": "Feature", "properties": {"segment_id": 1657217, "physicalid": "166009", "street_name": "UNNAMED ST", "borough": "manhattan", "direction": "NV", "total_row_ft": 16.1, "roadbed_ft": 0.0, "median_ft": 0.0, "left_sw_ft": 7.7, "right_sw_ft": 8.4}, "geometry": {"type": "LineString", "coordinates": [[-74.04393172134957, 40.690101332951144], [-74.04388199319673, 40.69012426260399]]}}, {"type": "Feature", "properties": {"segment_id": 1657218, "physicalid": "166009", "street_name": "UNNAMED ST", "borough": "manhattan", "direction": "NV", "total_row_ft": 16.8, "roadbed_ft": 0.0, "median_ft": 0.0, "left_sw_ft": 8.1, "right_sw_ft": 8.7}, "geometry": {"type": "LineString", "coordinates": [[-74.04396623059779, 40.69013844583755], [-74.04393099109758, 40.69017591962739]]}}, {"type": "Feature", "properties": {"segment_id": 1657219, "physicalid": "166009", "street_name": "UNNAMED ST", "borough": "manhattan", "direction": "NV", "total_row_ft": 16.8, "roadbed_ft": 0.0, "median_ft": 0.0, "left_sw_ft": 8.2, "right_sw_ft": 8.6}, "geometry": {"type": "LineString", "coordinates": [[-74.04402518660535, 40.690170065151385], [-74.0439898371448, 40.69020765590878]]}}, {"type": "Feature", "properties": {"segment_id": 1657220, "physicalid": "166009", "street_name": "UNNAMED ST", "borough": "manhattan", "direction": "NV", "total_row_ft": 16.9, "roadbed_ft": 0.0, "median_ft": 0.0, "left_sw_ft": 8.4, "right_sw_ft": 8.5}, "geometry": {"type": "LineString", "coordinates": [[-74.0440841144636, 40.69020166930787], [-74.04404871197347, 40.69023940765181]]}}, {"type": "Feature", "properties": {"segment_id": 1657221, "physicalid": "166009", "street_name": "UNNAMED ST", "borough": "manhattan", "direction": "NV", "total_row_ft": 16.9, "roadbed_ft": 0.0, "median_ft": 0.0, "left_sw_ft": 8.4, "right_sw_ft": 8.5}, "geometry": {"type": "LineString", "coordinates": [[-74.04414282411253, 40.690233156374546], [-74.04410780388747, 40.69027127641018]]}}, {"type": "Feature", "properties": {"segment_id": 1657222, "physicalid": "166009", "street_name": "UNNAMED ST", "borough": "manhattan", "direction": "NV", "total_row_ft": 16.9, "roadbed_ft": 0.0, "median_ft": 0.0, "left_sw_ft": 8.4, "right_sw_ft": 8.6}, "geometry": {"type": "LineString", "coordinates": [[-74.0442017790213, 40.6902647749184], [-74.04416676918603, 40.69030288368098]]}}, {"type": "Feature", "properties": {"segment_id": 1657223, "physicalid": "166009", "street_name": "UNNAMED ST", "borough": "manhattan", "direction": "NV", "total_row_ft": 16.9, "roadbed_ft": 0.0, "median_ft": 0.0, "left_sw_ft": 8.3, "right_sw_ft": 8.6}, "geometry": {"type": "LineString", "coordinates": [[-74.04426073907453, 40.69029638789296], [-74.04422579584974, 40.69033442418539]]}}, {"type": "Feature", "properties": {"segment_id": 1657224, "physicalid": "166009", "street_name": "UNNAMED ST", "borough": "manhattan", "direction": "NV", "total_row_ft": 16.9, "roadbed_ft": 0.0, "median_ft": 0.0, "left_sw_ft": 8.3, "right_sw_ft": 8.6}, "geometry": {"type": "LineString", "coordinates": [[-74.04431972076111, 40.69032797734976], [-74.04428482256928, 40.69036596465937]]}}, {"type": "Feature", "properties": {"segment_id": 1657225, "physicalid": "166009", "street_name": "UNNAMED ST", "borough": "manhattan", "direction": "NV", "total_row_ft": 16.9, "roadbed_ft": 0.0, "median_ft": 0.0, "left_sw_ft": 8.2, "right_sw_ft": 8.7}, "geometry": {"type": "LineString", "coordinates": [[-74.04437870250356, 40.6903595667762], [-74.04434384934467, 40.69039750510296]]}}, {"type": "Feature", "properties": {"segment_id": 1657226, "physicalid": "166009", "street_name": "UNNAMED ST", "borough": "manhattan", "direction": "NV", "total_row_ft": 16.8, "roadbed_ft": 0.0, "median_ft": 0.0, "left_sw_ft": 8.1, "right_sw_ft": 8.7}, "geometry": {"type": "LineString", "coordinates": [[-74.0444376843019, 40.690391156172296], [-74.0444028761759, 40.69042904551615]]}}, {"type": "Feature", "properties": {"segment_id": 1657227, "physicalid": "166009", "street_name": "UNNAMED ST", "borough": "manhattan", "direction": "NV", "total_row_ft": 16.8, "roadbed_ft": 0.0, "median_ft": 0.0, "left_sw_ft": 8.1, "right_sw_ft": 8.7}, "geometry": {"type": "LineString", "coordinates": [[-74.04449666615612, 40.690422745538015], [-74.04446190306298, 40.690460585898926]]}}, {"type": "Feature", "properties": {"segment_id": 1657228, "physicalid": "166009", "street_name": "UNNAMED ST", "borough": "manhattan", "direction": "NV", "total_row_ft": 16.8, "roadbed_ft": 0.0, "median_ft": 0.0, "left_sw_ft": 8.0, "right_sw_ft": 8.8}, "geometry": {"type": "LineString", "coordinates": [[-74.04455564806624, 40.690454334873394], [-74.04452093000589, 40.69049212625132]]}}, {"type": "Feature", "properties": {"segment_id": 1657229, "physicalid": "166009", "street_name": "UNNAMED ST", "borough": "manhattan", "direction": "NV", "total_row_ft": 16.6, "roadbed_ft": 0.0, "median_ft": 0.0, "left_sw_ft": 7.8, "right_sw_ft": 8.8}, "geometry": {"type": "LineString", "coordinates": [[-74.04461420940936, 40.69048638203652], [-74.04457995700464, 40.69052366657332]]}}, {"type": "Feature", "properties": {"segment_id": 1657230, "physicalid": "166009", "street_name": "UNNAMED ST", "borough": "manhattan", "direction": "NV", "total_row_ft": 16.0, "roadbed_ft": 0.0, "median_ft": 0.0, "left_sw_ft": 7.4, "right_sw_ft": 8.7}, "geometry": {"type": "LineString", "coordinates": [[-74.04467167715202, 40.690514581856775], [-74.04464508601237, 40.690553684336194]]}}, {"type": "Feature", "properties": {"segment_id": 1657231, "physicalid": "166009", "street_name": "UNNAMED ST", "borough": "manhattan", "direction": "NV", "total_row_ft": 16.0, "roadbed_ft": 0.0, "median_ft": 0.0, "left_sw_ft": 7.3, "right_sw_ft": 8.8}, "geometry": {"type": "LineString", "coordinates": [[-74.04473558118158, 40.69054002727953], [-74.04470898913225, 40.69057913115151]]}}, {"type": "Feature", "properties": {"segment_id": 1657232, "physicalid": "166009", "street_name": "UNNAMED ST", "borough": "manhattan", "direction": "NV", "total_row_ft": 16.1, "roadbed_ft": 0.0, "median_ft": 0.0, "left_sw_ft": 7.3, "right_sw_ft": 8.8}, "geometry": {"type": "LineString", "coordinates": [[-74.04479959203871, 40.690565315647135], [-74.04477289230088, 40.69060457793119]]}}, {"type": "Feature", "properties": {"segment_id": 1657233, "physicalid": "166009", "street_name": "UNNAMED ST", "borough": "manhattan", "direction": "NV", "total_row_ft": 16.2, "roadbed_ft": 0.0, "median_ft": 0.0, "left_sw_ft": 7.2, "right_sw_ft": 8.9}, "geometry": {"type": "LineString", "coordinates": [[-74.04486360294439, 40.69059060397903], [-74.04483679551831, 40.69063002467535]]}}, {"type": "Feature", "properties": {"segment_id": 1657234, "physicalid": "166009", "street_name": "UNNAMED ST", "borough": "manhattan", "direction": "NV", "total_row_ft": 16.2, "roadbed_ft": 0.0, "median_ft": 0.0, "left_sw_ft": 7.2, "right_sw_ft": 9.0}, "geometry": {"type": "LineString", "coordinates": [[-74.04492747733012, 40.69061583832227], [-74.04490095076781, 40.69065541872396]]}}, {"type": "Feature", "properties": {"segment_id": 1657235, "physicalid": "166009", "street_name": "UNNAMED ST", "borough": "manhattan", "direction": "NV", "total_row_ft": 16.0, "roadbed_ft": 0.0, "median_ft": 0.0, "left_sw_ft": 7.0, "right_sw_ft": 9.0}, "geometry": {"type": "LineString", "coordinates": [[-74.04499148987055, 40.69064112719039], [-74.04496523459, 40.690680302867385]]}}, {"type": "Feature", "properties": {"segment_id": 1657236, "physicalid": "166009", "street_name": "UNNAMED ST", "borough": "manhattan", "direction": "NV", "total_row_ft": 15.9, "roadbed_ft": 0.0, "median_ft": 0.0, "left_sw_ft": 6.9, "right_sw_ft": 9.0}, "geometry": {"type": "LineString", "coordinates": [[-74.04505556482445, 40.6906663229675], [-74.04502951846014, 40.690705186974796]]}}, {"type": "Feature", "properties": {"segment_id": 1657237, "physicalid": "166009", "street_name": "UNNAMED ST", "borough": "manhattan", "direction": "NV", "total_row_ft": 15.8, "roadbed_ft": 0.0, "median_ft": 0.0, "left_sw_ft": 6.9, "right_sw_ft": 8.9}, "geometry": {"type": "LineString", "coordinates": [[-74.0451196920419, 40.690691440798105], [-74.04509380237829, 40.690730071046254]]}}, {"type": "Feature", "properties": {"segment_id": 1657238, "physicalid": "166009", "street_name": "UNNAMED ST", "borough": "manhattan", "direction": "NV", "total_row_ft": 22.3, "roadbed_ft": 0.0, "median_ft": 0.0, "left_sw_ft": 13.4, "right_sw_ft": 8.9}, "geometry": {"type": "LineString", "coordinates": [[-74.04519462405342, 40.690700358800704], [-74.04515811385339, 40.69075496573031]]}}, {"type": "Feature", "properties": {"segment_id": 1657239, "physicalid": "166009", "street_name": "UNNAMED ST", "borough": "manhattan", "direction": "NV", "total_row_ft": 33.6, "roadbed_ft": 0.0, "median_ft": 0.0, "left_sw_ft": 22.2, "right_sw_ft": 11.4}, "geometry": {"type": "LineString", "coordinates": [[-74.04526399302735, 40.690693968197984], [-74.04522804917613, 40.690782037318634]]}}, {"type": "Feature", "properties": {"segment_id": 1657240, "physicalid": "166009", "street_name": "UNNAMED ST", "borough": "manhattan", "direction": "NV", "total_row_ft": 41.8, "roadbed_ft": 0.0, "median_ft": 0.0, "left_sw_ft": 18.7, "right_sw_ft": 23.1}, "geometry": {"type": "LineString", "coordinates": [[-74.0452959054172, 40.69070958143889], [-74.0453295005625, 40.69082130849134]]}}, {"type": "Feature", "properties": {"segment_id": 1657241, "physicalid": "166009", "street_name": "UNNAMED ST", "borough": "manhattan", "direction": "NV", "total_row_ft": 39.3, "roadbed_ft": 0.0, "median_ft": 0.0, "left_sw_ft": 20.0, "right_sw_ft": 19.3}, "geometry": {"type": "LineString", "coordinates": [[-74.04533477490125, 40.69068863192608], [-74.04541216051922, 40.69077914815253]]}}, {"type": "Feature", "properties": {"segment_id": 1657242, "physicalid": "166009", "street_name": "UNNAMED ST", "borough": "manhattan", "direction": "NV", "total_row_ft": 30.0, "roadbed_ft": 0.0, "median_ft": 0.0, "left_sw_ft": 15.0, "right_sw_ft": 15.0}, "geometry": {"type": "LineString", "coordinates": [[-74.04531659060171, 40.69056671689936], [-74.04555260826876, 40.69084278118566]]}}, {"type": "Feature", "properties": {"segment_id": 1657243, "physicalid": "166009", "street_name": "UNNAMED ST", "borough": "manhattan", "direction": "NV", "total_row_ft": 30.0, "roadbed_ft": 0.0, "median_ft": 0.0, "left_sw_ft": 15.0, "right_sw_ft": 15.0}, "geometry": {"type": "LineString", "coordinates": [[-74.04537703721648, 40.69053677503203], [-74.04561305502781, 40.69081283919539]]}}, {"type": "Feature", "properties": {"segment_id": 1657244, "physicalid": "166009", "street_name": "UNNAMED ST", "borough": "manhattan", "direction": "NV", "total_row_ft": 30.0, "roadbed_ft": 0.0, "median_ft": 0.0, "left_sw_ft": 15.0, "right_sw_ft": 15.0}, "geometry": {"type": "LineString", "coordinates": [[-74.045437483777, 40.69050683313284], [-74.04567350173254, 40.69078289717329]]}}, {"type": "Feature", "properties": {"segment_id": 1657245, "physicalid": "166009", "street_name": "UNNAMED ST", "borough": "manhattan", "direction": "NV", "total_row_ft": 30.0, "roadbed_ft": 0.0, "median_ft": 0.0, "left_sw_ft": 15.0, "right_sw_ft": 15.0}, "geometry": {"type": "LineString", "coordinates": [[-74.04549793028315, 40.690476891201826], [-74.04573394838305, 40.690752955119294]]}}, {"type": "Feature", "properties": {"segment_id": 1657299, "physicalid": "166021", "street_name": "UNNAMED ST", "borough": "manhattan", "direction": "NV", "total_row_ft": 38.5, "roadbed_ft": 0.0, "median_ft": 0.0, "left_sw_ft": 11.7, "right_sw_ft": 26.7}, "geometry": {"type": "LineString", "coordinates": [[-74.04665436505711, 40.69015922894562], [-74.04658105228266, 40.69006956616389]]}}, {"type": "Feature", "properties": {"segment_id": 1657300, "physicalid": "166021", "street_name": "UNNAMED ST", "borough": "manhattan", "direction": "NV", "total_row_ft": 38.9, "roadbed_ft": 0.0, "median_ft": 0.0, "left_sw_ft": 12.2, "right_sw_ft": 26.7}, "geometry": {"type": "LineString", "coordinates": [[-74.04659395446149, 40.69018923562767], [-74.04651986334572, 40.69009862082136]]}}, {"type": "Feature", "properties": {"segment_id": 1657301, "physicalid": "166021", "street_name": "UNNAMED ST", "borough": "manhattan", "direction": "NV", "total_row_ft": 72.6, "roadbed_ft": 0.0, "median_ft": 0.0, "left_sw_ft": 12.6, "right_sw_ft": 60.0}, "geometry": {"type": "LineString", "coordinates": [[-74.0465335438115, 40.69021924227785], [-74.04639523683444, 40.69005008986243]]}}, {"type": "Feature", "properties": {"segment_id": 1657302, "physicalid": "166021", "street_name": "UNNAMED ST", "borough": "manhattan", "direction": "NV", "total_row_ft": 39.2, "roadbed_ft": 0.0, "median_ft": 0.0, "left_sw_ft": 13.0, "right_sw_ft": 26.2}, "geometry": {"type": "LineString", "coordinates": [[-74.04647313310716, 40.69024924889624], [-74.04639838639379, 40.690157832082555]]}}, {"type": "Feature", "properties": {"segment_id": 1657303, "physicalid": "166021", "street_name": "UNNAMED ST", "borough": "manhattan", "direction": "NV", "total_row_ft": 39.8, "roadbed_ft": 0.0, "median_ft": 0.0, "left_sw_ft": 13.4, "right_sw_ft": 26.4}, "geometry": {"type": "LineString", "coordinates": [[-74.04641272210803, 40.69027925518878], [-74.04633688164833, 40.69018650059746]]}}, {"type": "Feature", "properties": {"segment_id": 1657304, "physicalid": "166021", "street_name": "UNNAMED ST", "borough": "manhattan", "direction": "NV", "total_row_ft": 113.5, "roadbed_ft": 0.0, "median_ft": 0.0, "left_sw_ft": 60.0, "right_sw_ft": 53.5}, "geometry": {"type": "LineString", "coordinates": [[-74.04644019545843, 40.69041674578588], [-74.04622391865391, 40.69015223429861]]}}, {"type": "Feature", "properties": {"segment_id": 1657305, "physicalid": "166021", "street_name": "UNNAMED ST", "borough": "manhattan", "direction": "NV", "total_row_ft": 41.0, "roadbed_ft": 0.0, "median_ft": 0.0, "left_sw_ft": 17.7, "right_sw_ft": 23.3}, "geometry": {"type": "LineString", "coordinates": [[-74.04637896693008, 40.690445752410845], [-74.04622024877288, 40.69025163649631]]}}, {"type": "Feature", "properties": {"segment_id": 1657306, "physicalid": "166021", "street_name": "UNNAMED ST", "borough": "manhattan", "direction": "NV", "total_row_ft": 39.7, "roadbed_ft": 0.0, "median_ft": 0.0, "left_sw_ft": 17.2, "right_sw_ft": 22.5}, "geometry": {"type": "LineString", "coordinates": [[-74.0463177383484, 40.69047475900316], [-74.04616048897478, 40.690282439235204]]}}, {"type": "Feature", "properties": {"segment_id": 1657307, "physicalid": "166021", "street_name": "UNNAMED ST", "borough": "manhattan", "direction": "NV", "total_row_ft": 111.7, "roadbed_ft": 0.0, "median_ft": 0.0, "left_sw_ft": 60.0, "right_sw_ft": 51.7}, "geometry": {"type": "LineString", "coordinates": [[-74.04625650971349, 40.69050376556275], [-74.04604372720014, 40.69024352681978]]}}, {"type": "Feature", "properties": {"segment_id": 1657308, "physicalid": "166021", "street_name": "UNNAMED ST", "borough": "manhattan", "direction": "NV", "total_row_ft": 36.6, "roadbed_ft": 0.0, "median_ft": 0.0, "left_sw_ft": 15.6, "right_sw_ft": 21.0}, "geometry": {"type": "LineString", "coordinates": [[-74.04611077402488, 40.690429417928456], [-74.04604096035523, 40.69034403378629]]}}, {"type": "Feature", "properties": {"segment_id": 1657309, "physicalid": "166021", "street_name": "UNNAMED ST", "borough": "manhattan", "direction": "NV", "total_row_ft": 36.5, "roadbed_ft": 0.0, "median_ft": 0.0, "left_sw_ft": 16.3, "right_sw_ft": 20.2}, "geometry": {"type": "LineString", "coordinates": [[-74.04605070919376, 40.69045984780249], [-74.04598119897332, 40.69037483469725]]}}, {"type": "Feature", "properties": {"segment_id": 1657310, "physicalid": "166021", "street_name": "UNNAMED ST", "borough": "manhattan", "direction": "NV", "total_row_ft": 30.0, "roadbed_ft": 0.0, "median_ft": 0.0, "left_sw_ft": 15.0, "right_sw_ft": 15.0}, "geometry": {"type": "LineString", "coordinates": [[-74.04607282348903, 40.690590785045536], [-74.04584418101538, 40.690311148107426]]}}, {"type": "Feature", "properties": {"segment_id": 1657311, "physicalid": "166021", "street_name": "UNNAMED ST", "borough": "manhattan", "direction": "NV", "total_row_ft": 30.0, "roadbed_ft": 0.0, "median_ft": 0.0, "left_sw_ft": 15.0, "right_sw_ft": 15.0}, "geometry": {"type": "LineString", "coordinates": [[-74.04601159464103, 40.690619791474404], [-74.04578295232464, 40.6903401544157]]}}, {"type": "Feature", "properties": {"segment_id": 1657312, "physicalid": "166021", "street_name": "UNNAMED ST", "borough": "manhattan", "direction": "NV", "total_row_ft": 30.0, "roadbed_ft": 0.0, "median_ft": 0.0, "left_sw_ft": 15.0, "right_sw_ft": 15.0}, "geometry": {"type": "LineString", "coordinates": [[-74.04595036573971, 40.69064879787062], [-74.04572172358071, 40.690369160691255]]}}, {"type": "Feature", "properties": {"segment_id": 1657313, "physicalid": "166021", "street_name": "UNNAMED ST", "borough": "manhattan", "direction": "NV", "total_row_ft": 30.0, "roadbed_ft": 0.0, "median_ft": 0.0, "left_sw_ft": 15.0, "right_sw_ft": 15.0}, "geometry": {"type": "LineString", "coordinates": [[-74.04588913678516, 40.690677804234134], [-74.04566049478345, 40.690398166934145]]}}, {"type": "Feature", "properties": {"segment_id": 1657314, "physicalid": "166022", "street_name": "UNNAMED ST", "borough": "manhattan", "direction": "NV", "total_row_ft": 26.2, "roadbed_ft": 0.0, "median_ft": 0.0, "left_sw_ft": 11.2, "right_sw_ft": 15.0}, "geometry": {"type": "LineString", "coordinates": [[-74.04670020826185, 40.69006093425906], [-74.0468419129777, 40.69022528582853]]}}, {"type": "Feature", "properties": {"segment_id": 1657315, "physicalid": "166022", "street_name": "UNNAMED ST", "borough": "manhattan", "direction": "NV", "total_row_ft": 54.6, "roadbed_ft": 0.0, "median_ft": 0.0, "left_sw_ft": 19.4, "right_sw_ft": 35.2}, "geometry": {"type": "LineString", "coordinates": [[-74.04669942108578, 40.690037638293056], [-74.04689281462387, 40.690065902497935]]}}]}