{"type": "FeatureCollection", "features": [{"type": "Feature", "properties": {"segment_id": 1730, "physicalid": "199", "street_name": "12 AVE", "borough": "manhattan", "direction": "FT", "total_row_ft": 117.2, "roadbed_ft": 85.4, "median_ft": 8.4, "left_sw_ft": 8.4, "right_sw_ft": 15.0}, "geometry": {"type": "LineString", "coordinates": [[-74.00034055521468, 40.76263311181787], [-74.0001070213485, 40.76244656763706]]}}, {"type": "Feature", "properties": {"segment_id": 1731, "physicalid": "199", "street_name": "12 AVE", "borough": "manhattan", "direction": "FT", "total_row_ft": 121.9, "roadbed_ft": 74.3, "median_ft": 11.7, "left_sw_ft": 15.0, "right_sw_ft": 20.8}, "geometry": {"type": "LineString", "coordinates": [[-74.00035339078822, 40.762722984079446], [-74.0000874320615, 40.76251053952232]]}}, {"type": "Feature", "properties": {"segment_id": 1732, "physicalid": "199", "street_name": "12 AVE", "borough": "manhattan", "direction": "FT", "total_row_ft": 127.0, "roadbed_ft": 68.7, "median_ft": 22.0, "left_sw_ft": 15.0, "right_sw_ft": 21.2}, "geometry": {"type": "LineString", "coordinates": [[-74.00030109718081, 40.76276083219154], [-74.00004728893263, 40.76255809320417]]}}, {"type": "Feature", "properties": {"segment_id": 1733, "physicalid": "199", "street_name": "12 AVE", "borough": "manhattan", "direction": "FT", "total_row_ft": 124.1, "roadbed_ft": 68.1, "median_ft": 21.2, "left_sw_ft": 15.0, "right_sw_ft": 19.8}, "geometry": {"type": "LineString", "coordinates": [[-74.00024880351398, 40.762798680279666], [-73.99999937561931, 40.762599440157665]]}}, {"type": "Feature", "properties": {"segment_id": 1734, "physicalid": "199", "street_name": "12 AVE", "borough": "manhattan", "direction": "FT", "total_row_ft": 124.1, "roadbed_ft": 67.6, "median_ft": 20.3, "left_sw_ft": 15.0, "right_sw_ft": 21.2}, "geometry": {"type": "LineString", "coordinates": [[-74.0001965097877, 40.76283652834385], [-73.99994409712501, 40.76263490388778]]}}, {"type": "Feature", "properties": {"segment_id": 1735, "physicalid": "199", "street_name": "12 AVE", "borough": "manhattan", "direction": "FT", "total_row_ft": 122.4, "roadbed_ft": 67.2, "median_ft": 19.4, "left_sw_ft": 15.0, "right_sw_ft": 20.8}, "geometry": {"type": "LineString", "coordinates": [[-74.00014421600198, 40.762874376384076], [-73.99989310165094, 40.762673788884946]]}}, {"type": "Feature", "properties": {"segment_id": 1743, "physicalid": "200", "street_name": "12 AVE", "borough": "manhattan", "direction": "FT", "total_row_ft": 150.0, "roadbed_ft": 120.0, "median_ft": 0.0, "left_sw_ft": 15.0, "right_sw_ft": 15.0}, "geometry": {"type": "LineString", "coordinates": [[-74.00115179018542, 40.76211343105585], [-74.00084380762748, 40.76188181642732]]}}, {"type": "Feature", "properties": {"segment_id": 1744, "physicalid": "200", "street_name": "12 AVE", "borough": "manhattan", "direction": "FT", "total_row_ft": 141.2, "roadbed_ft": 87.2, "median_ft": 19.5, "left_sw_ft": 19.5, "right_sw_ft": 15.0}, "geometry": {"type": "LineString", "coordinates": [[-74.00106677954555, 40.76212670954343], [-74.00079303875053, 40.76192084578892]]}}, {"type": "Feature", "properties": {"segment_id": 1745, "physicalid": "200", "street_name": "12 AVE", "borough": "manhattan", "direction": "FT", "total_row_ft": 135.0, "roadbed_ft": 65.7, "median_ft": 19.1, "left_sw_ft": 15.0, "right_sw_ft": 35.2}, "geometry": {"type": "LineString", "coordinates": [[-74.00105025237986, 40.762191490025224], [-74.00074226981404, 40.761959875127936]]}}, {"type": "Feature", "properties": {"segment_id": 1746, "physicalid": "200", "street_name": "12 AVE", "borough": "manhattan", "direction": "FT", "total_row_ft": 117.8, "roadbed_ft": 74.6, "median_ft": 8.8, "left_sw_ft": 15.0, "right_sw_ft": 19.3}, "geometry": {"type": "LineString", "coordinates": [[-74.00099948338782, 40.76223051947601], [-74.00073576362894, 40.762032191973006]]}}, {"type": "Feature", "properties": {"segment_id": 1747, "physicalid": "200", "street_name": "12 AVE", "borough": "manhattan", "direction": "FT", "total_row_ft": 117.7, "roadbed_ft": 78.8, "median_ft": 8.9, "left_sw_ft": 15.0, "right_sw_ft": 15.0}, "geometry": {"type": "LineString", "coordinates": [[-74.00094871433629, 40.76226954890419], [-74.00068514771785, 40.76207133645681]]}}, {"type": "Feature", "properties": {"segment_id": 1748, "physicalid": "200", "street_name": "12 AVE", "borough": "manhattan", "direction": "FT", "total_row_ft": 117.6, "roadbed_ft": 79.3, "median_ft": 8.8, "left_sw_ft": 15.0, "right_sw_ft": 14.6}, "geometry": {"type": "LineString", "coordinates": [[-74.00089794522525, 40.7623085783098], [-74.00063453174727, 40.762110480918146]]}}, {"type": "Feature", "properties": {"segment_id": 1749, "physicalid": "200", "street_name": "12 AVE", "borough": "manhattan", "direction": "FT", "total_row_ft": 117.6, "roadbed_ft": 80.5, "median_ft": 7.9, "left_sw_ft": 15.0, "right_sw_ft": 14.1}, "geometry": {"type": "LineString", "coordinates": [[-74.00084717605472, 40.76234760769279], [-74.00058391571719, 40.76214962535704]]}}, {"type": "Feature", "properties": {"segment_id": 1750, "physicalid": "200", "street_name": "12 AVE", "borough": "manhattan", "direction": "FT", "total_row_ft": 117.5, "roadbed_ft": 81.8, "median_ft": 7.0, "left_sw_ft": 15.0, "right_sw_ft": 13.7}, "geometry": {"type": "LineString", "coordinates": [[-74.00079640682465, 40.76238663705323], [-74.00053329962763, 40.76218876977341]]}}, {"type": "Feature", "properties": {"segment_id": 1751, "physicalid": "200", "street_name": "12 AVE", "borough": "manhattan", "direction": "FT", "total_row_ft": 117.5, "roadbed_ft": 83.0, "median_ft": 6.2, "left_sw_ft": 15.0, "right_sw_ft": 13.3}, "geometry": {"type": "LineString", "coordinates": [[-74.00074563753512, 40.762425666391024], [-74.00048268347858, 40.762227914167354]]}}, {"type": "Feature", "properties": {"segment_id": 1752, "physicalid": "200", "street_name": "12 AVE", "borough": "manhattan", "direction": "FT", "total_row_ft": 117.4, "roadbed_ft": 84.0, "median_ft": 5.6, "left_sw_ft": 15.0, "right_sw_ft": 12.9}, "geometry": {"type": "LineString", "coordinates": [[-74.00069486818609, 40.76246469570623], [-74.00043206727003, 40.762267058538825]]}}, {"type": "Feature", "properties": {"segment_id": 1753, "physicalid": "200", "street_name": "12 AVE", "borough": "manhattan", "direction": "FT", "total_row_ft": 117.3, "roadbed_ft": 85.0, "median_ft": 4.9, "left_sw_ft": 15.0, "right_sw_ft": 12.5}, "geometry": {"type": "LineString", "coordinates": [[-74.00064409877757, 40.76250372499883], [-74.00038145100194, 40.76230620288785]]}}, {"type": "Feature", "properties": {"segment_id": 1754, "physicalid": "200", "street_name": "12 AVE", "borough": "manhattan", "direction": "FT", "total_row_ft": 117.3, "roadbed_ft": 85.9, "median_ft": 4.3, "left_sw_ft": 15.0, "right_sw_ft": 12.0}, "geometry": {"type": "LineString", "coordinates": [[-74.00059332930954, 40.76254275426884], [-74.0003308346744, 40.76234534721442]]}}, {"type": "Feature", "properties": {"segment_id": 1755, "physicalid": "200", "street_name": "12 AVE", "borough": "manhattan", "direction": "FT", "total_row_ft": 117.2, "roadbed_ft": 82.3, "median_ft": 3.7, "left_sw_ft": 15.0, "right_sw_ft": 16.3}, "geometry": {"type": "LineString", "coordinates": [[-74.00054255978199, 40.76258178351625], [-74.00028021828736, 40.76238449151851]]}}, {"type": "Feature", "properties": {"segment_id": 1756, "physicalid": "200", "street_name": "12 AVE", "borough": "manhattan", "direction": "FT", "total_row_ft": 130.6, "roadbed_ft": 87.8, "median_ft": 0.0, "left_sw_ft": 15.0, "right_sw_ft": 27.7}, "geometry": {"type": "LineString", "coordinates": [[-74.00049179019497, 40.76262081274109], [-74.0001952063382, 40.76239776876863]]}}, {"type": "Feature", "properties": {"segment_id": 1757, "physicalid": "202", "street_name": "12 AVE", "borough": "manhattan", "direction": "FT", "total_row_ft": 150.0, "roadbed_ft": 88.9, "median_ft": 31.1, "left_sw_ft": 15.0, "right_sw_ft": 15.0}, "geometry": {"type": "LineString", "coordinates": [[-74.00222376281882, 40.7608358061547], [-74.00184116806633, 40.76068136159782]]}}, {"type": "Feature", "properties": {"segment_id": 1758, "physicalid": "202", "street_name": "12 AVE", "borough": "manhattan", "direction": "FT", "total_row_ft": 114.9, "roadbed_ft": 56.0, "median_ft": 31.3, "left_sw_ft": 15.0, "right_sw_ft": 12.6}, "geometry": {"type": "LineString", "coordinates": [[-74.00218991000426, 40.76088429187136], [-74.00187135545993, 40.76075569896246]]}}, {"type": "Feature", "properties": {"segment_id": 1759, "physicalid": "202", "street_name": "12 AVE", "borough": "manhattan", "direction": "FT", "total_row_ft": 115.4, "roadbed_ft": 56.1, "median_ft": 31.3, "left_sw_ft": 15.0, "right_sw_ft": 12.9}, "geometry": {"type": "LineString", "coordinates": [[-74.00215605714044, 40.760932777577665], [-74.0018360617539, 40.760803603006316]]}}, {"type": "Feature", "properties": {"segment_id": 1760, "physicalid": "202", "street_name": "12 AVE", "borough": "manhattan", "direction": "FT", "total_row_ft": 115.8, "roadbed_ft": 56.3, "median_ft": 31.4, "left_sw_ft": 15.0, "right_sw_ft": 13.1}, "geometry": {"type": "LineString", "coordinates": [[-74.00212220422732, 40.76098126327371], [-74.00180076808124, 40.760851507072935]]}}, {"type": "Feature", "properties": {"segment_id": 1761, "physicalid": "202", "street_name": "12 AVE", "borough": "manhattan", "direction": "FT", "total_row_ft": 116.3, "roadbed_ft": 56.9, "median_ft": 31.3, "left_sw_ft": 15.0, "right_sw_ft": 13.1}, "geometry": {"type": "LineString", "coordinates": [[-74.00208835126492, 40.76102974895946], [-74.00176547435781, 40.760899411128435]]}}, {"type": "Feature", "properties": {"segment_id": 1762, "physicalid": "202", "street_name": "12 AVE", "borough": "manhattan", "direction": "FT", "total_row_ft": 116.7, "roadbed_ft": 57.4, "median_ft": 31.1, "left_sw_ft": 15.0, "right_sw_ft": 13.2}, "geometry": {"type": "LineString", "coordinates": [[-74.00205449825323, 40.7610782346349], [-74.0017301805836, 40.76094731517277]]}}, {"type": "Feature", "properties": {"segment_id": 1763, "physicalid": "202", "street_name": "12 AVE", "borough": "manhattan", "direction": "FT", "total_row_ft": 117.2, "roadbed_ft": 57.9, "median_ft": 31.0, "left_sw_ft": 15.0, "right_sw_ft": 13.2}, "geometry": {"type": "LineString", "coordinates": [[-74.00202064519225, 40.761126720300076], [-74.00169488675864, 40.76099521920595]]}}, {"type": "Feature", "properties": {"segment_id": 1764, "physicalid": "202", "street_name": "12 AVE", "borough": "manhattan", "direction": "FT", "total_row_ft": 117.6, "roadbed_ft": 57.3, "median_ft": 32.1, "left_sw_ft": 15.0, "right_sw_ft": 13.2}, "geometry": {"type": "LineString", "coordinates": [[-74.00198679208198, 40.761175205954935], [-74.0016595928829, 40.761043123227985]]}}, {"type": "Feature", "properties": {"segment_id": 1765, "physicalid": "202", "street_name": "12 AVE", "borough": "manhattan", "direction": "FT", "total_row_ft": 118.1, "roadbed_ft": 57.8, "median_ft": 31.9, "left_sw_ft": 15.0, "right_sw_ft": 13.3}, "geometry": {"type": "LineString", "coordinates": [[-74.00195293892243, 40.76122369159951], [-74.00162429895641, 40.76109102723888]]}}, {"type": "Feature", "properties": {"segment_id": 1766, "physicalid": "202", "street_name": "12 AVE", "borough": "manhattan", "direction": "FT", "total_row_ft": 118.5, "roadbed_ft": 61.1, "median_ft": 29.1, "left_sw_ft": 15.0, "right_sw_ft": 13.4}, "geometry": {"type": "LineString", "coordinates": [[-74.0019190857136, 40.761272177233806], [-74.00158900497915, 40.76113893123862]]}}, {"type": "Feature", "properties": {"segment_id": 1767, "physicalid": "202", "street_name": "12 AVE", "borough": "manhattan", "direction": "FT", "total_row_ft": 119.0, "roadbed_ft": 72.6, "median_ft": 17.9, "left_sw_ft": 15.0, "right_sw_ft": 13.4}, "geometry": {"type": "LineString", "coordinates": [[-74.00188523245546, 40.761320662857806], [-74.0015537109511, 40.76118683522721]]}}, {"type": "Feature", "properties": {"segment_id": 1768, "physicalid": "202", "street_name": "12 AVE", "borough": "manhattan", "direction": "FT", "total_row_ft": 150.0, "roadbed_ft": 120.0, "median_ft": 0.0, "left_sw_ft": 15.0, "right_sw_ft": 15.0}, "geometry": {"type": "LineString", "coordinates": [[-74.00185137914805, 40.76136914847149], [-74.00146878219546, 40.761214702690005]]}}, {"type": "Feature", "properties": {"segment_id": 1769, "physicalid": "203", "street_name": "12 AVE", "borough": "manhattan", "direction": "FT", "total_row_ft": 119.0, "roadbed_ft": 92.2, "median_ft": 0.0, "left_sw_ft": 15.0, "right_sw_ft": 11.8}, "geometry": {"type": "LineString", "coordinates": [[-74.0026937028004, 40.760225632165444], [-74.00236678930372, 40.76008540553858]]}}, {"type": "Feature", "properties": {"segment_id": 1770, "physicalid": "203", "street_name": "12 AVE", "borough": "manhattan", "direction": "FT", "total_row_ft": 118.6, "roadbed_ft": 92.8, "median_ft": 0.0, "left_sw_ft": 15.0, "right_sw_ft": 10.9}, "geometry": {"type": "LineString", "coordinates": [[-74.00265823170484, 40.76027344419639], [-74.00233247257414, 40.760133712696344]]}}, {"type": "Feature", "properties": {"segment_id": 1771, "physicalid": "203", "street_name": "12 AVE", "borough": "manhattan", "direction": "FT", "total_row_ft": 118.8, "roadbed_ft": 72.6, "median_ft": 20.3, "left_sw_ft": 15.0, "right_sw_ft": 10.9}, "geometry": {"type": "LineString", "coordinates": [[-74.0026227605583, 40.76032125621616], [-74.00229639919439, 40.76018126636103]]}}, {"type": "Feature", "properties": {"segment_id": 1772, "physicalid": "203", "street_name": "12 AVE", "borough": "manhattan", "direction": "FT", "total_row_ft": 150.6, "roadbed_ft": 104.0, "median_ft": 20.4, "left_sw_ft": 15.0, "right_sw_ft": 11.2}, "geometry": {"type": "LineString", "coordinates": [[-74.00258728936085, 40.76036906822463], [-74.0022603256319, 40.76022881995781]]}}, {"type": "Feature", "properties": {"segment_id": 1773, "physicalid": "203", "street_name": "12 AVE", "borough": "manhattan", "direction": "FT", "total_row_ft": 151.0, "roadbed_ft": 104.0, "median_ft": 20.5, "left_sw_ft": 15.0, "right_sw_ft": 11.5}, "geometry": {"type": "LineString", "coordinates": [[-74.00254844379468, 40.7604204665576], [-74.00222637303924, 40.76027357740599]]}}, {"type": "Feature", "properties": {"segment_id": 1774, "physicalid": "203", "street_name": "12 AVE", "borough": "manhattan", "direction": "FT", "total_row_ft": 118.7, "roadbed_ft": 71.2, "median_ft": 20.6, "left_sw_ft": 15.0, "right_sw_ft": 11.9}, "geometry": {"type": "LineString", "coordinates": [[-74.00251130900936, 40.76046754261508], [-74.00219029576193, 40.76032113573516]]}}, {"type": "Feature", "properties": {"segment_id": 1775, "physicalid": "203", "street_name": "12 AVE", "borough": "manhattan", "direction": "FT", "total_row_ft": 118.4, "roadbed_ft": 70.2, "median_ft": 20.8, "left_sw_ft": 15.0, "right_sw_ft": 12.4}, "geometry": {"type": "LineString", "coordinates": [[-74.00247417417158, 40.76051461866026], [-74.002154218458, 40.760368694064056]]}}, {"type": "Feature", "properties": {"segment_id": 1776, "physicalid": "203", "street_name": "12 AVE", "borough": "manhattan", "direction": "FT", "total_row_ft": 118.0, "roadbed_ft": 75.9, "median_ft": 14.3, "left_sw_ft": 15.0, "right_sw_ft": 12.8}, "geometry": {"type": "LineString", "coordinates": [[-74.00243703928128, 40.760561694693195], [-74.00211814110259, 40.7604162523813]]}}, {"type": "Feature", "properties": {"segment_id": 1777, "physicalid": "203", "street_name": "12 AVE", "borough": "manhattan", "direction": "FT", "total_row_ft": 117.7, "roadbed_ft": 89.4, "median_ft": 0.0, "left_sw_ft": 15.0, "right_sw_ft": 13.3}, "geometry": {"type": "LineString", "coordinates": [[-74.00239990433849, 40.76060877071377], [-74.00208206369562, 40.76046381068691]]}}, {"type": "Feature", "properties": {"segment_id": 1778, "physicalid": "203", "street_name": "12 AVE", "borough": "manhattan", "direction": "FT", "total_row_ft": 117.1, "roadbed_ft": 88.5, "median_ft": 0.0, "left_sw_ft": 15.0, "right_sw_ft": 13.5}, "geometry": {"type": "LineString", "coordinates": [[-74.00236276934325, 40.760655846722045], [-74.00204685586226, 40.76051176559972]]}}, {"type": "Feature", "properties": {"segment_id": 1779, "physicalid": "203", "street_name": "12 AVE", "borough": "manhattan", "direction": "FT", "total_row_ft": 116.4, "roadbed_ft": 60.7, "median_ft": 27.0, "left_sw_ft": 15.0, "right_sw_ft": 13.7}, "geometry": {"type": "LineString", "coordinates": [[-74.00232563429549, 40.76070292271804], [-74.00201178787835, 40.76055978430708]]}}, {"type": "Feature", "properties": {"segment_id": 1780, "physicalid": "203", "street_name": "12 AVE", "borough": "manhattan", "direction": "FT", "total_row_ft": 148.4, "roadbed_ft": 54.5, "median_ft": 31.4, "left_sw_ft": 31.4, "right_sw_ft": 31.1}, "geometry": {"type": "LineString", "coordinates": [[-74.0022793675782, 40.760745833992935], [-74.00191702912437, 40.76058057921453]]}}, {"type": "Feature", "properties": {"segment_id": 1796, "physicalid": "204", "street_name": "12 AVE", "borough": "manhattan", "direction": "FT", "total_row_ft": 114.6, "roadbed_ft": 63.9, "median_ft": 18.1, "left_sw_ft": 18.1, "right_sw_ft": 14.6}, "geometry": {"type": "LineString", "coordinates": [[-74.00277763265115, 40.76006492698766], [-74.0024721315727, 40.759937531510175]]}}, {"type": "Feature", "properties": {"segment_id": 1797, "physicalid": "204", "street_name": "12 AVE", "borough": "manhattan", "direction": "FT", "total_row_ft": 134.2, "roadbed_ft": 105.6, "median_ft": 0.0, "left_sw_ft": 15.0, "right_sw_ft": 13.6}, "geometry": {"type": "LineString", "coordinates": [[-74.00276692744767, 40.760132243545065], [-74.00244214611025, 40.75998063439194]]}}, {"type": "Feature", "properties": {"segment_id": 3101, "physicalid": "327", "street_name": "12 AVE", "borough": "manhattan", "direction": "TF", "total_row_ft": 108.7, "roadbed_ft": 58.1, "median_ft": 20.3, "left_sw_ft": 15.0, "right_sw_ft": 15.2}, "geometry": {"type": "LineString", "coordinates": [[-74.00301851165263, 40.76008438238565], [-74.0026852858758, 40.759941949296724]]}}, {"type": "Feature", "properties": {"segment_id": 3102, "physicalid": "327", "street_name": "12 AVE", "borough": "manhattan", "direction": "TF", "total_row_ft": 97.6, "roadbed_ft": 34.4, "median_ft": 19.8, "left_sw_ft": 19.8, "right_sw_ft": 23.6}, "geometry": {"type": "LineString", "coordinates": [[-74.00300993354819, 40.76014368945487], [-74.0027267682374, 40.76002265425248]]}}, {"type": "Feature", "properties": {"segment_id": 3103, "physicalid": "327", "street_name": "12 AVE", "borough": "manhattan", "direction": "TF", "total_row_ft": 178.6, "roadbed_ft": 114.6, "median_ft": 15.0, "left_sw_ft": 15.0, "right_sw_ft": 34.0}, "geometry": {"type": "LineString", "coordinates": [[-74.00297519546174, 40.76019181485234], [-74.00261453250009, 40.76003765409278]]}}, {"type": "Feature", "properties": {"segment_id": 3104, "physicalid": "328", "street_name": "12 AVE", "borough": "manhattan", "direction": "TF", "total_row_ft": 101.5, "roadbed_ft": 83.8, "median_ft": 0.0, "left_sw_ft": 15.0, "right_sw_ft": 2.7}, "geometry": {"type": "LineString", "coordinates": [[-74.00282469367927, 40.76027967523853], [-74.00252788866517, 40.760150867068795]]}}, {"type": "Feature", "properties": {"segment_id": 3105, "physicalid": "328", "street_name": "12 AVE", "borough": "manhattan", "direction": "TF", "total_row_ft": 117.8, "roadbed_ft": 80.1, "median_ft": 0.0, "left_sw_ft": 15.0, "right_sw_ft": 22.7}, "geometry": {"type": "LineString", "coordinates": [[-74.002852310702, 40.76035486705632], [-74.00249210245111, 40.760198543122584]]}}, {"type": "Feature", "properties": {"segment_id": 3106, "physicalid": "328", "street_name": "12 AVE", "borough": "manhattan", "direction": "TF", "total_row_ft": 118.4, "roadbed_ft": 60.0, "median_ft": 20.3, "left_sw_ft": 15.0, "right_sw_ft": 23.0}, "geometry": {"type": "LineString", "coordinates": [[-74.00281842060994, 40.76040336603453], [-74.00245631618583, 40.760246219164955]]}}, {"type": "Feature", "properties": {"segment_id": 3107, "physicalid": "328", "street_name": "12 AVE", "borough": "manhattan", "direction": "TF", "total_row_ft": 174.2, "roadbed_ft": 115.6, "median_ft": 20.4, "left_sw_ft": 15.0, "right_sw_ft": 23.2}, "geometry": {"type": "LineString", "coordinates": [[-74.00278308111466, 40.760451236012294], [-74.00242052986928, 40.76029389519589]]}}, {"type": "Feature", "properties": {"segment_id": 3108, "physicalid": "328", "street_name": "12 AVE", "borough": "manhattan", "direction": "TF", "total_row_ft": 174.5, "roadbed_ft": 115.7, "median_ft": 20.4, "left_sw_ft": 15.0, "right_sw_ft": 23.3}, "geometry": {"type": "LineString", "coordinates": [[-74.0027488139495, 40.76049777116599], [-74.00238386281026, 40.76034312454099]]}}, {"type": "Feature", "properties": {"segment_id": 3109, "physicalid": "328", "street_name": "12 AVE", "borough": "manhattan", "direction": "TF", "total_row_ft": 117.9, "roadbed_ft": 60.3, "median_ft": 20.6, "left_sw_ft": 15.0, "right_sw_ft": 22.1}, "geometry": {"type": "LineString", "coordinates": [[-74.00270905624771, 40.76054376768278], [-74.00234871861672, 40.7603910759691]]}}, {"type": "Feature", "properties": {"segment_id": 3110, "physicalid": "328", "street_name": "12 AVE", "borough": "manhattan", "direction": "TF", "total_row_ft": 114.1, "roadbed_ft": 60.2, "median_ft": 20.8, "left_sw_ft": 15.0, "right_sw_ft": 18.1}, "geometry": {"type": "LineString", "coordinates": [[-74.00266084740107, 40.760586183087646], [-74.00231357437254, 40.76043902738618]]}}, {"type": "Feature", "properties": {"segment_id": 3111, "physicalid": "328", "street_name": "12 AVE", "borough": "manhattan", "direction": "TF", "total_row_ft": 103.1, "roadbed_ft": 65.1, "median_ft": 16.0, "left_sw_ft": 15.0, "right_sw_ft": 7.1}, "geometry": {"type": "LineString", "coordinates": [[-74.00259023477521, 40.760619105022], [-74.00227843007775, 40.76048697879222]]}}, {"type": "Feature", "properties": {"segment_id": 3112, "physicalid": "328", "street_name": "12 AVE", "borough": "manhattan", "direction": "TF", "total_row_ft": 150.0, "roadbed_ft": 120.0, "median_ft": 0.0, "left_sw_ft": 15.0, "right_sw_ft": 15.0}, "geometry": {"type": "LineString", "coordinates": [[-74.00262166419763, 40.7606952666924], [-74.00224328573238, 40.760534930187184]]}}, {"type": "Feature", "properties": {"segment_id": 3113, "physicalid": "328", "street_name": "12 AVE", "borough": "manhattan", "direction": "TF", "total_row_ft": 150.0, "roadbed_ft": 120.0, "median_ft": 0.0, "left_sw_ft": 15.0, "right_sw_ft": 15.0}, "geometry": {"type": "LineString", "coordinates": [[-74.00258651998944, 40.76074321819063], [-74.00220814133642, 40.76058288157107]]}}, {"type": "Feature", "properties": {"segment_id": 3114, "physicalid": "328", "street_name": "12 AVE", "borough": "manhattan", "direction": "TF", "total_row_ft": 135.0, "roadbed_ft": 71.0, "median_ft": 24.1, "left_sw_ft": 15.0, "right_sw_ft": 24.8}, "geometry": {"type": "LineString", "coordinates": [[-74.00255137573066, 40.76079116967779], [-74.00217299688984, 40.7606308329439]]}}, {"type": "Feature", "properties": {"segment_id": 3115, "physicalid": "328", "street_name": "12 AVE", "borough": "manhattan", "direction": "TF", "total_row_ft": 134.8, "roadbed_ft": 45.7, "median_ft": 31.4, "left_sw_ft": 31.4, "right_sw_ft": 26.4}, "geometry": {"type": "LineString", "coordinates": [[-74.00251049722452, 40.76083669132224], [-74.0021844367712, 40.76069852438929]]}}, {"type": "Feature", "properties": {"segment_id": 3116, "physicalid": "329", "street_name": "12 AVE", "borough": "manhattan", "direction": "TF", "total_row_ft": 121.4, "roadbed_ft": 61.1, "median_ft": 31.1, "left_sw_ft": 15.0, "right_sw_ft": 14.2}, "geometry": {"type": "LineString", "coordinates": [[-74.00244583309362, 40.760926519937385], [-74.00206944433187, 40.76077369294279]]}}, {"type": "Feature", "properties": {"segment_id": 3117, "physicalid": "329", "street_name": "12 AVE", "borough": "manhattan", "direction": "TF", "total_row_ft": 121.2, "roadbed_ft": 60.6, "median_ft": 31.3, "left_sw_ft": 15.0, "right_sw_ft": 14.3}, "geometry": {"type": "LineString", "coordinates": [[-74.0024113082575, 40.7609747329913], [-74.00203543724562, 40.76082211618937]]}}, {"type": "Feature", "properties": {"segment_id": 3118, "physicalid": "329", "street_name": "12 AVE", "borough": "manhattan", "direction": "TF", "total_row_ft": 120.9, "roadbed_ft": 60.1, "median_ft": 31.3, "left_sw_ft": 15.0, "right_sw_ft": 14.5}, "geometry": {"type": "LineString", "coordinates": [[-74.00237678337143, 40.761022946034515], [-74.00200143010993, 40.760870539425554]]}}, {"type": "Feature", "properties": {"segment_id": 3119, "physicalid": "329", "street_name": "12 AVE", "borough": "manhattan", "direction": "TF", "total_row_ft": 120.7, "roadbed_ft": 59.7, "median_ft": 31.4, "left_sw_ft": 15.0, "right_sw_ft": 14.6}, "geometry": {"type": "LineString", "coordinates": [[-74.00234225843535, 40.76107115906706], [-74.00196742292478, 40.760918962651374]]}}, {"type": "Feature", "properties": {"segment_id": 3120, "physicalid": "329", "street_name": "12 AVE", "borough": "manhattan", "direction": "TF", "total_row_ft": 120.5, "roadbed_ft": 59.5, "median_ft": 31.3, "left_sw_ft": 15.0, "right_sw_ft": 14.7}, "geometry": {"type": "LineString", "coordinates": [[-74.0023077334493, 40.76111937208892], [-74.00193341569017, 40.7609673858668]]}}, {"type": "Feature", "properties": {"segment_id": 3121, "physicalid": "329", "street_name": "12 AVE", "borough": "manhattan", "direction": "TF", "total_row_ft": 120.2, "roadbed_ft": 59.2, "median_ft": 31.1, "left_sw_ft": 15.0, "right_sw_ft": 14.8}, "geometry": {"type": "LineString", "coordinates": [[-74.00227320841327, 40.76116758510008], [-74.00189940840613, 40.76101580907186]]}}, {"type": "Feature", "properties": {"segment_id": 3122, "physicalid": "329", "street_name": "12 AVE", "borough": "manhattan", "direction": "TF", "total_row_ft": 119.9, "roadbed_ft": 59.0, "median_ft": 31.0, "left_sw_ft": 15.0, "right_sw_ft": 14.9}, "geometry": {"type": "LineString", "coordinates": [[-74.00223868332725, 40.76121579810056], [-74.00186540107265, 40.76106423226649]]}}, {"type": "Feature", "properties": {"segment_id": 3123, "physicalid": "329", "street_name": "12 AVE", "borough": "manhattan", "direction": "TF", "total_row_ft": 119.6, "roadbed_ft": 57.6, "median_ft": 32.1, "left_sw_ft": 15.0, "right_sw_ft": 14.9}, "geometry": {"type": "LineString", "coordinates": [[-74.00220380338598, 40.761263867027694], [-74.00183139368971, 40.76111265545078]]}}, {"type": "Feature", "properties": {"segment_id": 3124, "physicalid": "329", "street_name": "12 AVE", "borough": "manhattan", "direction": "TF", "total_row_ft": 119.0, "roadbed_ft": 57.4, "median_ft": 31.9, "left_sw_ft": 15.0, "right_sw_ft": 14.7}, "geometry": {"type": "LineString", "coordinates": [[-74.00216840615094, 40.76131172592598], [-74.00179738625734, 40.76116107862467]]}}, {"type": "Feature", "properties": {"segment_id": 3125, "physicalid": "331", "street_name": "12 AVE", "borough": "manhattan", "direction": "TF", "total_row_ft": 122.0, "roadbed_ft": 85.7, "median_ft": 0.0, "left_sw_ft": 15.0, "right_sw_ft": 21.3}, "geometry": {"type": "LineString", "coordinates": [[-74.00138953127953, 40.762222861157284], [-74.0010885198097, 40.76198600693993]]}}, {"type": "Feature", "properties": {"segment_id": 3126, "physicalid": "331", "street_name": "12 AVE", "borough": "manhattan", "direction": "TF", "total_row_ft": 135.0, "roadbed_ft": 87.4, "median_ft": 0.0, "left_sw_ft": 15.0, "right_sw_ft": 32.6}, "geometry": {"type": "LineString", "coordinates": [[-74.00133761382095, 40.76226100717187], [-74.00103660236334, 40.76202415282022]]}}, {"type": "Feature", "properties": {"segment_id": 3127, "physicalid": "331", "street_name": "12 AVE", "borough": "manhattan", "direction": "TF", "total_row_ft": 110.5, "roadbed_ft": 56.1, "median_ft": 19.4, "left_sw_ft": 19.4, "right_sw_ft": 15.6}, "geometry": {"type": "LineString", "coordinates": [[-74.0012792930805, 40.76229411473589], [-74.00101802339447, 40.76208853162884]]}}, {"type": "Feature", "properties": {"segment_id": 3128, "physicalid": "331", "street_name": "12 AVE", "borough": "manhattan", "direction": "TF", "total_row_ft": 120.2, "roadbed_ft": 70.7, "median_ft": 19.2, "left_sw_ft": 15.0, "right_sw_ft": 15.3}, "geometry": {"type": "LineString", "coordinates": [[-74.00122855117311, 40.76233318578634], [-74.00093276729224, 40.76210044450995]]}}, {"type": "Feature", "properties": {"segment_id": 3129, "physicalid": "331", "street_name": "12 AVE", "borough": "manhattan", "direction": "TF", "total_row_ft": 121.1, "roadbed_ft": 81.9, "median_ft": 8.8, "left_sw_ft": 15.0, "right_sw_ft": 15.4}, "geometry": {"type": "LineString", "coordinates": [[-74.00117780920618, 40.76237225681419], [-74.00088084966748, 40.7621385903194]]}}, {"type": "Feature", "properties": {"segment_id": 3130, "physicalid": "331", "street_name": "12 AVE", "borough": "manhattan", "direction": "TF", "total_row_ft": 121.6, "roadbed_ft": 82.3, "median_ft": 8.9, "left_sw_ft": 15.0, "right_sw_ft": 15.3}, "geometry": {"type": "LineString", "coordinates": [[-74.00112537490043, 40.76240999623347], [-74.00082893198326, 40.762176736105225]]}}, {"type": "Feature", "properties": {"segment_id": 3131, "physicalid": "331", "street_name": "12 AVE", "borough": "manhattan", "direction": "TF", "total_row_ft": 120.9, "roadbed_ft": 82.1, "median_ft": 8.8, "left_sw_ft": 15.0, "right_sw_ft": 15.0}, "geometry": {"type": "LineString", "coordinates": [[-74.00107226028676, 40.762447200368335], [-74.00077701423955, 40.76221488186745]]}}, {"type": "Feature", "properties": {"segment_id": 3132, "physicalid": "331", "street_name": "12 AVE", "borough": "manhattan", "direction": "TF", "total_row_ft": 120.1, "roadbed_ft": 82.4, "median_ft": 7.9, "left_sw_ft": 15.0, "right_sw_ft": 14.8}, "geometry": {"type": "LineString", "coordinates": [[-74.00101861232989, 40.76248398485853], [-74.00072509643641, 40.76225302760603]]}}, {"type": "Feature", "properties": {"segment_id": 3133, "physicalid": "331", "street_name": "12 AVE", "borough": "manhattan", "direction": "TF", "total_row_ft": 119.4, "roadbed_ft": 82.6, "median_ft": 7.0, "left_sw_ft": 15.0, "right_sw_ft": 14.8}, "geometry": {"type": "LineString", "coordinates": [[-74.00096496431378, 40.762520769323515], [-74.00067317857379, 40.762291173321046]]}}, {"type": "Feature", "properties": {"segment_id": 3134, "physicalid": "331", "street_name": "12 AVE", "borough": "manhattan", "direction": "TF", "total_row_ft": 118.7, "roadbed_ft": 82.8, "median_ft": 6.2, "left_sw_ft": 15.0, "right_sw_ft": 14.7}, "geometry": {"type": "LineString", "coordinates": [[-74.00091131623842, 40.76255755376333], [-74.00062126065168, 40.76232931901242]]}}, {"type": "Feature", "properties": {"segment_id": 3135, "physicalid": "331", "street_name": "12 AVE", "borough": "manhattan", "direction": "TF", "total_row_ft": 123.1, "roadbed_ft": 82.8, "median_ft": 5.6, "left_sw_ft": 15.0, "right_sw_ft": 19.8}, "geometry": {"type": "LineString", "coordinates": [[-74.00087035401764, 40.762604320240754], [-74.00056934267012, 40.7623674646802]]}}, {"type": "Feature", "properties": {"segment_id": 3136, "physicalid": "331", "street_name": "12 AVE", "borough": "manhattan", "direction": "TF", "total_row_ft": 121.8, "roadbed_ft": 82.8, "median_ft": 4.9, "left_sw_ft": 15.0, "right_sw_ft": 19.1}, "geometry": {"type": "LineString", "coordinates": [[-74.00081470504246, 40.762639530297406], [-74.00051742462907, 40.76240561032441]]}}, {"type": "Feature", "properties": {"segment_id": 3137, "physicalid": "331", "street_name": "12 AVE", "borough": "manhattan", "direction": "TF", "total_row_ft": 113.0, "roadbed_ft": 82.8, "median_ft": 4.3, "left_sw_ft": 15.0, "right_sw_ft": 11.0}, "geometry": {"type": "LineString", "coordinates": [[-74.00074040109673, 40.76266006146388], [-74.00046550652858, 40.762443755944936]]}}, {"type": "Feature", "properties": {"segment_id": 3138, "physicalid": "331", "street_name": "12 AVE", "borough": "manhattan", "direction": "TF", "total_row_ft": 150.0, "roadbed_ft": 116.3, "median_ft": 3.7, "left_sw_ft": 15.0, "right_sw_ft": 15.0}, "geometry": {"type": "LineString", "coordinates": [[-74.00071459967943, 40.76271875750538], [-74.00041358836862, 40.762481901541875]]}}, {"type": "Feature", "properties": {"segment_id": 3139, "physicalid": "332", "street_name": "12 AVE", "borough": "manhattan", "direction": "TF", "total_row_ft": 133.1, "roadbed_ft": 99.2, "median_ft": 0.0, "left_sw_ft": 15.0, "right_sw_ft": 18.9}, "geometry": {"type": "LineString", "coordinates": [[-74.00061464402488, 40.76278357116562], [-74.00032540916827, 40.762545455256486]]}}, {"type": "Feature", "properties": {"segment_id": 3140, "physicalid": "332", "street_name": "12 AVE", "borough": "manhattan", "direction": "TF", "total_row_ft": 111.6, "roadbed_ft": 69.3, "median_ft": 9.9, "left_sw_ft": 9.9, "right_sw_ft": 22.4}, "geometry": {"type": "LineString", "coordinates": [[-74.0005620576271, 40.76282118744684], [-74.0003131141678, 40.76261624190824]]}}, {"type": "Feature", "properties": {"segment_id": 3141, "physicalid": "332", "street_name": "12 AVE", "borough": "manhattan", "direction": "TF", "total_row_ft": 126.2, "roadbed_ft": 83.7, "median_ft": 11.8, "left_sw_ft": 15.0, "right_sw_ft": 15.7}, "geometry": {"type": "LineString", "coordinates": [[-74.00050946886282, 40.762858801804484], [-74.00021933469807, 40.762619945222866]]}}, {"type": "Feature", "properties": {"segment_id": 3142, "physicalid": "332", "street_name": "12 AVE", "borough": "manhattan", "direction": "TF", "total_row_ft": 135.7, "roadbed_ft": 82.9, "median_ft": 22.0, "left_sw_ft": 15.0, "right_sw_ft": 15.8}, "geometry": {"type": "LineString", "coordinates": [[-74.0004563619752, 40.76289598963722], [-74.00016629737402, 40.76265719016914]]}}, {"type": "Feature", "properties": {"segment_id": 3143, "physicalid": "332", "street_name": "12 AVE", "borough": "manhattan", "direction": "TF", "total_row_ft": 134.0, "roadbed_ft": 82.3, "median_ft": 21.1, "left_sw_ft": 15.0, "right_sw_ft": 15.6}, "geometry": {"type": "LineString", "coordinates": [[-74.00040214709978, 40.76293226533277], [-74.00011325999063, 40.76269443509079]]}}, {"type": "Feature", "properties": {"segment_id": 3144, "physicalid": "332", "street_name": "12 AVE", "borough": "manhattan", "direction": "TF", "total_row_ft": 132.3, "roadbed_ft": 81.8, "median_ft": 20.2, "left_sw_ft": 15.0, "right_sw_ft": 15.3}, "geometry": {"type": "LineString", "coordinates": [[-74.00034802189263, 40.76296861487149], [-74.00006022254793, 40.76273167998783]]}}, {"type": "Feature", "properties": {"segment_id": 3145, "physicalid": "332", "street_name": "12 AVE", "borough": "manhattan", "direction": "TF", "total_row_ft": 130.7, "roadbed_ft": 81.2, "median_ft": 19.3, "left_sw_ft": 15.0, "right_sw_ft": 15.2}, "geometry": {"type": "LineString", "coordinates": [[-74.00029406469915, 40.76300510275227], [-74.00000718504592, 40.76276892486022]]}}, {"type": "Feature", "properties": {"segment_id": 3146, "physicalid": "332", "street_name": "12 AVE", "borough": "manhattan", "direction": "TF", "total_row_ft": 127.5, "roadbed_ft": 79.0, "median_ft": 18.5, "left_sw_ft": 15.0, "right_sw_ft": 15.1}, "geometry": {"type": "LineString", "coordinates": [[-74.00024010744656, 40.76304159060755], [-73.99995414748454, 40.762806169708035]]}}, {"type": "Feature", "properties": {"segment_id": 3147, "physicalid": "332", "street_name": "12 AVE", "borough": "manhattan", "direction": "TF", "total_row_ft": 121.3, "roadbed_ft": 73.2, "median_ft": 17.6, "left_sw_ft": 15.0, "right_sw_ft": 15.5}, "geometry": {"type": "LineString", "coordinates": [[-74.0001857685519, 40.76307776429478], [-73.99990110986388, 40.76284341453118]]}}, {"type": "Feature", "properties": {"segment_id": 20837, "physicalid": "1710", "street_name": "W 43 ST", "borough": "manhattan", "direction": "FT", "total_row_ft": 119.8, "roadbed_ft": 92.8, "median_ft": 6.0, "left_sw_ft": 15.0, "right_sw_ft": 6.0}, "geometry": {"type": "LineString", "coordinates": [[-74.00045567646124, 40.76241915846161], [-74.00026782905981, 40.762649682246774]]}}, {"type": "Feature", "properties": {"segment_id": 20838, "physicalid": "1710", "street_name": "W 43 ST", "borough": "manhattan", "direction": "FT", "total_row_ft": 150.0, "roadbed_ft": 120.0, "median_ft": 0.0, "left_sw_ft": 15.0, "right_sw_ft": 15.0}, "geometry": {"type": "LineString", "coordinates": [[-74.00051571522764, 40.76244732807465], [-74.00029037110794, 40.7627286223715]]}}, {"type": "Feature", "properties": {"segment_id": 20839, "physicalid": "1710", "street_name": "W 43 ST", "borough": "manhattan", "direction": "FT", "total_row_ft": 150.0, "roadbed_ft": 119.2, "median_ft": 0.8, "left_sw_ft": 15.0, "right_sw_ft": 15.0}, "geometry": {"type": "LineString", "coordinates": [[-74.00057737412065, 40.76247588473275], [-74.00035203016478, 40.762757179149034]]}}, {"type": "Feature", "properties": {"segment_id": 20874, "physicalid": "1711", "street_name": "W 43 ST", "borough": "manhattan", "direction": "FT", "total_row_ft": 57.0, "roadbed_ft": 38.3, "median_ft": 0.0, "left_sw_ft": 11.9, "right_sw_ft": 6.8}, "geometry": {"type": "LineString", "coordinates": [[-74.00007194351038, 40.76234603115173], [-73.99997261674652, 40.762482950689325]]}}, {"type": "Feature", "properties": {"segment_id": 20875, "physicalid": "1711", "street_name": "W 43 ST", "borough": "manhattan", "direction": "FT", "total_row_ft": 60.9, "roadbed_ft": 38.5, "median_ft": 0.0, "left_sw_ft": 11.7, "right_sw_ft": 10.6}, "geometry": {"type": "LineString", "coordinates": [[-74.00013514851426, 40.762372561609766], [-74.0000289855862, 40.76251890480098]]}}, {"type": "Feature", "properties": {"segment_id": 20876, "physicalid": "1711", "street_name": "W 43 ST", "borough": "manhattan", "direction": "FT", "total_row_ft": 91.1, "roadbed_ft": 38.8, "median_ft": 0.0, "left_sw_ft": 11.6, "right_sw_ft": 40.7}, "geometry": {"type": "LineString", "coordinates": [[-74.00019835486236, 40.76239909024949], [-74.00003945722682, 40.76261812704923]]}}, {"type": "Feature", "properties": {"segment_id": 20877, "physicalid": "1711", "street_name": "W 43 ST", "borough": "manhattan", "direction": "FT", "total_row_ft": 131.4, "roadbed_ft": 80.3, "median_ft": 0.0, "left_sw_ft": 36.1, "right_sw_ft": 15.0}, "geometry": {"type": "LineString", "coordinates": [[-74.00030568189025, 40.76236479918881], [-74.00010267482541, 40.76264464050067]]}}, {"type": "Feature", "properties": {"segment_id": 21162, "physicalid": "1725", "street_name": "W 42 ST", "borough": "manhattan", "direction": "TW", "total_row_ft": 150.0, "roadbed_ft": 120.0, "median_ft": 0.0, "left_sw_ft": 15.0, "right_sw_ft": 15.0}, "geometry": {"type": "LineString", "coordinates": [[-74.00120027184114, 40.761853499615206], [-74.00096190141002, 40.76212851544071]]}}, {"type": "Feature", "properties": {"segment_id": 21163, "physicalid": "1725", "street_name": "W 42 ST", "borough": "manhattan", "direction": "TW", "total_row_ft": 144.8, "roadbed_ft": 71.9, "median_ft": 41.6, "left_sw_ft": 13.1, "right_sw_ft": 18.2}, "geometry": {"type": "LineString", "coordinates": [[-74.00126055397705, 40.761883707304754], [-74.00103500753794, 40.762143928009074]]}}, {"type": "Feature", "properties": {"segment_id": 21164, "physicalid": "1725", "street_name": "W 42 ST", "borough": "manhattan", "direction": "TW", "total_row_ft": 147.4, "roadbed_ft": 96.2, "median_ft": 23.8, "left_sw_ft": 12.4, "right_sw_ft": 15.0}, "geometry": {"type": "LineString", "coordinates": [[-74.00130428124903, 40.76190082275683], [-74.00110558462067, 40.76219349800229]]}}, {"type": "Feature", "properties": {"segment_id": 998837, "physicalid": "69472", "street_name": "W 40 ST", "borough": "manhattan", "direction": "TW", "total_row_ft": 62.0, "roadbed_ft": 38.0, "median_ft": 0.0, "left_sw_ft": 11.5, "right_sw_ft": 12.5}, "geometry": {"type": "LineString", "coordinates": [[-74.00041323472432, 40.759932203686674], [-74.00030406147353, 40.7600807763993]]}}, {"type": "Feature", "properties": {"segment_id": 998838, "physicalid": "69472", "street_name": "W 40 ST", "borough": "manhattan", "direction": "TW", "total_row_ft": 62.1, "roadbed_ft": 38.0, "median_ft": 0.0, "left_sw_ft": 11.5, "right_sw_ft": 12.6}, "geometry": {"type": "LineString", "coordinates": [[-74.00047636657041, 40.75995883205941], [-74.0003670462503, 40.76010760510828]]}}, {"type": "Feature", "properties": {"segment_id": 998839, "physicalid": "69472", "street_name": "W 40 ST", "borough": "manhattan", "direction": "TW", "total_row_ft": 62.2, "roadbed_ft": 38.0, "median_ft": 0.0, "left_sw_ft": 11.5, "right_sw_ft": 12.7}, "geometry": {"type": "LineString", "coordinates": [[-74.00053949846695, 40.759985460397445], [-74.00043003107784, 40.76013443378273]]}}, {"type": "Feature", "properties": {"segment_id": 998840, "physicalid": "69472", "street_name": "W 40 ST", "borough": "manhattan", "direction": "TW", "total_row_ft": 62.3, "roadbed_ft": 38.0, "median_ft": 0.0, "left_sw_ft": 11.5, "right_sw_ft": 12.8}, "geometry": {"type": "LineString", "coordinates": [[-74.00060263038262, 40.76001208874347], [-74.00049301582185, 40.76016126260534]]}}, {"type": "Feature", "properties": {"segment_id": 998841, "physicalid": "69472", "street_name": "W 40 ST", "borough": "manhattan", "direction": "TW", "total_row_ft": 62.3, "roadbed_ft": 38.0, "median_ft": 0.0, "left_sw_ft": 11.5, "right_sw_ft": 12.9}, "geometry": {"type": "LineString", "coordinates": [[-74.00066576232771, 40.760038717083425], [-74.00055599886248, 40.7601880937806]]}}, {"type": "Feature", "properties": {"segment_id": 998842, "physicalid": "69472", "street_name": "W 40 ST", "borough": "manhattan", "direction": "TW", "total_row_ft": 62.4, "roadbed_ft": 38.0, "median_ft": 0.0, "left_sw_ft": 11.5, "right_sw_ft": 13.0}, "geometry": {"type": "LineString", "coordinates": [[-74.00072889432329, 40.760065345388675], [-74.00061898195385, 40.76021492492131]]}}, {"type": "Feature", "properties": {"segment_id": 998843, "physicalid": "69472", "street_name": "W 40 ST", "borough": "manhattan", "direction": "TW", "total_row_ft": 62.5, "roadbed_ft": 37.9, "median_ft": 0.0, "left_sw_ft": 11.5, "right_sw_ft": 13.1}, "geometry": {"type": "LineString", "coordinates": [[-74.00079202636934, 40.760091973659236], [-74.00068196427601, 40.76024175714333]]}}, {"type": "Feature", "properties": {"segment_id": 998844, "physicalid": "69472", "street_name": "W 40 ST", "borough": "manhattan", "direction": "TW", "total_row_ft": 62.6, "roadbed_ft": 37.9, "median_ft": 0.0, "left_sw_ft": 11.5, "right_sw_ft": 13.2}, "geometry": {"type": "LineString", "coordinates": [[-74.00085515846588, 40.7601186018951], [-74.00074494496555, 40.760268591621724]]}}, {"type": "Feature", "properties": {"segment_id": 998845, "physicalid": "69472", "street_name": "W 40 ST", "borough": "manhattan", "direction": "TW", "total_row_ft": 62.7, "roadbed_ft": 37.9, "median_ft": 0.0, "left_sw_ft": 11.5, "right_sw_ft": 13.2}, "geometry": {"type": "LineString", "coordinates": [[-74.00091829061289, 40.76014523009625], [-74.00080792570584, 40.76029542606557]]}}, {"type": "Feature", "properties": {"segment_id": 998846, "physicalid": "69472", "street_name": "W 40 ST", "borough": "manhattan", "direction": "TW", "total_row_ft": 62.8, "roadbed_ft": 37.9, "median_ft": 0.0, "left_sw_ft": 11.5, "right_sw_ft": 13.3}, "geometry": {"type": "LineString", "coordinates": [[-74.00098142281038, 40.76017185826271], [-74.00087091052903, 40.760322254987486]]}}, {"type": "Feature", "properties": {"segment_id": 998847, "physicalid": "69472", "street_name": "W 40 ST", "borough": "manhattan", "direction": "TW", "total_row_ft": 62.9, "roadbed_ft": 37.9, "median_ft": 0.0, "left_sw_ft": 11.5, "right_sw_ft": 13.4}, "geometry": {"type": "LineString", "coordinates": [[-74.00104455505834, 40.76019848639445], [-74.00093389703721, 40.76034908165088]]}}, {"type": "Feature", "properties": {"segment_id": 998848, "physicalid": "69472", "street_name": "W 40 ST", "borough": "manhattan", "direction": "TW", "total_row_ft": 62.9, "roadbed_ft": 37.9, "median_ft": 0.0, "left_sw_ft": 11.5, "right_sw_ft": 13.5}, "geometry": {"type": "LineString", "coordinates": [[-74.0011076873568, 40.76022511449148], [-74.00099688113283, 40.76037591163195]]}}, {"type": "Feature", "properties": {"segment_id": 998849, "physicalid": "69472", "street_name": "W 40 ST", "borough": "manhattan", "direction": "TW", "total_row_ft": 63.0, "roadbed_ft": 37.9, "median_ft": 0.0, "left_sw_ft": 11.5, "right_sw_ft": 13.6}, "geometry": {"type": "LineString", "coordinates": [[-74.0011708197057, 40.76025174255383], [-74.00105986527925, 40.76040274157849]]}}, {"type": "Feature", "properties": {"segment_id": 998850, "physicalid": "69472", "street_name": "W 40 ST", "borough": "manhattan", "direction": "TW", "total_row_ft": 63.1, "roadbed_ft": 37.9, "median_ft": 0.0, "left_sw_ft": 11.5, "right_sw_ft": 13.7}, "geometry": {"type": "LineString", "coordinates": [[-74.00123395210512, 40.760278370581496], [-74.00112284947636, 40.76042957149051]]}}, {"type": "Feature", "properties": {"segment_id": 998851, "physicalid": "69472", "street_name": "W 40 ST", "borough": "manhattan", "direction": "TW", "total_row_ft": 63.2, "roadbed_ft": 37.9, "median_ft": 0.0, "left_sw_ft": 11.5, "right_sw_ft": 13.8}, "geometry": {"type": "LineString", "coordinates": [[-74.00129708455499, 40.76030499857442], [-74.00118583372424, 40.76045640136798]]}}, {"type": "Feature", "properties": {"segment_id": 998852, "physicalid": "69472", "street_name": "W 40 ST", "borough": "manhattan", "direction": "TW", "total_row_ft": 63.3, "roadbed_ft": 37.9, "median_ft": 0.0, "left_sw_ft": 11.5, "right_sw_ft": 13.9}, "geometry": {"type": "LineString", "coordinates": [[-74.00136021705534, 40.760331626532675], [-74.00124881822613, 40.76048323093424]]}}, {"type": "Feature", "properties": {"segment_id": 998853, "physicalid": "69472", "street_name": "W 40 ST", "borough": "manhattan", "direction": "TW", "total_row_ft": 63.4, "roadbed_ft": 37.9, "median_ft": 0.0, "left_sw_ft": 11.5, "right_sw_ft": 14.0}, "geometry": {"type": "LineString", "coordinates": [[-74.00142334945407, 40.76035825466321], [-74.00131180278962, 40.760510060451196]]}}, {"type": "Feature", "properties": {"segment_id": 998854, "physicalid": "69472", "street_name": "W 40 ST", "borough": "manhattan", "direction": "TW", "total_row_ft": 63.4, "roadbed_ft": 37.9, "median_ft": 0.0, "left_sw_ft": 11.5, "right_sw_ft": 14.0}, "geometry": {"type": "LineString", "coordinates": [[-74.00148648184691, 40.760384882835766], [-74.00137478715949, 40.76053689026617]]}}, {"type": "Feature", "properties": {"segment_id": 998855, "physicalid": "69472", "street_name": "W 40 ST", "borough": "manhattan", "direction": "TW", "total_row_ft": 63.5, "roadbed_ft": 37.9, "median_ft": 0.0, "left_sw_ft": 11.5, "right_sw_ft": 14.1}, "geometry": {"type": "LineString", "coordinates": [[-74.00154961429024, 40.76041151097363], [-74.00143777158009, 40.760563720046584]]}}, {"type": "Feature", "properties": {"segment_id": 998856, "physicalid": "69472", "street_name": "W 40 ST", "borough": "manhattan", "direction": "TW", "total_row_ft": 63.6, "roadbed_ft": 37.9, "median_ft": 0.0, "left_sw_ft": 11.5, "right_sw_ft": 14.2}, "geometry": {"type": "LineString", "coordinates": [[-74.00161274678402, 40.760438139076776], [-74.00150075605146, 40.76059054979249]]}}, {"type": "Feature", "properties": {"segment_id": 998857, "physicalid": "69472", "street_name": "W 40 ST", "borough": "manhattan", "direction": "TW", "total_row_ft": 63.7, "roadbed_ft": 37.9, "median_ft": 0.0, "left_sw_ft": 11.5, "right_sw_ft": 14.3}, "geometry": {"type": "LineString", "coordinates": [[-74.00167587932832, 40.76046476714524], [-74.00156374057353, 40.760617379503834]]}}, {"type": "Feature", "properties": {"segment_id": 998858, "physicalid": "69472", "street_name": "W 40 ST", "borough": "manhattan", "direction": "TW", "total_row_ft": 63.8, "roadbed_ft": 37.9, "median_ft": 0.0, "left_sw_ft": 11.5, "right_sw_ft": 14.4}, "geometry": {"type": "LineString", "coordinates": [[-74.00173901192305, 40.760491395178974], [-74.00162672514638, 40.76064420918067]]}}, {"type": "Feature", "properties": {"segment_id": 998859, "physicalid": "69472", "street_name": "W 40 ST", "borough": "manhattan", "direction": "TW", "total_row_ft": 63.9, "roadbed_ft": 37.9, "median_ft": 0.0, "left_sw_ft": 11.5, "right_sw_ft": 14.5}, "geometry": {"type": "LineString", "coordinates": [[-74.0018021445683, 40.760518023178015], [-74.00168970976993, 40.76067103882291]]}}, {"type": "Feature", "properties": {"segment_id": 998860, "physicalid": "69472", "street_name": "W 40 ST", "borough": "manhattan", "direction": "TW", "total_row_ft": 63.9, "roadbed_ft": 37.9, "median_ft": 0.0, "left_sw_ft": 11.5, "right_sw_ft": 14.6}, "geometry": {"type": "LineString", "coordinates": [[-74.001865277264, 40.76054465114236], [-74.00175269444428, 40.76069786843065]]}}, {"type": "Feature", "properties": {"segment_id": 998861, "physicalid": "69472", "street_name": "W 40 ST", "borough": "manhattan", "direction": "TW", "total_row_ft": 64.0, "roadbed_ft": 37.9, "median_ft": 0.0, "left_sw_ft": 11.5, "right_sw_ft": 14.7}, "geometry": {"type": "LineString", "coordinates": [[-74.00192841001021, 40.760571279072], [-74.00181567916931, 40.760724698003834]]}}, {"type": "Feature", "properties": {"segment_id": 998862, "physicalid": "69472", "street_name": "W 40 ST", "borough": "manhattan", "direction": "TW", "total_row_ft": 120.0, "roadbed_ft": 37.9, "median_ft": 0.0, "left_sw_ft": 40.9, "right_sw_ft": 41.2}, "geometry": {"type": "LineString", "coordinates": [[-74.00204334345018, 40.76052740948316], [-74.00183206626255, 40.760814943629676]]}}, {"type": "Feature", "properties": {"segment_id": 998863, "physicalid": "69472", "street_name": "W 40 ST", "borough": "manhattan", "direction": "TW", "total_row_ft": 150.0, "roadbed_ft": 120.0, "median_ft": 0.0, "left_sw_ft": 15.0, "right_sw_ft": 15.0}, "geometry": {"type": "LineString", "coordinates": [[-74.00210636825706, 40.76055418428909], [-74.00189509125654, 40.76084171855003]]}}, {"type": "Feature", "properties": {"segment_id": 1423810, "physicalid": "96531", "street_name": "W 41 ST", "borough": "manhattan", "direction": "FT", "total_row_ft": 150.0, "roadbed_ft": 99.2, "median_ft": 20.8, "left_sw_ft": 15.0, "right_sw_ft": 15.0}, "geometry": {"type": "LineString", "coordinates": [[-74.00165237912721, 40.76117885219823], [-74.00169856702007, 40.761506343675535]]}}, {"type": "Feature", "properties": {"segment_id": 1423811, "physicalid": "96531", "street_name": "W 41 ST", "borough": "manhattan", "direction": "FT", "total_row_ft": 150.0, "roadbed_ft": 105.9, "median_ft": 14.1, "left_sw_ft": 15.0, "right_sw_ft": 15.0}, "geometry": {"type": "LineString", "coordinates": [[-74.00172416283647, 40.761172998918724], [-74.00177035107825, 40.76150049036752]]}}, {"type": "Feature", "properties": {"segment_id": 1423812, "physicalid": "96531", "street_name": "W 41 ST", "borough": "manhattan", "direction": "FT", "total_row_ft": 150.0, "roadbed_ft": 100.9, "median_ft": 19.1, "left_sw_ft": 15.0, "right_sw_ft": 15.0}, "geometry": {"type": "LineString", "coordinates": [[-74.00173769273563, 40.76117005165161], [-74.00189557341481, 40.761476764552164]]}}, {"type": "Feature", "properties": {"segment_id": 1423813, "physicalid": "96531", "street_name": "W 41 ST", "borough": "manhattan", "direction": "FT", "total_row_ft": 150.0, "roadbed_ft": 86.4, "median_ft": 33.6, "left_sw_ft": 15.0, "right_sw_ft": 15.0}, "geometry": {"type": "LineString", "coordinates": [[-74.00180492193304, 40.76115004386435], [-74.00196280287439, 40.76145675667369]]}}, {"type": "Feature", "properties": {"segment_id": 1659143, "physicalid": "166499", "street_name": "W 39 ST", "borough": "manhattan", "direction": "TW", "total_row_ft": 150.0, "roadbed_ft": 120.0, "median_ft": 0.0, "left_sw_ft": 15.0, "right_sw_ft": 15.0}, "geometry": {"type": "LineString", "coordinates": [[-74.00268879310433, 40.759988268852055], [-74.00246765983825, 40.76027148497185]]}}, {"type": "Feature", "properties": {"segment_id": 1659144, "physicalid": "166499", "street_name": "W 39 ST", "borough": "manhattan", "direction": "TW", "total_row_ft": 135.3, "roadbed_ft": 93.4, "median_ft": 22.7, "left_sw_ft": 4.1, "right_sw_ft": 15.0}, "geometry": {"type": "LineString", "coordinates": [[-74.00273084938623, 40.760019943848334], [-74.00254362974039, 40.76030520713262]]}}, {"type": "Feature", "properties": {"segment_id": 1704361, "physicalid": "178036", "street_name": "W 42 ST", "borough": "manhattan", "direction": "TW", "total_row_ft": 113.4, "roadbed_ft": 69.3, "median_ft": 9.0, "left_sw_ft": 15.8, "right_sw_ft": 19.3}, "geometry": {"type": "LineString", "coordinates": [[-74.00015273690386, 40.76143915669679], [-73.99997032757265, 40.761689757936274]]}}, {"type": "Feature", "properties": {"segment_id": 1704362, "physicalid": "178036", "street_name": "W 42 ST", "borough": "manhattan", "direction": "TW", "total_row_ft": 122.7, "roadbed_ft": 69.3, "median_ft": 8.6, "left_sw_ft": 25.6, "right_sw_ft": 19.2}, "geometry": {"type": "LineString", "coordinates": [[-74.0002329941441, 40.761442258847836], [-74.0000335309737, 40.761716289802216]]}}, {"type": "Feature", "properties": {"segment_id": 1704363, "physicalid": "178036", "street_name": "W 42 ST", "borough": "manhattan", "direction": "TW", "total_row_ft": 117.4, "roadbed_ft": 69.3, "median_ft": 6.9, "left_sw_ft": 25.6, "right_sw_ft": 15.6}, "geometry": {"type": "LineString", "coordinates": [[-74.00029616071186, 40.76146884099514], [-74.00010297931398, 40.76173424216888]]}}, {"type": "Feature", "properties": {"segment_id": 1704364, "physicalid": "178036", "street_name": "W 42 ST", "borough": "manhattan", "direction": "TW", "total_row_ft": 116.8, "roadbed_ft": 69.3, "median_ft": 5.1, "left_sw_ft": 25.7, "right_sw_ft": 16.7}, "geometry": {"type": "LineString", "coordinates": [[-74.00035932733005, 40.76149542310773], [-74.0001640564791, 40.76176369519986]]}}, {"type": "Feature", "properties": {"segment_id": 1704365, "physicalid": "178036", "street_name": "W 42 ST", "borough": "manhattan", "direction": "TW", "total_row_ft": 115.0, "roadbed_ft": 69.4, "median_ft": 3.3, "left_sw_ft": 25.7, "right_sw_ft": 16.6}, "geometry": {"type": "LineString", "coordinates": [[-74.00042249399864, 40.761522005185554], [-74.00022726017271, 40.76179022675972]]}}, {"type": "Feature", "properties": {"segment_id": 1704366, "physicalid": "178036", "street_name": "W 42 ST", "borough": "manhattan", "direction": "TW", "total_row_ft": 113.1, "roadbed_ft": 69.4, "median_ft": 1.5, "left_sw_ft": 25.7, "right_sw_ft": 16.5}, "geometry": {"type": "LineString", "coordinates": [[-74.00048566071767, 40.76154858722867], [-74.00029046108276, 40.761816762178114]]}}, {"type": "Feature", "properties": {"segment_id": 1704367, "physicalid": "178036", "street_name": "W 42 ST", "borough": "manhattan", "direction": "TW", "total_row_ft": 111.7, "roadbed_ft": 69.4, "median_ft": 0.0, "left_sw_ft": 25.8, "right_sw_ft": 16.5}, "geometry": {"type": "LineString", "coordinates": [[-74.00054882748712, 40.76157516923701], [-74.00035365565275, 40.76184330634118]]}}, {"type": "Feature", "properties": {"segment_id": 1704368, "physicalid": "178036", "street_name": "W 42 ST", "borough": "manhattan", "direction": "TW", "total_row_ft": 111.6, "roadbed_ft": 69.5, "median_ft": 0.0, "left_sw_ft": 25.8, "right_sw_ft": 16.4}, "geometry": {"type": "LineString", "coordinates": [[-74.00061199430698, 40.76160175121064], [-74.00041685027313, 40.76186985046945]]}}, {"type": "Feature", "properties": {"segment_id": 1704369, "physicalid": "178036", "street_name": "W 42 ST", "borough": "manhattan", "direction": "TW", "total_row_ft": 111.6, "roadbed_ft": 69.5, "median_ft": 0.0, "left_sw_ft": 25.8, "right_sw_ft": 16.3}, "geometry": {"type": "LineString", "coordinates": [[-74.00067516117726, 40.76162833314953], [-74.00048004494387, 40.76189639456299]]}}, {"type": "Feature", "properties": {"segment_id": 1704370, "physicalid": "178036", "street_name": "W 42 ST", "borough": "manhattan", "direction": "TW", "total_row_ft": 111.6, "roadbed_ft": 69.6, "median_ft": 0.0, "left_sw_ft": 25.7, "right_sw_ft": 16.3}, "geometry": {"type": "LineString", "coordinates": [[-74.00073832809795, 40.76165491505367], [-74.00054323966499, 40.761922938621744]]}}, {"type": "Feature", "properties": {"segment_id": 1704371, "physicalid": "178036", "street_name": "W 42 ST", "borough": "manhattan", "direction": "TW", "total_row_ft": 111.6, "roadbed_ft": 69.8, "median_ft": 0.0, "left_sw_ft": 25.6, "right_sw_ft": 16.2}, "geometry": {"type": "LineString", "coordinates": [[-74.00080149506907, 40.76168149692308], [-74.00060643456263, 40.76194948247241]]}}, {"type": "Feature", "properties": {"segment_id": 1704372, "physicalid": "178036", "street_name": "W 42 ST", "borough": "manhattan", "direction": "TW", "total_row_ft": 111.6, "roadbed_ft": 69.9, "median_ft": 0.0, "left_sw_ft": 25.5, "right_sw_ft": 16.2}, "geometry": {"type": "LineString", "coordinates": [[-74.00086466209062, 40.76170807875774], [-74.00066962953514, 40.76197602625464]]}}, {"type": "Feature", "properties": {"segment_id": 1704373, "physicalid": "178036", "street_name": "W 42 ST", "borough": "manhattan", "direction": "TW", "total_row_ft": 111.6, "roadbed_ft": 70.0, "median_ft": 0.0, "left_sw_ft": 25.4, "right_sw_ft": 16.1}, "geometry": {"type": "LineString", "coordinates": [[-74.00092782916256, 40.76173466055768], [-74.00073282455801, 40.7620025700021]]}}, {"type": "Feature", "properties": {"segment_id": 1704374, "physicalid": "178036", "street_name": "W 42 ST", "borough": "manhattan", "direction": "TW", "total_row_ft": 120.0, "roadbed_ft": 71.0, "median_ft": 0.0, "left_sw_ft": 25.4, "right_sw_ft": 23.6}, "geometry": {"type": "LineString", "coordinates": [[-74.00099099628495, 40.761761242322876], [-74.00078123870829, 40.76204942059]]}}, {"type": "Feature", "properties": {"segment_id": 1704375, "physicalid": "178036", "street_name": "W 42 ST", "borough": "manhattan", "direction": "TW", "total_row_ft": 135.0, "roadbed_ft": 95.0, "median_ft": 0.0, "left_sw_ft": 25.0, "right_sw_ft": 15.0}, "geometry": {"type": "LineString", "coordinates": [[-74.00105416345774, 40.76178782405331], [-74.00084440607067, 40.76207600243435]]}}, {"type": "Feature", "properties": {"segment_id": 1704395, "physicalid": "178037", "street_name": "W 41 ST", "borough": "manhattan", "direction": "FT", "total_row_ft": 65.2, "roadbed_ft": 41.4, "median_ft": 3.4, "left_sw_ft": 10.8, "right_sw_ft": 9.7}, "geometry": {"type": "LineString", "coordinates": [[-74.00010019650064, 40.76060519987733], [-73.9999918825006, 40.76075365491712]]}}, {"type": "Feature", "properties": {"segment_id": 1704396, "physicalid": "178037", "street_name": "W 41 ST", "borough": "manhattan", "direction": "FT", "total_row_ft": 65.0, "roadbed_ft": 40.8, "median_ft": 3.5, "left_sw_ft": 11.0, "right_sw_ft": 9.7}, "geometry": {"type": "LineString", "coordinates": [[-74.00016318032223, 40.76063203147007], [-74.00005541198433, 40.760779738818194]]}}, {"type": "Feature", "properties": {"segment_id": 1704397, "physicalid": "178037", "street_name": "W 41 ST", "borough": "manhattan", "direction": "FT", "total_row_ft": 65.2, "roadbed_ft": 40.3, "median_ft": 3.5, "left_sw_ft": 11.2, "right_sw_ft": 10.1}, "geometry": {"type": "LineString", "coordinates": [[-74.00022616419456, 40.76065886302827], [-74.00011825551216, 40.760806762922726]]}}, {"type": "Feature", "properties": {"segment_id": 1704398, "physicalid": "178037", "street_name": "W 41 ST", "borough": "manhattan", "direction": "FT", "total_row_ft": 65.3, "roadbed_ft": 39.9, "median_ft": 3.6, "left_sw_ft": 11.4, "right_sw_ft": 10.4}, "geometry": {"type": "LineString", "coordinates": [[-74.00028914811766, 40.76068569455193], [-74.00018109881701, 40.760833787368334]]}}, {"type": "Feature", "properties": {"segment_id": 1704399, "physicalid": "178037", "street_name": "W 41 ST", "borough": "manhattan", "direction": "FT", "total_row_ft": 65.4, "roadbed_ft": 39.6, "median_ft": 3.6, "left_sw_ft": 11.6, "right_sw_ft": 10.6}, "geometry": {"type": "LineString", "coordinates": [[-74.00035213209146, 40.76071252604107], [-74.00024394421999, 40.76086080897375]]}}, {"type": "Feature", "properties": {"segment_id": 1704400, "physicalid": "178037", "street_name": "W 41 ST", "borough": "manhattan", "direction": "FT", "total_row_ft": 65.4, "roadbed_ft": 39.4, "median_ft": 3.6, "left_sw_ft": 11.7, "right_sw_ft": 10.8}, "geometry": {"type": "LineString", "coordinates": [[-74.00041511611605, 40.76073935749565], [-74.0003067905113, 40.76088782939712]]}}, {"type": "Feature", "properties": {"segment_id": 1704401, "physicalid": "178037", "street_name": "W 41 ST", "borough": "manhattan", "direction": "FT", "total_row_ft": 65.4, "roadbed_ft": 39.4, "median_ft": 3.6, "left_sw_ft": 11.6, "right_sw_ft": 10.8}, "geometry": {"type": "LineString", "coordinates": [[-74.000478100431, 40.760766188587255], [-74.00036980040747, 40.76091462561819]]}}, {"type": "Feature", "properties": {"segment_id": 1704402, "physicalid": "178037", "street_name": "W 41 ST", "borough": "manhattan", "direction": "FT", "total_row_ft": 65.3, "roadbed_ft": 39.5, "median_ft": 3.6, "left_sw_ft": 11.4, "right_sw_ft": 10.8}, "geometry": {"type": "LineString", "coordinates": [[-74.00054108603084, 40.760793017952764], [-74.00043296697714, 40.76094120713631]]}}, {"type": "Feature", "properties": {"segment_id": 1704403, "physicalid": "178037", "street_name": "W 41 ST", "borough": "manhattan", "direction": "FT", "total_row_ft": 65.2, "roadbed_ft": 39.5, "median_ft": 3.6, "left_sw_ft": 11.3, "right_sw_ft": 10.8}, "geometry": {"type": "LineString", "coordinates": [[-74.00060407168142, 40.76081984728375], [-74.00049613359724, 40.76096778861966]]}}, {"type": "Feature", "properties": {"segment_id": 1704404, "physicalid": "178037", "street_name": "W 41 ST", "borough": "manhattan", "direction": "FT", "total_row_ft": 65.2, "roadbed_ft": 39.6, "median_ft": 3.6, "left_sw_ft": 11.1, "right_sw_ft": 10.8}, "geometry": {"type": "LineString", "coordinates": [[-74.00066705738273, 40.760846676580194], [-74.00055930026774, 40.76099437006831]]}}, {"type": "Feature", "properties": {"segment_id": 1704405, "physicalid": "178037", "street_name": "W 41 ST", "borough": "manhattan", "direction": "FT", "total_row_ft": 65.1, "roadbed_ft": 39.8, "median_ft": 3.7, "left_sw_ft": 10.9, "right_sw_ft": 10.8}, "geometry": {"type": "LineString", "coordinates": [[-74.00073004313478, 40.76087350584209], [-74.00062246698867, 40.76102095148219]]}}, {"type": "Feature", "properties": {"segment_id": 1704406, "physicalid": "178037", "street_name": "W 41 ST", "borough": "manhattan", "direction": "FT", "total_row_ft": 65.0, "roadbed_ft": 40.0, "median_ft": 3.6, "left_sw_ft": 10.5, "right_sw_ft": 10.8}, "geometry": {"type": "LineString", "coordinates": [[-74.0007930289376, 40.76090033506947], [-74.00068563376001, 40.76104753286137]]}}, {"type": "Feature", "properties": {"segment_id": 1704407, "physicalid": "178037", "street_name": "W 41 ST", "borough": "manhattan", "direction": "FT", "total_row_ft": 64.7, "roadbed_ft": 40.3, "median_ft": 3.5, "left_sw_ft": 10.2, "right_sw_ft": 10.7}, "geometry": {"type": "LineString", "coordinates": [[-74.00085601479113, 40.76092716426227], [-74.00074880058179, 40.761074114205776]]}}, {"type": "Feature", "properties": {"segment_id": 1704408, "physicalid": "178037", "street_name": "W 41 ST", "borough": "manhattan", "direction": "FT", "total_row_ft": 64.4, "roadbed_ft": 40.6, "median_ft": 3.3, "left_sw_ft": 9.9, "right_sw_ft": 10.7}, "geometry": {"type": "LineString", "coordinates": [[-74.00091900069542, 40.760953993420564], [-74.00081196745396, 40.76110069551546]]}}, {"type": "Feature", "properties": {"segment_id": 1704409, "physicalid": "178037", "street_name": "W 41 ST", "borough": "manhattan", "direction": "FT", "total_row_ft": 64.1, "roadbed_ft": 40.8, "median_ft": 3.1, "left_sw_ft": 9.5, "right_sw_ft": 10.6}, "geometry": {"type": "LineString", "coordinates": [[-74.00098198617889, 40.7609808231906], [-74.00087513437656, 40.76112727679041]]}}, {"type": "Feature", "properties": {"segment_id": 1704410, "physicalid": "178037", "street_name": "W 41 ST", "borough": "manhattan", "direction": "FT", "total_row_ft": 63.9, "roadbed_ft": 41.1, "median_ft": 2.9, "left_sw_ft": 9.2, "right_sw_ft": 10.6}, "geometry": {"type": "LineString", "coordinates": [[-74.00104497144812, 40.761007653289305], [-74.00093830134956, 40.761153858030596]]}}, {"type": "Feature", "properties": {"segment_id": 1704411, "physicalid": "178037", "street_name": "W 41 ST", "borough": "manhattan", "direction": "FT", "total_row_ft": 63.6, "roadbed_ft": 41.2, "median_ft": 2.8, "left_sw_ft": 9.0, "right_sw_ft": 10.6}, "geometry": {"type": "LineString", "coordinates": [[-74.0011079567681, 40.7610344833535], [-74.00100146837299, 40.761180439236085]]}}, {"type": "Feature", "properties": {"segment_id": 1704412, "physicalid": "178037", "street_name": "W 41 ST", "borough": "manhattan", "direction": "FT", "total_row_ft": 60.7, "roadbed_ft": 41.3, "median_ft": 0.0, "left_sw_ft": 8.8, "right_sw_ft": 10.5}, "geometry": {"type": "LineString", "coordinates": [[-74.00117094213881, 40.76106131338311], [-74.00106463544685, 40.76120702040678]]}}, {"type": "Feature", "properties": {"segment_id": 1704413, "physicalid": "178037", "street_name": "W 41 ST", "borough": "manhattan", "direction": "FT", "total_row_ft": 60.6, "roadbed_ft": 41.4, "median_ft": 0.0, "left_sw_ft": 8.7, "right_sw_ft": 10.5}, "geometry": {"type": "LineString", "coordinates": [[-74.00123392756026, 40.76108814337821], [-74.0011278025711, 40.76123360154278]]}}, {"type": "Feature", "properties": {"segment_id": 1704414, "physicalid": "178037", "street_name": "W 41 ST", "borough": "manhattan", "direction": "FT", "total_row_ft": 60.5, "roadbed_ft": 41.4, "median_ft": 0.0, "left_sw_ft": 8.5, "right_sw_ft": 10.6}, "geometry": {"type": "LineString", "coordinates": [[-74.00129691303248, 40.76111497333873], [-74.00119096974579, 40.76126018264401]]}}, {"type": "Feature", "properties": {"segment_id": 1704415, "physicalid": "178037", "street_name": "W 41 ST", "borough": "manhattan", "direction": "FT", "total_row_ft": 60.4, "roadbed_ft": 41.3, "median_ft": 0.0, "left_sw_ft": 8.3, "right_sw_ft": 10.8}, "geometry": {"type": "LineString", "coordinates": [[-74.00135989855542, 40.76114180326474], [-74.00125413697089, 40.76128676371054]]}}, {"type": "Feature", "properties": {"segment_id": 1704416, "physicalid": "178037", "street_name": "W 41 ST", "borough": "manhattan", "direction": "FT", "total_row_ft": 60.3, "roadbed_ft": 41.2, "median_ft": 0.0, "left_sw_ft": 8.2, "right_sw_ft": 10.9}, "geometry": {"type": "LineString", "coordinates": [[-74.00142288412941, 40.76116863315578], [-74.00131730424641, 40.76131334474232]]}}, {"type": "Feature", "properties": {"segment_id": 1704417, "physicalid": "178037", "street_name": "W 41 ST", "borough": "manhattan", "direction": "FT", "total_row_ft": 60.2, "roadbed_ft": 41.1, "median_ft": 0.0, "left_sw_ft": 8.0, "right_sw_ft": 11.1}, "geometry": {"type": "LineString", "coordinates": [[-74.00148586975597, 40.76119546300977], [-74.00138047157236, 40.76133992573933]]}}, {"type": "Feature", "properties": {"segment_id": 1704418, "physicalid": "178037", "street_name": "W 41 ST", "borough": "manhattan", "direction": "FT", "total_row_ft": 120.0, "roadbed_ft": 41.3, "median_ft": 0.0, "left_sw_ft": 38.0, "right_sw_ft": 40.7}, "geometry": {"type": "LineString", "coordinates": [[-74.00160148283162, 40.76115015936549], [-74.00139134831797, 40.76143817803769]]}}, {"type": "Feature", "properties": {"segment_id": 1704419, "physicalid": "178037", "street_name": "W 41 ST", "borough": "manhattan", "direction": "FT", "total_row_ft": 150.0, "roadbed_ft": 120.0, "median_ft": 0.0, "left_sw_ft": 15.0, "right_sw_ft": 15.0}, "geometry": {"type": "LineString", "coordinates": [[-74.00166461443739, 40.76117678911048], [-74.0014544801127, 40.761464807896694]]}}, {"type": "Feature", "properties": {"segment_id": 1775287, "physicalid": "192507", "street_name": "12 AVE", "borough": "manhattan", "direction": "TF", "total_row_ft": 118.0, "roadbed_ft": 65.7, "median_ft": 23.0, "left_sw_ft": 15.0, "right_sw_ft": 14.3}, "geometry": {"type": "LineString", "coordinates": [[-74.0021118763672, 40.76138815696064], [-74.00174143845449, 40.76124173206009]]}}, {"type": "Feature", "properties": {"segment_id": 1775288, "physicalid": "192507", "street_name": "12 AVE", "borough": "manhattan", "direction": "TF", "total_row_ft": 117.3, "roadbed_ft": 88.1, "median_ft": 0.0, "left_sw_ft": 15.0, "right_sw_ft": 14.2}, "geometry": {"type": "LineString", "coordinates": [[-74.00207646826786, 40.76143603034019], [-74.0017081383606, 40.76129043864886]]}}, {"type": "Feature", "properties": {"segment_id": 1775289, "physicalid": "192507", "street_name": "12 AVE", "borough": "manhattan", "direction": "TF", "total_row_ft": 150.0, "roadbed_ft": 103.7, "median_ft": 16.3, "left_sw_ft": 15.0, "right_sw_ft": 15.0}, "geometry": {"type": "LineString", "coordinates": [[-74.00205918038687, 40.76149106615721], [-74.001674838218, 40.761339145227666]]}}, {"type": "Feature", "properties": {"segment_id": 1775290, "physicalid": "192508", "street_name": "12 AVE", "borough": "manhattan", "direction": "TF", "total_row_ft": 104.7, "roadbed_ft": 54.6, "median_ft": 22.4, "left_sw_ft": 15.0, "right_sw_ft": 12.7}, "geometry": {"type": "LineString", "coordinates": [[-74.00191621753518, 40.76158563620562], [-74.00160065579207, 40.76144318708505]]}}, {"type": "Feature", "properties": {"segment_id": 1775291, "physicalid": "192508", "street_name": "12 AVE", "borough": "manhattan", "direction": "TF", "total_row_ft": 113.9, "roadbed_ft": 46.0, "median_ft": 31.4, "left_sw_ft": 15.0, "right_sw_ft": 21.4}, "geometry": {"type": "LineString", "coordinates": [[-74.00193598441288, 40.76165839927916], [-74.00156380007735, 40.76149039001947]]}}, {"type": "Feature", "properties": {"segment_id": 1775292, "physicalid": "192508", "street_name": "12 AVE", "borough": "manhattan", "direction": "TF", "total_row_ft": 114.7, "roadbed_ft": 45.9, "median_ft": 32.5, "left_sw_ft": 15.0, "right_sw_ft": 21.3}, "geometry": {"type": "LineString", "coordinates": [[-74.00189500098922, 40.76170939486207], [-74.00152923566709, 40.76153293866119]]}}, {"type": "Feature", "properties": {"segment_id": 1775293, "physicalid": "192508", "street_name": "12 AVE", "borough": "manhattan", "direction": "TF", "total_row_ft": 114.5, "roadbed_ft": 46.2, "median_ft": 33.2, "left_sw_ft": 15.0, "right_sw_ft": 20.1}, "geometry": {"type": "LineString", "coordinates": [[-74.00185632288365, 40.76175574720738], [-74.00149055740948, 40.76157929088492]]}}, {"type": "Feature", "properties": {"segment_id": 1775294, "physicalid": "192508", "street_name": "12 AVE", "borough": "manhattan", "direction": "TF", "total_row_ft": 113.9, "roadbed_ft": 46.0, "median_ft": 34.4, "left_sw_ft": 15.0, "right_sw_ft": 18.6}, "geometry": {"type": "LineString", "coordinates": [[-74.0018133789031, 40.76180580600745], [-74.00145464694208, 40.76162119007575]]}}, {"type": "Feature", "properties": {"segment_id": 1775295, "physicalid": "192508", "street_name": "12 AVE", "borough": "manhattan", "direction": "TF", "total_row_ft": 113.9, "roadbed_ft": 46.3, "median_ft": 34.9, "left_sw_ft": 15.0, "right_sw_ft": 17.7}, "geometry": {"type": "LineString", "coordinates": [[-74.00177291216583, 40.76185126697432], [-74.00141418007208, 40.7616666509179]]}}, {"type": "Feature", "properties": {"segment_id": 1775296, "physicalid": "192508", "street_name": "12 AVE", "borough": "manhattan", "direction": "TF", "total_row_ft": 114.5, "roadbed_ft": 46.3, "median_ft": 35.8, "left_sw_ft": 15.0, "right_sw_ft": 17.4}, "geometry": {"type": "LineString", "coordinates": [[-74.00172832743743, 40.76190049085145], [-74.00137694348737, 40.76170787731551]]}}, {"type": "Feature", "properties": {"segment_id": 1775297, "physicalid": "192508", "street_name": "12 AVE", "borough": "manhattan", "direction": "TF", "total_row_ft": 114.0, "roadbed_ft": 46.7, "median_ft": 36.3, "left_sw_ft": 15.0, "right_sw_ft": 16.0}, "geometry": {"type": "LineString", "coordinates": [[-74.0016861076016, 40.761945020568795], [-74.0013347235387, 40.761752406905345]]}}, {"type": "Feature", "properties": {"segment_id": 1775298, "physicalid": "192508", "street_name": "12 AVE", "borough": "manhattan", "direction": "TF", "total_row_ft": 113.7, "roadbed_ft": 46.4, "median_ft": 37.2, "left_sw_ft": 15.0, "right_sw_ft": 15.1}, "geometry": {"type": "LineString", "coordinates": [[-74.00163990909294, 40.761993379566704], [-74.00129618164033, 40.761792937263934]]}}, {"type": "Feature", "properties": {"segment_id": 1775299, "physicalid": "192508", "street_name": "12 AVE", "borough": "manhattan", "direction": "TF", "total_row_ft": 84.7, "roadbed_ft": 34.4, "median_ft": 7.4, "left_sw_ft": 7.4, "right_sw_ft": 35.5}, "geometry": {"type": "LineString", "coordinates": [[-74.00159506226981, 40.762036407766274], [-74.00137370307537, 40.761907323876464]]}}, {"type": "Feature", "properties": {"segment_id": 1775300, "physicalid": "192508", "street_name": "12 AVE", "borough": "manhattan", "direction": "TF", "total_row_ft": 132.9, "roadbed_ft": 36.4, "median_ft": 38.5, "left_sw_ft": 25.3, "right_sw_ft": 32.7}, "geometry": {"type": "LineString", "coordinates": [[-74.00154960751888, 40.762079081474596], [-74.00124146986869, 40.76189939307427]]}}, {"type": "Feature", "properties": {"segment_id": 1775301, "physicalid": "192508", "street_name": "12 AVE", "borough": "manhattan", "direction": "TF", "total_row_ft": 150.0, "roadbed_ft": 120.0, "median_ft": 0.0, "left_sw_ft": 15.0, "right_sw_ft": 15.0}, "geometry": {"type": "LineString", "coordinates": [[-74.00150257544999, 40.76212695415708], [-74.00116680605498, 40.7619188588181]]}}, {"type": "Feature", "properties": {"segment_id": 1775302, "physicalid": "192511", "street_name": "12 AVE", "borough": "manhattan", "direction": "FT", "total_row_ft": 135.0, "roadbed_ft": 113.9, "median_ft": 0.0, "left_sw_ft": 15.0, "right_sw_ft": 6.1}, "geometry": {"type": "LineString", "coordinates": [[-74.00179574858367, 40.76145323794757], [-74.00140224782311, 40.761315538427496]]}}, {"type": "Feature", "properties": {"segment_id": 1775303, "physicalid": "192511", "street_name": "12 AVE", "borough": "manhattan", "direction": "FT", "total_row_ft": 124.0, "roadbed_ft": 72.1, "median_ft": 21.6, "left_sw_ft": 15.0, "right_sw_ft": 15.3}, "geometry": {"type": "LineString", "coordinates": [[-74.00176556586585, 40.76150310528972], [-74.00140811200248, 40.76137801988598]]}}, {"type": "Feature", "properties": {"segment_id": 1775304, "physicalid": "192512", "street_name": "12 AVE", "borough": "manhattan", "direction": "FT", "total_row_ft": 126.5, "roadbed_ft": 63.0, "median_ft": 32.4, "left_sw_ft": 15.0, "right_sw_ft": 16.2}, "geometry": {"type": "LineString", "coordinates": [[-74.00169864799189, 40.76160374634127], [-74.00134874405495, 40.76145234686798]]}}, {"type": "Feature", "properties": {"segment_id": 1775305, "physicalid": "192512", "street_name": "12 AVE", "borough": "manhattan", "direction": "FT", "total_row_ft": 127.5, "roadbed_ft": 62.5, "median_ft": 33.1, "left_sw_ft": 15.0, "right_sw_ft": 16.9}, "geometry": {"type": "LineString", "coordinates": [[-74.00166294125316, 40.761651457162245], [-74.00130999002806, 40.761498739119816]]}}, {"type": "Feature", "properties": {"segment_id": 1775306, "physicalid": "192512", "street_name": "12 AVE", "borough": "manhattan", "direction": "FT", "total_row_ft": 127.7, "roadbed_ft": 61.1, "median_ft": 34.4, "left_sw_ft": 15.0, "right_sw_ft": 17.1}, "geometry": {"type": "LineString", "coordinates": [[-74.00161710607986, 40.76170619124887], [-74.00127648892541, 40.761537200589196]]}}, {"type": "Feature", "properties": {"segment_id": 1775307, "physicalid": "192512", "street_name": "12 AVE", "borough": "manhattan", "direction": "FT", "total_row_ft": 127.9, "roadbed_ft": 60.7, "median_ft": 35.1, "left_sw_ft": 15.0, "right_sw_ft": 17.1}, "geometry": {"type": "LineString", "coordinates": [[-74.00157038855482, 40.7617601116074], [-74.00124281458334, 40.76157586089401]]}}, {"type": "Feature", "properties": {"segment_id": 1775308, "physicalid": "192512", "street_name": "12 AVE", "borough": "manhattan", "direction": "FT", "total_row_ft": 127.1, "roadbed_ft": 59.1, "median_ft": 36.0, "left_sw_ft": 15.0, "right_sw_ft": 17.1}, "geometry": {"type": "LineString", "coordinates": [[-74.00152708342576, 40.761804443957935], [-74.00120222699222, 40.76162095900652]]}}, {"type": "Feature", "properties": {"segment_id": 1775309, "physicalid": "192512", "street_name": "12 AVE", "borough": "manhattan", "direction": "FT", "total_row_ft": 126.5, "roadbed_ft": 58.3, "median_ft": 36.5, "left_sw_ft": 15.0, "right_sw_ft": 16.7}, "geometry": {"type": "LineString", "coordinates": [[-74.00147544177362, 40.7618561025843], [-74.00116744949086, 40.761658984658794]]}}, {"type": "Feature", "properties": {"segment_id": 1775310, "physicalid": "192512", "street_name": "12 AVE", "borough": "manhattan", "direction": "FT", "total_row_ft": 127.3, "roadbed_ft": 55.8, "median_ft": 37.7, "left_sw_ft": 15.0, "right_sw_ft": 18.8}, "geometry": {"type": "LineString", "coordinates": [[-74.00142895027659, 40.761898100316], [-74.00111890783829, 40.76169967017776]]}}, {"type": "Feature", "properties": {"segment_id": 1775311, "physicalid": "192512", "street_name": "12 AVE", "borough": "manhattan", "direction": "FT", "total_row_ft": 149.9, "roadbed_ft": 53.4, "median_ft": 38.2, "left_sw_ft": 38.2, "right_sw_ft": 20.0}, "geometry": {"type": "LineString", "coordinates": [[-74.0013701921662, 40.76194506442326], [-74.00107815411377, 40.76173382813708]]}}, {"type": "Feature", "properties": {"segment_id": 1775312, "physicalid": "192512", "street_name": "12 AVE", "borough": "manhattan", "direction": "FT", "total_row_ft": 127.2, "roadbed_ft": 59.8, "median_ft": 31.2, "left_sw_ft": 15.0, "right_sw_ft": 21.2}, "geometry": {"type": "LineString", "coordinates": [[-74.00132311013809, 40.76198677492128], [-74.00102963216251, 40.761774497013825]]}}, {"type": "Feature", "properties": {"segment_id": 1775313, "physicalid": "192512", "street_name": "12 AVE", "borough": "manhattan", "direction": "FT", "total_row_ft": 135.0, "roadbed_ft": 91.6, "median_ft": 0.0, "left_sw_ft": 15.0, "right_sw_ft": 28.4}, "geometry": {"type": "LineString", "coordinates": [[-74.0012628434032, 40.76203270083647], [-74.00096770416765, 40.761791612572836]]}}]}