{"type": "FeatureCollection", "features": [{"type": "Feature", "properties": {"segment_id": 1562715, "physicalid": "107481", "street_name": "UNNAMED ST", "borough": "manhattan", "direction": "NV", "total_row_ft": 30.0, "roadbed_ft": 0.0, "median_ft": 0.0, "left_sw_ft": 15.0, "right_sw_ft": 15.0}, "geometry": {"type": "LineString", "coordinates": [[-74.04500890422274, 40.69008101116063], [-74.0453710237242, 40.6899007099429]]}}, {"type": "Feature", "properties": {"segment_id": 1562716, "physicalid": "107481", "street_name": "UNNAMED ST", "borough": "manhattan", "direction": "NV", "total_row_ft": 30.0, "roadbed_ft": 0.0, "median_ft": 0.0, "left_sw_ft": 15.0, "right_sw_ft": 15.0}, "geometry": {"type": "LineString", "coordinates": [[-74.04496942620324, 40.6900350710244], [-74.04533154556195, 40.68985476992981]]}}, {"type": "Feature", "properties": {"segment_id": 1562717, "physicalid": "107481", "street_name": "UNNAMED ST", "borough": "manhattan", "direction": "NV", "total_row_ft": 30.0, "roadbed_ft": 0.0, "median_ft": 0.0, "left_sw_ft": 15.0, "right_sw_ft": 15.0}, "geometry": {"type": "LineString", "coordinates": [[-74.04492994823813, 40.689989130874366], [-74.04529206745407, 40.68980882990294]]}}, {"type": "Feature", "properties": {"segment_id": 1562718, "physicalid": "107481", "street_name": "UNNAMED ST", "borough": "manhattan", "direction": "NV", "total_row_ft": 30.0, "roadbed_ft": 0.0, "median_ft": 0.0, "left_sw_ft": 15.0, "right_sw_ft": 15.0}, "geometry": {"type": "LineString", "coordinates": [[-74.04489047032743, 40.68994319071052], [-74.04525258940062, 40.689762889862266]]}}, {"type": "Feature", "properties": {"segment_id": 1562719, "physicalid": "107481", "street_name": "UNNAMED ST", "borough": "manhattan", "direction": "NV", "total_row_ft": 30.0, "roadbed_ft": 0.0, "median_ft": 0.0, "left_sw_ft": 15.0, "right_sw_ft": 15.0}, "geometry": {"type": "LineString", "coordinates": [[-74.04485099247111, 40.68989725053285], [-74.04521311140155, 40.68971694980778]]}}, {"type": "Feature", "properties": {"segment_id": 1562720, "physicalid": "107481", "street_name": "UNNAMED ST", "borough": "manhattan", "direction": "NV", "total_row_ft": 30.0, "roadbed_ft": 0.0, "median_ft": 0.0, "left_sw_ft": 15.0, "right_sw_ft": 15.0}, "geometry": {"type": "LineString", "coordinates": [[-74.04481151466918, 40.68985131034135], [-74.04517363345691, 40.68967100973953]]}}, {"type": "Feature", "properties": {"segment_id": 1657191, "physicalid": "166008", "street_name": "UNNAMED ST", "borough": "manhattan", "direction": "NV", "total_row_ft": 38.9, "roadbed_ft": 0.0, "median_ft": 0.0, "left_sw_ft": 9.3, "right_sw_ft": 29.6}, "geometry": {"type": "LineString", "coordinates": [[-74.04367727716685, 40.6897298725001], [-74.04365438775973, 40.68983529538208]]}}, {"type": "Feature", "properties": {"segment_id": 1657192, "physicalid": "166008", "street_name": "UNNAMED ST", "borough": "manhattan", "direction": "NV", "total_row_ft": 43.4, "roadbed_ft": 0.0, "median_ft": 0.0, "left_sw_ft": 8.9, "right_sw_ft": 34.5}, "geometry": {"type": "LineString", "coordinates": [[-74.04374888277239, 40.68974061720753], [-74.04370781890705, 40.689903131682634]]}}, {"type": "Feature", "properties": {"segment_id": 1657193, "physicalid": "166008", "street_name": "UNNAMED ST", "borough": "manhattan", "direction": "NV", "total_row_ft": 29.2, "roadbed_ft": 0.0, "median_ft": 0.0, "left_sw_ft": 8.7, "right_sw_ft": 20.5}, "geometry": {"type": "LineString", "coordinates": [[-74.04381965756912, 40.68975161955328], [-74.04377197750439, 40.68993671640121]]}}, {"type": "Feature", "properties": {"segment_id": 1657194, "physicalid": "166008", "street_name": "UNNAMED ST", "borough": "manhattan", "direction": "NV", "total_row_ft": 17.1, "roadbed_ft": 0.0, "median_ft": 0.0, "left_sw_ft": 8.5, "right_sw_ft": 8.6}, "geometry": {"type": "LineString", "coordinates": [[-74.043890294638, 40.68976269961308], [-74.04387844533713, 40.68980869959107]]}}, {"type": "Feature", "properties": {"segment_id": 1657195, "physicalid": "166008", "street_name": "UNNAMED ST", "borough": "manhattan", "direction": "NV", "total_row_ft": 17.2, "roadbed_ft": 0.0, "median_ft": 0.0, "left_sw_ft": 8.6, "right_sw_ft": 8.6}, "geometry": {"type": "LineString", "coordinates": [[-74.04396137791794, 40.68977384961757], [-74.04394857270006, 40.68981990813026]]}}, {"type": "Feature", "properties": {"segment_id": 1657196, "physicalid": "166008", "street_name": "UNNAMED ST", "borough": "manhattan", "direction": "NV", "total_row_ft": 17.3, "roadbed_ft": 0.0, "median_ft": 0.0, "left_sw_ft": 8.7, "right_sw_ft": 8.6}, "geometry": {"type": "LineString", "coordinates": [[-74.04403201276723, 40.689784929270516], [-74.04401909442453, 40.68983139485376]]}}, {"type": "Feature", "properties": {"segment_id": 1657197, "physicalid": "166008", "street_name": "UNNAMED ST", "borough": "manhattan", "direction": "NV", "total_row_ft": 17.5, "roadbed_ft": 0.0, "median_ft": 0.0, "left_sw_ft": 8.8, "right_sw_ft": 8.7}, "geometry": {"type": "LineString", "coordinates": [[-74.04410264762063, 40.68979600894975], [-74.04408961617327, 40.68984288153402]]}}, {"type": "Feature", "properties": {"segment_id": 1657198, "physicalid": "166008", "street_name": "UNNAMED ST", "borough": "manhattan", "direction": "NV", "total_row_ft": 17.6, "roadbed_ft": 0.0, "median_ft": 0.0, "left_sw_ft": 8.9, "right_sw_ft": 8.7}, "geometry": {"type": "LineString", "coordinates": [[-74.04417328249752, 40.68980708858561], [-74.04416013795517, 40.68985436813922]]}}, {"type": "Feature", "properties": {"segment_id": 1657199, "physicalid": "166008", "street_name": "UNNAMED ST", "borough": "manhattan", "direction": "NV", "total_row_ft": 17.8, "roadbed_ft": 0.0, "median_ft": 0.0, "left_sw_ft": 9.0, "right_sw_ft": 8.8}, "geometry": {"type": "LineString", "coordinates": [[-74.04424391743073, 40.689818168059944], [-74.04423065976559, 40.68986585468602]]}}, {"type": "Feature", "properties": {"segment_id": 1657200, "physicalid": "166008", "street_name": "UNNAMED ST", "borough": "manhattan", "direction": "NV", "total_row_ft": 17.8, "roadbed_ft": 0.0, "median_ft": 0.0, "left_sw_ft": 9.0, "right_sw_ft": 8.8}, "geometry": {"type": "LineString", "coordinates": [[-74.04431446860586, 40.68982954884691], [-74.04430118164161, 40.689877341041026]]}}, {"type": "Feature", "properties": {"segment_id": 1657201, "physicalid": "166008", "street_name": "UNNAMED ST", "borough": "manhattan", "direction": "NV", "total_row_ft": 17.7, "roadbed_ft": 0.0, "median_ft": 0.0, "left_sw_ft": 8.9, "right_sw_ft": 8.8}, "geometry": {"type": "LineString", "coordinates": [[-74.04438494817154, 40.68984118725221], [-74.04437170356054, 40.68988882728588]]}}, {"type": "Feature", "properties": {"segment_id": 1657202, "physicalid": "166008", "street_name": "UNNAMED ST", "borough": "manhattan", "direction": "NV", "total_row_ft": 17.6, "roadbed_ft": 0.0, "median_ft": 0.0, "left_sw_ft": 8.8, "right_sw_ft": 8.8}, "geometry": {"type": "LineString", "coordinates": [[-74.04445541100723, 40.68985282259329], [-74.04444231882438, 40.689900041120325]]}}, {"type": "Feature", "properties": {"segment_id": 1657203, "physicalid": "166008", "street_name": "UNNAMED ST", "borough": "manhattan", "direction": "NV", "total_row_ft": 17.4, "roadbed_ft": 0.0, "median_ft": 0.0, "left_sw_ft": 8.7, "right_sw_ft": 8.7}, "geometry": {"type": "LineString", "coordinates": [[-74.04452589090317, 40.68986446067175], [-74.04451296620391, 40.68991107532696]]}}, {"type": "Feature", "properties": {"segment_id": 1657204, "physicalid": "166008", "street_name": "UNNAMED ST", "borough": "manhattan", "direction": "NV", "total_row_ft": 17.5, "roadbed_ft": 0.0, "median_ft": 0.0, "left_sw_ft": 8.6, "right_sw_ft": 8.9}, "geometry": {"type": "LineString", "coordinates": [[-74.04456762083153, 40.68986015821394], [-74.04460305330488, 40.689899905743204]]}}, {"type": "Feature", "properties": {"segment_id": 1657205, "physicalid": "166008", "street_name": "UNNAMED ST", "borough": "manhattan", "direction": "NV", "total_row_ft": 17.1, "roadbed_ft": 0.0, "median_ft": 0.0, "left_sw_ft": 8.1, "right_sw_ft": 9.1}, "geometry": {"type": "LineString", "coordinates": [[-74.04462846228263, 40.68983064181652], [-74.04466318525083, 40.689869593395024]]}}, {"type": "Feature", "properties": {"segment_id": 1657206, "physicalid": "166008", "street_name": "UNNAMED ST", "borough": "manhattan", "direction": "NV", "total_row_ft": 16.8, "roadbed_ft": 0.0, "median_ft": 0.0, "left_sw_ft": 7.5, "right_sw_ft": 9.3}, "geometry": {"type": "LineString", "coordinates": [[-74.044689839534, 40.689800865553174], [-74.04472266014334, 40.68983961268965]]}}, {"type": "Feature", "properties": {"segment_id": 1657207, "physicalid": "166008", "street_name": "UNNAMED ST", "borough": "manhattan", "direction": "NV", "total_row_ft": 30.0, "roadbed_ft": 0.0, "median_ft": 0.0, "left_sw_ft": 15.0, "right_sw_ft": 15.0}, "geometry": {"type": "LineString", "coordinates": [[-74.04464788687258, 40.689650033520806], [-74.04488236706801, 40.68992685431333]]}}, {"type": "Feature", "properties": {"segment_id": 1657208, "physicalid": "166008", "street_name": "UNNAMED ST", "borough": "manhattan", "direction": "NV", "total_row_ft": 30.0, "roadbed_ft": 0.0, "median_ft": 0.0, "left_sw_ft": 15.0, "right_sw_ft": 15.0}, "geometry": {"type": "LineString", "coordinates": [[-74.04470849828986, 40.689620286289234], [-74.04494297863235, 40.68989710695929]]}}, {"type": "Feature", "properties": {"segment_id": 1657209, "physicalid": "166008", "street_name": "UNNAMED ST", "borough": "manhattan", "direction": "NV", "total_row_ft": 30.0, "roadbed_ft": 0.0, "median_ft": 0.0, "left_sw_ft": 15.0, "right_sw_ft": 15.0}, "geometry": {"type": "LineString", "coordinates": [[-74.04476910965307, 40.689590539025616], [-74.04500359014261, 40.68986735957321]]}}, {"type": "Feature", "properties": {"segment_id": 1657210, "physicalid": "166009", "street_name": "UNNAMED ST", "borough": "manhattan", "direction": "NV", "total_row_ft": 38.8, "roadbed_ft": 0.0, "median_ft": 0.0, "left_sw_ft": 31.0, "right_sw_ft": 7.8}, "geometry": {"type": "LineString", "coordinates": [[-74.04374192864184, 40.68973957330005], [-74.0436224008163, 40.68979468755332]]}}, {"type": "Feature", "properties": {"segment_id": 1657211, "physicalid": "166009", "street_name": "UNNAMED ST", "borough": "manhattan", "direction": "NV", "total_row_ft": 43.1, "roadbed_ft": 0.0, "median_ft": 0.0, "left_sw_ft": 35.2, "right_sw_ft": 7.9}, "geometry": {"type": "LineString", "coordinates": [[-74.04384602609547, 40.68975575569938], [-74.04365948674209, 40.68984176906821]]}}, {"type": "Feature", "properties": {"segment_id": 1657212, "physicalid": "166009", "street_name": "UNNAMED ST", "borough": "manhattan", "direction": "NV", "total_row_ft": 28.0, "roadbed_ft": 0.0, "median_ft": 0.0, "left_sw_ft": 20.0, "right_sw_ft": 8.0}, "geometry": {"type": "LineString", "coordinates": [[-74.04390624169059, 40.6897921720665], [-74.04369657102028, 40.68988885135475]]}}, {"type": "Feature", "properties": {"segment_id": 1657213, "physicalid": "166009", "street_name": "UNNAMED ST", "borough": "manhattan", "direction": "NV", "total_row_ft": 16.8, "roadbed_ft": 0.0, "median_ft": 0.0, "left_sw_ft": 8.7, "right_sw_ft": 8.1}, "geometry": {"type": "LineString", "coordinates": [[-74.04378541076478, 40.689912069228455], [-74.04373365535082, 40.68993593362905]]}}, {"type": "Feature", "properties": {"segment_id": 1657214, "physicalid": "166009", "street_name": "UNNAMED ST", "borough": "manhattan", "direction": "NV", "total_row_ft": 16.6, "roadbed_ft": 0.0, "median_ft": 0.0, "left_sw_ft": 8.5, "right_sw_ft": 8.2}, "geometry": {"type": "LineString", "coordinates": [[-74.04382198833311, 40.689959385176984], [-74.04377073973374, 40.689983015891144]]}}, {"type": "Feature", "properties": {"segment_id": 1657246, "physicalid": "166010", "street_name": "UNNAMED ST", "borough": "manhattan", "direction": "NV", "total_row_ft": 30.0, "roadbed_ft": 0.0, "median_ft": 0.0, "left_sw_ft": 15.0, "right_sw_ft": 15.0}, "geometry": {"type": "LineString", "coordinates": [[-74.04486981393185, 40.689541114710856], [-74.0451042935044, 40.68981793562489]]}}, {"type": "Feature", "properties": {"segment_id": 1657247, "physicalid": "166010", "street_name": "UNNAMED ST", "borough": "manhattan", "direction": "NV", "total_row_ft": 30.0, "roadbed_ft": 0.0, "median_ft": 0.0, "left_sw_ft": 15.0, "right_sw_ft": 15.0}, "geometry": {"type": "LineString", "coordinates": [[-74.04493042527594, 40.689511367509304], [-74.0451649049955, 40.68978818830089]]}}, {"type": "Feature", "properties": {"segment_id": 1657248, "physicalid": "166010", "street_name": "UNNAMED ST", "borough": "manhattan", "direction": "NV", "total_row_ft": 30.0, "roadbed_ft": 0.0, "median_ft": 0.0, "left_sw_ft": 15.0, "right_sw_ft": 15.0}, "geometry": {"type": "LineString", "coordinates": [[-74.04499103656593, 40.689481620275735], [-74.04522551643252, 40.689758440944836]]}}, {"type": "Feature", "properties": {"segment_id": 1657249, "physicalid": "166010", "street_name": "UNNAMED ST", "borough": "manhattan", "direction": "NV", "total_row_ft": 19.0, "roadbed_ft": 0.0, "median_ft": 0.0, "left_sw_ft": 9.6, "right_sw_ft": 9.4}, "geometry": {"type": "LineString", "coordinates": [[-74.04515017726145, 40.68956819447401], [-74.04518732344654, 40.68961204822157]]}}, {"type": "Feature", "properties": {"segment_id": 1657250, "physicalid": "166010", "street_name": "UNNAMED ST", "borough": "manhattan", "direction": "NV", "total_row_ft": 18.1, "roadbed_ft": 0.0, "median_ft": 0.0, "left_sw_ft": 9.1, "right_sw_ft": 9.0}, "geometry": {"type": "LineString", "coordinates": [[-74.04521208525867, 40.68953969163046], [-74.04524706553619, 40.6895815612605]]}}, {"type": "Feature", "properties": {"segment_id": 1657251, "physicalid": "166010", "street_name": "UNNAMED ST", "borough": "manhattan", "direction": "NV", "total_row_ft": 17.2, "roadbed_ft": 0.0, "median_ft": 0.0, "left_sw_ft": 8.6, "right_sw_ft": 8.6}, "geometry": {"type": "LineString", "coordinates": [[-74.04527365256467, 40.6895112241653], [-74.04530706456636, 40.68955094315886]]}}, {"type": "Feature", "properties": {"segment_id": 1657252, "physicalid": "166010", "street_name": "UNNAMED ST", "borough": "manhattan", "direction": "NV", "total_row_ft": 17.5, "roadbed_ft": 0.0, "median_ft": 0.0, "left_sw_ft": 8.8, "right_sw_ft": 8.7}, "geometry": {"type": "LineString", "coordinates": [[-74.04529749365125, 40.68948271511455], [-74.04535913847936, 40.68949267828707]]}}, {"type": "Feature", "properties": {"segment_id": 1657253, "physicalid": "166010", "street_name": "UNNAMED ST", "borough": "manhattan", "direction": "NV", "total_row_ft": 17.8, "roadbed_ft": 0.0, "median_ft": 0.0, "left_sw_ft": 9.1, "right_sw_ft": 8.8}, "geometry": {"type": "LineString", "coordinates": [[-74.04531146412081, 40.68942885386799], [-74.04537431144244, 40.689439011390064]]}}, {"type": "Feature", "properties": {"segment_id": 1657254, "physicalid": "166010", "street_name": "UNNAMED ST", "borough": "manhattan", "direction": "NV", "total_row_ft": 18.2, "roadbed_ft": 0.0, "median_ft": 0.0, "left_sw_ft": 9.3, "right_sw_ft": 8.8}, "geometry": {"type": "LineString", "coordinates": [[-74.04532543505415, 40.68937499269791], [-74.04538948424471, 40.68938534446865]]}}, {"type": "Feature", "properties": {"segment_id": 1657255, "physicalid": "166010", "street_name": "UNNAMED ST", "borough": "manhattan", "direction": "NV", "total_row_ft": 18.3, "roadbed_ft": 0.0, "median_ft": 0.0, "left_sw_ft": 9.4, "right_sw_ft": 8.9}, "geometry": {"type": "LineString", "coordinates": [[-74.04534004453876, 40.689321234733704], [-74.04540465695324, 40.689331677533666]]}}, {"type": "Feature", "properties": {"segment_id": 1657256, "physicalid": "166010", "street_name": "UNNAMED ST", "borough": "manhattan", "direction": "NV", "total_row_ft": 18.3, "roadbed_ft": 0.0, "median_ft": 0.0, "left_sw_ft": 9.4, "right_sw_ft": 8.9}, "geometry": {"type": "LineString", "coordinates": [[-74.04535516787702, 40.68926755982141], [-74.04541982963735, 40.68927801059634]]}}, {"type": "Feature", "properties": {"segment_id": 1657257, "physicalid": "166010", "street_name": "UNNAMED ST", "borough": "manhattan", "direction": "NV", "total_row_ft": 18.3, "roadbed_ft": 0.0, "median_ft": 0.0, "left_sw_ft": 9.4, "right_sw_ft": 9.0}, "geometry": {"type": "LineString", "coordinates": [[-74.04537029119092, 40.689213884906756], [-74.04543500229703, 40.68922434365665]]}}, {"type": "Feature", "properties": {"segment_id": 1657258, "physicalid": "166010", "street_name": "UNNAMED ST", "borough": "manhattan", "direction": "NV", "total_row_ft": 18.4, "roadbed_ft": 0.0, "median_ft": 0.0, "left_sw_ft": 9.3, "right_sw_ft": 9.0}, "geometry": {"type": "LineString", "coordinates": [[-74.045385414462, 40.68916020998677], [-74.04545017493228, 40.68917067671458]]}}, {"type": "Feature", "properties": {"segment_id": 1657259, "physicalid": "166010", "street_name": "UNNAMED ST", "borough": "manhattan", "direction": "NV", "total_row_ft": 18.4, "roadbed_ft": 0.0, "median_ft": 0.0, "left_sw_ft": 9.3, "right_sw_ft": 9.1}, "geometry": {"type": "LineString", "coordinates": [[-74.04540053759536, 40.6891065350461], [-74.04546543570417, 40.6891170240189]]}}, {"type": "Feature", "properties": {"segment_id": 1657260, "physicalid": "166010", "street_name": "UNNAMED ST", "borough": "manhattan", "direction": "NV", "total_row_ft": 18.5, "roadbed_ft": 0.0, "median_ft": 0.0, "left_sw_ft": 9.2, "right_sw_ft": 9.2}, "geometry": {"type": "LineString", "coordinates": [[-74.04541566070436, 40.68905286010311], [-74.04548075023531, 40.68906338001351]]}}, {"type": "Feature", "properties": {"segment_id": 1657316, "physicalid": "166022", "street_name": "UNNAMED ST", "borough": "manhattan", "direction": "NV", "total_row_ft": 40.9, "roadbed_ft": 0.0, "median_ft": 0.0, "left_sw_ft": 23.6, "right_sw_ft": 17.2}, "geometry": {"type": "LineString", "coordinates": [[-74.04667724736989, 40.69000235613655], [-74.04682307508676, 40.689986444264534]]}}, {"type": "Feature", "properties": {"segment_id": 1657317, "physicalid": "166022", "street_name": "UNNAMED ST", "borough": "manhattan", "direction": "NV", "total_row_ft": 29.8, "roadbed_ft": 0.0, "median_ft": 0.0, "left_sw_ft": 21.8, "right_sw_ft": 8.0}, "geometry": {"type": "LineString", "coordinates": [[-74.04667276553319, 40.68995557067973], [-74.04677612874463, 40.68993320960043]]}}, {"type": "Feature", "properties": {"segment_id": 1657318, "physicalid": "166022", "street_name": "UNNAMED ST", "borough": "manhattan", "direction": "NV", "total_row_ft": 13.8, "roadbed_ft": 0.0, "median_ft": 0.0, "left_sw_ft": 7.6, "right_sw_ft": 6.2}, "geometry": {"type": "LineString", "coordinates": [[-74.04670067707261, 40.68990928834393], [-74.04672741120058, 40.689877348597584]]}}, {"type": "Feature", "properties": {"segment_id": 1657319, "physicalid": "166022", "street_name": "UNNAMED ST", "borough": "manhattan", "direction": "NV", "total_row_ft": 16.4, "roadbed_ft": 0.0, "median_ft": 0.0, "left_sw_ft": 8.4, "right_sw_ft": 8.0}, "geometry": {"type": "LineString", "coordinates": [[-74.04664412957472, 40.68986302037548], [-74.04669358821336, 40.68983856607464]]}}, {"type": "Feature", "properties": {"segment_id": 1657320, "physicalid": "166022", "street_name": "UNNAMED ST", "borough": "manhattan", "direction": "NV", "total_row_ft": 16.1, "roadbed_ft": 0.0, "median_ft": 0.0, "left_sw_ft": 8.3, "right_sw_ft": 7.8}, "geometry": {"type": "LineString", "coordinates": [[-74.04660506259033, 40.68981687673602], [-74.04665369975167, 40.68979282861298]]}}, {"type": "Feature", "properties": {"segment_id": 1657321, "physicalid": "166022", "street_name": "UNNAMED ST", "borough": "manhattan", "direction": "NV", "total_row_ft": 15.8, "roadbed_ft": 0.0, "median_ft": 0.0, "left_sw_ft": 8.2, "right_sw_ft": 7.6}, "geometry": {"type": "LineString", "coordinates": [[-74.04656599566005, 40.68977073308299], [-74.04661381134468, 40.68974709113721]]}}, {"type": "Feature", "properties": {"segment_id": 1657322, "physicalid": "166022", "street_name": "UNNAMED ST", "borough": "manhattan", "direction": "NV", "total_row_ft": 15.5, "roadbed_ft": 0.0, "median_ft": 0.0, "left_sw_ft": 8.1, "right_sw_ft": 7.4}, "geometry": {"type": "LineString", "coordinates": [[-74.04652692878382, 40.68972458941646], [-74.04657392299242, 40.68970135364734]]}}, {"type": "Feature", "properties": {"segment_id": 1657323, "physicalid": "166022", "street_name": "UNNAMED ST", "borough": "manhattan", "direction": "NV", "total_row_ft": 15.3, "roadbed_ft": 0.0, "median_ft": 0.0, "left_sw_ft": 8.1, "right_sw_ft": 7.2}, "geometry": {"type": "LineString", "coordinates": [[-74.04648783300924, 40.68967841153927], [-74.04653406104845, 40.68965564636145]]}}, {"type": "Feature", "properties": {"segment_id": 1657324, "physicalid": "166022", "street_name": "UNNAMED ST", "borough": "manhattan", "direction": "NV", "total_row_ft": 15.3, "roadbed_ft": 0.0, "median_ft": 0.0, "left_sw_ft": 8.2, "right_sw_ft": 7.1}, "geometry": {"type": "LineString", "coordinates": [[-74.04644812530168, 40.689632796664064], [-74.04649406158408, 40.689609781312114]]}}, {"type": "Feature", "properties": {"segment_id": 1657325, "physicalid": "166022", "street_name": "UNNAMED ST", "borough": "manhattan", "direction": "NV", "total_row_ft": 15.3, "roadbed_ft": 0.0, "median_ft": 0.0, "left_sw_ft": 8.3, "right_sw_ft": 7.0}, "geometry": {"type": "LineString", "coordinates": [[-74.04640811474904, 40.68958712320177], [-74.04645417504032, 40.689564045724886]]}}, {"type": "Feature", "properties": {"segment_id": 1657326, "physicalid": "166022", "street_name": "UNNAMED ST", "borough": "manhattan", "direction": "NV", "total_row_ft": 15.4, "roadbed_ft": 0.0, "median_ft": 0.0, "left_sw_ft": 8.4, "right_sw_ft": 7.0}, "geometry": {"type": "LineString", "coordinates": [[-74.0463681042512, 40.68954144972529], [-74.04641449925602, 40.68951820455463]]}}, {"type": "Feature", "properties": {"segment_id": 1657327, "physicalid": "166022", "street_name": "UNNAMED ST", "borough": "manhattan", "direction": "NV", "total_row_ft": 15.7, "roadbed_ft": 0.0, "median_ft": 0.0, "left_sw_ft": 8.6, "right_sw_ft": 7.1}, "geometry": {"type": "LineString", "coordinates": [[-74.04632809380819, 40.689495776234615], [-74.04637530807294, 40.68947212059915]]}}, {"type": "Feature", "properties": {"segment_id": 1657328, "physicalid": "166022", "street_name": "UNNAMED ST", "borough": "manhattan", "direction": "NV", "total_row_ft": 15.9, "roadbed_ft": 0.0, "median_ft": 0.0, "left_sw_ft": 8.7, "right_sw_ft": 7.3}, "geometry": {"type": "LineString", "coordinates": [[-74.04628808342, 40.6894501027298], [-74.04633611707258, 40.68942603656563]]}}, {"type": "Feature", "properties": {"segment_id": 1657329, "physicalid": "166022", "street_name": "UNNAMED ST", "borough": "manhattan", "direction": "NV", "total_row_ft": 16.2, "roadbed_ft": 0.0, "median_ft": 0.0, "left_sw_ft": 8.8, "right_sw_ft": 7.4}, "geometry": {"type": "LineString", "coordinates": [[-74.0462480730866, 40.6894044292108], [-74.04629692610231, 40.68937995253057]]}}, {"type": "Feature", "properties": {"segment_id": 1657330, "physicalid": "166022", "street_name": "UNNAMED ST", "borough": "manhattan", "direction": "NV", "total_row_ft": 16.3, "roadbed_ft": 0.0, "median_ft": 0.0, "left_sw_ft": 8.9, "right_sw_ft": 7.4}, "geometry": {"type": "LineString", "coordinates": [[-74.04621446112768, 40.689367885465806], [-74.04624673273618, 40.68933043595042]]}}, {"type": "Feature", "properties": {"segment_id": 1657331, "physicalid": "166022", "street_name": "UNNAMED ST", "borough": "manhattan", "direction": "NV", "total_row_ft": 16.5, "roadbed_ft": 0.0, "median_ft": 0.0, "left_sw_ft": 8.8, "right_sw_ft": 7.6}, "geometry": {"type": "LineString", "coordinates": [[-74.04615425544728, 40.6893376646016], [-74.0461868081768, 40.689299888899065]]}}, {"type": "Feature", "properties": {"segment_id": 1657332, "physicalid": "166022", "street_name": "UNNAMED ST", "borough": "manhattan", "direction": "NV", "total_row_ft": 16.6, "roadbed_ft": 0.0, "median_ft": 0.0, "left_sw_ft": 8.8, "right_sw_ft": 7.8}, "geometry": {"type": "LineString", "coordinates": [[-74.04609404982145, 40.68930744370575], [-74.04612688367233, 40.68926934181639]]}}, {"type": "Feature", "properties": {"segment_id": 1657333, "physicalid": "166022", "street_name": "UNNAMED ST", "borough": "manhattan", "direction": "NV", "total_row_ft": 16.7, "roadbed_ft": 0.0, "median_ft": 0.0, "left_sw_ft": 8.7, "right_sw_ft": 8.0}, "geometry": {"type": "LineString", "coordinates": [[-74.0460338442502, 40.689277222778315], [-74.04606690107862, 40.68923886217547]]}}, {"type": "Feature", "properties": {"segment_id": 1657334, "physicalid": "166022", "street_name": "UNNAMED ST", "borough": "manhattan", "direction": "NV", "total_row_ft": 16.7, "roadbed_ft": 0.0, "median_ft": 0.0, "left_sw_ft": 8.7, "right_sw_ft": 8.1}, "geometry": {"type": "LineString", "coordinates": [[-74.04597363878257, 40.689247001762354], [-74.04600675686216, 40.689208570120904]]}}, {"type": "Feature", "properties": {"segment_id": 1657335, "physicalid": "166022", "street_name": "UNNAMED ST", "borough": "manhattan", "direction": "NV", "total_row_ft": 16.8, "roadbed_ft": 0.0, "median_ft": 0.0, "left_sw_ft": 8.6, "right_sw_ft": 8.1}, "geometry": {"type": "LineString", "coordinates": [[-74.04591341836796, 40.68921679812319], [-74.04594661265634, 40.68917827808587]]}}, {"type": "Feature", "properties": {"segment_id": 1657336, "physicalid": "166022", "street_name": "UNNAMED ST", "borough": "manhattan", "direction": "NV", "total_row_ft": 16.9, "roadbed_ft": 0.0, "median_ft": 0.0, "left_sw_ft": 8.7, "right_sw_ft": 8.2}, "geometry": {"type": "LineString", "coordinates": [[-74.04585310969654, 40.68918669693239], [-74.04588646846275, 40.68914798606852]]}}, {"type": "Feature", "properties": {"segment_id": 1657337, "physicalid": "166022", "street_name": "UNNAMED ST", "borough": "manhattan", "direction": "NV", "total_row_ft": 17.0, "roadbed_ft": 0.0, "median_ft": 0.0, "left_sw_ft": 8.7, "right_sw_ft": 8.3}, "geometry": {"type": "LineString", "coordinates": [[-74.04579280107957, 40.68915659570992], [-74.0458263243238, 40.68911769401959]]}}, {"type": "Feature", "properties": {"segment_id": 1657338, "physicalid": "166022", "street_name": "UNNAMED ST", "borough": "manhattan", "direction": "NV", "total_row_ft": 17.0, "roadbed_ft": 0.0, "median_ft": 0.0, "left_sw_ft": 8.7, "right_sw_ft": 8.4}, "geometry": {"type": "LineString", "coordinates": [[-74.04573249251705, 40.689126494455685], [-74.04576618023506, 40.68908740194431]]}}, {"type": "Feature", "properties": {"segment_id": 1657339, "physicalid": "166022", "street_name": "UNNAMED ST", "borough": "manhattan", "direction": "NV", "total_row_ft": 17.1, "roadbed_ft": 0.0, "median_ft": 0.0, "left_sw_ft": 8.7, "right_sw_ft": 8.5}, "geometry": {"type": "LineString", "coordinates": [[-74.04567218407693, 40.6890963930909], [-74.0457060361779, 40.68905710986424]]}}, {"type": "Feature", "properties": {"segment_id": 1657340, "physicalid": "166022", "street_name": "UNNAMED ST", "borough": "manhattan", "direction": "NV", "total_row_ft": 17.2, "roadbed_ft": 0.0, "median_ft": 0.0, "left_sw_ft": 8.7, "right_sw_ft": 8.5}, "geometry": {"type": "LineString", "coordinates": [[-74.04561187572584, 40.68906629165426], [-74.04564589217537, 40.68902681775261]]}}, {"type": "Feature", "properties": {"segment_id": 1657341, "physicalid": "166022", "street_name": "UNNAMED ST", "borough": "manhattan", "direction": "NV", "total_row_ft": 20.9, "roadbed_ft": 0.0, "median_ft": 0.0, "left_sw_ft": 12.3, "right_sw_ft": 8.6}, "geometry": {"type": "LineString", "coordinates": [[-74.04545004361924, 40.689154001574984], [-74.04558574822751, 40.68899652560945]]}}]}