{"type": "FeatureCollection", "features": [{"type": "Feature", "properties": {"segment_id": 646224, "physicalid": "46285", "street_name": "LINDEN BLVD", "borough": "brooklyn", "direction": "FT", "total_row_ft": 137.9, "roadbed_ft": 83.4, "median_ft": 29.2, "left_sw_ft": 15.0, "right_sw_ft": 10.3}, "geometry": {"type": "LineString", "coordinates": [[-73.85858768025632, 40.67016060360306], [-73.85850523358164, 40.669846042205364]]}}, {"type": "Feature", "properties": {"segment_id": 646225, "physicalid": "46285", "street_name": "LINDEN BLVD", "borough": "brooklyn", "direction": "FT", "total_row_ft": 138.3, "roadbed_ft": 83.7, "median_ft": 29.1, "left_sw_ft": 15.0, "right_sw_ft": 10.5}, "geometry": {"type": "LineString", "coordinates": [[-73.85851697767733, 40.67017134711937], [-73.85843429187574, 40.66985587209325]]}}, {"type": "Feature", "properties": {"segment_id": 646226, "physicalid": "46285", "street_name": "LINDEN BLVD", "borough": "brooklyn", "direction": "FT", "total_row_ft": 138.6, "roadbed_ft": 83.9, "median_ft": 28.9, "left_sw_ft": 15.0, "right_sw_ft": 10.8}, "geometry": {"type": "LineString", "coordinates": [[-73.85844627507556, 40.67018209059218], [-73.85836335001488, 40.669865701426005]]}}, {"type": "Feature", "properties": {"segment_id": 646227, "physicalid": "46285", "street_name": "LINDEN BLVD", "borough": "brooklyn", "direction": "FT", "total_row_ft": 138.9, "roadbed_ft": 84.1, "median_ft": 28.7, "left_sw_ft": 15.0, "right_sw_ft": 11.0}, "geometry": {"type": "LineString", "coordinates": [[-73.858375572451, 40.67019283402156], [-73.85829240818455, 40.66987553091118]]}}, {"type": "Feature", "properties": {"segment_id": 646228, "physicalid": "46285", "street_name": "LINDEN BLVD", "borough": "brooklyn", "direction": "FT", "total_row_ft": 140.8, "roadbed_ft": 84.4, "median_ft": 28.4, "left_sw_ft": 15.0, "right_sw_ft": 13.0}, "geometry": {"type": "LineString", "coordinates": [[-73.85830486980367, 40.67020357740746], [-73.85822021169454, 40.66988057338835]]}}, {"type": "Feature", "properties": {"segment_id": 646229, "physicalid": "46285", "street_name": "LINDEN BLVD", "borough": "brooklyn", "direction": "FT", "total_row_ft": 155.7, "roadbed_ft": 97.6, "median_ft": 28.1, "left_sw_ft": 15.0, "right_sw_ft": 15.0}, "geometry": {"type": "LineString", "coordinates": [[-73.8582341671336, 40.6702143207499], [-73.85814950935318, 40.66989131667919]]}}, {"type": "Feature", "properties": {"segment_id": 646230, "physicalid": "46285", "street_name": "LINDEN BLVD", "borough": "brooklyn", "direction": "FT", "total_row_ft": 155.5, "roadbed_ft": 97.6, "median_ft": 27.8, "left_sw_ft": 15.0, "right_sw_ft": 15.0}, "geometry": {"type": "LineString", "coordinates": [[-73.85816131998824, 40.670224984821054], [-73.85808075599894, 40.66990137430425]]}}, {"type": "Feature", "properties": {"segment_id": 646231, "physicalid": "46285", "street_name": "LINDEN BLVD", "borough": "brooklyn", "direction": "FT", "total_row_ft": 140.5, "roadbed_ft": 85.0, "median_ft": 28.0, "left_sw_ft": 15.0, "right_sw_ft": 12.4}, "geometry": {"type": "LineString", "coordinates": [[-73.85809048453825, 40.67023520860428], [-73.85800992088029, 40.66991159803827]]}}, {"type": "Feature", "properties": {"segment_id": 646232, "physicalid": "46285", "street_name": "LINDEN BLVD", "borough": "brooklyn", "direction": "FT", "total_row_ft": 140.3, "roadbed_ft": 87.6, "median_ft": 25.4, "left_sw_ft": 15.0, "right_sw_ft": 12.4}, "geometry": {"type": "LineString", "coordinates": [[-73.85801964906653, 40.67024543234388], [-73.8579390857399, 40.66992182172867]]}}, {"type": "Feature", "properties": {"segment_id": 646233, "physicalid": "46286", "street_name": "LINDEN BLVD", "borough": "brooklyn", "direction": "FT", "total_row_ft": 141.6, "roadbed_ft": 92.1, "median_ft": 21.5, "left_sw_ft": 15.0, "right_sw_ft": 13.0}, "geometry": {"type": "LineString", "coordinates": [[-73.85789994058554, 40.670260755824444], [-73.85783770243793, 40.66993480956206]]}}, {"type": "Feature", "properties": {"segment_id": 646234, "physicalid": "46286", "street_name": "LINDEN BLVD", "borough": "brooklyn", "direction": "FT", "total_row_ft": 137.7, "roadbed_ft": 91.2, "median_ft": 17.9, "left_sw_ft": 15.0, "right_sw_ft": 13.5}, "geometry": {"type": "LineString", "coordinates": [[-73.85782859382309, 40.670268654000644], [-73.85776653577449, 40.669943649115645]]}}, {"type": "Feature", "properties": {"segment_id": 646235, "physicalid": "46286", "street_name": "LINDEN BLVD", "borough": "brooklyn", "direction": "FT", "total_row_ft": 134.6, "roadbed_ft": 90.4, "median_ft": 15.8, "left_sw_ft": 15.0, "right_sw_ft": 13.5}, "geometry": {"type": "LineString", "coordinates": [[-73.85775724704375, 40.6702765521326], [-73.8576956533964, 40.66995397757354]]}}, {"type": "Feature", "properties": {"segment_id": 646236, "physicalid": "46286", "street_name": "LINDEN BLVD", "borough": "brooklyn", "direction": "FT", "total_row_ft": 136.6, "roadbed_ft": 89.6, "median_ft": 18.5, "left_sw_ft": 15.0, "right_sw_ft": 13.4}, "geometry": {"type": "LineString", "coordinates": [[-73.85768531537423, 40.670284501465716], [-73.85762532899739, 40.66996422452209]]}}, {"type": "Feature", "properties": {"segment_id": 646237, "physicalid": "46286", "street_name": "LINDEN BLVD", "borough": "brooklyn", "direction": "FT", "total_row_ft": 135.1, "roadbed_ft": 85.3, "median_ft": 21.4, "left_sw_ft": 15.0, "right_sw_ft": 13.4}, "geometry": {"type": "LineString", "coordinates": [[-73.85761394060212, 40.670292251671135], [-73.85755443765477, 40.66997455403311]]}}, {"type": "Feature", "properties": {"segment_id": 646238, "physicalid": "46286", "street_name": "LINDEN BLVD", "borough": "brooklyn", "direction": "FT", "total_row_ft": 135.2, "roadbed_ft": 82.2, "median_ft": 24.7, "left_sw_ft": 15.0, "right_sw_ft": 13.3}, "geometry": {"type": "LineString", "coordinates": [[-73.85755478536566, 40.67029880143891], [-73.85747225784769, 40.66998652846829]]}}, {"type": "Feature", "properties": {"segment_id": 646239, "physicalid": "46286", "street_name": "LINDEN BLVD", "borough": "brooklyn", "direction": "FT", "total_row_ft": 136.6, "roadbed_ft": 81.2, "median_ft": 27.2, "left_sw_ft": 15.0, "right_sw_ft": 13.2}, "geometry": {"type": "LineString", "coordinates": [[-73.85748410523729, 40.67030963081334], [-73.85740144302238, 40.669996846911594]]}}, {"type": "Feature", "properties": {"segment_id": 646240, "physicalid": "46286", "street_name": "LINDEN BLVD", "borough": "brooklyn", "direction": "FT", "total_row_ft": 136.7, "roadbed_ft": 82.3, "median_ft": 26.3, "left_sw_ft": 15.0, "right_sw_ft": 13.2}, "geometry": {"type": "LineString", "coordinates": [[-73.8574055294163, 40.67032117270309], [-73.85733795107998, 40.670006098296305]]}}, {"type": "Feature", "properties": {"segment_id": 646241, "physicalid": "46287", "street_name": "CONNECTOR", "borough": "brooklyn", "direction": "FT", "total_row_ft": 143.5, "roadbed_ft": 89.1, "median_ft": 25.1, "left_sw_ft": 15.0, "right_sw_ft": 14.4}, "geometry": {"type": "LineString", "coordinates": [[-73.85781421339959, 40.67024031702101], [-73.85792597575345, 40.669922126681335]]}}, {"type": "Feature", "properties": {"segment_id": 646242, "physicalid": "46287", "street_name": "CONNECTOR", "borough": "brooklyn", "direction": "FT", "total_row_ft": 130.4, "roadbed_ft": 79.4, "median_ft": 21.2, "left_sw_ft": 15.0, "right_sw_ft": 14.8}, "geometry": {"type": "LineString", "coordinates": [[-73.85774456439306, 40.6702261340359], [-73.85784769185629, 40.669932528440214]]}}, {"type": "Feature", "properties": {"segment_id": 646243, "physicalid": "46287", "street_name": "CONNECTOR", "borough": "brooklyn", "direction": "FT", "total_row_ft": 117.6, "roadbed_ft": 73.0, "median_ft": 14.6, "left_sw_ft": 15.0, "right_sw_ft": 15.0}, "geometry": {"type": "LineString", "coordinates": [[-73.85767491541615, 40.670211951008646], [-73.85776929259966, 40.66994325850695]]}}, {"type": "Feature", "properties": {"segment_id": 646245, "physicalid": "46288", "street_name": "LINDEN BLVD", "borough": "brooklyn", "direction": "FT", "total_row_ft": 103.6, "roadbed_ft": 58.2, "median_ft": 17.5, "left_sw_ft": 15.0, "right_sw_ft": 12.9}, "geometry": {"type": "LineString", "coordinates": [[-73.85806925910207, 40.670133763339756], [-73.85800765944346, 40.66991063435175]]}}, {"type": "Feature", "properties": {"segment_id": 646246, "physicalid": "46288", "street_name": "LINDEN BLVD", "borough": "brooklyn", "direction": "FT", "total_row_ft": 104.0, "roadbed_ft": 60.7, "median_ft": 15.3, "left_sw_ft": 15.0, "right_sw_ft": 13.1}, "geometry": {"type": "LineString", "coordinates": [[-73.85799870428635, 40.67014505589524], [-73.8579366696745, 40.6699203505343]]}}, {"type": "Feature", "properties": {"segment_id": 646247, "physicalid": "46288", "street_name": "LINDEN BLVD", "borough": "brooklyn", "direction": "FT", "total_row_ft": 104.3, "roadbed_ft": 62.7, "median_ft": 13.4, "left_sw_ft": 15.0, "right_sw_ft": 13.3}, "geometry": {"type": "LineString", "coordinates": [[-73.8579281510811, 40.670156348207875], [-73.85786567918417, 40.66993006660747]]}}, {"type": "Feature", "properties": {"segment_id": 646248, "physicalid": "46288", "street_name": "LINDEN BLVD", "borough": "brooklyn", "direction": "FT", "total_row_ft": 104.8, "roadbed_ft": 65.8, "median_ft": 10.5, "left_sw_ft": 15.0, "right_sw_ft": 13.4}, "geometry": {"type": "LineString", "coordinates": [[-73.85785759633097, 40.67016764108742], [-73.85779468933045, 40.669939782605034]]}}, {"type": "Feature", "properties": {"segment_id": 646249, "physicalid": "46288", "street_name": "LINDEN BLVD", "borough": "brooklyn", "direction": "FT", "total_row_ft": 101.5, "roadbed_ft": 65.8, "median_ft": 7.2, "left_sw_ft": 15.0, "right_sw_ft": 13.5}, "geometry": {"type": "LineString", "coordinates": [[-73.85778704155697, 40.67017893392368], [-73.85772380360422, 40.66994987580169]]}}, {"type": "Feature", "properties": {"segment_id": 646262, "physicalid": "46290", "street_name": "LINDEN BLVD", "borough": "brooklyn", "direction": "FT", "total_row_ft": 103.8, "roadbed_ft": 63.2, "median_ft": 12.3, "left_sw_ft": 15.0, "right_sw_ft": 13.4}, "geometry": {"type": "LineString", "coordinates": [[-73.85762829381913, 40.67020380434546], [-73.85756839073025, 40.66997252094728]]}}, {"type": "Feature", "properties": {"segment_id": 646263, "physicalid": "46290", "street_name": "LINDEN BLVD", "borough": "brooklyn", "direction": "FT", "total_row_ft": 104.8, "roadbed_ft": 60.9, "median_ft": 15.6, "left_sw_ft": 15.0, "right_sw_ft": 13.3}, "geometry": {"type": "LineString", "coordinates": [[-73.85755755935388, 40.67021442565761], [-73.85749757797997, 40.66998283905504]]}}, {"type": "Feature", "properties": {"segment_id": 646264, "physicalid": "46290", "street_name": "LINDEN BLVD", "borough": "brooklyn", "direction": "FT", "total_row_ft": 105.9, "roadbed_ft": 58.8, "median_ft": 18.8, "left_sw_ft": 15.0, "right_sw_ft": 13.3}, "geometry": {"type": "LineString", "coordinates": [[-73.8574868248661, 40.67022504692623], [-73.85742676523193, 40.66999315721241]]}}, {"type": "Feature", "properties": {"segment_id": 646265, "physicalid": "46290", "street_name": "LINDEN BLVD", "borough": "brooklyn", "direction": "FT", "total_row_ft": 106.6, "roadbed_ft": 59.2, "median_ft": 19.2, "left_sw_ft": 15.0, "right_sw_ft": 13.2}, "geometry": {"type": "LineString", "coordinates": [[-73.85741609035581, 40.67023566815137], [-73.85735595246199, 40.67000347532618]]}}, {"type": "Feature", "properties": {"segment_id": 646266, "physicalid": "46290", "street_name": "LINDEN BLVD", "borough": "brooklyn", "direction": "FT", "total_row_ft": 108.9, "roadbed_ft": 62.5, "median_ft": 17.8, "left_sw_ft": 15.0, "right_sw_ft": 13.6}, "geometry": {"type": "LineString", "coordinates": [[-73.85734535582299, 40.670246289333], [-73.85728367030848, 40.6700081201369]]}}, {"type": "Feature", "properties": {"segment_id": 647802, "physicalid": "46447", "street_name": "LINDEN BLVD", "borough": "brooklyn", "direction": "TF", "total_row_ft": 102.0, "roadbed_ft": 68.1, "median_ft": 8.8, "left_sw_ft": 15.0, "right_sw_ft": 10.1}, "geometry": {"type": "LineString", "coordinates": [[-73.85990412569409, 40.67011469588709], [-73.85985265037827, 40.669891195995675]]}}, {"type": "Feature", "properties": {"segment_id": 647803, "physicalid": "46447", "street_name": "LINDEN BLVD", "borough": "brooklyn", "direction": "TF", "total_row_ft": 101.7, "roadbed_ft": 68.1, "median_ft": 8.9, "left_sw_ft": 15.0, "right_sw_ft": 9.7}, "geometry": {"type": "LineString", "coordinates": [[-73.8598329046747, 40.670123275036985], [-73.85978163754577, 40.66990067803716]]}}, {"type": "Feature", "properties": {"segment_id": 647804, "physicalid": "46447", "street_name": "LINDEN BLVD", "borough": "brooklyn", "direction": "TF", "total_row_ft": 101.5, "roadbed_ft": 68.0, "median_ft": 9.1, "left_sw_ft": 15.0, "right_sw_ft": 9.4}, "geometry": {"type": "LineString", "coordinates": [[-73.85976179213783, 40.67013232524361], [-73.85971062469308, 40.66991016003477]]}}, {"type": "Feature", "properties": {"segment_id": 647805, "physicalid": "46447", "street_name": "LINDEN BLVD", "borough": "brooklyn", "direction": "TF", "total_row_ft": 101.8, "roadbed_ft": 68.0, "median_ft": 9.2, "left_sw_ft": 15.0, "right_sw_ft": 9.6}, "geometry": {"type": "LineString", "coordinates": [[-73.85969092471187, 40.67014243974455], [-73.8596396118202, 40.66991964198857]]}}, {"type": "Feature", "properties": {"segment_id": 647806, "physicalid": "46447", "street_name": "LINDEN BLVD", "borough": "brooklyn", "direction": "TF", "total_row_ft": 102.0, "roadbed_ft": 67.2, "median_ft": 10.1, "left_sw_ft": 15.0, "right_sw_ft": 9.7}, "geometry": {"type": "LineString", "coordinates": [[-73.8596200572644, 40.67015255420181], [-73.85956859892711, 40.66992912389851]]}}, {"type": "Feature", "properties": {"segment_id": 647807, "physicalid": "46447", "street_name": "LINDEN BLVD", "borough": "brooklyn", "direction": "TF", "total_row_ft": 102.2, "roadbed_ft": 65.8, "median_ft": 11.5, "left_sw_ft": 15.0, "right_sw_ft": 9.9}, "geometry": {"type": "LineString", "coordinates": [[-73.85954936660609, 40.67016264338054], [-73.85949714716669, 40.66993878108342]]}}, {"type": "Feature", "properties": {"segment_id": 647808, "physicalid": "46447", "street_name": "LINDEN BLVD", "borough": "brooklyn", "direction": "TF", "total_row_ft": 102.4, "roadbed_ft": 64.4, "median_ft": 13.0, "left_sw_ft": 15.0, "right_sw_ft": 10.0}, "geometry": {"type": "LineString", "coordinates": [[-73.8594785007566, 40.67017275751639], [-73.85942616158825, 40.66994838092509]]}}, {"type": "Feature", "properties": {"segment_id": 647809, "physicalid": "46447", "street_name": "LINDEN BLVD", "borough": "brooklyn", "direction": "TF", "total_row_ft": 102.3, "roadbed_ft": 63.0, "median_ft": 14.5, "left_sw_ft": 15.0, "right_sw_ft": 9.9}, "geometry": {"type": "LineString", "coordinates": [[-73.85940745408331, 40.6701820965131], [-73.85935517598936, 40.66995798072296]]}}, {"type": "Feature", "properties": {"segment_id": 647810, "physicalid": "46447", "street_name": "LINDEN BLVD", "borough": "brooklyn", "direction": "TF", "total_row_ft": 102.2, "roadbed_ft": 61.6, "median_ft": 15.9, "left_sw_ft": 15.0, "right_sw_ft": 9.6}, "geometry": {"type": "LineString", "coordinates": [[-73.85933631288034, 40.670191030302796], [-73.85928419037005, 40.66996758047705]]}}, {"type": "Feature", "properties": {"segment_id": 647811, "physicalid": "46447", "street_name": "LINDEN BLVD", "borough": "brooklyn", "direction": "TF", "total_row_ft": 102.0, "roadbed_ft": 60.9, "median_ft": 17.4, "left_sw_ft": 15.0, "right_sw_ft": 8.8}, "geometry": {"type": "LineString", "coordinates": [[-73.85926517165834, 40.67019996404851], [-73.85921320473028, 40.669977180187296]]}}, {"type": "Feature", "properties": {"segment_id": 647812, "physicalid": "46448", "street_name": "LINDEN BLVD", "borough": "brooklyn", "direction": "TF", "total_row_ft": 111.3, "roadbed_ft": 67.4, "median_ft": 19.6, "left_sw_ft": 15.0, "right_sw_ft": 9.2}, "geometry": {"type": "LineString", "coordinates": [[-73.85912228716501, 40.67024348621627], [-73.85905947495337, 40.66999871283794]]}}, {"type": "Feature", "properties": {"segment_id": 647813, "physicalid": "46448", "street_name": "LINDEN BLVD", "borough": "brooklyn", "direction": "TF", "total_row_ft": 103.3, "roadbed_ft": 60.3, "median_ft": 18.7, "left_sw_ft": 15.0, "right_sw_ft": 9.3}, "geometry": {"type": "LineString", "coordinates": [[-73.85904607193004, 40.67023275006402], [-73.858988716368, 40.670009239747635]]}}, {"type": "Feature", "properties": {"segment_id": 647814, "physicalid": "46448", "street_name": "LINDEN BLVD", "borough": "brooklyn", "direction": "TF", "total_row_ft": 101.2, "roadbed_ft": 61.0, "median_ft": 15.9, "left_sw_ft": 15.0, "right_sw_ft": 9.2}, "geometry": {"type": "LineString", "coordinates": [[-73.85897520080516, 40.67024283938274], [-73.85891795776027, 40.67001976661381]]}}, {"type": "Feature", "properties": {"segment_id": 647815, "physicalid": "46448", "street_name": "LINDEN BLVD", "borough": "brooklyn", "direction": "TF", "total_row_ft": 99.2, "roadbed_ft": 61.7, "median_ft": 13.2, "left_sw_ft": 15.0, "right_sw_ft": 9.3}, "geometry": {"type": "LineString", "coordinates": [[-73.85890434295396, 40.67025298046804], [-73.85884719913022, 40.67003029343643]]}}, {"type": "Feature", "properties": {"segment_id": 647816, "physicalid": "46449", "street_name": "LINDEN BLVD", "borough": "brooklyn", "direction": "TF", "total_row_ft": 100.1, "roadbed_ft": 64.7, "median_ft": 11.1, "left_sw_ft": 15.0, "right_sw_ft": 9.3}, "geometry": {"type": "LineString", "coordinates": [[-73.85879142660878, 40.6702691408148], [-73.85873892196022, 40.670045757457004]]}}, {"type": "Feature", "properties": {"segment_id": 647817, "physicalid": "46449", "street_name": "LINDEN BLVD", "borough": "brooklyn", "direction": "TF", "total_row_ft": 98.4, "roadbed_ft": 64.9, "median_ft": 9.2, "left_sw_ft": 15.0, "right_sw_ft": 9.3}, "geometry": {"type": "LineString", "coordinates": [[-73.85872056783367, 40.67027928191114], [-73.85866795285776, 40.67005542814911]]}}, {"type": "Feature", "properties": {"segment_id": 647818, "physicalid": "46449", "street_name": "LINDEN BLVD", "borough": "brooklyn", "direction": "TF", "total_row_ft": 101.7, "roadbed_ft": 65.0, "median_ft": 12.4, "left_sw_ft": 15.0, "right_sw_ft": 9.3}, "geometry": {"type": "LineString", "coordinates": [[-73.85864970903705, 40.670289422963805], [-73.8585969837347, 40.6700650987974]]}}, {"type": "Feature", "properties": {"segment_id": 647819, "physicalid": "46449", "street_name": "LINDEN BLVD", "borough": "brooklyn", "direction": "TF", "total_row_ft": 105.1, "roadbed_ft": 65.1, "median_ft": 15.6, "left_sw_ft": 15.0, "right_sw_ft": 9.3}, "geometry": {"type": "LineString", "coordinates": [[-73.85857885021885, 40.670299563972826], [-73.85852601459108, 40.67007476940192]]}}, {"type": "Feature", "properties": {"segment_id": 647820, "physicalid": "46449", "street_name": "LINDEN BLVD", "borough": "brooklyn", "direction": "TF", "total_row_ft": 104.1, "roadbed_ft": 62.4, "median_ft": 17.3, "left_sw_ft": 15.0, "right_sw_ft": 9.4}, "geometry": {"type": "LineString", "coordinates": [[-73.85850799137913, 40.670309704938184], [-73.85845504542687, 40.67008443996265]]}}, {"type": "Feature", "properties": {"segment_id": 647821, "physicalid": "46449", "street_name": "LINDEN BLVD", "borough": "brooklyn", "direction": "TF", "total_row_ft": 103.1, "roadbed_ft": 59.7, "median_ft": 19.0, "left_sw_ft": 15.0, "right_sw_ft": 9.4}, "geometry": {"type": "LineString", "coordinates": [[-73.85843713251784, 40.6703198458599], [-73.85838407624207, 40.67009411047959]]}}, {"type": "Feature", "properties": {"segment_id": 647822, "physicalid": "46449", "street_name": "LINDEN BLVD", "borough": "brooklyn", "direction": "TF", "total_row_ft": 102.6, "roadbed_ft": 58.2, "median_ft": 20.0, "left_sw_ft": 15.0, "right_sw_ft": 9.4}, "geometry": {"type": "LineString", "coordinates": [[-73.858366273635, 40.67032998673795], [-73.85831310703672, 40.670103780952715]]}}, {"type": "Feature", "properties": {"segment_id": 647823, "physicalid": "46450", "street_name": "CONNECTOR", "borough": "brooklyn", "direction": "TF", "total_row_ft": 112.0, "roadbed_ft": 72.7, "median_ft": 13.9, "left_sw_ft": 15.0, "right_sw_ft": 10.4}, "geometry": {"type": "LineString", "coordinates": [[-73.85874471582203, 40.6702758259284], [-73.85883962350938, 40.670031010351764]]}}, {"type": "Feature", "properties": {"segment_id": 647824, "physicalid": "46450", "street_name": "CONNECTOR", "borough": "brooklyn", "direction": "TF", "total_row_ft": 118.8, "roadbed_ft": 73.5, "median_ft": 19.8, "left_sw_ft": 15.0, "right_sw_ft": 10.5}, "geometry": {"type": "LineString", "coordinates": [[-73.8586651278657, 40.67028721628124], [-73.85877047636926, 40.67001546932868]]}}, {"type": "Feature", "properties": {"segment_id": 647825, "physicalid": "46450", "street_name": "CONNECTOR", "borough": "brooklyn", "direction": "TF", "total_row_ft": 132.7, "roadbed_ft": 84.2, "median_ft": 23.1, "left_sw_ft": 15.0, "right_sw_ft": 10.5}, "geometry": {"type": "LineString", "coordinates": [[-73.85858553988217, 40.67029860657902], [-73.85870132926136, 40.66999992826402]]}}, {"type": "Feature", "properties": {"segment_id": 647837, "physicalid": "46451", "street_name": "LINDEN BLVD", "borough": "brooklyn", "direction": "TF", "total_row_ft": 137.9, "roadbed_ft": 90.2, "median_ft": 23.3, "left_sw_ft": 15.0, "right_sw_ft": 9.3}, "geometry": {"type": "LineString", "coordinates": [[-73.858557877562, 40.670302565480235], [-73.85848330427955, 40.66998851164026]]}}, {"type": "Feature", "properties": {"segment_id": 647838, "physicalid": "46451", "street_name": "LINDEN BLVD", "borough": "brooklyn", "direction": "TF", "total_row_ft": 136.8, "roadbed_ft": 87.7, "median_ft": 24.7, "left_sw_ft": 15.0, "right_sw_ft": 9.4}, "geometry": {"type": "LineString", "coordinates": [[-73.85848701970207, 40.67031270629152], [-73.85841235793428, 40.669998278403064]]}}, {"type": "Feature", "properties": {"segment_id": 647839, "physicalid": "46451", "street_name": "LINDEN BLVD", "borough": "brooklyn", "direction": "TF", "total_row_ft": 135.8, "roadbed_ft": 85.3, "median_ft": 26.1, "left_sw_ft": 15.0, "right_sw_ft": 9.4}, "geometry": {"type": "LineString", "coordinates": [[-73.85841616182056, 40.67032284705918], [-73.85834141156826, 40.670008045122096]]}}, {"type": "Feature", "properties": {"segment_id": 647840, "physicalid": "46451", "street_name": "LINDEN BLVD", "borough": "brooklyn", "direction": "TF", "total_row_ft": 138.4, "roadbed_ft": 84.9, "median_ft": 26.3, "left_sw_ft": 15.0, "right_sw_ft": 12.1}, "geometry": {"type": "LineString", "coordinates": [[-73.85834712564451, 40.67034065976956], [-73.85827046518145, 40.67001781179739]]}}, {"type": "Feature", "properties": {"segment_id": 647841, "physicalid": "46451", "street_name": "LINDEN BLVD", "borough": "brooklyn", "direction": "TF", "total_row_ft": 153.9, "roadbed_ft": 97.6, "median_ft": 26.3, "left_sw_ft": 15.0, "right_sw_ft": 15.0}, "geometry": {"type": "LineString", "coordinates": [[-73.8582764805629, 40.670351696851064], [-73.85819951877387, 40.670027578428886]]}}, {"type": "Feature", "properties": {"segment_id": 647842, "physicalid": "46451", "street_name": "LINDEN BLVD", "borough": "brooklyn", "direction": "TF", "total_row_ft": 153.9, "roadbed_ft": 97.7, "median_ft": 26.2, "left_sw_ft": 15.0, "right_sw_ft": 15.0}, "geometry": {"type": "LineString", "coordinates": [[-73.85820546287096, 40.670361462911536], [-73.8581286385291, 40.67003732558443]]}}, {"type": "Feature", "properties": {"segment_id": 647843, "physicalid": "46451", "street_name": "LINDEN BLVD", "borough": "brooklyn", "direction": "TF", "total_row_ft": 135.4, "roadbed_ft": 85.0, "median_ft": 26.2, "left_sw_ft": 15.0, "right_sw_ft": 9.2}, "geometry": {"type": "LineString", "coordinates": [[-73.85813220554812, 40.6703614808887], [-73.85805768795223, 40.67004707472839]]}}, {"type": "Feature", "properties": {"segment_id": 647844, "physicalid": "46451", "street_name": "LINDEN BLVD", "borough": "brooklyn", "direction": "TF", "total_row_ft": 135.9, "roadbed_ft": 85.2, "median_ft": 26.2, "left_sw_ft": 15.0, "right_sw_ft": 9.5}, "geometry": {"type": "LineString", "coordinates": [[-73.85806157135713, 40.67037256638849], [-73.8579867373546, 40.67005682382859]]}}, {"type": "Feature", "properties": {"segment_id": 647845, "physicalid": "46451", "street_name": "LINDEN BLVD", "borough": "brooklyn", "direction": "TF", "total_row_ft": 136.4, "roadbed_ft": 85.4, "median_ft": 26.2, "left_sw_ft": 15.0, "right_sw_ft": 9.8}, "geometry": {"type": "LineString", "coordinates": [[-73.85799189450036, 40.67038350143731], [-73.85791478396214, 40.670066722906185]]}}, {"type": "Feature", "properties": {"segment_id": 647846, "physicalid": "46451", "street_name": "LINDEN BLVD", "borough": "brooklyn", "direction": "TF", "total_row_ft": 136.9, "roadbed_ft": 85.5, "median_ft": 26.3, "left_sw_ft": 15.0, "right_sw_ft": 10.1}, "geometry": {"type": "LineString", "coordinates": [[-73.85792126768638, 40.670394585506195], [-73.85784389460568, 40.67007672703939]]}}, {"type": "Feature", "properties": {"segment_id": 647847, "physicalid": "46451", "street_name": "LINDEN BLVD", "borough": "brooklyn", "direction": "TF", "total_row_ft": 137.3, "roadbed_ft": 85.6, "median_ft": 26.3, "left_sw_ft": 15.0, "right_sw_ft": 10.4}, "geometry": {"type": "LineString", "coordinates": [[-73.85785064088424, 40.670405669676576], [-73.85777300522791, 40.67008673112885]]}}, {"type": "Feature", "properties": {"segment_id": 647848, "physicalid": "46451", "street_name": "LINDEN BLVD", "borough": "brooklyn", "direction": "TF", "total_row_ft": 137.8, "roadbed_ft": 85.8, "median_ft": 26.4, "left_sw_ft": 15.0, "right_sw_ft": 10.7}, "geometry": {"type": "LineString", "coordinates": [[-73.85778001400607, 40.670416753587794], [-73.85770211582889, 40.67009673517466]]}}, {"type": "Feature", "properties": {"segment_id": 647849, "physicalid": "46451", "street_name": "LINDEN BLVD", "borough": "brooklyn", "direction": "TF", "total_row_ft": 138.4, "roadbed_ft": 86.1, "median_ft": 26.4, "left_sw_ft": 15.0, "right_sw_ft": 11.0}, "geometry": {"type": "LineString", "coordinates": [[-73.85770655646786, 40.67042828153269], [-73.85763405252999, 40.67010607194385]]}}, {"type": "Feature", "properties": {"segment_id": 647850, "physicalid": "46451", "street_name": "LINDEN BLVD", "borough": "brooklyn", "direction": "TF", "total_row_ft": 139.2, "roadbed_ft": 86.6, "median_ft": 26.3, "left_sw_ft": 15.0, "right_sw_ft": 11.3}, "geometry": {"type": "LineString", "coordinates": [[-73.85763590381457, 40.67043936925004], [-73.85756299127252, 40.67011534228756]]}}, {"type": "Feature", "properties": {"segment_id": 647851, "physicalid": "46451", "street_name": "LINDEN BLVD", "borough": "brooklyn", "direction": "TF", "total_row_ft": 139.4, "roadbed_ft": 87.0, "median_ft": 26.2, "left_sw_ft": 15.0, "right_sw_ft": 11.3}, "geometry": {"type": "LineString", "coordinates": [[-73.85756830321527, 40.670449167516004], [-73.85748877419823, 40.67012540858395]]}}, {"type": "Feature", "properties": {"segment_id": 647852, "physicalid": "46451", "street_name": "LINDEN BLVD", "borough": "brooklyn", "direction": "TF", "total_row_ft": 139.5, "roadbed_ft": 87.2, "median_ft": 26.1, "left_sw_ft": 15.0, "right_sw_ft": 11.2}, "geometry": {"type": "LineString", "coordinates": [[-73.85749743503838, 40.67045925992405], [-73.8574179063533, 40.6701355009434]]}}, {"type": "Feature", "properties": {"segment_id": 647853, "physicalid": "46451", "street_name": "LINDEN BLVD", "borough": "brooklyn", "direction": "TF", "total_row_ft": 139.5, "roadbed_ft": 88.3, "median_ft": 24.8, "left_sw_ft": 15.0, "right_sw_ft": 11.4}, "geometry": {"type": "LineString", "coordinates": [[-73.85742656684005, 40.670469352288436], [-73.85734703848695, 40.67014559325919]]}}, {"type": "Feature", "properties": {"segment_id": 647874, "physicalid": "46452", "street_name": "LINDEN BLVD", "borough": "brooklyn", "direction": "TF", "total_row_ft": 135.2, "roadbed_ft": 87.4, "median_ft": 23.0, "left_sw_ft": 15.0, "right_sw_ft": 9.9}, "geometry": {"type": "LineString", "coordinates": [[-73.85955017298723, 40.6701625282917], [-73.85947283869359, 40.66985007553149]]}}, {"type": "Feature", "properties": {"segment_id": 647875, "physicalid": "46452", "street_name": "LINDEN BLVD", "borough": "brooklyn", "direction": "TF", "total_row_ft": 135.2, "roadbed_ft": 86.2, "median_ft": 24.0, "left_sw_ft": 15.0, "right_sw_ft": 10.0}, "geometry": {"type": "LineString", "coordinates": [[-73.85947931031157, 40.67017264197511], [-73.85940198939427, 40.66986024191856]]}}, {"type": "Feature", "properties": {"segment_id": 647876, "physicalid": "46452", "street_name": "LINDEN BLVD", "borough": "brooklyn", "direction": "TF", "total_row_ft": 134.9, "roadbed_ft": 85.0, "median_ft": 25.1, "left_sw_ft": 15.0, "right_sw_ft": 9.9}, "geometry": {"type": "LineString", "coordinates": [[-73.85940825945063, 40.670181995376204], [-73.85933114007335, 40.66987040826199]]}}, {"type": "Feature", "properties": {"segment_id": 647877, "physicalid": "46452", "street_name": "LINDEN BLVD", "borough": "brooklyn", "direction": "TF", "total_row_ft": 134.5, "roadbed_ft": 83.9, "median_ft": 26.1, "left_sw_ft": 15.0, "right_sw_ft": 9.6}, "geometry": {"type": "LineString", "coordinates": [[-73.85933710513241, 40.6701909308134], [-73.85926029073084, 40.669880574561766]]}}, {"type": "Feature", "properties": {"segment_id": 647878, "physicalid": "46452", "street_name": "LINDEN BLVD", "borough": "brooklyn", "direction": "TF", "total_row_ft": 134.2, "roadbed_ft": 83.3, "median_ft": 27.1, "left_sw_ft": 15.0, "right_sw_ft": 8.8}, "geometry": {"type": "LineString", "coordinates": [[-73.85926595079513, 40.670199866206616], [-73.85918944136674, 40.669890740817905]]}}, {"type": "Feature", "properties": {"segment_id": 647879, "physicalid": "46452", "street_name": "LINDEN BLVD", "borough": "brooklyn", "direction": "TF", "total_row_ft": 154.7, "roadbed_ft": 96.7, "median_ft": 28.1, "left_sw_ft": 15.0, "right_sw_ft": 15.0}, "geometry": {"type": "LineString", "coordinates": [[-73.85919870235182, 40.67022458282779], [-73.85911859198102, 40.66990090703039]]}}, {"type": "Feature", "properties": {"segment_id": 647880, "physicalid": "46452", "street_name": "LINDEN BLVD", "borough": "brooklyn", "direction": "TF", "total_row_ft": 155.3, "roadbed_ft": 96.7, "median_ft": 28.6, "left_sw_ft": 15.0, "right_sw_ft": 15.0}, "geometry": {"type": "LineString", "coordinates": [[-73.85912621741124, 40.6702347230345], [-73.85904925777493, 40.66991060433004]]}}, {"type": "Feature", "properties": {"segment_id": 647881, "physicalid": "46452", "street_name": "LINDEN BLVD", "borough": "brooklyn", "direction": "TF", "total_row_ft": 135.8, "roadbed_ft": 83.8, "median_ft": 27.8, "left_sw_ft": 15.0, "right_sw_ft": 9.3}, "geometry": {"type": "LineString", "coordinates": [[-73.85905228557922, 40.67023191740203], [-73.85897831141017, 40.66992037066188]]}}, {"type": "Feature", "properties": {"segment_id": 647882, "physicalid": "46452", "street_name": "LINDEN BLVD", "borough": "brooklyn", "direction": "TF", "total_row_ft": 134.1, "roadbed_ft": 84.8, "median_ft": 25.0, "left_sw_ft": 15.0, "right_sw_ft": 9.2}, "geometry": {"type": "LineString", "coordinates": [[-73.85898140252253, 40.670241951798616], [-73.85890736502466, 40.66993013694994]]}}, {"type": "Feature", "properties": {"segment_id": 647883, "physicalid": "46452", "street_name": "LINDEN BLVD", "borough": "brooklyn", "direction": "TF", "total_row_ft": 132.3, "roadbed_ft": 85.9, "median_ft": 22.2, "left_sw_ft": 15.0, "right_sw_ft": 9.3}, "geometry": {"type": "LineString", "coordinates": [[-73.8589105447843, 40.67025209287187], [-73.85883641861837, 40.669939903194226]]}}, {"type": "Feature", "properties": {"segment_id": 647884, "physicalid": "46452", "street_name": "LINDEN BLVD", "borough": "brooklyn", "direction": "TF", "total_row_ft": 135.4, "roadbed_ft": 89.2, "median_ft": 21.9, "left_sw_ft": 15.0, "right_sw_ft": 9.3}, "geometry": {"type": "LineString", "coordinates": [[-73.85883968702448, 40.67026223390145], [-73.8587654721913, 40.66994966939477]]}}, {"type": "Feature", "properties": {"segment_id": 647885, "physicalid": "46452", "street_name": "LINDEN BLVD", "borough": "brooklyn", "direction": "TF", "total_row_ft": 132.2, "roadbed_ft": 89.7, "median_ft": 18.2, "left_sw_ft": 15.0, "right_sw_ft": 9.3}, "geometry": {"type": "LineString", "coordinates": [[-73.85876882924312, 40.670272374887396], [-73.85869452574346, 40.66995943555154]]}}, {"type": "Feature", "properties": {"segment_id": 647886, "physicalid": "46452", "street_name": "LINDEN BLVD", "borough": "brooklyn", "direction": "TF", "total_row_ft": 132.6, "roadbed_ft": 90.1, "median_ft": 18.1, "left_sw_ft": 15.0, "right_sw_ft": 9.3}, "geometry": {"type": "LineString", "coordinates": [[-73.85869797144024, 40.670282515829676], [-73.85862357927483, 40.66996920166454]]}}, {"type": "Feature", "properties": {"segment_id": 648082, "physicalid": "46463", "street_name": "LINDEN BLVD", "borough": "brooklyn", "direction": "TF", "total_row_ft": 106.2, "roadbed_ft": 64.9, "median_ft": 20.3, "left_sw_ft": 15.0, "right_sw_ft": 6.1}, "geometry": {"type": "LineString", "coordinates": [[-73.85819634952685, 40.67036372723016], [-73.85813667827556, 40.67012840774439]]}}, {"type": "Feature", "properties": {"segment_id": 648083, "physicalid": "46463", "street_name": "LINDEN BLVD", "borough": "brooklyn", "direction": "TF", "total_row_ft": 102.1, "roadbed_ft": 57.7, "median_ft": 20.2, "left_sw_ft": 15.0, "right_sw_ft": 9.2}, "geometry": {"type": "LineString", "coordinates": [[-73.85812272854535, 40.67036296823503], [-73.85806588890323, 40.670138814503915]]}}, {"type": "Feature", "properties": {"segment_id": 648084, "physicalid": "46463", "street_name": "LINDEN BLVD", "borough": "brooklyn", "direction": "TF", "total_row_ft": 102.4, "roadbed_ft": 57.8, "median_ft": 20.1, "left_sw_ft": 15.0, "right_sw_ft": 9.5}, "geometry": {"type": "LineString", "coordinates": [[-73.85805211039387, 40.67037405120588], [-73.85799509950877, 40.67014922121989]]}}, {"type": "Feature", "properties": {"segment_id": 648085, "physicalid": "46463", "street_name": "LINDEN BLVD", "borough": "brooklyn", "direction": "TF", "total_row_ft": 102.7, "roadbed_ft": 57.8, "median_ft": 20.1, "left_sw_ft": 15.0, "right_sw_ft": 9.8}, "geometry": {"type": "LineString", "coordinates": [[-73.85798125246674, 40.670385171585515], [-73.85792491076167, 40.67015950616825]]}}, {"type": "Feature", "properties": {"segment_id": 648086, "physicalid": "46463", "street_name": "LINDEN BLVD", "borough": "brooklyn", "direction": "TF", "total_row_ft": 103.1, "roadbed_ft": 57.9, "median_ft": 20.1, "left_sw_ft": 15.0, "right_sw_ft": 10.1}, "geometry": {"type": "LineString", "coordinates": [[-73.8579106313964, 40.670396254745924], [-73.8578540824348, 40.670169758243986]]}}, {"type": "Feature", "properties": {"segment_id": 648087, "physicalid": "46463", "street_name": "LINDEN BLVD", "borough": "brooklyn", "direction": "TF", "total_row_ft": 103.5, "roadbed_ft": 57.9, "median_ft": 20.1, "left_sw_ft": 15.0, "right_sw_ft": 10.4}, "geometry": {"type": "LineString", "coordinates": [[-73.85784001034929, 40.67040733805009], [-73.85778325408616, 40.6701800102761]]}}, {"type": "Feature", "properties": {"segment_id": 648088, "physicalid": "46463", "street_name": "LINDEN BLVD", "borough": "brooklyn", "direction": "TF", "total_row_ft": 103.9, "roadbed_ft": 58.0, "median_ft": 20.2, "left_sw_ft": 15.0, "right_sw_ft": 10.7}, "geometry": {"type": "LineString", "coordinates": [[-73.85776938919572, 40.67041842097841], [-73.85771242571575, 40.67019026226462]]}}, {"type": "Feature", "properties": {"segment_id": 648089, "physicalid": "46463", "street_name": "LINDEN BLVD", "borough": "brooklyn", "direction": "TF", "total_row_ft": 104.3, "roadbed_ft": 58.1, "median_ft": 20.2, "left_sw_ft": 15.0, "right_sw_ft": 11.0}, "geometry": {"type": "LineString", "coordinates": [[-73.85769877098822, 40.67042950333195], [-73.85764159035911, 40.67020051622985]]}}, {"type": "Feature", "properties": {"segment_id": 648090, "physicalid": "46463", "street_name": "LINDEN BLVD", "borough": "brooklyn", "direction": "TF", "total_row_ft": 104.6, "roadbed_ft": 58.1, "median_ft": 20.2, "left_sw_ft": 15.0, "right_sw_ft": 11.3}, "geometry": {"type": "LineString", "coordinates": [[-73.85762814980886, 40.67044058610483], [-73.85757076240196, 40.67021076996063]]}}, {"type": "Feature", "properties": {"segment_id": 648091, "physicalid": "46463", "street_name": "LINDEN BLVD", "borough": "brooklyn", "direction": "TF", "total_row_ft": 105.0, "roadbed_ft": 58.2, "median_ft": 20.2, "left_sw_ft": 15.0, "right_sw_ft": 11.6}, "geometry": {"type": "LineString", "coordinates": [[-73.85755752860604, 40.670451668834374], [-73.85749993442303, 40.6702210236478]]}}, {"type": "Feature", "properties": {"segment_id": 648092, "physicalid": "46463", "street_name": "LINDEN BLVD", "borough": "brooklyn", "direction": "TF", "total_row_ft": 105.3, "roadbed_ft": 58.3, "median_ft": 20.1, "left_sw_ft": 15.0, "right_sw_ft": 11.9}, "geometry": {"type": "LineString", "coordinates": [[-73.85748690735635, 40.67046275142687], [-73.85742910642232, 40.67023127729135]]}}, {"type": "Feature", "properties": {"segment_id": 648093, "physicalid": "46463", "street_name": "LINDEN BLVD", "borough": "brooklyn", "direction": "TF", "total_row_ft": 105.6, "roadbed_ft": 58.5, "median_ft": 20.0, "left_sw_ft": 15.0, "right_sw_ft": 12.1}, "geometry": {"type": "LineString", "coordinates": [[-73.85741628610334, 40.67047383405671], [-73.85735827839983, 40.67024153089128]]}}, {"type": "Feature", "properties": {"segment_id": 1093374, "physicalid": "75556", "street_name": "AMBER ST", "borough": "brooklyn", "direction": "TW", "total_row_ft": 106.9, "roadbed_ft": 76.9, "median_ft": 0.0, "left_sw_ft": 15.0, "right_sw_ft": 15.0}, "geometry": {"type": "LineString", "coordinates": [[-73.85833199769243, 40.671504921271726], [-73.85875615189231, 40.67144019526838]]}}, {"type": "Feature", "properties": {"segment_id": 1093375, "physicalid": "75556", "street_name": "AMBER ST", "borough": "brooklyn", "direction": "TW", "total_row_ft": 61.9, "roadbed_ft": 31.9, "median_ft": 0.0, "left_sw_ft": 15.0, "right_sw_ft": 15.0}, "geometry": {"type": "LineString", "coordinates": [[-73.858317829658, 40.671451096116584], [-73.85874198352933, 40.67138637016507]]}}, {"type": "Feature", "properties": {"segment_id": 1093376, "physicalid": "75556", "street_name": "AMBER ST", "borough": "brooklyn", "direction": "TW", "total_row_ft": 59.6, "roadbed_ft": 29.6, "median_ft": 0.0, "left_sw_ft": 15.0, "right_sw_ft": 15.0}, "geometry": {"type": "LineString", "coordinates": [[-73.85830366164646, 40.67139727095941], [-73.85872781518921, 40.67133254505962]]}}, {"type": "Feature", "properties": {"segment_id": 1093377, "physicalid": "75556", "street_name": "AMBER ST", "borough": "brooklyn", "direction": "TW", "total_row_ft": 58.7, "roadbed_ft": 28.7, "median_ft": 0.0, "left_sw_ft": 15.0, "right_sw_ft": 15.0}, "geometry": {"type": "LineString", "coordinates": [[-73.85828949365776, 40.671343445800034], [-73.85871364687199, 40.671278719952156]]}}, {"type": "Feature", "properties": {"segment_id": 1093378, "physicalid": "75556", "street_name": "AMBER ST", "borough": "brooklyn", "direction": "TW", "total_row_ft": 58.3, "roadbed_ft": 28.3, "median_ft": 0.0, "left_sw_ft": 15.0, "right_sw_ft": 15.0}, "geometry": {"type": "LineString", "coordinates": [[-73.85827532569193, 40.671289620638625], [-73.8586994785776, 40.67122489484256]]}}, {"type": "Feature", "properties": {"segment_id": 1093379, "physicalid": "75556", "street_name": "AMBER ST", "borough": "brooklyn", "direction": "TW", "total_row_ft": 57.8, "roadbed_ft": 27.8, "median_ft": 0.0, "left_sw_ft": 15.0, "right_sw_ft": 15.0}, "geometry": {"type": "LineString", "coordinates": [[-73.85826115774898, 40.67123579547511], [-73.85868531030611, 40.67117106973086]]}}, {"type": "Feature", "properties": {"segment_id": 1093380, "physicalid": "75556", "street_name": "AMBER ST", "borough": "brooklyn", "direction": "TW", "total_row_ft": 57.4, "roadbed_ft": 27.4, "median_ft": 0.0, "left_sw_ft": 15.0, "right_sw_ft": 15.0}, "geometry": {"type": "LineString", "coordinates": [[-73.8582469898289, 40.671181970309505], [-73.85867114205747, 40.67111724461707]]}}, {"type": "Feature", "properties": {"segment_id": 1093381, "physicalid": "75556", "street_name": "AMBER ST", "borough": "brooklyn", "direction": "TW", "total_row_ft": 56.9, "roadbed_ft": 26.9, "median_ft": 0.0, "left_sw_ft": 15.0, "right_sw_ft": 15.0}, "geometry": {"type": "LineString", "coordinates": [[-73.85823282193168, 40.67112814514182], [-73.85865697383171, 40.671063419501216]]}}, {"type": "Feature", "properties": {"segment_id": 1093382, "physicalid": "75556", "street_name": "AMBER ST", "borough": "brooklyn", "direction": "TW", "total_row_ft": 56.9, "roadbed_ft": 26.9, "median_ft": 0.0, "left_sw_ft": 15.0, "right_sw_ft": 15.0}, "geometry": {"type": "LineString", "coordinates": [[-73.85821865405732, 40.671074319972035], [-73.85864280562882, 40.67100959438326]]}}, {"type": "Feature", "properties": {"segment_id": 1093383, "physicalid": "75556", "street_name": "AMBER ST", "borough": "brooklyn", "direction": "TW", "total_row_ft": 57.2, "roadbed_ft": 27.2, "median_ft": 0.0, "left_sw_ft": 15.0, "right_sw_ft": 15.0}, "geometry": {"type": "LineString", "coordinates": [[-73.85820448620585, 40.67102049480018], [-73.85862863744879, 40.67095576926319]]}}, {"type": "Feature", "properties": {"segment_id": 1093384, "physicalid": "75556", "street_name": "AMBER ST", "borough": "brooklyn", "direction": "TW", "total_row_ft": 57.5, "roadbed_ft": 27.5, "median_ft": 0.0, "left_sw_ft": 15.0, "right_sw_ft": 15.0}, "geometry": {"type": "LineString", "coordinates": [[-73.85819031837723, 40.67096666962621], [-73.85861446929162, 40.670901944141065]]}}, {"type": "Feature", "properties": {"segment_id": 1093385, "physicalid": "75556", "street_name": "AMBER ST", "borough": "brooklyn", "direction": "TW", "total_row_ft": 66.8, "roadbed_ft": 36.8, "median_ft": 0.0, "left_sw_ft": 15.0, "right_sw_ft": 15.0}, "geometry": {"type": "LineString", "coordinates": [[-73.85817615057148, 40.67091284445015], [-73.85860030115732, 40.67084811901682]]}}, {"type": "Feature", "properties": {"segment_id": 1093386, "physicalid": "75556", "street_name": "AMBER ST", "borough": "brooklyn", "direction": "TW", "total_row_ft": 67.3, "roadbed_ft": 37.3, "median_ft": 0.0, "left_sw_ft": 15.0, "right_sw_ft": 15.0}, "geometry": {"type": "LineString", "coordinates": [[-73.85816198278859, 40.670859019272015], [-73.8585861330459, 40.67079429389049]]}}, {"type": "Feature", "properties": {"segment_id": 1093387, "physicalid": "75556", "street_name": "AMBER ST", "borough": "brooklyn", "direction": "TW", "total_row_ft": 67.8, "roadbed_ft": 37.8, "median_ft": 0.0, "left_sw_ft": 15.0, "right_sw_ft": 15.0}, "geometry": {"type": "LineString", "coordinates": [[-73.85814781502859, 40.67080519409183], [-73.85857196495732, 40.67074046876204]]}}, {"type": "Feature", "properties": {"segment_id": 1093388, "physicalid": "75556", "street_name": "AMBER ST", "borough": "brooklyn", "direction": "TW", "total_row_ft": 68.3, "roadbed_ft": 38.3, "median_ft": 0.0, "left_sw_ft": 15.0, "right_sw_ft": 15.0}, "geometry": {"type": "LineString", "coordinates": [[-73.85813364729142, 40.67075136890945], [-73.85855779689165, 40.67068664363157]]}}, {"type": "Feature", "properties": {"segment_id": 1093389, "physicalid": "75556", "street_name": "AMBER ST", "borough": "brooklyn", "direction": "TW", "total_row_ft": 68.8, "roadbed_ft": 38.8, "median_ft": 0.0, "left_sw_ft": 15.0, "right_sw_ft": 15.0}, "geometry": {"type": "LineString", "coordinates": [[-73.85811947957714, 40.67069754372504], [-73.85854362884882, 40.67063281849897]]}}, {"type": "Feature", "properties": {"segment_id": 1093390, "physicalid": "75556", "street_name": "AMBER ST", "borough": "brooklyn", "direction": "TW", "total_row_ft": 69.2, "roadbed_ft": 39.2, "median_ft": 0.0, "left_sw_ft": 15.0, "right_sw_ft": 15.0}, "geometry": {"type": "LineString", "coordinates": [[-73.85810531188572, 40.670643718538535], [-73.85852946082886, 40.67057899336427]]}}, {"type": "Feature", "properties": {"segment_id": 1093391, "physicalid": "75556", "street_name": "AMBER ST", "borough": "brooklyn", "direction": "TW", "total_row_ft": 69.7, "roadbed_ft": 39.7, "median_ft": 0.0, "left_sw_ft": 15.0, "right_sw_ft": 15.0}, "geometry": {"type": "LineString", "coordinates": [[-73.85809114421717, 40.67058989334995], [-73.85851529283178, 40.67052516822753]]}}, {"type": "Feature", "properties": {"segment_id": 1093392, "physicalid": "75556", "street_name": "AMBER ST", "borough": "brooklyn", "direction": "TW", "total_row_ft": 55.0, "roadbed_ft": 28.9, "median_ft": 0.0, "left_sw_ft": 15.0, "right_sw_ft": 11.1}, "geometry": {"type": "LineString", "coordinates": [[-73.8580769765715, 40.670536068159244], [-73.8583773152699, 40.67049023661867]]}}, {"type": "Feature", "properties": {"segment_id": 1093393, "physicalid": "75556", "street_name": "AMBER ST", "borough": "brooklyn", "direction": "TW", "total_row_ft": 55.1, "roadbed_ft": 28.0, "median_ft": 0.0, "left_sw_ft": 15.0, "right_sw_ft": 12.1}, "geometry": {"type": "LineString", "coordinates": [[-73.85806280894869, 40.670482242966465], [-73.85836452792401, 40.67043620079553]]}}, {"type": "Feature", "properties": {"segment_id": 1093394, "physicalid": "75556", "street_name": "AMBER ST", "borough": "brooklyn", "direction": "TW", "total_row_ft": 55.3, "roadbed_ft": 27.2, "median_ft": 0.0, "left_sw_ft": 15.0, "right_sw_ft": 13.1}, "geometry": {"type": "LineString", "coordinates": [[-73.85804864134873, 40.67042841777161], [-73.85835174042796, 40.6703821649967]]}}, {"type": "Feature", "properties": {"segment_id": 1093395, "physicalid": "75556", "street_name": "AMBER ST", "borough": "brooklyn", "direction": "TW", "total_row_ft": 120.0, "roadbed_ft": 30.3, "median_ft": 0.0, "left_sw_ft": 45.2, "right_sw_ft": 44.4}, "geometry": {"type": "LineString", "coordinates": [[-73.85803447377164, 40.67037459257464], [-73.85845862107209, 40.67030986765949]]}}, {"type": "Feature", "properties": {"segment_id": 1105895, "physicalid": "76524", "street_name": "EMERALD ST", "borough": "brooklyn", "direction": "TW", "total_row_ft": 150.0, "roadbed_ft": 120.0, "median_ft": 0.0, "left_sw_ft": 15.0, "right_sw_ft": 15.0}, "geometry": {"type": "LineString", "coordinates": [[-73.85925148156448, 40.671372210659044], [-73.85967579203573, 40.67130808442026]]}}, {"type": "Feature", "properties": {"segment_id": 1105896, "physicalid": "76524", "street_name": "EMERALD ST", "borough": "brooklyn", "direction": "TW", "total_row_ft": 61.8, "roadbed_ft": 31.8, "median_ft": 0.0, "left_sw_ft": 15.0, "right_sw_ft": 15.0}, "geometry": {"type": "LineString", "coordinates": [[-73.85923744484387, 40.67131836556556], [-73.85966175498606, 40.67125423937817]]}}, {"type": "Feature", "properties": {"segment_id": 1105897, "physicalid": "76524", "street_name": "EMERALD ST", "borough": "brooklyn", "direction": "TW", "total_row_ft": 58.8, "roadbed_ft": 28.8, "median_ft": 0.0, "left_sw_ft": 15.0, "right_sw_ft": 15.0}, "geometry": {"type": "LineString", "coordinates": [[-73.85922340814594, 40.67126452047002], [-73.85964771795908, 40.67120039433399]]}}, {"type": "Feature", "properties": {"segment_id": 1105898, "physicalid": "76524", "street_name": "EMERALD ST", "borough": "brooklyn", "direction": "TW", "total_row_ft": 57.2, "roadbed_ft": 27.2, "median_ft": 0.0, "left_sw_ft": 15.0, "right_sw_ft": 15.0}, "geometry": {"type": "LineString", "coordinates": [[-73.85920937147064, 40.67121067537244], [-73.85963368095474, 40.67114654928775]]}}, {"type": "Feature", "properties": {"segment_id": 1105899, "physicalid": "76524", "street_name": "EMERALD ST", "borough": "brooklyn", "direction": "TW", "total_row_ft": 56.8, "roadbed_ft": 26.8, "median_ft": 0.0, "left_sw_ft": 15.0, "right_sw_ft": 15.0}, "geometry": {"type": "LineString", "coordinates": [[-73.85919533481803, 40.6711568302728], [-73.85961964397308, 40.67109270423946]]}}, {"type": "Feature", "properties": {"segment_id": 1105900, "physicalid": "76524", "street_name": "EMERALD ST", "borough": "brooklyn", "direction": "TW", "total_row_ft": 56.9, "roadbed_ft": 26.9, "median_ft": 0.0, "left_sw_ft": 15.0, "right_sw_ft": 15.0}, "geometry": {"type": "LineString", "coordinates": [[-73.85918129818809, 40.67110298517108], [-73.85960560701406, 40.67103885918911]]}}, {"type": "Feature", "properties": {"segment_id": 1105901, "physicalid": "76524", "street_name": "EMERALD ST", "borough": "brooklyn", "direction": "TW", "total_row_ft": 57.1, "roadbed_ft": 27.1, "median_ft": 0.0, "left_sw_ft": 15.0, "right_sw_ft": 15.0}, "geometry": {"type": "LineString", "coordinates": [[-73.85916726158081, 40.67104914006732], [-73.85959157007774, 40.670985014136704]]}}, {"type": "Feature", "properties": {"segment_id": 1105902, "physicalid": "76524", "street_name": "EMERALD ST", "borough": "brooklyn", "direction": "TW", "total_row_ft": 59.5, "roadbed_ft": 27.2, "median_ft": 0.0, "left_sw_ft": 17.2, "right_sw_ft": 15.0}, "geometry": {"type": "LineString", "coordinates": [[-73.8592482410928, 40.67098093528393], [-73.85957753316406, 40.670931169082245]]}}, {"type": "Feature", "properties": {"segment_id": 1105903, "physicalid": "76524", "street_name": "EMERALD ST", "borough": "brooklyn", "direction": "TW", "total_row_ft": 59.2, "roadbed_ft": 27.4, "median_ft": 0.0, "left_sw_ft": 16.8, "right_sw_ft": 15.0}, "geometry": {"type": "LineString", "coordinates": [[-73.85923538714043, 40.67092691144941], [-73.85956349627304, 40.67087732402569]]}}, {"type": "Feature", "properties": {"segment_id": 1105904, "physicalid": "76524", "street_name": "EMERALD ST", "borough": "brooklyn", "direction": "TW", "total_row_ft": 59.0, "roadbed_ft": 27.5, "median_ft": 0.0, "left_sw_ft": 16.4, "right_sw_ft": 15.0}, "geometry": {"type": "LineString", "coordinates": [[-73.85922253320888, 40.67087288761309], [-73.85954945940469, 40.67082347896714]]}}, {"type": "Feature", "properties": {"segment_id": 1105905, "physicalid": "76524", "street_name": "EMERALD ST", "borough": "brooklyn", "direction": "TW", "total_row_ft": 58.9, "roadbed_ft": 27.7, "median_ft": 0.0, "left_sw_ft": 16.2, "right_sw_ft": 15.0}, "geometry": {"type": "LineString", "coordinates": [[-73.85920907401307, 40.670818955251356], [-73.859535422559, 40.670769633906474]]}}, {"type": "Feature", "properties": {"segment_id": 1105906, "physicalid": "76524", "street_name": "EMERALD ST", "borough": "brooklyn", "direction": "TW", "total_row_ft": 59.0, "roadbed_ft": 27.9, "median_ft": 0.0, "left_sw_ft": 16.1, "right_sw_ft": 15.0}, "geometry": {"type": "LineString", "coordinates": [[-73.85919510536206, 40.6707650998846], [-73.85952138573599, 40.67071578884377]]}}, {"type": "Feature", "properties": {"segment_id": 1105907, "physicalid": "76524", "street_name": "EMERALD ST", "borough": "brooklyn", "direction": "TW", "total_row_ft": 54.7, "roadbed_ft": 28.0, "median_ft": 0.0, "left_sw_ft": 16.0, "right_sw_ft": 10.7}, "geometry": {"type": "LineString", "coordinates": [[-73.85918113673362, 40.67071124451581], [-73.85937470209313, 40.67068199093332]]}}, {"type": "Feature", "properties": {"segment_id": 1105908, "physicalid": "76524", "street_name": "EMERALD ST", "borough": "brooklyn", "direction": "TW", "total_row_ft": 54.6, "roadbed_ft": 28.2, "median_ft": 0.0, "left_sw_ft": 16.0, "right_sw_ft": 10.5}, "geometry": {"type": "LineString", "coordinates": [[-73.85916716812774, 40.67065738914496], [-73.85936039858319, 40.67062818617754]]}}, {"type": "Feature", "properties": {"segment_id": 1105909, "physicalid": "76524", "street_name": "EMERALD ST", "borough": "brooklyn", "direction": "TW", "total_row_ft": 54.6, "roadbed_ft": 28.3, "median_ft": 0.0, "left_sw_ft": 15.9, "right_sw_ft": 10.4}, "geometry": {"type": "LineString", "coordinates": [[-73.85915319954442, 40.67060353377207], [-73.85934609509631, 40.67057438141966]]}}, {"type": "Feature", "properties": {"segment_id": 1105910, "physicalid": "76524", "street_name": "EMERALD ST", "borough": "brooklyn", "direction": "TW", "total_row_ft": 54.4, "roadbed_ft": 28.5, "median_ft": 0.0, "left_sw_ft": 15.7, "right_sw_ft": 10.2}, "geometry": {"type": "LineString", "coordinates": [[-73.85913953485328, 40.67054963247354], [-73.8593317916325, 40.670520576659634]]}}, {"type": "Feature", "properties": {"segment_id": 1105911, "physicalid": "76524", "street_name": "EMERALD ST", "borough": "brooklyn", "direction": "TW", "total_row_ft": 54.0, "roadbed_ft": 28.6, "median_ft": 0.0, "left_sw_ft": 15.3, "right_sw_ft": 10.0}, "geometry": {"type": "LineString", "coordinates": [[-73.8591267077469, 40.670495604592745], [-73.85931748819178, 40.67046677189748]]}}, {"type": "Feature", "properties": {"segment_id": 1105912, "physicalid": "76524", "street_name": "EMERALD ST", "borough": "brooklyn", "direction": "TW", "total_row_ft": 53.6, "roadbed_ft": 28.6, "median_ft": 0.0, "left_sw_ft": 15.1, "right_sw_ft": 9.9}, "geometry": {"type": "LineString", "coordinates": [[-73.85911388066127, 40.67044157671018], [-73.85930334278156, 40.67041294325337]]}}, {"type": "Feature", "properties": {"segment_id": 1105913, "physicalid": "76524", "street_name": "EMERALD ST", "borough": "brooklyn", "direction": "TW", "total_row_ft": 53.8, "roadbed_ft": 28.4, "median_ft": 0.0, "left_sw_ft": 15.1, "right_sw_ft": 10.2}, "geometry": {"type": "LineString", "coordinates": [[-73.85910105359643, 40.670387548825815], [-73.85929115814305, 40.670358818276966]]}}, {"type": "Feature", "properties": {"segment_id": 1105914, "physicalid": "76524", "street_name": "EMERALD ST", "borough": "brooklyn", "direction": "TW", "total_row_ft": 53.9, "roadbed_ft": 28.5, "median_ft": 0.0, "left_sw_ft": 15.0, "right_sw_ft": 10.4}, "geometry": {"type": "LineString", "coordinates": [[-73.85908822655237, 40.67033352093968], [-73.85927897394708, 40.67030469323504]]}}, {"type": "Feature", "properties": {"segment_id": 1105915, "physicalid": "76524", "street_name": "EMERALD ST", "borough": "brooklyn", "direction": "TW", "total_row_ft": 50.3, "roadbed_ft": 28.5, "median_ft": 0.0, "left_sw_ft": 11.2, "right_sw_ft": 10.6}, "geometry": {"type": "LineString", "coordinates": [[-73.85908896687798, 40.670277442625874], [-73.8592667897709, 40.67025056819143]]}}, {"type": "Feature", "properties": {"segment_id": 1105916, "physicalid": "76524", "street_name": "EMERALD ST", "borough": "brooklyn", "direction": "TW", "total_row_ft": 120.0, "roadbed_ft": 31.7, "median_ft": 0.0, "left_sw_ft": 44.7, "right_sw_ft": 43.6}, "geometry": {"type": "LineString", "coordinates": [[-73.85895671519111, 40.67024146326377], [-73.8593810187523, 40.67017733810352]]}}, {"type": "Feature", "properties": {"segment_id": 1498730, "physicalid": "101111", "street_name": "DUMONT AVE", "borough": "brooklyn", "direction": "TW", "total_row_ft": 63.4, "roadbed_ft": 33.4, "median_ft": 0.0, "left_sw_ft": 15.0, "right_sw_ft": 15.0}, "geometry": {"type": "LineString", "coordinates": [[-73.8600170981502, 40.67147126392111], [-73.85993811223142, 40.671147427787346]]}}, {"type": "Feature", "properties": {"segment_id": 1498731, "physicalid": "101111", "street_name": "DUMONT AVE", "borough": "brooklyn", "direction": "TW", "total_row_ft": 64.2, "roadbed_ft": 34.2, "median_ft": 0.0, "left_sw_ft": 15.0, "right_sw_ft": 15.0}, "geometry": {"type": "LineString", "coordinates": [[-73.85994621197953, 40.67148128725382], [-73.85986722639308, 40.671157451071785]]}}, {"type": "Feature", "properties": {"segment_id": 1498732, "physicalid": "101111", "street_name": "DUMONT AVE", "borough": "brooklyn", "direction": "TW", "total_row_ft": 65.7, "roadbed_ft": 35.7, "median_ft": 0.0, "left_sw_ft": 15.0, "right_sw_ft": 15.0}, "geometry": {"type": "LineString", "coordinates": [[-73.85987532578756, 40.67149131054285], [-73.85979634053344, 40.67116747431251]]}}, {"type": "Feature", "properties": {"segment_id": 1498733, "physicalid": "101111", "street_name": "DUMONT AVE", "borough": "brooklyn", "direction": "TW", "total_row_ft": 66.8, "roadbed_ft": 36.8, "median_ft": 0.0, "left_sw_ft": 15.0, "right_sw_ft": 15.0}, "geometry": {"type": "LineString", "coordinates": [[-73.85980443957429, 40.67150133378815], [-73.85972545465246, 40.671177497509554]]}}, {"type": "Feature", "properties": {"segment_id": 1498734, "physicalid": "101111", "street_name": "DUMONT AVE", "borough": "brooklyn", "direction": "TW", "total_row_ft": 67.5, "roadbed_ft": 37.5, "median_ft": 0.0, "left_sw_ft": 15.0, "right_sw_ft": 15.0}, "geometry": {"type": "LineString", "coordinates": [[-73.85973355333972, 40.67151135698979], [-73.85965456875019, 40.671187520662926]]}}, {"type": "Feature", "properties": {"segment_id": 1498735, "physicalid": "101111", "street_name": "DUMONT AVE", "borough": "brooklyn", "direction": "TW", "total_row_ft": 69.1, "roadbed_ft": 39.1, "median_ft": 0.0, "left_sw_ft": 15.0, "right_sw_ft": 15.0}, "geometry": {"type": "LineString", "coordinates": [[-73.85966266708384, 40.67152138014776], [-73.85958368282664, 40.67119754377259]]}}, {"type": "Feature", "properties": {"segment_id": 1498736, "physicalid": "101111", "street_name": "DUMONT AVE", "borough": "brooklyn", "direction": "TW", "total_row_ft": 81.6, "roadbed_ft": 51.6, "median_ft": 0.0, "left_sw_ft": 15.0, "right_sw_ft": 15.0}, "geometry": {"type": "LineString", "coordinates": [[-73.85959178080665, 40.67153140326201], [-73.85951279688176, 40.67120756683858]]}}, {"type": "Feature", "properties": {"segment_id": 1498737, "physicalid": "101112", "street_name": "DUMONT AVE", "borough": "brooklyn", "direction": "TW", "total_row_ft": 150.0, "roadbed_ft": 120.0, "median_ft": 0.0, "left_sw_ft": 15.0, "right_sw_ft": 15.0}, "geometry": {"type": "LineString", "coordinates": [[-73.85946122608485, 40.671550000465146], [-73.85938083977673, 40.671226364153824]]}}, {"type": "Feature", "properties": {"segment_id": 1498738, "physicalid": "101112", "street_name": "DUMONT AVE", "borough": "brooklyn", "direction": "TW", "total_row_ft": 72.3, "roadbed_ft": 42.3, "median_ft": 0.0, "left_sw_ft": 15.0, "right_sw_ft": 15.0}, "geometry": {"type": "LineString", "coordinates": [[-73.85939038357009, 40.67156020149586], [-73.85930999759344, 40.67123656513543]]}}, {"type": "Feature", "properties": {"segment_id": 1498739, "physicalid": "101112", "street_name": "DUMONT AVE", "borough": "brooklyn", "direction": "TW", "total_row_ft": 73.3, "roadbed_ft": 43.3, "median_ft": 0.0, "left_sw_ft": 15.0, "right_sw_ft": 15.0}, "geometry": {"type": "LineString", "coordinates": [[-73.85931954103367, 40.671570402482914], [-73.85923915538847, 40.6712467660734]]}}, {"type": "Feature", "properties": {"segment_id": 1498740, "physicalid": "101112", "street_name": "DUMONT AVE", "borough": "brooklyn", "direction": "TW", "total_row_ft": 74.3, "roadbed_ft": 44.3, "median_ft": 0.0, "left_sw_ft": 15.0, "right_sw_ft": 15.0}, "geometry": {"type": "LineString", "coordinates": [[-73.85924869847558, 40.67158060342634], [-73.85916831316183, 40.671256966967725]]}}, {"type": "Feature", "properties": {"segment_id": 1498741, "physicalid": "101112", "street_name": "DUMONT AVE", "borough": "brooklyn", "direction": "TW", "total_row_ft": 75.3, "roadbed_ft": 45.3, "median_ft": 0.0, "left_sw_ft": 15.0, "right_sw_ft": 15.0}, "geometry": {"type": "LineString", "coordinates": [[-73.85917785589581, 40.671590804326144], [-73.85909747091353, 40.67126716781842]]}}, {"type": "Feature", "properties": {"segment_id": 1498742, "physicalid": "101112", "street_name": "DUMONT AVE", "borough": "brooklyn", "direction": "TW", "total_row_ft": 76.3, "roadbed_ft": 46.3, "median_ft": 0.0, "left_sw_ft": 15.0, "right_sw_ft": 15.0}, "geometry": {"type": "LineString", "coordinates": [[-73.85910701329439, 40.67160100518232], [-73.85902662864356, 40.671277368625496]]}}, {"type": "Feature", "properties": {"segment_id": 1498743, "physicalid": "101112", "street_name": "DUMONT AVE", "borough": "brooklyn", "direction": "TW", "total_row_ft": 77.3, "roadbed_ft": 47.3, "median_ft": 0.0, "left_sw_ft": 15.0, "right_sw_ft": 15.0}, "geometry": {"type": "LineString", "coordinates": [[-73.85903617067127, 40.67161120599482], [-73.8589557863519, 40.67128756938891]]}}, {"type": "Feature", "properties": {"segment_id": 1498744, "physicalid": "101112", "street_name": "DUMONT AVE", "borough": "brooklyn", "direction": "TW", "total_row_ft": 78.3, "roadbed_ft": 48.3, "median_ft": 0.0, "left_sw_ft": 15.0, "right_sw_ft": 15.0}, "geometry": {"type": "LineString", "coordinates": [[-73.8589653280265, 40.671621406763734], [-73.85888494403862, 40.67129777010871]]}}, {"type": "Feature", "properties": {"segment_id": 1498745, "physicalid": "101112", "street_name": "DUMONT AVE", "borough": "brooklyn", "direction": "TW", "total_row_ft": 79.3, "roadbed_ft": 49.3, "median_ft": 0.0, "left_sw_ft": 15.0, "right_sw_ft": 15.0}, "geometry": {"type": "LineString", "coordinates": [[-73.85889448536007, 40.671631607488976], [-73.85881410170362, 40.67130797078486]]}}, {"type": "Feature", "properties": {"segment_id": 1498746, "physicalid": "101112", "street_name": "DUMONT AVE", "borough": "brooklyn", "direction": "TW", "total_row_ft": 80.3, "roadbed_ft": 50.3, "median_ft": 0.0, "left_sw_ft": 15.0, "right_sw_ft": 15.0}, "geometry": {"type": "LineString", "coordinates": [[-73.85882364267195, 40.671641808170605], [-73.85874325934697, 40.6713181714174]]}}, {"type": "Feature", "properties": {"segment_id": 1498747, "physicalid": "101112", "street_name": "DUMONT AVE", "borough": "brooklyn", "direction": "TW", "total_row_ft": 77.7, "roadbed_ft": 51.2, "median_ft": 0.0, "left_sw_ft": 11.4, "right_sw_ft": 15.0}, "geometry": {"type": "LineString", "coordinates": [[-73.8587419192139, 40.671608201091004], [-73.85867241696864, 40.671328372006265]]}}, {"type": "Feature", "properties": {"segment_id": 1498748, "physicalid": "101112", "street_name": "DUMONT AVE", "borough": "brooklyn", "direction": "TW", "total_row_ft": 77.8, "roadbed_ft": 53.0, "median_ft": 0.0, "left_sw_ft": 9.7, "right_sw_ft": 15.0}, "geometry": {"type": "LineString", "coordinates": [[-73.85867062426959, 40.67161658080423], [-73.85860157456865, 40.67133857255152]]}}, {"type": "Feature", "properties": {"segment_id": 1498749, "physicalid": "101113", "street_name": "DUMONT AVE", "borough": "brooklyn", "direction": "TW", "total_row_ft": 115.1, "roadbed_ft": 85.1, "median_ft": 0.0, "left_sw_ft": 15.0, "right_sw_ft": 15.0}, "geometry": {"type": "LineString", "coordinates": [[-73.8585449958904, 40.671682521421204], [-73.85845844575442, 40.67135980800023]]}}, {"type": "Feature", "properties": {"segment_id": 1498750, "physicalid": "101113", "street_name": "DUMONT AVE", "borough": "brooklyn", "direction": "TW", "total_row_ft": 62.0, "roadbed_ft": 32.0, "median_ft": 0.0, "left_sw_ft": 15.0, "right_sw_ft": 15.0}, "geometry": {"type": "LineString", "coordinates": [[-73.85847435525085, 40.67169350462193], [-73.85838780544239, 40.671370791148256]]}}, {"type": "Feature", "properties": {"segment_id": 1498751, "physicalid": "101113", "street_name": "DUMONT AVE", "borough": "brooklyn", "direction": "TW", "total_row_ft": 62.1, "roadbed_ft": 32.1, "median_ft": 0.0, "left_sw_ft": 15.0, "right_sw_ft": 15.0}, "geometry": {"type": "LineString", "coordinates": [[-73.858403714588, 40.67170448777928], [-73.8583171651071, 40.67138177425288]]}}, {"type": "Feature", "properties": {"segment_id": 1498752, "physicalid": "101113", "street_name": "DUMONT AVE", "borough": "brooklyn", "direction": "TW", "total_row_ft": 62.3, "roadbed_ft": 32.3, "median_ft": 0.0, "left_sw_ft": 15.0, "right_sw_ft": 15.0}, "geometry": {"type": "LineString", "coordinates": [[-73.85833307390189, 40.67171547089324], [-73.85824652474855, 40.6713927573141]]}}, {"type": "Feature", "properties": {"segment_id": 1498753, "physicalid": "101113", "street_name": "DUMONT AVE", "borough": "brooklyn", "direction": "TW", "total_row_ft": 62.4, "roadbed_ft": 32.4, "median_ft": 0.0, "left_sw_ft": 15.0, "right_sw_ft": 15.0}, "geometry": {"type": "LineString", "coordinates": [[-73.85826243319254, 40.67172645396379], [-73.85817588436672, 40.671403740331975]]}}, {"type": "Feature", "properties": {"segment_id": 1498754, "physicalid": "101113", "street_name": "DUMONT AVE", "borough": "brooklyn", "direction": "TW", "total_row_ft": 62.6, "roadbed_ft": 32.6, "median_ft": 0.0, "left_sw_ft": 15.0, "right_sw_ft": 15.0}, "geometry": {"type": "LineString", "coordinates": [[-73.8581917924599, 40.67173743699098], [-73.85810524396162, 40.67141472330644]]}}, {"type": "Feature", "properties": {"segment_id": 1498755, "physicalid": "101113", "street_name": "DUMONT AVE", "borough": "brooklyn", "direction": "TW", "total_row_ft": 62.7, "roadbed_ft": 32.7, "median_ft": 0.0, "left_sw_ft": 15.0, "right_sw_ft": 15.0}, "geometry": {"type": "LineString", "coordinates": [[-73.858121151704, 40.6717484199748], [-73.85803460353327, 40.67142570623752]]}}, {"type": "Feature", "properties": {"segment_id": 1498756, "physicalid": "101113", "street_name": "DUMONT AVE", "borough": "brooklyn", "direction": "TW", "total_row_ft": 62.8, "roadbed_ft": 32.8, "median_ft": 0.0, "left_sw_ft": 15.0, "right_sw_ft": 15.0}, "geometry": {"type": "LineString", "coordinates": [[-73.85805051092484, 40.67175940291519], [-73.85796396308166, 40.671436689125215]]}}, {"type": "Feature", "properties": {"segment_id": 1498757, "physicalid": "101113", "street_name": "DUMONT AVE", "borough": "brooklyn", "direction": "TW", "total_row_ft": 63.0, "roadbed_ft": 33.0, "median_ft": 0.0, "left_sw_ft": 15.0, "right_sw_ft": 15.0}, "geometry": {"type": "LineString", "coordinates": [[-73.8579798701224, 40.67177038581222], [-73.85789332260677, 40.6714476719695]]}}, {"type": "Feature", "properties": {"segment_id": 1498758, "physicalid": "101113", "street_name": "DUMONT AVE", "borough": "brooklyn", "direction": "TW", "total_row_ft": 63.1, "roadbed_ft": 33.1, "median_ft": 0.0, "left_sw_ft": 15.0, "right_sw_ft": 15.0}, "geometry": {"type": "LineString", "coordinates": [[-73.85790922929671, 40.67178136866583], [-73.85782268210863, 40.67145865477041]]}}, {"type": "Feature", "properties": {"segment_id": 1498759, "physicalid": "101113", "street_name": "DUMONT AVE", "borough": "brooklyn", "direction": "TW", "total_row_ft": 63.3, "roadbed_ft": 33.3, "median_ft": 0.0, "left_sw_ft": 15.0, "right_sw_ft": 15.0}, "geometry": {"type": "LineString", "coordinates": [[-73.85783858844773, 40.67179235147608], [-73.85775204158723, 40.671469637527956]]}}, {"type": "Feature", "properties": {"segment_id": 1498760, "physicalid": "101113", "street_name": "DUMONT AVE", "borough": "brooklyn", "direction": "TW", "total_row_ft": 65.3, "roadbed_ft": 35.3, "median_ft": 0.0, "left_sw_ft": 15.0, "right_sw_ft": 15.0}, "geometry": {"type": "LineString", "coordinates": [[-73.85776794757552, 40.671803334242924], [-73.85768140104253, 40.67148062024208]]}}, {"type": "Feature", "properties": {"segment_id": 1563050, "physicalid": "109590", "street_name": "SAPPHIRE ST", "borough": "brooklyn", "direction": "TW", "total_row_ft": 135.0, "roadbed_ft": 81.5, "median_ft": 0.0, "left_sw_ft": 15.0, "right_sw_ft": 38.5}, "geometry": {"type": "LineString", "coordinates": [[-73.8570043092428, 40.67008713438884], [-73.85742898330909, 40.670024451108326]]}}, {"type": "Feature", "properties": {"segment_id": 1563077, "physicalid": "109591", "street_name": "SAPPHIRE ST", "borough": "brooklyn", "direction": "TW", "total_row_ft": 81.2, "roadbed_ft": 45.5, "median_ft": 0.0, "left_sw_ft": 20.7, "right_sw_ft": 15.0}, "geometry": {"type": "LineString", "coordinates": [[-73.85749257244588, 40.671635508067325], [-73.8578348312496, 40.67158370050631]]}}, {"type": "Feature", "properties": {"segment_id": 1563078, "physicalid": "109591", "street_name": "SAPPHIRE ST", "borough": "brooklyn", "direction": "TW", "total_row_ft": 68.9, "roadbed_ft": 33.1, "median_ft": 0.0, "left_sw_ft": 20.8, "right_sw_ft": 15.0}, "geometry": {"type": "LineString", "coordinates": [[-73.85747887565479, 40.67158161151016], [-73.85782077275752, 40.6715298587004]]}}, {"type": "Feature", "properties": {"segment_id": 1563079, "physicalid": "109591", "street_name": "SAPPHIRE ST", "borough": "brooklyn", "direction": "TW", "total_row_ft": 68.7, "roadbed_ft": 32.8, "median_ft": 0.0, "left_sw_ft": 20.9, "right_sw_ft": 15.0}, "geometry": {"type": "LineString", "coordinates": [[-73.85746517888586, 40.671527714951], [-73.85780671428813, 40.67147601689241]]}}, {"type": "Feature", "properties": {"segment_id": 1563080, "physicalid": "109591", "street_name": "SAPPHIRE ST", "borough": "brooklyn", "direction": "TW", "total_row_ft": 68.5, "roadbed_ft": 32.4, "median_ft": 0.0, "left_sw_ft": 21.1, "right_sw_ft": 15.0}, "geometry": {"type": "LineString", "coordinates": [[-73.857451482167, 40.67147381838564], [-73.85779265584145, 40.67142217508237]]}}, {"type": "Feature", "properties": {"segment_id": 1563081, "physicalid": "109591", "street_name": "SAPPHIRE ST", "borough": "brooklyn", "direction": "TW", "total_row_ft": 68.2, "roadbed_ft": 32.0, "median_ft": 0.0, "left_sw_ft": 21.2, "right_sw_ft": 15.0}, "geometry": {"type": "LineString", "coordinates": [[-73.85743778547334, 40.67141992181784], [-73.85777859741746, 40.671368333270266]]}}, {"type": "Feature", "properties": {"segment_id": 1563082, "physicalid": "109591", "street_name": "SAPPHIRE ST", "borough": "brooklyn", "direction": "TW", "total_row_ft": 68.0, "roadbed_ft": 31.7, "median_ft": 0.0, "left_sw_ft": 21.3, "right_sw_ft": 15.0}, "geometry": {"type": "LineString", "coordinates": [[-73.85742408880182, 40.671366025248076], [-73.85776453901619, 40.671314491456094]]}}, {"type": "Feature", "properties": {"segment_id": 1563083, "physicalid": "109591", "street_name": "SAPPHIRE ST", "borough": "brooklyn", "direction": "TW", "total_row_ft": 67.8, "roadbed_ft": 31.5, "median_ft": 0.0, "left_sw_ft": 21.3, "right_sw_ft": 15.0}, "geometry": {"type": "LineString", "coordinates": [[-73.85741039215245, 40.671312128676334], [-73.85775048063759, 40.67126064963987]]}}, {"type": "Feature", "properties": {"segment_id": 1563084, "physicalid": "109591", "street_name": "SAPPHIRE ST", "borough": "brooklyn", "direction": "TW", "total_row_ft": 67.5, "roadbed_ft": 31.3, "median_ft": 0.0, "left_sw_ft": 21.3, "right_sw_ft": 15.0}, "geometry": {"type": "LineString", "coordinates": [[-73.8573966955252, 40.67125823210257], [-73.8577364222817, 40.67120680782156]]}}, {"type": "Feature", "properties": {"segment_id": 1563085, "physicalid": "109591", "street_name": "SAPPHIRE ST", "borough": "brooklyn", "direction": "TW", "total_row_ft": 67.3, "roadbed_ft": 31.1, "median_ft": 0.0, "left_sw_ft": 21.2, "right_sw_ft": 15.0}, "geometry": {"type": "LineString", "coordinates": [[-73.85738299892009, 40.671204335526866], [-73.85772236394851, 40.671152966001195]]}}, {"type": "Feature", "properties": {"segment_id": 1563086, "physicalid": "109591", "street_name": "SAPPHIRE ST", "borough": "brooklyn", "direction": "TW", "total_row_ft": 67.1, "roadbed_ft": 30.9, "median_ft": 0.0, "left_sw_ft": 21.3, "right_sw_ft": 15.0}, "geometry": {"type": "LineString", "coordinates": [[-73.8573690218977, 40.67115048139872], [-73.857708305638, 40.67109912417877]]}}, {"type": "Feature", "properties": {"segment_id": 1563087, "physicalid": "109591", "street_name": "SAPPHIRE ST", "borough": "brooklyn", "direction": "TW", "total_row_ft": 67.1, "roadbed_ft": 30.7, "median_ft": 0.0, "left_sw_ft": 21.4, "right_sw_ft": 15.0}, "geometry": {"type": "LineString", "coordinates": [[-73.85735480201136, 40.671096664033755], [-73.8576942473502, 40.67104528235429]]}}, {"type": "Feature", "properties": {"segment_id": 1563088, "physicalid": "109591", "street_name": "SAPPHIRE ST", "borough": "brooklyn", "direction": "TW", "total_row_ft": 67.0, "roadbed_ft": 30.5, "median_ft": 0.0, "left_sw_ft": 21.5, "right_sw_ft": 15.0}, "geometry": {"type": "LineString", "coordinates": [[-73.85734058214797, 40.67104284666669], [-73.85768018908509, 40.67099144052772]]}}, {"type": "Feature", "properties": {"segment_id": 1563089, "physicalid": "109591", "street_name": "SAPPHIRE ST", "borough": "brooklyn", "direction": "TW", "total_row_ft": 66.9, "roadbed_ft": 30.3, "median_ft": 0.0, "left_sw_ft": 21.6, "right_sw_ft": 15.0}, "geometry": {"type": "LineString", "coordinates": [[-73.85732636230753, 40.670989029297516], [-73.8576661308427, 40.67093759869909]]}}, {"type": "Feature", "properties": {"segment_id": 1563090, "physicalid": "109591", "street_name": "SAPPHIRE ST", "borough": "brooklyn", "direction": "TW", "total_row_ft": 66.8, "roadbed_ft": 30.0, "median_ft": 0.0, "left_sw_ft": 21.8, "right_sw_ft": 15.0}, "geometry": {"type": "LineString", "coordinates": [[-73.85731214249004, 40.67093521192624], [-73.85765207262298, 40.6708837568684]]}}, {"type": "Feature", "properties": {"segment_id": 1563091, "physicalid": "109591", "street_name": "SAPPHIRE ST", "borough": "brooklyn", "direction": "TW", "total_row_ft": 66.7, "roadbed_ft": 29.5, "median_ft": 0.0, "left_sw_ft": 22.3, "right_sw_ft": 15.0}, "geometry": {"type": "LineString", "coordinates": [[-73.8572979226955, 40.67088139455285], [-73.85763801442597, 40.67082991503565]]}}, {"type": "Feature", "properties": {"segment_id": 1563092, "physicalid": "109591", "street_name": "SAPPHIRE ST", "borough": "brooklyn", "direction": "TW", "total_row_ft": 66.6, "roadbed_ft": 28.9, "median_ft": 0.0, "left_sw_ft": 22.7, "right_sw_ft": 15.0}, "geometry": {"type": "LineString", "coordinates": [[-73.8572837029239, 40.67082757717736], [-73.85762395625166, 40.67077607320084]]}}, {"type": "Feature", "properties": {"segment_id": 1563093, "physicalid": "109591", "street_name": "SAPPHIRE ST", "borough": "brooklyn", "direction": "TW", "total_row_ft": 66.6, "roadbed_ft": 28.4, "median_ft": 0.0, "left_sw_ft": 23.2, "right_sw_ft": 15.0}, "geometry": {"type": "LineString", "coordinates": [[-73.85726948317524, 40.67077375979979], [-73.85760989810002, 40.670722231363904]]}}, {"type": "Feature", "properties": {"segment_id": 1563094, "physicalid": "109591", "street_name": "SAPPHIRE ST", "borough": "brooklyn", "direction": "TW", "total_row_ft": 66.5, "roadbed_ft": 28.4, "median_ft": 0.0, "left_sw_ft": 23.1, "right_sw_ft": 15.0}, "geometry": {"type": "LineString", "coordinates": [[-73.8572552862513, 40.670719938968645], [-73.85759583997113, 40.67066838952502]]}}, {"type": "Feature", "properties": {"segment_id": 1563095, "physicalid": "109591", "street_name": "SAPPHIRE ST", "borough": "brooklyn", "direction": "TW", "total_row_ft": 66.4, "roadbed_ft": 28.4, "median_ft": 0.0, "left_sw_ft": 22.9, "right_sw_ft": 15.0}, "geometry": {"type": "LineString", "coordinates": [[-73.85724162773015, 40.67066603664197], [-73.8575817818649, 40.670614547684]]}}, {"type": "Feature", "properties": {"segment_id": 1563096, "physicalid": "109591", "street_name": "SAPPHIRE ST", "borough": "brooklyn", "direction": "TW", "total_row_ft": 66.2, "roadbed_ft": 28.5, "median_ft": 0.0, "left_sw_ft": 22.7, "right_sw_ft": 15.0}, "geometry": {"type": "LineString", "coordinates": [[-73.85722796923105, 40.67061213431334], [-73.85756772378137, 40.670560705840934]]}}, {"type": "Feature", "properties": {"segment_id": 1563097, "physicalid": "109591", "street_name": "SAPPHIRE ST", "borough": "brooklyn", "direction": "TW", "total_row_ft": 66.0, "roadbed_ft": 27.8, "median_ft": 0.0, "left_sw_ft": 23.1, "right_sw_ft": 15.0}, "geometry": {"type": "LineString", "coordinates": [[-73.85721431075403, 40.670558231982724], [-73.85755366572054, 40.67050686399579]]}}, {"type": "Feature", "properties": {"segment_id": 1563098, "physicalid": "109591", "street_name": "SAPPHIRE ST", "borough": "brooklyn", "direction": "TW", "total_row_ft": 95.9, "roadbed_ft": 29.5, "median_ft": 0.0, "left_sw_ft": 21.2, "right_sw_ft": 45.1}, "geometry": {"type": "LineString", "coordinates": [[-73.8572006522991, 40.67050432965014], [-73.85753960768241, 40.67045302214861]]}}]}