{"type": "FeatureCollection", "features": [{"type": "Feature", "properties": {"segment_id": 1720535, "physicalid": "182735", "street_name": "BELT PKWY", "borough": "brooklyn", "direction": "TF", "total_row_ft": 118.3, "roadbed_ft": 77.1, "median_ft": 11.2, "left_sw_ft": 15.0, "right_sw_ft": 15.0}, "geometry": {"type": "LineString", "coordinates": [[-73.87007179780574, 40.6496869670426], [-73.86981901226216, 40.649419726199234]]}}, {"type": "Feature", "properties": {"segment_id": 1720536, "physicalid": "182735", "street_name": "BELT PKWY", "borough": "brooklyn", "direction": "TF", "total_row_ft": 119.0, "roadbed_ft": 77.8, "median_ft": 11.2, "left_sw_ft": 15.0, "right_sw_ft": 15.0}, "geometry": {"type": "LineString", "coordinates": [[-73.87001331935636, 40.6497190561773], [-73.86976053392543, 40.6494518152064]]}}, {"type": "Feature", "properties": {"segment_id": 1720537, "physicalid": "182735", "street_name": "BELT PKWY", "borough": "brooklyn", "direction": "TF", "total_row_ft": 119.7, "roadbed_ft": 78.8, "median_ft": 10.9, "left_sw_ft": 15.0, "right_sw_ft": 15.0}, "geometry": {"type": "LineString", "coordinates": [[-73.86995484088357, 40.649751145266734], [-73.8697020555028, 40.64948390420254]]}}, {"type": "Feature", "properties": {"segment_id": 1720538, "physicalid": "182735", "street_name": "BELT PKWY", "borough": "brooklyn", "direction": "TF", "total_row_ft": 120.4, "roadbed_ft": 79.6, "median_ft": 10.8, "left_sw_ft": 15.0, "right_sw_ft": 15.0}, "geometry": {"type": "LineString", "coordinates": [[-73.86989636232916, 40.649783234349705], [-73.86964357706108, 40.64951599315791]]}}, {"type": "Feature", "properties": {"segment_id": 1720539, "physicalid": "182735", "street_name": "BELT PKWY", "borough": "brooklyn", "direction": "TF", "total_row_ft": 121.0, "roadbed_ft": 80.3, "median_ft": 10.7, "left_sw_ft": 15.0, "right_sw_ft": 15.0}, "geometry": {"type": "LineString", "coordinates": [[-73.8698378837185, 40.649815323402805], [-73.86958509856309, 40.64954808208346]]}}, {"type": "Feature", "properties": {"segment_id": 1720540, "physicalid": "182735", "street_name": "BELT PKWY", "borough": "brooklyn", "direction": "TF", "total_row_ft": 121.3, "roadbed_ft": 80.5, "median_ft": 10.8, "left_sw_ft": 15.0, "right_sw_ft": 15.0}, "geometry": {"type": "LineString", "coordinates": [[-73.86977940505164, 40.64984741242606], [-73.86952662000884, 40.64958017097917]]}}, {"type": "Feature", "properties": {"segment_id": 1720541, "physicalid": "182735", "street_name": "BELT PKWY", "borough": "brooklyn", "direction": "TF", "total_row_ft": 121.6, "roadbed_ft": 80.8, "median_ft": 10.8, "left_sw_ft": 15.0, "right_sw_ft": 15.0}, "geometry": {"type": "LineString", "coordinates": [[-73.8697209263285, 40.64987950141945], [-73.86946814139836, 40.649612259845]]}}, {"type": "Feature", "properties": {"segment_id": 1720542, "physicalid": "182735", "street_name": "BELT PKWY", "borough": "brooklyn", "direction": "TF", "total_row_ft": 121.9, "roadbed_ft": 81.0, "median_ft": 10.8, "left_sw_ft": 15.0, "right_sw_ft": 15.0}, "geometry": {"type": "LineString", "coordinates": [[-73.8696624475491, 40.64991159038301], [-73.86940966273163, 40.64964434868099]]}}, {"type": "Feature", "properties": {"segment_id": 1720543, "physicalid": "182735", "street_name": "BELT PKWY", "borough": "brooklyn", "direction": "TF", "total_row_ft": 122.1, "roadbed_ft": 81.3, "median_ft": 10.9, "left_sw_ft": 15.0, "right_sw_ft": 15.0}, "geometry": {"type": "LineString", "coordinates": [[-73.86960396871343, 40.64994367931672], [-73.86935118400865, 40.64967643748712]]}}, {"type": "Feature", "properties": {"segment_id": 1720544, "physicalid": "182735", "street_name": "BELT PKWY", "borough": "brooklyn", "direction": "TF", "total_row_ft": 122.4, "roadbed_ft": 81.5, "median_ft": 10.9, "left_sw_ft": 15.0, "right_sw_ft": 15.0}, "geometry": {"type": "LineString", "coordinates": [[-73.86954548982156, 40.64997576822056], [-73.86929270522938, 40.64970852626342]]}}, {"type": "Feature", "properties": {"segment_id": 1720545, "physicalid": "182735", "street_name": "BELT PKWY", "borough": "brooklyn", "direction": "TF", "total_row_ft": 122.8, "roadbed_ft": 81.5, "median_ft": 11.3, "left_sw_ft": 15.0, "right_sw_ft": 15.0}, "geometry": {"type": "LineString", "coordinates": [[-73.8694870108734, 40.650007857094565], [-73.8692342263939, 40.649740615009854]]}}, {"type": "Feature", "properties": {"segment_id": 1720546, "physicalid": "182735", "street_name": "BELT PKWY", "borough": "brooklyn", "direction": "TF", "total_row_ft": 123.1, "roadbed_ft": 81.2, "median_ft": 11.9, "left_sw_ft": 15.0, "right_sw_ft": 15.0}, "geometry": {"type": "LineString", "coordinates": [[-73.86942853186899, 40.6500399459387], [-73.86917574750215, 40.64977270372644]]}}, {"type": "Feature", "properties": {"segment_id": 1720547, "physicalid": "182735", "street_name": "BELT PKWY", "borough": "brooklyn", "direction": "TF", "total_row_ft": 123.5, "roadbed_ft": 81.2, "median_ft": 12.3, "left_sw_ft": 15.0, "right_sw_ft": 15.0}, "geometry": {"type": "LineString", "coordinates": [[-73.86937005280834, 40.650072034753016], [-73.86911726855416, 40.649804792413164]]}}, {"type": "Feature", "properties": {"segment_id": 1720548, "physicalid": "182735", "street_name": "BELT PKWY", "borough": "brooklyn", "direction": "TF", "total_row_ft": 123.7, "roadbed_ft": 81.4, "median_ft": 12.3, "left_sw_ft": 15.0, "right_sw_ft": 15.0}, "geometry": {"type": "LineString", "coordinates": [[-73.86931157369142, 40.65010412353746], [-73.86905878954994, 40.64983688107005]]}}, {"type": "Feature", "properties": {"segment_id": 1720622, "physicalid": "182737", "street_name": "BELT PKWY", "borough": "brooklyn", "direction": "FT", "total_row_ft": 110.1, "roadbed_ft": 73.0, "median_ft": 11.2, "left_sw_ft": 15.0, "right_sw_ft": 10.9}, "geometry": {"type": "LineString", "coordinates": [[-73.87008034237098, 40.64951227618048], [-73.86984673916382, 40.64927761352383]]}}, {"type": "Feature", "properties": {"segment_id": 1720623, "physicalid": "182737", "street_name": "BELT PKWY", "borough": "brooklyn", "direction": "FT", "total_row_ft": 109.8, "roadbed_ft": 72.7, "median_ft": 11.2, "left_sw_ft": 15.0, "right_sw_ft": 10.9}, "geometry": {"type": "LineString", "coordinates": [[-73.8700229100843, 40.64954544314736], [-73.8697896393624, 40.649311114283606]]}}, {"type": "Feature", "properties": {"segment_id": 1720624, "physicalid": "182737", "street_name": "BELT PKWY", "borough": "brooklyn", "direction": "FT", "total_row_ft": 109.9, "roadbed_ft": 72.8, "median_ft": 11.2, "left_sw_ft": 15.0, "right_sw_ft": 10.9}, "geometry": {"type": "LineString", "coordinates": [[-73.86996547774055, 40.649578610085385], [-73.8697325395036, 40.6493446150149]]}}, {"type": "Feature", "properties": {"segment_id": 1720625, "physicalid": "182737", "street_name": "BELT PKWY", "borough": "brooklyn", "direction": "FT", "total_row_ft": 110.2, "roadbed_ft": 73.1, "median_ft": 11.2, "left_sw_ft": 15.0, "right_sw_ft": 10.9}, "geometry": {"type": "LineString", "coordinates": [[-73.86990804533964, 40.649611776994654], [-73.8696754395875, 40.64937811571771]]}}, {"type": "Feature", "properties": {"segment_id": 1720626, "physicalid": "182737", "street_name": "BELT PKWY", "borough": "brooklyn", "direction": "FT", "total_row_ft": 110.4, "roadbed_ft": 73.6, "median_ft": 10.9, "left_sw_ft": 15.0, "right_sw_ft": 10.9}, "geometry": {"type": "LineString", "coordinates": [[-73.86984825509688, 40.64964623729016], [-73.86962005306734, 40.64941048603127]]}}, {"type": "Feature", "properties": {"segment_id": 1720627, "physicalid": "182737", "street_name": "BELT PKWY", "borough": "brooklyn", "direction": "FT", "total_row_ft": 110.3, "roadbed_ft": 73.7, "median_ft": 10.8, "left_sw_ft": 15.0, "right_sw_ft": 10.9}, "geometry": {"type": "LineString", "coordinates": [[-73.86979024268696, 40.64967881341678], [-73.86956246950218, 40.649443504980894]]}}, {"type": "Feature", "properties": {"segment_id": 1720628, "physicalid": "182737", "street_name": "BELT PKWY", "borough": "brooklyn", "direction": "FT", "total_row_ft": 110.3, "roadbed_ft": 73.7, "median_ft": 10.7, "left_sw_ft": 15.0, "right_sw_ft": 10.9}, "geometry": {"type": "LineString", "coordinates": [[-73.8697322302204, 40.64971138951401], [-73.86950488588003, 40.64947652390157]]}}, {"type": "Feature", "properties": {"segment_id": 1720629, "physicalid": "182737", "street_name": "BELT PKWY", "borough": "brooklyn", "direction": "FT", "total_row_ft": 110.3, "roadbed_ft": 73.6, "median_ft": 10.8, "left_sw_ft": 15.0, "right_sw_ft": 10.9}, "geometry": {"type": "LineString", "coordinates": [[-73.86967421769714, 40.649743965581884], [-73.86944724545775, 40.649509484172555]]}}, {"type": "Feature", "properties": {"segment_id": 1720630, "physicalid": "182737", "street_name": "BELT PKWY", "borough": "brooklyn", "direction": "FT", "total_row_ft": 110.5, "roadbed_ft": 73.8, "median_ft": 10.8, "left_sw_ft": 15.0, "right_sw_ft": 10.9}, "geometry": {"type": "LineString", "coordinates": [[-73.8696162051173, 40.649776541620355], [-73.8693881521497, 40.64954094351216]]}}, {"type": "Feature", "properties": {"segment_id": 1720631, "physicalid": "182737", "street_name": "BELT PKWY", "borough": "brooklyn", "direction": "FT", "total_row_ft": 110.8, "roadbed_ft": 74.0, "median_ft": 10.8, "left_sw_ft": 15.0, "right_sw_ft": 10.9}, "geometry": {"type": "LineString", "coordinates": [[-73.86955819248077, 40.649809117629424], [-73.86932905878594, 40.649572402821256]]}}, {"type": "Feature", "properties": {"segment_id": 1720632, "physicalid": "182737", "street_name": "BELT PKWY", "borough": "brooklyn", "direction": "FT", "total_row_ft": 111.1, "roadbed_ft": 74.3, "median_ft": 10.9, "left_sw_ft": 15.0, "right_sw_ft": 10.9}, "geometry": {"type": "LineString", "coordinates": [[-73.86950017978761, 40.64984169360914], [-73.86926998001218, 40.64960387723034]]}}, {"type": "Feature", "properties": {"segment_id": 1720633, "physicalid": "182737", "street_name": "BELT PKWY", "borough": "brooklyn", "direction": "FT", "total_row_ft": 111.4, "roadbed_ft": 74.6, "median_ft": 10.9, "left_sw_ft": 15.0, "right_sw_ft": 10.9}, "geometry": {"type": "LineString", "coordinates": [[-73.86944216703777, 40.64987426955947], [-73.86921094154826, 40.649635393310255]]}}, {"type": "Feature", "properties": {"segment_id": 1720634, "physicalid": "182737", "street_name": "BELT PKWY", "borough": "brooklyn", "direction": "FT", "total_row_ft": 111.6, "roadbed_ft": 74.3, "median_ft": 11.4, "left_sw_ft": 15.0, "right_sw_ft": 10.9}, "geometry": {"type": "LineString", "coordinates": [[-73.86938123361837, 40.64990825007173], [-73.86915418819987, 40.64966568948662]]}}, {"type": "Feature", "properties": {"segment_id": 1720635, "physicalid": "182737", "street_name": "BELT PKWY", "borough": "brooklyn", "direction": "FT", "total_row_ft": 111.6, "roadbed_ft": 73.7, "median_ft": 12.0, "left_sw_ft": 15.0, "right_sw_ft": 10.9}, "geometry": {"type": "LineString", "coordinates": [[-73.86932254631037, 40.64994011745052], [-73.86909516469346, 40.64969719746387]]}}, {"type": "Feature", "properties": {"segment_id": 1720636, "physicalid": "182737", "street_name": "BELT PKWY", "borough": "brooklyn", "direction": "FT", "total_row_ft": 111.6, "roadbed_ft": 73.4, "median_ft": 12.3, "left_sw_ft": 15.0, "right_sw_ft": 10.9}, "geometry": {"type": "LineString", "coordinates": [[-73.86926385894627, 40.6499719847993], [-73.86903614113136, 40.6497287054107]]}}, {"type": "Feature", "properties": {"segment_id": 1720637, "physicalid": "182737", "street_name": "BELT PKWY", "borough": "brooklyn", "direction": "FT", "total_row_ft": 111.7, "roadbed_ft": 73.6, "median_ft": 12.3, "left_sw_ft": 15.0, "right_sw_ft": 10.9}, "geometry": {"type": "LineString", "coordinates": [[-73.86920517152613, 40.65000385211798], [-73.86897711751348, 40.649760213327156]]}}, {"type": "Feature", "properties": {"segment_id": 1720638, "physicalid": "182737", "street_name": "BELT PKWY", "borough": "brooklyn", "direction": "FT", "total_row_ft": 111.9, "roadbed_ft": 73.7, "median_ft": 12.2, "left_sw_ft": 15.0, "right_sw_ft": 10.9}, "geometry": {"type": "LineString", "coordinates": [[-73.86914648404996, 40.650035719406596], [-73.86891798416028, 40.64979160403769]]}}, {"type": "Feature", "properties": {"segment_id": 1720639, "physicalid": "182737", "street_name": "BELT PKWY", "borough": "brooklyn", "direction": "FT", "total_row_ft": 112.0, "roadbed_ft": 73.9, "median_ft": 12.2, "left_sw_ft": 15.0, "right_sw_ft": 10.9}, "geometry": {"type": "LineString", "coordinates": [[-73.86908779651766, 40.65006758666517], [-73.86885828909416, 40.649822394673905]]}}, {"type": "Feature", "properties": {"segment_id": 1720640, "physicalid": "182737", "street_name": "BELT PKWY", "borough": "brooklyn", "direction": "FT", "total_row_ft": 112.1, "roadbed_ft": 74.0, "median_ft": 12.2, "left_sw_ft": 15.0, "right_sw_ft": 10.9}, "geometry": {"type": "LineString", "coordinates": [[-73.86902910892935, 40.65009945389367], [-73.86879859397293, 40.64985318527907]]}}]}