{"type": "FeatureCollection", "features": [{"type": "Feature", "properties": {"segment_id": 1664287, "physicalid": "167323", "street_name": "UNNAMED ST", "borough": "brooklyn", "direction": "TW", "total_row_ft": 52.9, "roadbed_ft": 22.9, "median_ft": 0.0, "left_sw_ft": 15.0, "right_sw_ft": 15.0}, "geometry": {"type": "LineString", "coordinates": [[-73.8798597189704, 40.581374263861235], [-73.88005344752298, 40.581079863243694]]}}, {"type": "Feature", "properties": {"segment_id": 1664288, "physicalid": "167323", "street_name": "UNNAMED ST", "borough": "brooklyn", "direction": "TW", "total_row_ft": 53.0, "roadbed_ft": 23.0, "median_ft": 0.0, "left_sw_ft": 15.0, "right_sw_ft": 15.0}, "geometry": {"type": "LineString", "coordinates": [[-73.87979536370509, 40.58134964615468], [-73.87998909246997, 40.581055245645004]]}}, {"type": "Feature", "properties": {"segment_id": 1664289, "physicalid": "167323", "street_name": "UNNAMED ST", "borough": "brooklyn", "direction": "TW", "total_row_ft": 53.0, "roadbed_ft": 23.0, "median_ft": 0.0, "left_sw_ft": 15.0, "right_sw_ft": 15.0}, "geometry": {"type": "LineString", "coordinates": [[-73.87973100910547, 40.58132502887462], [-73.87992473660842, 40.581030627908845]]}}, {"type": "Feature", "properties": {"segment_id": 1664290, "physicalid": "167323", "street_name": "UNNAMED ST", "borough": "brooklyn", "direction": "TW", "total_row_ft": 53.1, "roadbed_ft": 23.1, "median_ft": 0.0, "left_sw_ft": 15.0, "right_sw_ft": 15.0}, "geometry": {"type": "LineString", "coordinates": [[-73.8796666538118, 40.581300411283166], [-73.879860381527, 40.581006010425256]]}}, {"type": "Feature", "properties": {"segment_id": 1664291, "physicalid": "167323", "street_name": "UNNAMED ST", "borough": "brooklyn", "direction": "TW", "total_row_ft": 53.2, "roadbed_ft": 23.2, "median_ft": 0.0, "left_sw_ft": 15.0, "right_sw_ft": 15.0}, "geometry": {"type": "LineString", "coordinates": [[-73.87960229856556, 40.58127579365565], [-73.87979602649304, 40.580981392905564]]}}, {"type": "Feature", "properties": {"segment_id": 1664292, "physicalid": "167323", "street_name": "UNNAMED ST", "borough": "brooklyn", "direction": "TW", "total_row_ft": 53.0, "roadbed_ft": 23.0, "median_ft": 0.0, "left_sw_ft": 15.0, "right_sw_ft": 15.0}, "geometry": {"type": "LineString", "coordinates": [[-73.87953794336676, 40.581251175991994], [-73.87973167150652, 40.58095677534978]]}}, {"type": "Feature", "properties": {"segment_id": 1664293, "physicalid": "167323", "street_name": "UNNAMED ST", "borough": "brooklyn", "direction": "TW", "total_row_ft": 53.0, "roadbed_ft": 23.0, "median_ft": 0.0, "left_sw_ft": 15.0, "right_sw_ft": 15.0}, "geometry": {"type": "LineString", "coordinates": [[-73.87948475692988, 40.581232374342925], [-73.87965427801059, 40.580929416723336]]}}, {"type": "Feature", "properties": {"segment_id": 1664294, "physicalid": "167323", "street_name": "UNNAMED ST", "borough": "brooklyn", "direction": "TW", "total_row_ft": 52.8, "roadbed_ft": 22.8, "median_ft": 0.0, "left_sw_ft": 15.0, "right_sw_ft": 15.0}, "geometry": {"type": "LineString", "coordinates": [[-73.87941853125369, 40.5812108327051], [-73.87958805258015, 40.580907875182625]]}}, {"type": "Feature", "properties": {"segment_id": 1664295, "physicalid": "167323", "street_name": "UNNAMED ST", "borough": "brooklyn", "direction": "TW", "total_row_ft": 52.4, "roadbed_ft": 22.4, "median_ft": 0.0, "left_sw_ft": 15.0, "right_sw_ft": 15.0}, "geometry": {"type": "LineString", "coordinates": [[-73.87935230562024, 40.581189291029055], [-73.87952182719242, 40.5808863336037]]}}, {"type": "Feature", "properties": {"segment_id": 1664739, "physicalid": "167367", "street_name": "UNNAMED ST", "borough": "brooklyn", "direction": "TW", "total_row_ft": 57.9, "roadbed_ft": 27.9, "median_ft": 0.0, "left_sw_ft": 15.0, "right_sw_ft": 15.0}, "geometry": {"type": "LineString", "coordinates": [[-73.87832210285383, 40.585318690993105], [-73.87817343819007, 40.585627952446714]]}}, {"type": "Feature", "properties": {"segment_id": 1664740, "physicalid": "167367", "street_name": "UNNAMED ST", "borough": "brooklyn", "direction": "TW", "total_row_ft": 53.1, "roadbed_ft": 23.1, "median_ft": 0.0, "left_sw_ft": 15.0, "right_sw_ft": 15.0}, "geometry": {"type": "LineString", "coordinates": [[-73.87838971078419, 40.58533758096009], [-73.87824104639147, 40.58564684250063]]}}, {"type": "Feature", "properties": {"segment_id": 1664741, "physicalid": "167367", "street_name": "UNNAMED ST", "borough": "brooklyn", "direction": "TW", "total_row_ft": 52.9, "roadbed_ft": 22.9, "median_ft": 0.0, "left_sw_ft": 15.0, "right_sw_ft": 15.0}, "geometry": {"type": "LineString", "coordinates": [[-73.87845731875281, 40.585356470887284], [-73.87830865463113, 40.585665732514734]]}}, {"type": "Feature", "properties": {"segment_id": 1664742, "physicalid": "167367", "street_name": "UNNAMED ST", "borough": "brooklyn", "direction": "TW", "total_row_ft": 52.7, "roadbed_ft": 22.7, "median_ft": 0.0, "left_sw_ft": 15.0, "right_sw_ft": 15.0}, "geometry": {"type": "LineString", "coordinates": [[-73.87852492675967, 40.58537536077462], [-73.87837626290904, 40.585684622489026]]}}, {"type": "Feature", "properties": {"segment_id": 1664743, "physicalid": "167367", "street_name": "UNNAMED ST", "borough": "brooklyn", "direction": "TW", "total_row_ft": 52.5, "roadbed_ft": 22.5, "median_ft": 0.0, "left_sw_ft": 15.0, "right_sw_ft": 15.0}, "geometry": {"type": "LineString", "coordinates": [[-73.8785925348048, 40.585394250622166], [-73.87844387122517, 40.58570351242348]]}}, {"type": "Feature", "properties": {"segment_id": 1664744, "physicalid": "167367", "street_name": "UNNAMED ST", "borough": "brooklyn", "direction": "TW", "total_row_ft": 52.3, "roadbed_ft": 22.3, "median_ft": 0.0, "left_sw_ft": 15.0, "right_sw_ft": 15.0}, "geometry": {"type": "LineString", "coordinates": [[-73.87866014288815, 40.5854131404299], [-73.87851147957956, 40.58572240231815]]}}, {"type": "Feature", "properties": {"segment_id": 1664745, "physicalid": "167367", "street_name": "UNNAMED ST", "borough": "brooklyn", "direction": "TW", "total_row_ft": 52.1, "roadbed_ft": 22.1, "median_ft": 0.0, "left_sw_ft": 15.0, "right_sw_ft": 15.0}, "geometry": {"type": "LineString", "coordinates": [[-73.87872775100975, 40.5854320301978], [-73.87857908797221, 40.585741292172976]]}}, {"type": "Feature", "properties": {"segment_id": 1664746, "physicalid": "167367", "street_name": "UNNAMED ST", "borough": "brooklyn", "direction": "TW", "total_row_ft": 51.8, "roadbed_ft": 21.8, "median_ft": 0.0, "left_sw_ft": 15.0, "right_sw_ft": 15.0}, "geometry": {"type": "LineString", "coordinates": [[-73.8787953591696, 40.58545091992589], [-73.8786466964031, 40.585760181988]]}}, {"type": "Feature", "properties": {"segment_id": 1664747, "physicalid": "167367", "street_name": "UNNAMED ST", "borough": "brooklyn", "direction": "TW", "total_row_ft": 51.6, "roadbed_ft": 21.6, "median_ft": 0.0, "left_sw_ft": 15.0, "right_sw_ft": 15.0}, "geometry": {"type": "LineString", "coordinates": [[-73.8788629673677, 40.585469809614146], [-73.87871430487223, 40.58577907176322]]}}, {"type": "Feature", "properties": {"segment_id": 1664748, "physicalid": "167367", "street_name": "UNNAMED ST", "borough": "brooklyn", "direction": "TW", "total_row_ft": 51.4, "roadbed_ft": 21.4, "median_ft": 0.0, "left_sw_ft": 15.0, "right_sw_ft": 15.0}, "geometry": {"type": "LineString", "coordinates": [[-73.87893057560406, 40.58548869926264], [-73.8787819133796, 40.585797961498606]]}}, {"type": "Feature", "properties": {"segment_id": 1664749, "physicalid": "167367", "street_name": "UNNAMED ST", "borough": "brooklyn", "direction": "TW", "total_row_ft": 51.8, "roadbed_ft": 21.8, "median_ft": 0.0, "left_sw_ft": 15.0, "right_sw_ft": 15.0}, "geometry": {"type": "LineString", "coordinates": [[-73.87899818387865, 40.58550758887128], [-73.87884952192522, 40.58581685119418]]}}, {"type": "Feature", "properties": {"segment_id": 1664750, "physicalid": "167367", "street_name": "UNNAMED ST", "borough": "brooklyn", "direction": "TW", "total_row_ft": 52.2, "roadbed_ft": 22.2, "median_ft": 0.0, "left_sw_ft": 15.0, "right_sw_ft": 15.0}, "geometry": {"type": "LineString", "coordinates": [[-73.87906579219148, 40.58552647844013], [-73.87891713050911, 40.585835740849944]]}}, {"type": "Feature", "properties": {"segment_id": 1664751, "physicalid": "167367", "street_name": "UNNAMED ST", "borough": "brooklyn", "direction": "TW", "total_row_ft": 52.7, "roadbed_ft": 22.7, "median_ft": 0.0, "left_sw_ft": 15.0, "right_sw_ft": 15.0}, "geometry": {"type": "LineString", "coordinates": [[-73.87913340054256, 40.585545367969125], [-73.87898473913121, 40.58585463046591]]}}, {"type": "Feature", "properties": {"segment_id": 1664752, "physicalid": "167367", "street_name": "UNNAMED ST", "borough": "brooklyn", "direction": "TW", "total_row_ft": 53.1, "roadbed_ft": 23.1, "median_ft": 0.0, "left_sw_ft": 15.0, "right_sw_ft": 15.0}, "geometry": {"type": "LineString", "coordinates": [[-73.8792010089319, 40.585564257458344], [-73.87905234779157, 40.58587352004202]]}}, {"type": "Feature", "properties": {"segment_id": 1664753, "physicalid": "167367", "street_name": "UNNAMED ST", "borough": "brooklyn", "direction": "TW", "total_row_ft": 53.5, "roadbed_ft": 23.5, "median_ft": 0.0, "left_sw_ft": 15.0, "right_sw_ft": 15.0}, "geometry": {"type": "LineString", "coordinates": [[-73.87926861735947, 40.58558314690773], [-73.87911995649019, 40.58589240957834]]}}, {"type": "Feature", "properties": {"segment_id": 1664754, "physicalid": "167367", "street_name": "UNNAMED ST", "borough": "brooklyn", "direction": "TW", "total_row_ft": 53.8, "roadbed_ft": 23.8, "median_ft": 0.0, "left_sw_ft": 15.0, "right_sw_ft": 15.0}, "geometry": {"type": "LineString", "coordinates": [[-73.87933622582527, 40.5856020363173], [-73.87918756522706, 40.585911299074844]]}}, {"type": "Feature", "properties": {"segment_id": 1664755, "physicalid": "167367", "street_name": "UNNAMED ST", "borough": "brooklyn", "direction": "TW", "total_row_ft": 53.8, "roadbed_ft": 23.8, "median_ft": 0.0, "left_sw_ft": 15.0, "right_sw_ft": 15.0}, "geometry": {"type": "LineString", "coordinates": [[-73.87940383432932, 40.58562092568706], [-73.87925517400217, 40.58593018853153]]}}, {"type": "Feature", "properties": {"segment_id": 1664756, "physicalid": "167367", "street_name": "UNNAMED ST", "borough": "brooklyn", "direction": "TW", "total_row_ft": 53.8, "roadbed_ft": 23.8, "median_ft": 0.0, "left_sw_ft": 15.0, "right_sw_ft": 15.0}, "geometry": {"type": "LineString", "coordinates": [[-73.87947144287165, 40.585639815017], [-73.8793227828155, 40.585949077948406]]}}, {"type": "Feature", "properties": {"segment_id": 1664757, "physicalid": "167367", "street_name": "UNNAMED ST", "borough": "brooklyn", "direction": "TW", "total_row_ft": 53.8, "roadbed_ft": 23.8, "median_ft": 0.0, "left_sw_ft": 15.0, "right_sw_ft": 15.0}, "geometry": {"type": "LineString", "coordinates": [[-73.8795390514522, 40.58565870430713], [-73.8793903916671, 40.585967967325445]]}}, {"type": "Feature", "properties": {"segment_id": 1664758, "physicalid": "167367", "street_name": "UNNAMED ST", "borough": "brooklyn", "direction": "TW", "total_row_ft": 53.8, "roadbed_ft": 23.8, "median_ft": 0.0, "left_sw_ft": 15.0, "right_sw_ft": 15.0}, "geometry": {"type": "LineString", "coordinates": [[-73.879606660071, 40.58567759355742], [-73.87945800055695, 40.585986856662686]]}}, {"type": "Feature", "properties": {"segment_id": 1664759, "physicalid": "167367", "street_name": "UNNAMED ST", "borough": "brooklyn", "direction": "TW", "total_row_ft": 53.7, "roadbed_ft": 23.7, "median_ft": 0.0, "left_sw_ft": 15.0, "right_sw_ft": 15.0}, "geometry": {"type": "LineString", "coordinates": [[-73.87967426872805, 40.58569648276793], [-73.87952560948504, 40.586005745960115]]}}, {"type": "Feature", "properties": {"segment_id": 1664760, "physicalid": "167367", "street_name": "UNNAMED ST", "borough": "brooklyn", "direction": "TW", "total_row_ft": 53.7, "roadbed_ft": 23.7, "median_ft": 0.0, "left_sw_ft": 15.0, "right_sw_ft": 15.0}, "geometry": {"type": "LineString", "coordinates": [[-73.87974187742336, 40.585715371938605], [-73.87959321845138, 40.586024635217704]]}}, {"type": "Feature", "properties": {"segment_id": 1664761, "physicalid": "167367", "street_name": "UNNAMED ST", "borough": "brooklyn", "direction": "TW", "total_row_ft": 53.7, "roadbed_ft": 23.7, "median_ft": 0.0, "left_sw_ft": 15.0, "right_sw_ft": 15.0}, "geometry": {"type": "LineString", "coordinates": [[-73.87980948615692, 40.58573426106948], [-73.87966082745594, 40.58604352443551]]}}, {"type": "Feature", "properties": {"segment_id": 1664762, "physicalid": "167367", "street_name": "UNNAMED ST", "borough": "brooklyn", "direction": "TW", "total_row_ft": 53.7, "roadbed_ft": 23.7, "median_ft": 0.0, "left_sw_ft": 15.0, "right_sw_ft": 15.0}, "geometry": {"type": "LineString", "coordinates": [[-73.8798770949287, 40.585753150160535], [-73.87972843649875, 40.586062413613476]]}}, {"type": "Feature", "properties": {"segment_id": 1664763, "physicalid": "167367", "street_name": "UNNAMED ST", "borough": "brooklyn", "direction": "TW", "total_row_ft": 53.7, "roadbed_ft": 23.7, "median_ft": 0.0, "left_sw_ft": 15.0, "right_sw_ft": 15.0}, "geometry": {"type": "LineString", "coordinates": [[-73.8799447037387, 40.58577203921176], [-73.87979604557985, 40.58608130275163]]}}, {"type": "Feature", "properties": {"segment_id": 1664764, "physicalid": "167367", "street_name": "UNNAMED ST", "borough": "brooklyn", "direction": "TW", "total_row_ft": 53.7, "roadbed_ft": 23.7, "median_ft": 0.0, "left_sw_ft": 15.0, "right_sw_ft": 15.0}, "geometry": {"type": "LineString", "coordinates": [[-73.88001231258698, 40.58579092822319], [-73.87986365469916, 40.58610019184999]]}}, {"type": "Feature", "properties": {"segment_id": 1689104, "physicalid": "172444", "street_name": "UNNAMED ST", "borough": "brooklyn", "direction": "TW", "total_row_ft": 53.1, "roadbed_ft": 23.1, "median_ft": 0.0, "left_sw_ft": 15.0, "right_sw_ft": 15.0}, "geometry": {"type": "LineString", "coordinates": [[-73.87986928763227, 40.58438238349094], [-73.88002162067487, 40.58407416217322]]}}, {"type": "Feature", "properties": {"segment_id": 1689105, "physicalid": "172444", "street_name": "UNNAMED ST", "borough": "brooklyn", "direction": "TW", "total_row_ft": 52.9, "roadbed_ft": 22.9, "median_ft": 0.0, "left_sw_ft": 15.0, "right_sw_ft": 15.0}, "geometry": {"type": "LineString", "coordinates": [[-73.8798019081211, 40.58436302691187], [-73.8799542414305, 40.584054805682925]]}}, {"type": "Feature", "properties": {"segment_id": 1689106, "physicalid": "172444", "street_name": "UNNAMED ST", "borough": "brooklyn", "direction": "TW", "total_row_ft": 87.8, "roadbed_ft": 57.8, "median_ft": 0.0, "left_sw_ft": 15.0, "right_sw_ft": 15.0}, "geometry": {"type": "LineString", "coordinates": [[-73.87973452864895, 40.58434367029323], [-73.87988686222518, 40.58403544915308]]}}, {"type": "Feature", "properties": {"segment_id": 1689107, "physicalid": "172444", "street_name": "UNNAMED ST", "borough": "brooklyn", "direction": "TW", "total_row_ft": 87.7, "roadbed_ft": 57.7, "median_ft": 0.0, "left_sw_ft": 15.0, "right_sw_ft": 15.0}, "geometry": {"type": "LineString", "coordinates": [[-73.87966714921588, 40.58432431363505], [-73.87981948305891, 40.58401609258369]]}}, {"type": "Feature", "properties": {"segment_id": 1689108, "physicalid": "172444", "street_name": "UNNAMED ST", "borough": "brooklyn", "direction": "TW", "total_row_ft": 87.3, "roadbed_ft": 57.3, "median_ft": 0.0, "left_sw_ft": 15.0, "right_sw_ft": 15.0}, "geometry": {"type": "LineString", "coordinates": [[-73.87959976982187, 40.58430495693732], [-73.87975210393171, 40.583996735974736]]}}, {"type": "Feature", "properties": {"segment_id": 1689109, "physicalid": "172444", "street_name": "UNNAMED ST", "borough": "brooklyn", "direction": "TW", "total_row_ft": 86.7, "roadbed_ft": 56.7, "median_ft": 0.0, "left_sw_ft": 15.0, "right_sw_ft": 15.0}, "geometry": {"type": "LineString", "coordinates": [[-73.87953239046689, 40.58428560020007], [-73.87968472484357, 40.58397737932625]]}}, {"type": "Feature", "properties": {"segment_id": 1689110, "physicalid": "172444", "street_name": "UNNAMED ST", "borough": "brooklyn", "direction": "TW", "total_row_ft": 86.2, "roadbed_ft": 56.2, "median_ft": 0.0, "left_sw_ft": 15.0, "right_sw_ft": 15.0}, "geometry": {"type": "LineString", "coordinates": [[-73.87946501115101, 40.584266243423244], [-73.87961734579449, 40.5839580226382]]}}, {"type": "Feature", "properties": {"segment_id": 1689111, "physicalid": "172444", "street_name": "UNNAMED ST", "borough": "brooklyn", "direction": "TW", "total_row_ft": 86.7, "roadbed_ft": 56.7, "median_ft": 0.0, "left_sw_ft": 15.0, "right_sw_ft": 15.0}, "geometry": {"type": "LineString", "coordinates": [[-73.87939763187416, 40.58424688660688], [-73.87954996678447, 40.58393866591064]]}}, {"type": "Feature", "properties": {"segment_id": 1689112, "physicalid": "172444", "street_name": "UNNAMED ST", "borough": "brooklyn", "direction": "TW", "total_row_ft": 87.1, "roadbed_ft": 57.1, "median_ft": 0.0, "left_sw_ft": 15.0, "right_sw_ft": 15.0}, "geometry": {"type": "LineString", "coordinates": [[-73.87933025263638, 40.58422752975097], [-73.87948258781347, 40.5839193091435]]}}, {"type": "Feature", "properties": {"segment_id": 1689113, "physicalid": "172444", "street_name": "UNNAMED ST", "borough": "brooklyn", "direction": "TW", "total_row_ft": 87.6, "roadbed_ft": 57.6, "median_ft": 0.0, "left_sw_ft": 15.0, "right_sw_ft": 15.0}, "geometry": {"type": "LineString", "coordinates": [[-73.87926287343764, 40.584208172855504], [-73.87941520888158, 40.58389995233682]]}}, {"type": "Feature", "properties": {"segment_id": 1689114, "physicalid": "172444", "street_name": "UNNAMED ST", "borough": "brooklyn", "direction": "TW", "total_row_ft": 88.1, "roadbed_ft": 58.1, "median_ft": 0.0, "left_sw_ft": 15.0, "right_sw_ft": 15.0}, "geometry": {"type": "LineString", "coordinates": [[-73.87919549427798, 40.584188815920484], [-73.8793478299887, 40.58388059549057]]}}, {"type": "Feature", "properties": {"segment_id": 1689115, "physicalid": "172444", "street_name": "UNNAMED ST", "borough": "brooklyn", "direction": "TW", "total_row_ft": 87.8, "roadbed_ft": 57.8, "median_ft": 0.0, "left_sw_ft": 15.0, "right_sw_ft": 15.0}, "geometry": {"type": "LineString", "coordinates": [[-73.87912811515736, 40.58416945894594], [-73.87928045113493, 40.583861238604804]]}}, {"type": "Feature", "properties": {"segment_id": 1689116, "physicalid": "172444", "street_name": "UNNAMED ST", "borough": "brooklyn", "direction": "TW", "total_row_ft": 86.2, "roadbed_ft": 56.2, "median_ft": 0.0, "left_sw_ft": 15.0, "right_sw_ft": 15.0}, "geometry": {"type": "LineString", "coordinates": [[-73.87906073607583, 40.584150101931826], [-73.87921307232017, 40.58384188167946]]}}, {"type": "Feature", "properties": {"segment_id": 1689117, "physicalid": "172444", "street_name": "UNNAMED ST", "borough": "brooklyn", "direction": "TW", "total_row_ft": 69.9, "roadbed_ft": 39.9, "median_ft": 0.0, "left_sw_ft": 15.0, "right_sw_ft": 15.0}, "geometry": {"type": "LineString", "coordinates": [[-73.87899335703332, 40.584130744878166], [-73.8791456935445, 40.58382252471458]]}}, {"type": "Feature", "properties": {"segment_id": 1689118, "physicalid": "172444", "street_name": "UNNAMED ST", "borough": "brooklyn", "direction": "TW", "total_row_ft": 109.9, "roadbed_ft": 79.9, "median_ft": 0.0, "left_sw_ft": 15.0, "right_sw_ft": 15.0}, "geometry": {"type": "LineString", "coordinates": [[-73.8789259780299, 40.584111387784965], [-73.87907831480787, 40.583803167710165]]}}, {"type": "Feature", "properties": {"segment_id": 1689119, "physicalid": "172444", "street_name": "UNNAMED ST", "borough": "brooklyn", "direction": "TW", "total_row_ft": 100.5, "roadbed_ft": 70.5, "median_ft": 0.0, "left_sw_ft": 15.0, "right_sw_ft": 15.0}, "geometry": {"type": "LineString", "coordinates": [[-73.87916103182367, 40.58404162967015], [-73.87875902768464, 40.58392099594074]]}}, {"type": "Feature", "properties": {"segment_id": 1689120, "physicalid": "172444", "street_name": "UNNAMED ST", "borough": "brooklyn", "direction": "TW", "total_row_ft": 70.4, "roadbed_ft": 40.4, "median_ft": 0.0, "left_sw_ft": 15.0, "right_sw_ft": 15.0}, "geometry": {"type": "LineString", "coordinates": [[-73.87913466063048, 40.58409271139502], [-73.8787326562316, 40.58397207757391]]}}, {"type": "Feature", "properties": {"segment_id": 1689121, "physicalid": "172444", "street_name": "UNNAMED ST", "borough": "brooklyn", "direction": "TW", "total_row_ft": 53.7, "roadbed_ft": 23.7, "median_ft": 0.0, "left_sw_ft": 15.0, "right_sw_ft": 15.0}, "geometry": {"type": "LineString", "coordinates": [[-73.87910828939695, 40.58414379311358], [-73.87870628473823, 40.5840231592008]]}}, {"type": "Feature", "properties": {"segment_id": 1689122, "physicalid": "172444", "street_name": "UNNAMED ST", "borough": "brooklyn", "direction": "TW", "total_row_ft": 53.7, "roadbed_ft": 23.7, "median_ft": 0.0, "left_sw_ft": 15.0, "right_sw_ft": 15.0}, "geometry": {"type": "LineString", "coordinates": [[-73.87908191812309, 40.58419487482586], [-73.87867991320451, 40.58407424082137]]}}, {"type": "Feature", "properties": {"segment_id": 1689123, "physicalid": "172444", "street_name": "UNNAMED ST", "borough": "brooklyn", "direction": "TW", "total_row_ft": 53.6, "roadbed_ft": 23.6, "median_ft": 0.0, "left_sw_ft": 15.0, "right_sw_ft": 15.0}, "geometry": {"type": "LineString", "coordinates": [[-73.87905554680889, 40.58424595653183], [-73.87865354163046, 40.58412532243563]]}}, {"type": "Feature", "properties": {"segment_id": 1689124, "physicalid": "172444", "street_name": "UNNAMED ST", "borough": "brooklyn", "direction": "TW", "total_row_ft": 53.5, "roadbed_ft": 23.5, "median_ft": 0.0, "left_sw_ft": 15.0, "right_sw_ft": 15.0}, "geometry": {"type": "LineString", "coordinates": [[-73.87902917545435, 40.58429703823152], [-73.87862717001607, 40.58417640404364]]}}, {"type": "Feature", "properties": {"segment_id": 1689125, "physicalid": "172444", "street_name": "UNNAMED ST", "borough": "brooklyn", "direction": "TW", "total_row_ft": 53.4, "roadbed_ft": 23.4, "median_ft": 0.0, "left_sw_ft": 15.0, "right_sw_ft": 15.0}, "geometry": {"type": "LineString", "coordinates": [[-73.87900280405945, 40.584348119924904], [-73.87860079836132, 40.58422748564532]]}}, {"type": "Feature", "properties": {"segment_id": 1689126, "physicalid": "172444", "street_name": "UNNAMED ST", "borough": "brooklyn", "direction": "TW", "total_row_ft": 53.4, "roadbed_ft": 23.4, "median_ft": 0.0, "left_sw_ft": 15.0, "right_sw_ft": 15.0}, "geometry": {"type": "LineString", "coordinates": [[-73.87897643262421, 40.58439920161199], [-73.87857442666623, 40.584278567240744]]}}, {"type": "Feature", "properties": {"segment_id": 1689127, "physicalid": "172444", "street_name": "UNNAMED ST", "borough": "brooklyn", "direction": "TW", "total_row_ft": 53.3, "roadbed_ft": 23.3, "median_ft": 0.0, "left_sw_ft": 15.0, "right_sw_ft": 15.0}, "geometry": {"type": "LineString", "coordinates": [[-73.87895006114863, 40.58445028329283], [-73.87854805493085, 40.584329648829794]]}}, {"type": "Feature", "properties": {"segment_id": 1689128, "physicalid": "172444", "street_name": "UNNAMED ST", "borough": "brooklyn", "direction": "TW", "total_row_ft": 53.2, "roadbed_ft": 23.2, "median_ft": 0.0, "left_sw_ft": 15.0, "right_sw_ft": 15.0}, "geometry": {"type": "LineString", "coordinates": [[-73.87892368963271, 40.58450136496732], [-73.87852168315507, 40.5843807304126]]}}, {"type": "Feature", "properties": {"segment_id": 1689129, "physicalid": "172444", "street_name": "UNNAMED ST", "borough": "brooklyn", "direction": "TW", "total_row_ft": 53.1, "roadbed_ft": 23.1, "median_ft": 0.0, "left_sw_ft": 15.0, "right_sw_ft": 15.0}, "geometry": {"type": "LineString", "coordinates": [[-73.87889731807645, 40.58455244663553], [-73.87849531133897, 40.58443181198911]]}}, {"type": "Feature", "properties": {"segment_id": 1689130, "physicalid": "172444", "street_name": "UNNAMED ST", "borough": "brooklyn", "direction": "TW", "total_row_ft": 53.1, "roadbed_ft": 23.1, "median_ft": 0.0, "left_sw_ft": 15.0, "right_sw_ft": 15.0}, "geometry": {"type": "LineString", "coordinates": [[-73.87887094647985, 40.584603528297436], [-73.87846893948252, 40.58448289355932]]}}, {"type": "Feature", "properties": {"segment_id": 1689131, "physicalid": "172444", "street_name": "UNNAMED ST", "borough": "brooklyn", "direction": "TW", "total_row_ft": 53.0, "roadbed_ft": 23.0, "median_ft": 0.0, "left_sw_ft": 15.0, "right_sw_ft": 15.0}, "geometry": {"type": "LineString", "coordinates": [[-73.87884457484292, 40.58465460995305], [-73.87844256758572, 40.58453397512322]]}}, {"type": "Feature", "properties": {"segment_id": 1689132, "physicalid": "172444", "street_name": "UNNAMED ST", "borough": "brooklyn", "direction": "TW", "total_row_ft": 52.8, "roadbed_ft": 22.8, "median_ft": 0.0, "left_sw_ft": 15.0, "right_sw_ft": 15.0}, "geometry": {"type": "LineString", "coordinates": [[-73.87881820316562, 40.584705691602366], [-73.8784161956486, 40.584585056680844]]}}, {"type": "Feature", "properties": {"segment_id": 1689133, "physicalid": "172444", "street_name": "UNNAMED ST", "borough": "brooklyn", "direction": "TW", "total_row_ft": 52.7, "roadbed_ft": 22.7, "median_ft": 0.0, "left_sw_ft": 15.0, "right_sw_ft": 15.0}, "geometry": {"type": "LineString", "coordinates": [[-73.878791831448, 40.58475677324537], [-73.87838982367111, 40.58463613823217]]}}, {"type": "Feature", "properties": {"segment_id": 1689134, "physicalid": "172444", "street_name": "UNNAMED ST", "borough": "brooklyn", "direction": "TW", "total_row_ft": 52.5, "roadbed_ft": 22.5, "median_ft": 0.0, "left_sw_ft": 15.0, "right_sw_ft": 15.0}, "geometry": {"type": "LineString", "coordinates": [[-73.87876545969003, 40.5848078548821], [-73.8783634516533, 40.584687219777194]]}}, {"type": "Feature", "properties": {"segment_id": 1689135, "physicalid": "172444", "street_name": "UNNAMED ST", "borough": "brooklyn", "direction": "TW", "total_row_ft": 52.4, "roadbed_ft": 22.4, "median_ft": 0.0, "left_sw_ft": 15.0, "right_sw_ft": 15.0}, "geometry": {"type": "LineString", "coordinates": [[-73.87873908789172, 40.58485893651254], [-73.87833707959514, 40.58473830131591]]}}, {"type": "Feature", "properties": {"segment_id": 1689136, "physicalid": "172444", "street_name": "UNNAMED ST", "borough": "brooklyn", "direction": "TW", "total_row_ft": 52.2, "roadbed_ft": 22.2, "median_ft": 0.0, "left_sw_ft": 15.0, "right_sw_ft": 15.0}, "geometry": {"type": "LineString", "coordinates": [[-73.87871271605306, 40.58491001813665], [-73.87831070749662, 40.58478938284835]]}}, {"type": "Feature", "properties": {"segment_id": 1689137, "physicalid": "172444", "street_name": "UNNAMED ST", "borough": "brooklyn", "direction": "TW", "total_row_ft": 52.0, "roadbed_ft": 22.0, "median_ft": 0.0, "left_sw_ft": 15.0, "right_sw_ft": 15.0}, "geometry": {"type": "LineString", "coordinates": [[-73.87868634417406, 40.58496109975447], [-73.87828433535776, 40.58484046437448]]}}, {"type": "Feature", "properties": {"segment_id": 1689138, "physicalid": "172444", "street_name": "UNNAMED ST", "borough": "brooklyn", "direction": "TW", "total_row_ft": 51.9, "roadbed_ft": 21.9, "median_ft": 0.0, "left_sw_ft": 15.0, "right_sw_ft": 15.0}, "geometry": {"type": "LineString", "coordinates": [[-73.87865997225472, 40.58501218136602], [-73.87825796317858, 40.58489154589434]]}}, {"type": "Feature", "properties": {"segment_id": 1689139, "physicalid": "172444", "street_name": "UNNAMED ST", "borough": "brooklyn", "direction": "TW", "total_row_ft": 51.7, "roadbed_ft": 21.7, "median_ft": 0.0, "left_sw_ft": 15.0, "right_sw_ft": 15.0}, "geometry": {"type": "LineString", "coordinates": [[-73.87863360029505, 40.58506326297123], [-73.87823159095903, 40.5849426274079]]}}, {"type": "Feature", "properties": {"segment_id": 1689140, "physicalid": "172444", "street_name": "UNNAMED ST", "borough": "brooklyn", "direction": "TW", "total_row_ft": 51.5, "roadbed_ft": 21.5, "median_ft": 0.0, "left_sw_ft": 15.0, "right_sw_ft": 15.0}, "geometry": {"type": "LineString", "coordinates": [[-73.87860722829504, 40.58511434457015], [-73.87820521869915, 40.58499370891515]]}}, {"type": "Feature", "properties": {"segment_id": 1689141, "physicalid": "172444", "street_name": "UNNAMED ST", "borough": "brooklyn", "direction": "TW", "total_row_ft": 51.3, "roadbed_ft": 21.3, "median_ft": 0.0, "left_sw_ft": 15.0, "right_sw_ft": 15.0}, "geometry": {"type": "LineString", "coordinates": [[-73.87858085625466, 40.5851654261628], [-73.87817884639892, 40.58504479041609]]}}, {"type": "Feature", "properties": {"segment_id": 1689142, "physicalid": "172444", "street_name": "UNNAMED ST", "borough": "brooklyn", "direction": "TW", "total_row_ft": 51.1, "roadbed_ft": 21.1, "median_ft": 0.0, "left_sw_ft": 15.0, "right_sw_ft": 15.0}, "geometry": {"type": "LineString", "coordinates": [[-73.87855448417395, 40.58521650774914], [-73.87815247405835, 40.58509587191074]]}}, {"type": "Feature", "properties": {"segment_id": 1689143, "physicalid": "172444", "street_name": "UNNAMED ST", "borough": "brooklyn", "direction": "TW", "total_row_ft": 51.0, "roadbed_ft": 21.0, "median_ft": 0.0, "left_sw_ft": 15.0, "right_sw_ft": 15.0}, "geometry": {"type": "LineString", "coordinates": [[-73.87852811205289, 40.585267589329206], [-73.87812610167745, 40.58514695339909]]}}, {"type": "Feature", "properties": {"segment_id": 1689144, "physicalid": "172444", "street_name": "UNNAMED ST", "borough": "brooklyn", "direction": "TW", "total_row_ft": 50.8, "roadbed_ft": 20.8, "median_ft": 0.0, "left_sw_ft": 15.0, "right_sw_ft": 15.0}, "geometry": {"type": "LineString", "coordinates": [[-73.87850173989149, 40.58531867090296], [-73.8780997292562, 40.58519803488115]]}}, {"type": "Feature", "properties": {"segment_id": 1689145, "physicalid": "172444", "street_name": "UNNAMED ST", "borough": "brooklyn", "direction": "TW", "total_row_ft": 50.6, "roadbed_ft": 20.6, "median_ft": 0.0, "left_sw_ft": 15.0, "right_sw_ft": 15.0}, "geometry": {"type": "LineString", "coordinates": [[-73.87847536768975, 40.585369752470406], [-73.87807335679462, 40.5852491163569]]}}, {"type": "Feature", "properties": {"segment_id": 1689146, "physicalid": "172444", "street_name": "UNNAMED ST", "borough": "brooklyn", "direction": "TW", "total_row_ft": 50.4, "roadbed_ft": 20.4, "median_ft": 0.0, "left_sw_ft": 15.0, "right_sw_ft": 15.0}, "geometry": {"type": "LineString", "coordinates": [[-73.87844899544767, 40.58542083403158], [-73.87804698429267, 40.58530019782637]]}}, {"type": "Feature", "properties": {"segment_id": 1689147, "physicalid": "172444", "street_name": "UNNAMED ST", "borough": "brooklyn", "direction": "TW", "total_row_ft": 58.6, "roadbed_ft": 28.6, "median_ft": 0.0, "left_sw_ft": 15.0, "right_sw_ft": 15.0}, "geometry": {"type": "LineString", "coordinates": [[-73.87842262316525, 40.58547191558643], [-73.87802061175039, 40.58535127928952]]}}]}