{"type": "FeatureCollection", "features": [{"type": "Feature", "properties": {"segment_id": 971114, "physicalid": "67852", "street_name": "CYPRESS HILLS ST", "borough": "brooklyn", "direction": "FT", "total_row_ft": 81.2, "roadbed_ft": 57.0, "median_ft": 6.6, "left_sw_ft": 4.9, "right_sw_ft": 12.7}, "geometry": {"type": "LineString", "coordinates": [[-73.8776564117584, 40.690751452089685], [-73.8778684519722, 40.69062535732329]]}}, {"type": "Feature", "properties": {"segment_id": 971115, "physicalid": "67852", "street_name": "CYPRESS HILLS ST", "borough": "brooklyn", "direction": "FT", "total_row_ft": 79.5, "roadbed_ft": 50.4, "median_ft": 17.9, "left_sw_ft": 4.9, "right_sw_ft": 6.3}, "geometry": {"type": "LineString", "coordinates": [[-73.87761328028617, 40.6907074390401], [-73.87780063003592, 40.69059602713025]]}}, {"type": "Feature", "properties": {"segment_id": 971116, "physicalid": "67852", "street_name": "CYPRESS HILLS ST", "borough": "brooklyn", "direction": "FT", "total_row_ft": 78.6, "roadbed_ft": 49.2, "median_ft": 19.3, "left_sw_ft": 4.9, "right_sw_ft": 5.2}, "geometry": {"type": "LineString", "coordinates": [[-73.87756431168584, 40.690657483031465], [-73.87775634986929, 40.69055727220062]]}}, {"type": "Feature", "properties": {"segment_id": 971117, "physicalid": "67852", "street_name": "CYPRESS HILLS ST", "borough": "brooklyn", "direction": "FT", "total_row_ft": 78.6, "roadbed_ft": 48.6, "median_ft": 19.8, "left_sw_ft": 5.0, "right_sw_ft": 5.2}, "geometry": {"type": "LineString", "coordinates": [[-73.87752084857165, 40.690613606576406], [-73.87771255865182, 40.690513566999456]]}}, {"type": "Feature", "properties": {"segment_id": 971118, "physicalid": "67852", "street_name": "CYPRESS HILLS ST", "borough": "brooklyn", "direction": "FT", "total_row_ft": 78.3, "roadbed_ft": 48.0, "median_ft": 20.2, "left_sw_ft": 5.1, "right_sw_ft": 5.1}, "geometry": {"type": "LineString", "coordinates": [[-73.87747738511867, 40.69056973031132], [-73.87766876730069, 40.690469861881134]]}}, {"type": "Feature", "properties": {"segment_id": 971119, "physicalid": "67852", "street_name": "CYPRESS HILLS ST", "borough": "brooklyn", "direction": "FT", "total_row_ft": 78.0, "roadbed_ft": 47.4, "median_ft": 20.5, "left_sw_ft": 5.2, "right_sw_ft": 5.0}, "geometry": {"type": "LineString", "coordinates": [[-73.87743392161354, 40.69052585408659], [-73.87762497632647, 40.69042615657916]]}}, {"type": "Feature", "properties": {"segment_id": 971120, "physicalid": "67852", "street_name": "CYPRESS HILLS ST", "borough": "brooklyn", "direction": "FT", "total_row_ft": 77.9, "roadbed_ft": 46.8, "median_ft": 21.0, "left_sw_ft": 5.2, "right_sw_ft": 4.9}, "geometry": {"type": "LineString", "coordinates": [[-73.87739345850129, 40.69048500618724], [-73.87758011924836, 40.690381386702875]]}}, {"type": "Feature", "properties": {"segment_id": 971121, "physicalid": "67852", "street_name": "CYPRESS HILLS ST", "borough": "brooklyn", "direction": "FT", "total_row_ft": 78.2, "roadbed_ft": 46.2, "median_ft": 21.9, "left_sw_ft": 5.3, "right_sw_ft": 4.8}, "geometry": {"type": "LineString", "coordinates": [[-73.8773500342509, 40.690441168726466], [-73.87753637433165, 40.690337727290704]]}}, {"type": "Feature", "properties": {"segment_id": 971122, "physicalid": "67852", "street_name": "CYPRESS HILLS ST", "borough": "brooklyn", "direction": "FT", "total_row_ft": 78.5, "roadbed_ft": 46.0, "median_ft": 22.5, "left_sw_ft": 5.3, "right_sw_ft": 4.6}, "geometry": {"type": "LineString", "coordinates": [[-73.8773066101187, 40.690397331215166], [-73.87749262962646, 40.69029406777606]]}}, {"type": "Feature", "properties": {"segment_id": 971123, "physicalid": "67852", "street_name": "CYPRESS HILLS ST", "borough": "brooklyn", "direction": "FT", "total_row_ft": 78.5, "roadbed_ft": 46.0, "median_ft": 22.6, "left_sw_ft": 5.4, "right_sw_ft": 4.4}, "geometry": {"type": "LineString", "coordinates": [[-73.87726319714444, 40.69035348752494], [-73.8774491989979, 40.690250233925184]]}}, {"type": "Feature", "properties": {"segment_id": 971124, "physicalid": "67852", "street_name": "CYPRESS HILLS ST", "borough": "brooklyn", "direction": "FT", "total_row_ft": 78.6, "roadbed_ft": 46.0, "median_ft": 22.6, "left_sw_ft": 5.3, "right_sw_ft": 4.6}, "geometry": {"type": "LineString", "coordinates": [[-73.87722030860728, 40.69030935272454], [-73.87740670387893, 40.69020588076663]]}}, {"type": "Feature", "properties": {"segment_id": 971125, "physicalid": "67852", "street_name": "CYPRESS HILLS ST", "borough": "brooklyn", "direction": "FT", "total_row_ft": 78.7, "roadbed_ft": 46.3, "median_ft": 22.4, "left_sw_ft": 5.3, "right_sw_ft": 4.8}, "geometry": {"type": "LineString", "coordinates": [[-73.87717742002194, 40.69026521796619], [-73.87736420887605, 40.690161527559106]]}}, {"type": "Feature", "properties": {"segment_id": 971126, "physicalid": "67852", "street_name": "CYPRESS HILLS ST", "borough": "brooklyn", "direction": "FT", "total_row_ft": 78.9, "roadbed_ft": 46.5, "median_ft": 22.2, "left_sw_ft": 5.2, "right_sw_ft": 5.0}, "geometry": {"type": "LineString", "coordinates": [[-73.87713453132262, 40.69022108328637], [-73.8773217137677, 40.690117174425545]]}}, {"type": "Feature", "properties": {"segment_id": 971127, "physicalid": "67852", "street_name": "CYPRESS HILLS ST", "borough": "brooklyn", "direction": "FT", "total_row_ft": 79.0, "roadbed_ft": 46.8, "median_ft": 22.0, "left_sw_ft": 5.0, "right_sw_ft": 5.1}, "geometry": {"type": "LineString", "coordinates": [[-73.87709171811315, 40.69017690671604], [-73.87727921886665, 40.69007282119236]]}}, {"type": "Feature", "properties": {"segment_id": 971128, "physicalid": "67852", "street_name": "CYPRESS HILLS ST", "borough": "brooklyn", "direction": "FT", "total_row_ft": 79.3, "roadbed_ft": 47.1, "median_ft": 22.0, "left_sw_ft": 4.9, "right_sw_ft": 5.3}, "geometry": {"type": "LineString", "coordinates": [[-73.87704896601036, 40.69013269623956], [-73.87723672411913, 40.6900284678894]]}}, {"type": "Feature", "properties": {"segment_id": 971129, "physicalid": "67852", "street_name": "CYPRESS HILLS ST", "borough": "brooklyn", "direction": "FT", "total_row_ft": 79.5, "roadbed_ft": 47.2, "median_ft": 22.0, "left_sw_ft": 4.8, "right_sw_ft": 5.5}, "geometry": {"type": "LineString", "coordinates": [[-73.87700621400711, 40.69008848572315], [-73.87719422914128, 40.68998411472976]]}}, {"type": "Feature", "properties": {"segment_id": 971826, "physicalid": "67849", "street_name": "CYPRESS HILLS ST", "borough": "brooklyn", "direction": "TF", "total_row_ft": 80.2, "roadbed_ft": 55.5, "median_ft": 6.7, "left_sw_ft": 13.1, "right_sw_ft": 4.9}, "geometry": {"type": "LineString", "coordinates": [[-73.87764423317243, 40.690739024584374], [-73.87785964741708, 40.6906215496129]]}}, {"type": "Feature", "properties": {"segment_id": 971827, "physicalid": "67849", "street_name": "CYPRESS HILLS ST", "borough": "brooklyn", "direction": "TF", "total_row_ft": 78.4, "roadbed_ft": 50.1, "median_ft": 18.2, "left_sw_ft": 5.1, "right_sw_ft": 4.9}, "geometry": {"type": "LineString", "coordinates": [[-73.87760110447924, 40.690695014368195], [-73.87779074177624, 40.69059159679498]]}}, {"type": "Feature", "properties": {"segment_id": 971828, "physicalid": "67849", "street_name": "CYPRESS HILLS ST", "borough": "brooklyn", "direction": "TF", "total_row_ft": 78.5, "roadbed_ft": 49.0, "median_ft": 19.4, "left_sw_ft": 5.2, "right_sw_ft": 5.0}, "geometry": {"type": "LineString", "coordinates": [[-73.87755792286251, 40.69065103302812], [-73.87774698726895, 40.690547927917024]]}}, {"type": "Feature", "properties": {"segment_id": 971829, "physicalid": "67849", "street_name": "CYPRESS HILLS ST", "borough": "brooklyn", "direction": "TF", "total_row_ft": 78.5, "roadbed_ft": 48.4, "median_ft": 19.9, "left_sw_ft": 5.1, "right_sw_ft": 5.0}, "geometry": {"type": "LineString", "coordinates": [[-73.87751449071831, 40.69060718832575], [-73.87770323248546, 40.690504259204175]]}}, {"type": "Feature", "properties": {"segment_id": 971830, "physicalid": "67849", "street_name": "CYPRESS HILLS ST", "borough": "brooklyn", "direction": "TF", "total_row_ft": 78.2, "roadbed_ft": 47.8, "median_ft": 20.2, "left_sw_ft": 5.1, "right_sw_ft": 5.1}, "geometry": {"type": "LineString", "coordinates": [[-73.87747105853681, 40.6905633436583], [-73.87765947766302, 40.69046059052685]]}}, {"type": "Feature", "properties": {"segment_id": 971831, "physicalid": "67849", "street_name": "CYPRESS HILLS ST", "borough": "brooklyn", "direction": "TF", "total_row_ft": 77.9, "roadbed_ft": 47.3, "median_ft": 20.5, "left_sw_ft": 5.0, "right_sw_ft": 5.2}, "geometry": {"type": "LineString", "coordinates": [[-73.87742762633053, 40.69051949901881], [-73.87761572334313, 40.69041692158992]]}}, {"type": "Feature", "properties": {"segment_id": 971832, "physicalid": "67849", "street_name": "CYPRESS HILLS ST", "borough": "brooklyn", "direction": "TF", "total_row_ft": 77.9, "roadbed_ft": 46.7, "median_ft": 21.2, "left_sw_ft": 4.9, "right_sw_ft": 5.2}, "geometry": {"type": "LineString", "coordinates": [[-73.87738544867722, 40.690476920149976], [-73.87756926440501, 40.69037055306763]]}}, {"type": "Feature", "properties": {"segment_id": 971833, "physicalid": "67849", "street_name": "CYPRESS HILLS ST", "borough": "brooklyn", "direction": "TF", "total_row_ft": 78.3, "roadbed_ft": 46.1, "median_ft": 22.1, "left_sw_ft": 4.8, "right_sw_ft": 5.3}, "geometry": {"type": "LineString", "coordinates": [[-73.87734202962737, 40.69043308791493], [-73.87752552949676, 40.69032690364709]]}}, {"type": "Feature", "properties": {"segment_id": 971834, "physicalid": "67849", "street_name": "CYPRESS HILLS ST", "borough": "brooklyn", "direction": "TF", "total_row_ft": 78.4, "roadbed_ft": 46.0, "median_ft": 22.6, "left_sw_ft": 4.5, "right_sw_ft": 5.4}, "geometry": {"type": "LineString", "coordinates": [[-73.8772986106935, 40.69038925562918], [-73.87748179492901, 40.69028325404579]]}}, {"type": "Feature", "properties": {"segment_id": 971835, "physicalid": "67849", "street_name": "CYPRESS HILLS ST", "borough": "brooklyn", "direction": "TF", "total_row_ft": 78.5, "roadbed_ft": 46.0, "median_ft": 22.7, "left_sw_ft": 4.5, "right_sw_ft": 5.4}, "geometry": {"type": "LineString", "coordinates": [[-73.87725529988566, 40.69034536079174], [-73.87743867431601, 40.69023924918813]]}}, {"type": "Feature", "properties": {"segment_id": 971836, "physicalid": "67849", "street_name": "CYPRESS HILLS ST", "borough": "brooklyn", "direction": "TF", "total_row_ft": 78.6, "roadbed_ft": 46.1, "median_ft": 22.6, "left_sw_ft": 4.7, "right_sw_ft": 5.3}, "geometry": {"type": "LineString", "coordinates": [[-73.87721240863812, 40.69030122318845], [-73.8773961708999, 40.6901948871984]]}}, {"type": "Feature", "properties": {"segment_id": 971837, "physicalid": "67849", "street_name": "CYPRESS HILLS ST", "borough": "brooklyn", "direction": "TF", "total_row_ft": 78.8, "roadbed_ft": 46.3, "median_ft": 22.4, "left_sw_ft": 4.8, "right_sw_ft": 5.2}, "geometry": {"type": "LineString", "coordinates": [[-73.87716951729388, 40.690257085657734], [-73.87735366745653, 40.690150525241215]]}}, {"type": "Feature", "properties": {"segment_id": 971838, "physicalid": "67849", "street_name": "CYPRESS HILLS ST", "borough": "brooklyn", "direction": "TF", "total_row_ft": 78.9, "roadbed_ft": 46.6, "median_ft": 22.2, "left_sw_ft": 5.0, "right_sw_ft": 5.1}, "geometry": {"type": "LineString", "coordinates": [[-73.87712662588821, 40.69021294817918], [-73.87731116395844, 40.690106163332466]]}}, {"type": "Feature", "properties": {"segment_id": 971839, "physicalid": "67849", "street_name": "CYPRESS HILLS ST", "borough": "brooklyn", "direction": "TF", "total_row_ft": 79.1, "roadbed_ft": 46.9, "median_ft": 22.0, "left_sw_ft": 5.2, "right_sw_ft": 5.0}, "geometry": {"type": "LineString", "coordinates": [[-73.87708383366727, 40.690168753323206], [-73.87726866072613, 40.690061801286724]]}}, {"type": "Feature", "properties": {"segment_id": 971840, "physicalid": "67849", "street_name": "CYPRESS HILLS ST", "borough": "brooklyn", "direction": "TF", "total_row_ft": 79.3, "roadbed_ft": 47.1, "median_ft": 22.0, "left_sw_ft": 5.4, "right_sw_ft": 4.9}, "geometry": {"type": "LineString", "coordinates": [[-73.87704107688499, 40.690124537977034], [-73.87722615752196, 40.69001743924149]]}}, {"type": "Feature", "properties": {"segment_id": 971841, "physicalid": "67849", "street_name": "CYPRESS HILLS ST", "borough": "brooklyn", "direction": "TF", "total_row_ft": 79.6, "roadbed_ft": 47.2, "median_ft": 22.1, "left_sw_ft": 5.5, "right_sw_ft": 4.8}, "geometry": {"type": "LineString", "coordinates": [[-73.87699832019123, 40.690080322596295], [-73.87718365414581, 40.68997307731256]]}}, {"type": "Feature", "properties": {"segment_id": 971870, "physicalid": "67850", "street_name": "CYPRESS HILLS ST", "borough": "brooklyn", "direction": "TF", "total_row_ft": 77.5, "roadbed_ft": 50.2, "median_ft": 17.3, "left_sw_ft": 5.2, "right_sw_ft": 4.9}, "geometry": {"type": "LineString", "coordinates": [[-73.87935734732693, 40.6912724115362], [-73.87930323766957, 40.69110107759009]]}}, {"type": "Feature", "properties": {"segment_id": 971871, "physicalid": "67850", "street_name": "CYPRESS HILLS ST", "borough": "brooklyn", "direction": "TF", "total_row_ft": 77.5, "roadbed_ft": 49.5, "median_ft": 17.3, "left_sw_ft": 5.4, "right_sw_ft": 5.3}, "geometry": {"type": "LineString", "coordinates": [[-73.87928480896528, 40.691285888728665], [-73.879238677286, 40.691113262913895]]}}, {"type": "Feature", "properties": {"segment_id": 971872, "physicalid": "67850", "street_name": "CYPRESS HILLS ST", "borough": "brooklyn", "direction": "TF", "total_row_ft": 77.4, "roadbed_ft": 49.0, "median_ft": 17.3, "left_sw_ft": 5.4, "right_sw_ft": 5.7}, "geometry": {"type": "LineString", "coordinates": [[-73.87921370843372, 40.69129522877131], [-73.87916763862232, 40.69112283377617]]}}, {"type": "Feature", "properties": {"segment_id": 971873, "physicalid": "67850", "street_name": "CYPRESS HILLS ST", "borough": "brooklyn", "direction": "TF", "total_row_ft": 76.9, "roadbed_ft": 48.6, "median_ft": 17.3, "left_sw_ft": 5.3, "right_sw_ft": 5.7}, "geometry": {"type": "LineString", "coordinates": [[-73.87913182502282, 40.691301287610756], [-73.8791197566135, 40.69112697279081]]}}, {"type": "Feature", "properties": {"segment_id": 971874, "physicalid": "67850", "street_name": "CYPRESS HILLS ST", "borough": "brooklyn", "direction": "TF", "total_row_ft": 76.3, "roadbed_ft": 48.7, "median_ft": 17.3, "left_sw_ft": 5.0, "right_sw_ft": 5.3}, "geometry": {"type": "LineString", "coordinates": [[-73.87905969049625, 40.69130251789904], [-73.87904774345974, 40.69112995347886]]}}, {"type": "Feature", "properties": {"segment_id": 971875, "physicalid": "67850", "street_name": "CYPRESS HILLS ST", "borough": "brooklyn", "direction": "TF", "total_row_ft": 75.9, "roadbed_ft": 48.9, "median_ft": 17.3, "left_sw_ft": 5.1, "right_sw_ft": 4.6}, "geometry": {"type": "LineString", "coordinates": [[-73.87897969374413, 40.691300973744376], [-73.87899578450696, 40.69112965085601]]}}, {"type": "Feature", "properties": {"segment_id": 971876, "physicalid": "67850", "street_name": "CYPRESS HILLS ST", "borough": "brooklyn", "direction": "TF", "total_row_ft": 76.3, "roadbed_ft": 49.1, "median_ft": 17.3, "left_sw_ft": 5.6, "right_sw_ft": 4.2}, "geometry": {"type": "LineString", "coordinates": [[-73.87890765901207, 40.69129811009379], [-73.87892385360281, 40.69112568370374]]}}, {"type": "Feature", "properties": {"segment_id": 971877, "physicalid": "67850", "street_name": "CYPRESS HILLS ST", "borough": "brooklyn", "direction": "TF", "total_row_ft": 76.3, "roadbed_ft": 49.4, "median_ft": 17.3, "left_sw_ft": 5.6, "right_sw_ft": 3.9}, "geometry": {"type": "LineString", "coordinates": [[-73.87883580709351, 40.691293300047256], [-73.8788519957314, 40.69112093901337]]}}, {"type": "Feature", "properties": {"segment_id": 971878, "physicalid": "67850", "street_name": "CYPRESS HILLS ST", "borough": "brooklyn", "direction": "TF", "total_row_ft": 76.3, "roadbed_ft": 49.7, "median_ft": 17.3, "left_sw_ft": 5.6, "right_sw_ft": 3.7}, "geometry": {"type": "LineString", "coordinates": [[-73.87875972030592, 40.69128609897015], [-73.87879222754778, 40.69111505230122]]}}, {"type": "Feature", "properties": {"segment_id": 971879, "physicalid": "67850", "street_name": "CYPRESS HILLS ST", "borough": "brooklyn", "direction": "TF", "total_row_ft": 76.7, "roadbed_ft": 50.2, "median_ft": 17.3, "left_sw_ft": 5.7, "right_sw_ft": 3.5}, "geometry": {"type": "LineString", "coordinates": [[-73.87868140871214, 40.691276366462624], [-73.8787395815014, 40.69110809772297]]}}, {"type": "Feature", "properties": {"segment_id": 971880, "physicalid": "67850", "street_name": "CYPRESS HILLS ST", "borough": "brooklyn", "direction": "TF", "total_row_ft": 77.1, "roadbed_ft": 50.2, "median_ft": 17.3, "left_sw_ft": 5.8, "right_sw_ft": 3.9}, "geometry": {"type": "LineString", "coordinates": [[-73.87861058660187, 40.691265511479905], [-73.87866913769086, 40.69109614900833]]}}, {"type": "Feature", "properties": {"segment_id": 971881, "physicalid": "67850", "street_name": "CYPRESS HILLS ST", "borough": "brooklyn", "direction": "TF", "total_row_ft": 77.9, "roadbed_ft": 50.2, "median_ft": 17.3, "left_sw_ft": 5.7, "right_sw_ft": 4.7}, "geometry": {"type": "LineString", "coordinates": [[-73.8785369746776, 40.69125210828032], [-73.87860748950143, 40.69108310530417]]}}, {"type": "Feature", "properties": {"segment_id": 971882, "physicalid": "67850", "street_name": "CYPRESS HILLS ST", "borough": "brooklyn", "direction": "TF", "total_row_ft": 78.9, "roadbed_ft": 50.2, "median_ft": 17.3, "left_sw_ft": 5.6, "right_sw_ft": 5.8}, "geometry": {"type": "LineString", "coordinates": [[-73.87846743416114, 40.69123741928063], [-73.87853907448805, 40.69106571923671]]}}, {"type": "Feature", "properties": {"segment_id": 971883, "physicalid": "67850", "street_name": "CYPRESS HILLS ST", "borough": "brooklyn", "direction": "TF", "total_row_ft": 78.6, "roadbed_ft": 50.1, "median_ft": 17.3, "left_sw_ft": 5.5, "right_sw_ft": 5.7}, "geometry": {"type": "LineString", "coordinates": [[-73.87839122823684, 40.6912135886567], [-73.87849413548649, 40.69105247900721]]}}, {"type": "Feature", "properties": {"segment_id": 971884, "physicalid": "67850", "street_name": "CYPRESS HILLS ST", "borough": "brooklyn", "direction": "TF", "total_row_ft": 78.6, "roadbed_ft": 50.4, "median_ft": 17.3, "left_sw_ft": 5.8, "right_sw_ft": 5.1}, "geometry": {"type": "LineString", "coordinates": [[-73.87832600361367, 40.69119015653803], [-73.87842892219759, 40.69102902939171]]}}, {"type": "Feature", "properties": {"segment_id": 971885, "physicalid": "67850", "street_name": "CYPRESS HILLS ST", "borough": "brooklyn", "direction": "TF", "total_row_ft": 78.8, "roadbed_ft": 50.8, "median_ft": 17.3, "left_sw_ft": 6.0, "right_sw_ft": 4.7}, "geometry": {"type": "LineString", "coordinates": [[-73.87826072707618, 40.69116372888031], [-73.87836939974402, 40.69100419516963]]}}, {"type": "Feature", "properties": {"segment_id": 971886, "physicalid": "67850", "street_name": "CYPRESS HILLS ST", "borough": "brooklyn", "direction": "TF", "total_row_ft": 78.8, "roadbed_ft": 50.8, "median_ft": 17.3, "left_sw_ft": 5.9, "right_sw_ft": 4.7}, "geometry": {"type": "LineString", "coordinates": [[-73.87819164028832, 40.69113227456467], [-73.87832482566724, 40.69098380321297]]}}, {"type": "Feature", "properties": {"segment_id": 971887, "physicalid": "67850", "street_name": "CYPRESS HILLS ST", "borough": "brooklyn", "direction": "TF", "total_row_ft": 78.7, "roadbed_ft": 50.5, "median_ft": 17.3, "left_sw_ft": 5.7, "right_sw_ft": 5.3}, "geometry": {"type": "LineString", "coordinates": [[-73.87813167906825, 40.69110176706641], [-73.87826472768997, 40.69095344831776]]}}, {"type": "Feature", "properties": {"segment_id": 971888, "physicalid": "67850", "street_name": "CYPRESS HILLS ST", "borough": "brooklyn", "direction": "TF", "total_row_ft": 78.6, "roadbed_ft": 49.7, "median_ft": 17.3, "left_sw_ft": 5.3, "right_sw_ft": 6.2}, "geometry": {"type": "LineString", "coordinates": [[-73.87807091364819, 40.691067529327235], [-73.87821292447865, 40.690924517286255]]}}, {"type": "Feature", "properties": {"segment_id": 971889, "physicalid": "67850", "street_name": "CYPRESS HILLS ST", "borough": "brooklyn", "direction": "TF", "total_row_ft": 78.5, "roadbed_ft": 49.6, "median_ft": 17.3, "left_sw_ft": 5.3, "right_sw_ft": 6.2}, "geometry": {"type": "LineString", "coordinates": [[-73.87801506842659, 40.691032728155726], [-73.87815681280789, 40.69088998455725]]}}, {"type": "Feature", "properties": {"segment_id": 971890, "physicalid": "67850", "street_name": "CYPRESS HILLS ST", "borough": "brooklyn", "direction": "TF", "total_row_ft": 78.5, "roadbed_ft": 50.1, "median_ft": 17.3, "left_sw_ft": 5.4, "right_sw_ft": 5.7}, "geometry": {"type": "LineString", "coordinates": [[-73.87796044566464, 40.69099669594278], [-73.87810226485728, 40.69085387711271]]}}, {"type": "Feature", "properties": {"segment_id": 971891, "physicalid": "67850", "street_name": "CYPRESS HILLS ST", "borough": "brooklyn", "direction": "TF", "total_row_ft": 78.6, "roadbed_ft": 50.3, "median_ft": 17.3, "left_sw_ft": 5.4, "right_sw_ft": 5.5}, "geometry": {"type": "LineString", "coordinates": [[-73.87790053007903, 40.690957718978225], [-73.87806145714724, 40.6908268959406]]}}, {"type": "Feature", "properties": {"segment_id": 971892, "physicalid": "67850", "street_name": "CYPRESS HILLS ST", "borough": "brooklyn", "direction": "TF", "total_row_ft": 78.8, "roadbed_ft": 50.6, "median_ft": 17.3, "left_sw_ft": 5.6, "right_sw_ft": 5.3}, "geometry": {"type": "LineString", "coordinates": [[-73.87784564916936, 40.69092201685912], [-73.87800697250269, 40.69079087177719]]}}, {"type": "Feature", "properties": {"segment_id": 971893, "physicalid": "67850", "street_name": "CYPRESS HILLS ST", "borough": "brooklyn", "direction": "TF", "total_row_ft": 81.8, "roadbed_ft": 50.8, "median_ft": 17.5, "left_sw_ft": 7.5, "right_sw_ft": 6.0}, "geometry": {"type": "LineString", "coordinates": [[-73.87779219689679, 40.69088515337913], [-73.87796048245605, 40.69074834854737]]}}, {"type": "Feature", "properties": {"segment_id": 971894, "physicalid": "67850", "street_name": "CYPRESS HILLS ST", "borough": "brooklyn", "direction": "TF", "total_row_ft": 81.5, "roadbed_ft": 56.2, "median_ft": 7.0, "left_sw_ft": 13.1, "right_sw_ft": 5.3}, "geometry": {"type": "LineString", "coordinates": [[-73.87774573841264, 40.69084260446288], [-73.87792935832967, 40.69069333385289]]}}, {"type": "Feature", "properties": {"segment_id": 971895, "physicalid": "67853", "street_name": "CYPRESS HILLS ST", "borough": "brooklyn", "direction": "FT", "total_row_ft": 76.6, "roadbed_ft": 51.5, "median_ft": 17.3, "left_sw_ft": 4.0, "right_sw_ft": 3.7}, "geometry": {"type": "LineString", "coordinates": [[-73.87953903473903, 40.691229320552345], [-73.87949417831607, 40.691059037796656]]}}, {"type": "Feature", "properties": {"segment_id": 971896, "physicalid": "67853", "street_name": "CYPRESS HILLS ST", "borough": "brooklyn", "direction": "FT", "total_row_ft": 76.9, "roadbed_ft": 50.9, "median_ft": 17.4, "left_sw_ft": 4.1, "right_sw_ft": 4.5}, "geometry": {"type": "LineString", "coordinates": [[-73.87947335179467, 40.691242854600965], [-73.87942240445959, 40.69107286701561]]}}, {"type": "Feature", "properties": {"segment_id": 971897, "physicalid": "67853", "street_name": "CYPRESS HILLS ST", "borough": "brooklyn", "direction": "FT", "total_row_ft": 77.7, "roadbed_ft": 51.0, "median_ft": 17.4, "left_sw_ft": 4.4, "right_sw_ft": 5.0}, "geometry": {"type": "LineString", "coordinates": [[-73.87940489248929, 40.69126124951031], [-73.87935330467946, 40.69108912438023]]}}, {"type": "Feature", "properties": {"segment_id": 971898, "physicalid": "67853", "street_name": "CYPRESS HILLS ST", "borough": "brooklyn", "direction": "FT", "total_row_ft": 77.5, "roadbed_ft": 49.9, "median_ft": 17.3, "left_sw_ft": 5.0, "right_sw_ft": 5.3}, "geometry": {"type": "LineString", "coordinates": [[-73.87934349591866, 40.69127527679077], [-73.87928131139377, 40.69110558270569]]}}, {"type": "Feature", "properties": {"segment_id": 971899, "physicalid": "67853", "street_name": "CYPRESS HILLS ST", "borough": "brooklyn", "direction": "FT", "total_row_ft": 77.7, "roadbed_ft": 49.5, "median_ft": 17.3, "left_sw_ft": 5.5, "right_sw_ft": 5.4}, "geometry": {"type": "LineString", "coordinates": [[-73.87927318923587, 40.69128773669669], [-73.8792108008477, 40.69111748579584]]}}, {"type": "Feature", "properties": {"segment_id": 971900, "physicalid": "67853", "street_name": "CYPRESS HILLS ST", "borough": "brooklyn", "direction": "FT", "total_row_ft": 77.2, "roadbed_ft": 48.8, "median_ft": 17.3, "left_sw_ft": 5.7, "right_sw_ft": 5.4}, "geometry": {"type": "LineString", "coordinates": [[-73.8791685010028, 40.69129915921238], [-73.87915341654926, 40.69112422125718]]}}, {"type": "Feature", "properties": {"segment_id": 971901, "physicalid": "67853", "street_name": "CYPRESS HILLS ST", "borough": "brooklyn", "direction": "FT", "total_row_ft": 76.6, "roadbed_ft": 48.6, "median_ft": 17.3, "left_sw_ft": 5.5, "right_sw_ft": 5.1}, "geometry": {"type": "LineString", "coordinates": [[-73.87909650041838, 40.691302339368086], [-73.87908156216731, 40.69112909479116]]}}, {"type": "Feature", "properties": {"segment_id": 971902, "physicalid": "67853", "street_name": "CYPRESS HILLS ST", "borough": "brooklyn", "direction": "FT", "total_row_ft": 75.9, "roadbed_ft": 48.8, "median_ft": 17.3, "left_sw_ft": 4.8, "right_sw_ft": 5.0}, "geometry": {"type": "LineString", "coordinates": [[-73.879002359735, 40.69130140805637], [-73.87901889426483, 40.6911300146204]]}}, {"type": "Feature", "properties": {"segment_id": 971903, "physicalid": "67853", "street_name": "CYPRESS HILLS ST", "borough": "brooklyn", "direction": "FT", "total_row_ft": 76.1, "roadbed_ft": 48.9, "median_ft": 17.3, "left_sw_ft": 4.4, "right_sw_ft": 5.4}, "geometry": {"type": "LineString", "coordinates": [[-73.87893026010505, 40.69129918792953], [-73.87894683458383, 40.69112738232069]]}}, {"type": "Feature", "properties": {"segment_id": 971904, "physicalid": "67853", "street_name": "CYPRESS HILLS ST", "borough": "brooklyn", "direction": "FT", "total_row_ft": 76.3, "roadbed_ft": 49.3, "median_ft": 17.3, "left_sw_ft": 4.0, "right_sw_ft": 5.7}, "geometry": {"type": "LineString", "coordinates": [[-73.87885199515195, 40.6912945624259], [-73.87887763046588, 40.691122818616094]]}}, {"type": "Feature", "properties": {"segment_id": 971905, "physicalid": "67853", "street_name": "CYPRESS HILLS ST", "borough": "brooklyn", "direction": "FT", "total_row_ft": 76.3, "roadbed_ft": 49.7, "median_ft": 17.3, "left_sw_ft": 3.7, "right_sw_ft": 5.6}, "geometry": {"type": "LineString", "coordinates": [[-73.87878034089618, 40.691288336219685], [-73.87880597786392, 40.69111658256655]]}}, {"type": "Feature", "properties": {"segment_id": 971906, "physicalid": "67853", "street_name": "CYPRESS HILLS ST", "borough": "brooklyn", "direction": "FT", "total_row_ft": 76.5, "roadbed_ft": 50.1, "median_ft": 17.3, "left_sw_ft": 3.5, "right_sw_ft": 5.6}, "geometry": {"type": "LineString", "coordinates": [[-73.87869415541547, 40.691278143281245], [-73.87874126526384, 40.69110834996626]]}}, {"type": "Feature", "properties": {"segment_id": 971907, "physicalid": "67853", "street_name": "CYPRESS HILLS ST", "borough": "brooklyn", "direction": "FT", "total_row_ft": 77.1, "roadbed_ft": 50.2, "median_ft": 17.3, "left_sw_ft": 3.8, "right_sw_ft": 5.7}, "geometry": {"type": "LineString", "coordinates": [[-73.87862334975381, 40.6912676741323], [-73.87867085042706, 40.691096472859954]]}}, {"type": "Feature", "properties": {"segment_id": 971908, "physicalid": "67853", "street_name": "CYPRESS HILLS ST", "borough": "brooklyn", "direction": "FT", "total_row_ft": 77.9, "roadbed_ft": 50.2, "median_ft": 17.3, "left_sw_ft": 4.7, "right_sw_ft": 5.7}, "geometry": {"type": "LineString", "coordinates": [[-73.8785361606864, 40.69125194342528], [-73.87860892517212, 40.691083434421884]]}}, {"type": "Feature", "properties": {"segment_id": 971909, "physicalid": "67853", "street_name": "CYPRESS HILLS ST", "borough": "brooklyn", "direction": "FT", "total_row_ft": 78.9, "roadbed_ft": 50.2, "median_ft": 17.3, "left_sw_ft": 5.8, "right_sw_ft": 5.6}, "geometry": {"type": "LineString", "coordinates": [[-73.8784665962056, 40.69123723600302], [-73.87854049378244, 40.69106610338438]]}}, {"type": "Feature", "properties": {"segment_id": 971910, "physicalid": "67853", "street_name": "CYPRESS HILLS ST", "borough": "brooklyn", "direction": "FT", "total_row_ft": 78.6, "roadbed_ft": 50.2, "median_ft": 17.4, "left_sw_ft": 5.6, "right_sw_ft": 5.5}, "geometry": {"type": "LineString", "coordinates": [[-73.87837505128202, 40.691208063065616], [-73.87848507458493, 40.691049638772014]]}}, {"type": "Feature", "properties": {"segment_id": 971911, "physicalid": "67853", "street_name": "CYPRESS HILLS ST", "borough": "brooklyn", "direction": "FT", "total_row_ft": 78.6, "roadbed_ft": 50.6, "median_ft": 17.3, "left_sw_ft": 4.9, "right_sw_ft": 5.8}, "geometry": {"type": "LineString", "coordinates": [[-73.87831014659878, 40.69118405757118], [-73.87842020231194, 40.69102558683607]]}}, {"type": "Feature", "properties": {"segment_id": 971912, "physicalid": "67853", "street_name": "CYPRESS HILLS ST", "borough": "brooklyn", "direction": "FT", "total_row_ft": 78.8, "roadbed_ft": 50.9, "median_ft": 17.3, "left_sw_ft": 4.7, "right_sw_ft": 6.0}, "geometry": {"type": "LineString", "coordinates": [[-73.87824683454521, 40.69115775886737], [-73.87835722049472, 40.69099881283397]]}}, {"type": "Feature", "properties": {"segment_id": 971913, "physicalid": "67853", "street_name": "CYPRESS HILLS ST", "borough": "brooklyn", "direction": "FT", "total_row_ft": 78.8, "roadbed_ft": 50.7, "median_ft": 17.3, "left_sw_ft": 4.9, "right_sw_ft": 5.9}, "geometry": {"type": "LineString", "coordinates": [[-73.8781687441693, 40.69112096600742], [-73.87830354586121, 40.69097336729787]]}}, {"type": "Feature", "properties": {"segment_id": 971914, "physicalid": "67853", "street_name": "CYPRESS HILLS ST", "borough": "brooklyn", "direction": "FT", "total_row_ft": 78.7, "roadbed_ft": 50.1, "median_ft": 17.3, "left_sw_ft": 5.7, "right_sw_ft": 5.6}, "geometry": {"type": "LineString", "coordinates": [[-73.87810951771297, 40.69108964265359], [-73.87824414451684, 40.69094223557788]]}}, {"type": "Feature", "properties": {"segment_id": 971915, "physicalid": "67853", "street_name": "CYPRESS HILLS ST", "borough": "brooklyn", "direction": "FT", "total_row_ft": 78.5, "roadbed_ft": 49.6, "median_ft": 17.3, "left_sw_ft": 6.3, "right_sw_ft": 5.3}, "geometry": {"type": "LineString", "coordinates": [[-73.87804111402824, 40.691049373759185], [-73.87819167817088, 40.69091179383445]]}}, {"type": "Feature", "properties": {"segment_id": 971916, "physicalid": "67853", "street_name": "CYPRESS HILLS ST", "borough": "brooklyn", "direction": "FT", "total_row_ft": 78.3, "roadbed_ft": 49.8, "median_ft": 17.3, "left_sw_ft": 5.8, "right_sw_ft": 5.3}, "geometry": {"type": "LineString", "coordinates": [[-73.87798641310964, 40.69101358849431], [-73.8781364519681, 40.69087648865601]]}}, {"type": "Feature", "properties": {"segment_id": 971917, "physicalid": "67853", "street_name": "CYPRESS HILLS ST", "borough": "brooklyn", "direction": "FT", "total_row_ft": 78.5, "roadbed_ft": 50.2, "median_ft": 17.3, "left_sw_ft": 5.6, "right_sw_ft": 5.4}, "geometry": {"type": "LineString", "coordinates": [[-73.87792561098576, 40.69097403498415], [-73.8780845537852, 40.69084216694075]]}}, {"type": "Feature", "properties": {"segment_id": 971918, "physicalid": "67853", "street_name": "CYPRESS HILLS ST", "borough": "brooklyn", "direction": "FT", "total_row_ft": 78.7, "roadbed_ft": 50.4, "median_ft": 17.3, "left_sw_ft": 5.4, "right_sw_ft": 5.5}, "geometry": {"type": "LineString", "coordinates": [[-73.87787075244994, 40.69093834751164], [-73.87803008693953, 40.690806154593616]]}}, {"type": "Feature", "properties": {"segment_id": 971919, "physicalid": "67853", "street_name": "CYPRESS HILLS ST", "borough": "brooklyn", "direction": "FT", "total_row_ft": 79.0, "roadbed_ft": 50.6, "median_ft": 17.4, "left_sw_ft": 5.7, "right_sw_ft": 5.2}, "geometry": {"type": "LineString", "coordinates": [[-73.8778164379084, 40.69090301376973], [-73.87797540785292, 40.69077000182536]]}}, {"type": "Feature", "properties": {"segment_id": 971920, "physicalid": "67853", "street_name": "CYPRESS HILLS ST", "borough": "brooklyn", "direction": "FT", "total_row_ft": 84.3, "roadbed_ft": 51.2, "median_ft": 17.6, "left_sw_ft": 5.5, "right_sw_ft": 10.0}, "geometry": {"type": "LineString", "coordinates": [[-73.87775493924319, 40.690851993337354], [-73.87794667035143, 40.690723934421705]]}}, {"type": "Feature", "properties": {"segment_id": 995209, "physicalid": "69305", "street_name": "AUTUMN AVE", "borough": "brooklyn", "direction": "TF", "total_row_ft": 135.0, "roadbed_ft": 77.7, "median_ft": 0.0, "left_sw_ft": 15.0, "right_sw_ft": 42.3}, "geometry": {"type": "LineString", "coordinates": [[-73.87150615562669, 40.690265244314396], [-73.87193209474779, 40.690207201583036]]}}, {"type": "Feature", "properties": {"segment_id": 995210, "physicalid": "69305", "street_name": "AUTUMN AVE", "borough": "brooklyn", "direction": "TF", "total_row_ft": 77.9, "roadbed_ft": 31.9, "median_ft": 0.0, "left_sw_ft": 33.1, "right_sw_ft": 12.8}, "geometry": {"type": "LineString", "coordinates": [[-73.87160665251835, 40.69019578162208], [-73.87188301600582, 40.690158121467405]]}}, {"type": "Feature", "properties": {"segment_id": 995211, "physicalid": "69305", "street_name": "AUTUMN AVE", "borough": "brooklyn", "direction": "TF", "total_row_ft": 57.8, "roadbed_ft": 29.4, "median_ft": 0.0, "left_sw_ft": 16.2, "right_sw_ft": 12.2}, "geometry": {"type": "LineString", "coordinates": [[-73.87159846483226, 40.69014112922048], [-73.87190667669748, 40.6900991290181]]}}, {"type": "Feature", "properties": {"segment_id": 995212, "physicalid": "69305", "street_name": "AUTUMN AVE", "borough": "brooklyn", "direction": "TF", "total_row_ft": 54.8, "roadbed_ft": 29.1, "median_ft": 0.0, "left_sw_ft": 14.4, "right_sw_ft": 11.2}, "geometry": {"type": "LineString", "coordinates": [[-73.8715902771596, 40.69008647681788], [-73.87178474065098, 40.69005997726438]]}}, {"type": "Feature", "properties": {"segment_id": 995213, "physicalid": "69305", "street_name": "AUTUMN AVE", "borough": "brooklyn", "direction": "TF", "total_row_ft": 53.5, "roadbed_ft": 29.0, "median_ft": 0.0, "left_sw_ft": 14.4, "right_sw_ft": 10.2}, "geometry": {"type": "LineString", "coordinates": [[-73.87158208927056, 40.69003182444567], [-73.87177206073851, 40.690005937017]]}}, {"type": "Feature", "properties": {"segment_id": 1064276, "physicalid": "73697", "street_name": "JAMAICA AVE", "borough": "brooklyn", "direction": "TW", "total_row_ft": 69.4, "roadbed_ft": 39.9, "median_ft": 0.0, "left_sw_ft": 13.5, "right_sw_ft": 16.0}, "geometry": {"type": "LineString", "coordinates": [[-73.87242393633895, 40.69010229216428], [-73.87230610440847, 40.68993439181478]]}}, {"type": "Feature", "properties": {"segment_id": 1064277, "physicalid": "73697", "street_name": "JAMAICA AVE", "borough": "brooklyn", "direction": "TW", "total_row_ft": 69.8, "roadbed_ft": 40.0, "median_ft": 0.0, "left_sw_ft": 13.3, "right_sw_ft": 16.5}, "geometry": {"type": "LineString", "coordinates": [[-73.87236111689636, 40.69012928575633], [-73.87224255018855, 40.68996033818686]]}}, {"type": "Feature", "properties": {"segment_id": 1064278, "physicalid": "73697", "street_name": "JAMAICA AVE", "borough": "brooklyn", "direction": "TW", "total_row_ft": 70.0, "roadbed_ft": 40.3, "median_ft": 0.0, "left_sw_ft": 12.7, "right_sw_ft": 17.1}, "geometry": {"type": "LineString", "coordinates": [[-73.87229788500403, 40.69015569168131], [-73.87217899591914, 40.689986284523755]]}}, {"type": "Feature", "properties": {"segment_id": 1064279, "physicalid": "73697", "street_name": "JAMAICA AVE", "borough": "brooklyn", "direction": "TW", "total_row_ft": 69.7, "roadbed_ft": 40.5, "median_ft": 0.0, "left_sw_ft": 11.6, "right_sw_ft": 17.7}, "geometry": {"type": "LineString", "coordinates": [[-73.87223394374963, 40.69018108686189], [-73.87211544160031, 40.69001223082548]]}}, {"type": "Feature", "properties": {"segment_id": 1064280, "physicalid": "73697", "street_name": "JAMAICA AVE", "borough": "brooklyn", "direction": "TW", "total_row_ft": 69.5, "roadbed_ft": 40.6, "median_ft": 0.0, "left_sw_ft": 11.2, "right_sw_ft": 17.8}, "geometry": {"type": "LineString", "coordinates": [[-73.87217000244658, 40.69020648200686], [-73.87205188723199, 40.690038177092006]]}}, {"type": "Feature", "properties": {"segment_id": 1064281, "physicalid": "73697", "street_name": "JAMAICA AVE", "borough": "brooklyn", "direction": "TW", "total_row_ft": 69.3, "roadbed_ft": 40.8, "median_ft": 0.0, "left_sw_ft": 10.8, "right_sw_ft": 17.7}, "geometry": {"type": "LineString", "coordinates": [[-73.8721060610948, 40.69023187711621], [-73.87198833281421, 40.69006412332335]]}}, {"type": "Feature", "properties": {"segment_id": 1064282, "physicalid": "73697", "street_name": "JAMAICA AVE", "borough": "brooklyn", "direction": "TW", "total_row_ft": 69.1, "roadbed_ft": 41.1, "median_ft": 0.0, "left_sw_ft": 10.8, "right_sw_ft": 17.2}, "geometry": {"type": "LineString", "coordinates": [[-73.87204211974017, 40.690257272255366], [-73.871924778347, 40.690090069519506]]}}, {"type": "Feature", "properties": {"segment_id": 1064283, "physicalid": "73697", "street_name": "JAMAICA AVE", "borough": "brooklyn", "direction": "TW", "total_row_ft": 68.8, "roadbed_ft": 41.3, "median_ft": 0.0, "left_sw_ft": 11.0, "right_sw_ft": 16.5}, "geometry": {"type": "LineString", "coordinates": [[-73.87197817846045, 40.69028266753496], [-73.87186122383031, 40.6901160156805]]}}, {"type": "Feature", "properties": {"segment_id": 1064284, "physicalid": "73697", "street_name": "JAMAICA AVE", "borough": "brooklyn", "direction": "TW", "total_row_ft": 94.3, "roadbed_ft": 41.8, "median_ft": 0.0, "left_sw_ft": 11.4, "right_sw_ft": 41.2}, "geometry": {"type": "LineString", "coordinates": [[-73.87191423713202, 40.69030806277897], [-73.8717539993752, 40.69007973505682]]}}, {"type": "Feature", "properties": {"segment_id": 1064285, "physicalid": "73697", "street_name": "JAMAICA AVE", "borough": "brooklyn", "direction": "TW", "total_row_ft": 109.1, "roadbed_ft": 81.9, "median_ft": 0.0, "left_sw_ft": 12.3, "right_sw_ft": 15.0}, "geometry": {"type": "LineString", "coordinates": [[-73.87185029575488, 40.690333457987386], [-73.87169038816168, 40.69010560041469]]}}, {"type": "Feature", "properties": {"segment_id": 1064286, "physicalid": "73698", "street_name": "JAMAICA AVE", "borough": "brooklyn", "direction": "TW", "total_row_ft": 95.8, "roadbed_ft": 39.1, "median_ft": 0.0, "left_sw_ft": 14.3, "right_sw_ft": 42.4}, "geometry": {"type": "LineString", "coordinates": [[-73.87172387000695, 40.69038331889105], [-73.87160140924621, 40.69013734093675]]}}, {"type": "Feature", "properties": {"segment_id": 1064287, "physicalid": "73698", "street_name": "JAMAICA AVE", "borough": "brooklyn", "direction": "TW", "total_row_ft": 72.5, "roadbed_ft": 36.9, "median_ft": 0.0, "left_sw_ft": 14.4, "right_sw_ft": 21.2}, "geometry": {"type": "LineString", "coordinates": [[-73.87165754897698, 40.69040501680577], [-73.87156492211268, 40.690218963828436]]}}, {"type": "Feature", "properties": {"segment_id": 1064288, "physicalid": "73698", "street_name": "JAMAICA AVE", "borough": "brooklyn", "direction": "TW", "total_row_ft": 73.0, "roadbed_ft": 38.7, "median_ft": 0.0, "left_sw_ft": 14.2, "right_sw_ft": 20.2}, "geometry": {"type": "LineString", "coordinates": [[-73.87159067437112, 40.69042560284162], [-73.87149736472354, 40.69023817802855]]}}, {"type": "Feature", "properties": {"segment_id": 1064289, "physicalid": "73698", "street_name": "JAMAICA AVE", "borough": "brooklyn", "direction": "TW", "total_row_ft": 72.5, "roadbed_ft": 39.3, "median_ft": 0.0, "left_sw_ft": 14.1, "right_sw_ft": 19.1}, "geometry": {"type": "LineString", "coordinates": [[-73.87152248135791, 40.690443540727934], [-73.87142980729546, 40.69025739218899]]}}, {"type": "Feature", "properties": {"segment_id": 1064290, "physicalid": "73698", "street_name": "JAMAICA AVE", "borough": "brooklyn", "direction": "TW", "total_row_ft": 72.0, "roadbed_ft": 39.9, "median_ft": 0.0, "left_sw_ft": 13.9, "right_sw_ft": 18.1}, "geometry": {"type": "LineString", "coordinates": [[-73.8714542438146, 40.6904613892028], [-73.87136224982842, 40.690276606309695]]}}, {"type": "Feature", "properties": {"segment_id": 1064291, "physicalid": "73698", "street_name": "JAMAICA AVE", "borough": "brooklyn", "direction": "TW", "total_row_ft": 71.5, "roadbed_ft": 40.7, "median_ft": 0.0, "left_sw_ft": 13.5, "right_sw_ft": 17.3}, "geometry": {"type": "LineString", "coordinates": [[-73.87138600615921, 40.690479237485405], [-73.87129469232245, 40.690295820390716]]}}, {"type": "Feature", "properties": {"segment_id": 1064292, "physicalid": "73698", "street_name": "JAMAICA AVE", "borough": "brooklyn", "direction": "TW", "total_row_ft": 70.8, "roadbed_ft": 41.6, "median_ft": 0.0, "left_sw_ft": 12.9, "right_sw_ft": 16.3}, "geometry": {"type": "LineString", "coordinates": [[-73.8713177684581, 40.69049708570905], [-73.8712272519278, 40.69031526974648]]}}, {"type": "Feature", "properties": {"segment_id": 1064293, "physicalid": "73698", "street_name": "JAMAICA AVE", "borough": "brooklyn", "direction": "TW", "total_row_ft": 70.2, "roadbed_ft": 42.7, "median_ft": 0.0, "left_sw_ft": 12.1, "right_sw_ft": 15.3}, "geometry": {"type": "LineString", "coordinates": [[-73.87124953072042, 40.69051493389215], [-73.87115988948723, 40.69033487572483]]}}, {"type": "Feature", "properties": {"segment_id": 1064294, "physicalid": "73698", "street_name": "JAMAICA AVE", "borough": "brooklyn", "direction": "TW", "total_row_ft": 69.5, "roadbed_ft": 44.0, "median_ft": 0.0, "left_sw_ft": 11.1, "right_sw_ft": 14.4}, "geometry": {"type": "LineString", "coordinates": [[-73.87118129294625, 40.69053278203478], [-73.87109252700702, 40.690354481663725]]}}, {"type": "Feature", "properties": {"segment_id": 1064295, "physicalid": "73698", "street_name": "JAMAICA AVE", "borough": "brooklyn", "direction": "TW", "total_row_ft": 68.9, "roadbed_ft": 45.3, "median_ft": 0.0, "left_sw_ft": 10.1, "right_sw_ft": 13.5}, "geometry": {"type": "LineString", "coordinates": [[-73.87111324919981, 40.69055101994528], [-73.87102516457489, 40.690374087739244]]}}, {"type": "Feature", "properties": {"segment_id": 1064296, "physicalid": "73698", "street_name": "JAMAICA AVE", "borough": "brooklyn", "direction": "TW", "total_row_ft": 107.6, "roadbed_ft": 82.3, "median_ft": 0.0, "left_sw_ft": 10.3, "right_sw_ft": 15.0}, "geometry": {"type": "LineString", "coordinates": [[-73.87104529805573, 40.690569443896926], [-73.87092702313402, 40.690331868877685]]}}, {"type": "Feature", "properties": {"segment_id": 1064297, "physicalid": "73699", "street_name": "JAMAICA AVE", "borough": "brooklyn", "direction": "TW", "total_row_ft": 92.5, "roadbed_ft": 45.0, "median_ft": 0.0, "left_sw_ft": 10.9, "right_sw_ft": 36.7}, "geometry": {"type": "LineString", "coordinates": [[-73.87093321874507, 40.6905998322727], [-73.87082829368907, 40.690358840226494]]}}, {"type": "Feature", "properties": {"segment_id": 1064298, "physicalid": "73699", "street_name": "JAMAICA AVE", "borough": "brooklyn", "direction": "TW", "total_row_ft": 71.1, "roadbed_ft": 44.7, "median_ft": 0.0, "left_sw_ft": 11.2, "right_sw_ft": 15.2}, "geometry": {"type": "LineString", "coordinates": [[-73.87086526448688, 40.69061825705215], [-73.8707846056966, 40.690432999540455]]}}, {"type": "Feature", "properties": {"segment_id": 1064299, "physicalid": "73699", "street_name": "JAMAICA AVE", "borough": "brooklyn", "direction": "TW", "total_row_ft": 71.1, "roadbed_ft": 44.7, "median_ft": 0.0, "left_sw_ft": 11.6, "right_sw_ft": 14.8}, "geometry": {"type": "LineString", "coordinates": [[-73.87079731019115, 40.690636681791446], [-73.87071667412145, 40.69045147603515]]}}, {"type": "Feature", "properties": {"segment_id": 1064300, "physicalid": "73699", "street_name": "JAMAICA AVE", "borough": "brooklyn", "direction": "TW", "total_row_ft": 71.1, "roadbed_ft": 44.7, "median_ft": 0.0, "left_sw_ft": 12.0, "right_sw_ft": 14.4}, "geometry": {"type": "LineString", "coordinates": [[-73.87072935585785, 40.690655106490574], [-73.87064874250869, 40.690469952489714]]}}, {"type": "Feature", "properties": {"segment_id": 1064301, "physicalid": "73699", "street_name": "JAMAICA AVE", "borough": "brooklyn", "direction": "TW", "total_row_ft": 71.0, "roadbed_ft": 44.6, "median_ft": 0.0, "left_sw_ft": 12.3, "right_sw_ft": 14.1}, "geometry": {"type": "LineString", "coordinates": [[-73.87066138944284, 40.690673503486316], [-73.87058081085826, 40.69048842890413]]}}, {"type": "Feature", "properties": {"segment_id": 1064302, "physicalid": "73699", "street_name": "JAMAICA AVE", "borough": "brooklyn", "direction": "TW", "total_row_ft": 70.6, "roadbed_ft": 44.6, "median_ft": 0.0, "left_sw_ft": 12.3, "right_sw_ft": 13.7}, "geometry": {"type": "LineString", "coordinates": [[-73.87059296027985, 40.6906908376794], [-73.87051287917274, 40.69050690528428]]}}, {"type": "Feature", "properties": {"segment_id": 1064303, "physicalid": "73699", "street_name": "JAMAICA AVE", "borough": "brooklyn", "direction": "TW", "total_row_ft": 70.2, "roadbed_ft": 44.6, "median_ft": 0.0, "left_sw_ft": 12.2, "right_sw_ft": 13.3}, "geometry": {"type": "LineString", "coordinates": [[-73.87052453108129, 40.690708171831744], [-73.87044494745761, 40.690525381642765]]}}, {"type": "Feature", "properties": {"segment_id": 1064304, "physicalid": "73699", "street_name": "JAMAICA AVE", "borough": "brooklyn", "direction": "TW", "total_row_ft": 69.7, "roadbed_ft": 44.6, "median_ft": 0.0, "left_sw_ft": 12.2, "right_sw_ft": 13.0}, "geometry": {"type": "LineString", "coordinates": [[-73.8704560981201, 40.690725506887446], [-73.8703770195033, 40.690543856927995]]}}, {"type": "Feature", "properties": {"segment_id": 1064305, "physicalid": "73699", "street_name": "JAMAICA AVE", "borough": "brooklyn", "direction": "TW", "total_row_ft": 69.3, "roadbed_ft": 44.5, "median_ft": 0.0, "left_sw_ft": 12.1, "right_sw_ft": 12.6}, "geometry": {"type": "LineString", "coordinates": [[-73.87038766884764, 40.69074284095905], [-73.87030908766302, 40.690562333219795]]}}, {"type": "Feature", "properties": {"segment_id": 1064306, "physicalid": "73699", "street_name": "JAMAICA AVE", "borough": "brooklyn", "direction": "TW", "total_row_ft": 68.8, "roadbed_ft": 44.5, "median_ft": 0.0, "left_sw_ft": 12.1, "right_sw_ft": 12.2}, "geometry": {"type": "LineString", "coordinates": [[-73.87031923953958, 40.69076017498992], [-73.87024115578508, 40.69058080947142]]}}, {"type": "Feature", "properties": {"segment_id": 1064307, "physicalid": "73699", "street_name": "JAMAICA AVE", "borough": "brooklyn", "direction": "TW", "total_row_ft": 92.5, "roadbed_ft": 47.4, "median_ft": 0.0, "left_sw_ft": 12.0, "right_sw_ft": 33.1}, "geometry": {"type": "LineString", "coordinates": [[-73.87025081019596, 40.69077750898004], [-73.87014588149749, 40.690536477369044]]}}, {"type": "Feature", "properties": {"segment_id": 1064308, "physicalid": "73700", "street_name": "JAMAICA AVE", "borough": "brooklyn", "direction": "TW", "total_row_ft": 94.5, "roadbed_ft": 50.7, "median_ft": 0.0, "left_sw_ft": 11.9, "right_sw_ft": 31.9}, "geometry": {"type": "LineString", "coordinates": [[-73.87011649470952, 40.69081153259178], [-73.87000911087524, 40.690565306757286]]}}, {"type": "Feature", "properties": {"segment_id": 1064309, "physicalid": "73700", "street_name": "JAMAICA AVE", "borough": "brooklyn", "direction": "TW", "total_row_ft": 65.7, "roadbed_ft": 43.7, "median_ft": 0.0, "left_sw_ft": 11.9, "right_sw_ft": 10.1}, "geometry": {"type": "LineString", "coordinates": [[-73.8700480647505, 40.690828865196494], [-73.86997345445828, 40.690657787279235]]}}, {"type": "Feature", "properties": {"segment_id": 1100953, "physicalid": "76155", "street_name": "LINCOLN AVE", "borough": "brooklyn", "direction": "FT", "total_row_ft": 135.0, "roadbed_ft": 116.8, "median_ft": 0.0, "left_sw_ft": 3.2, "right_sw_ft": 15.0}, "geometry": {"type": "LineString", "coordinates": [[-73.87072509431317, 40.69049084347604], [-73.87115089524856, 40.690432210184994]]}}, {"type": "Feature", "properties": {"segment_id": 1100954, "physicalid": "76155", "street_name": "LINCOLN AVE", "borough": "brooklyn", "direction": "FT", "total_row_ft": 86.7, "roadbed_ft": 25.0, "median_ft": 0.0, "left_sw_ft": 13.5, "right_sw_ft": 48.2}, "geometry": {"type": "LineString", "coordinates": [[-73.87083030740159, 40.6904205692496], [-73.87113805686235, 40.69037819161848]]}}, {"type": "Feature", "properties": {"segment_id": 1100955, "physicalid": "76155", "street_name": "LINCOLN AVE", "borough": "brooklyn", "direction": "FT", "total_row_ft": 46.3, "roadbed_ft": 24.8, "median_ft": 0.0, "left_sw_ft": 10.2, "right_sw_ft": 11.2}, "geometry": {"type": "LineString", "coordinates": [[-73.87082970113657, 40.69036486631591], [-73.8709939031719, 40.69034225550364]]}}, {"type": "Feature", "properties": {"segment_id": 1100956, "physicalid": "76155", "street_name": "LINCOLN AVE", "borough": "brooklyn", "direction": "FT", "total_row_ft": 45.9, "roadbed_ft": 24.7, "median_ft": 0.0, "left_sw_ft": 10.3, "right_sw_ft": 10.9}, "geometry": {"type": "LineString", "coordinates": [[-73.87081707770969, 40.69031081815073], [-73.8709798872989, 40.69028839908105]]}}, {"type": "Feature", "properties": {"segment_id": 1100957, "physicalid": "76155", "street_name": "LINCOLN AVE", "borough": "brooklyn", "direction": "FT", "total_row_ft": 45.5, "roadbed_ft": 24.6, "median_ft": 0.0, "left_sw_ft": 10.4, "right_sw_ft": 10.5}, "geometry": {"type": "LineString", "coordinates": [[-73.87080445430327, 40.69025676998377], [-73.87096587144855, 40.690234542656434]]}}, {"type": "Feature", "properties": {"segment_id": 1100958, "physicalid": "76155", "street_name": "LINCOLN AVE", "borough": "brooklyn", "direction": "FT", "total_row_ft": 45.1, "roadbed_ft": 24.4, "median_ft": 0.0, "left_sw_ft": 10.5, "right_sw_ft": 10.2}, "geometry": {"type": "LineString", "coordinates": [[-73.8707918309173, 40.69020272181506], [-73.87095185562085, 40.69018068622973]]}}, {"type": "Feature", "properties": {"segment_id": 1100959, "physicalid": "76155", "street_name": "LINCOLN AVE", "borough": "brooklyn", "direction": "FT", "total_row_ft": 44.7, "roadbed_ft": 24.3, "median_ft": 0.0, "left_sw_ft": 10.6, "right_sw_ft": 9.8}, "geometry": {"type": "LineString", "coordinates": [[-73.8707792075518, 40.69014867364463], [-73.87093783976799, 40.69012682980753]]}}, {"type": "Feature", "properties": {"segment_id": 1100960, "physicalid": "76155", "street_name": "LINCOLN AVE", "borough": "brooklyn", "direction": "FT", "total_row_ft": 46.9, "roadbed_ft": 24.1, "median_ft": 0.0, "left_sw_ft": 10.7, "right_sw_ft": 12.0}, "geometry": {"type": "LineString", "coordinates": [[-73.87076658429764, 40.69009462545992], [-73.87093287482817, 40.69007172705844]]}}, {"type": "Feature", "properties": {"segment_id": 1100961, "physicalid": "76155", "street_name": "LINCOLN AVE", "borough": "brooklyn", "direction": "FT", "total_row_ft": 47.0, "roadbed_ft": 24.0, "median_ft": 0.0, "left_sw_ft": 10.8, "right_sw_ft": 12.2}, "geometry": {"type": "LineString", "coordinates": [[-73.87075396111356, 40.69004057726662], [-73.87092068631785, 40.69001761900983]]}}, {"type": "Feature", "properties": {"segment_id": 1326711, "physicalid": "90495", "street_name": "NICHOLS AVE", "borough": "brooklyn", "direction": "TF", "total_row_ft": 135.0, "roadbed_ft": 105.1, "median_ft": 0.0, "left_sw_ft": 15.0, "right_sw_ft": 14.9}, "geometry": {"type": "LineString", "coordinates": [[-73.86990606969235, 40.690697562038984], [-73.87033181492792, 40.69063868933918]]}}, {"type": "Feature", "properties": {"segment_id": 1326712, "physicalid": "90495", "street_name": "NICHOLS AVE", "borough": "brooklyn", "direction": "TF", "total_row_ft": 89.5, "roadbed_ft": 34.0, "median_ft": 0.0, "left_sw_ft": 43.9, "right_sw_ft": 11.5}, "geometry": {"type": "LineString", "coordinates": [[-73.87000152326382, 40.69062856883479], [-73.8703189240811, 40.69058467800777]]}}, {"type": "Feature", "properties": {"segment_id": 1326713, "physicalid": "90495", "street_name": "NICHOLS AVE", "borough": "brooklyn", "direction": "TF", "total_row_ft": 59.6, "roadbed_ft": 33.8, "median_ft": 0.0, "left_sw_ft": 14.0, "right_sw_ft": 11.7}, "geometry": {"type": "LineString", "coordinates": [[-73.86998812080336, 40.69057462824977], [-73.87019942378427, 40.690545408951635]]}}, {"type": "Feature", "properties": {"segment_id": 1326714, "physicalid": "90495", "street_name": "NICHOLS AVE", "borough": "brooklyn", "direction": "TF", "total_row_ft": 59.5, "roadbed_ft": 33.8, "median_ft": 0.0, "left_sw_ft": 13.8, "right_sw_ft": 11.8}, "geometry": {"type": "LineString", "coordinates": [[-73.86997471868777, 40.690520687618154], [-73.8701857407353, 40.690491507169774]]}}, {"type": "Feature", "properties": {"segment_id": 1326715, "physicalid": "90495", "street_name": "NICHOLS AVE", "borough": "brooklyn", "direction": "TF", "total_row_ft": 59.4, "roadbed_ft": 33.8, "median_ft": 0.0, "left_sw_ft": 13.5, "right_sw_ft": 12.0}, "geometry": {"type": "LineString", "coordinates": [[-73.86996131659387, 40.69046674698459], [-73.87017205770928, 40.690437605385775]]}}, {"type": "Feature", "properties": {"segment_id": 1326716, "physicalid": "90495", "street_name": "NICHOLS AVE", "borough": "brooklyn", "direction": "TF", "total_row_ft": 59.3, "roadbed_ft": 33.8, "median_ft": 0.0, "left_sw_ft": 13.3, "right_sw_ft": 12.2}, "geometry": {"type": "LineString", "coordinates": [[-73.86994791452166, 40.690412806349116], [-73.87015837471972, 40.690383703597846]]}}, {"type": "Feature", "properties": {"segment_id": 1326717, "physicalid": "90495", "street_name": "NICHOLS AVE", "borough": "brooklyn", "direction": "TF", "total_row_ft": 59.2, "roadbed_ft": 33.8, "median_ft": 0.0, "left_sw_ft": 13.1, "right_sw_ft": 12.3}, "geometry": {"type": "LineString", "coordinates": [[-73.8699345124023, 40.69035886572123], [-73.87014469175227, 40.69032980180791]]}}, {"type": "Feature", "properties": {"segment_id": 1326718, "physicalid": "90495", "street_name": "NICHOLS AVE", "borough": "brooklyn", "direction": "TF", "total_row_ft": 59.2, "roadbed_ft": 33.8, "median_ft": 0.0, "left_sw_ft": 12.8, "right_sw_ft": 12.5}, "geometry": {"type": "LineString", "coordinates": [[-73.86992111017531, 40.690304925109324], [-73.87013100873186, 40.69027590002636]]}}, {"type": "Feature", "properties": {"segment_id": 1326719, "physicalid": "90495", "street_name": "NICHOLS AVE", "borough": "brooklyn", "direction": "TF", "total_row_ft": 59.1, "roadbed_ft": 33.8, "median_ft": 0.0, "left_sw_ft": 12.6, "right_sw_ft": 12.7}, "geometry": {"type": "LineString", "coordinates": [[-73.86990770797, 40.69025098449548], [-73.8701173255538, 40.690221998267674]]}}]}