{"type": "FeatureCollection", "features": [{"type": "Feature", "properties": {"segment_id": 1064310, "physicalid": "73700", "street_name": "JAMAICA AVE", "borough": "brooklyn", "direction": "TW", "total_row_ft": 106.2, "roadbed_ft": 81.4, "median_ft": 0.0, "left_sw_ft": 15.0, "right_sw_ft": 9.8}, "geometry": {"type": "LineString", "coordinates": [[-73.87000854845597, 40.69091249543084], [-73.86990496928568, 40.69067499291988]]}}, {"type": "Feature", "properties": {"segment_id": 1064311, "physicalid": "73700", "street_name": "JAMAICA AVE", "borough": "brooklyn", "direction": "TW", "total_row_ft": 65.8, "roadbed_ft": 44.5, "median_ft": 0.0, "left_sw_ft": 11.8, "right_sw_ft": 9.5}, "geometry": {"type": "LineString", "coordinates": [[-73.8699111861715, 40.69086348773961], [-73.86983648407775, 40.69069219851971]]}}, {"type": "Feature", "properties": {"segment_id": 1064312, "physicalid": "73700", "street_name": "JAMAICA AVE", "borough": "brooklyn", "direction": "TW", "total_row_ft": 65.8, "roadbed_ft": 44.8, "median_ft": 0.0, "left_sw_ft": 11.7, "right_sw_ft": 9.2}, "geometry": {"type": "LineString", "coordinates": [[-73.86984274689209, 40.69088079909546], [-73.86976799883446, 40.69070940407877]]}}, {"type": "Feature", "properties": {"segment_id": 1064313, "physicalid": "73700", "street_name": "JAMAICA AVE", "borough": "brooklyn", "direction": "TW", "total_row_ft": 65.8, "roadbed_ft": 45.2, "median_ft": 0.0, "left_sw_ft": 11.7, "right_sw_ft": 9.0}, "geometry": {"type": "LineString", "coordinates": [[-73.86977430757716, 40.690898110410565], [-73.86969951355583, 40.69072660959702]]}}, {"type": "Feature", "properties": {"segment_id": 1064314, "physicalid": "73700", "street_name": "JAMAICA AVE", "borough": "brooklyn", "direction": "TW", "total_row_ft": 65.9, "roadbed_ft": 45.6, "median_ft": 0.0, "left_sw_ft": 11.6, "right_sw_ft": 8.7}, "geometry": {"type": "LineString", "coordinates": [[-73.86970586822669, 40.69091542168492], [-73.86963102824186, 40.6907438150745]]}}, {"type": "Feature", "properties": {"segment_id": 1064315, "physicalid": "73700", "street_name": "JAMAICA AVE", "borough": "brooklyn", "direction": "TW", "total_row_ft": 65.9, "roadbed_ft": 45.7, "median_ft": 0.0, "left_sw_ft": 11.5, "right_sw_ft": 8.7}, "geometry": {"type": "LineString", "coordinates": [[-73.86963742884068, 40.69093273291855], [-73.86956254289254, 40.69076102051117]]}}, {"type": "Feature", "properties": {"segment_id": 1064316, "physicalid": "73700", "street_name": "JAMAICA AVE", "borough": "brooklyn", "direction": "TW", "total_row_ft": 66.0, "roadbed_ft": 45.7, "median_ft": 0.0, "left_sw_ft": 11.5, "right_sw_ft": 8.8}, "geometry": {"type": "LineString", "coordinates": [[-73.86956898941912, 40.69095004411145], [-73.86949405750788, 40.69077822590703]]}}, {"type": "Feature", "properties": {"segment_id": 1064317, "physicalid": "73700", "street_name": "JAMAICA AVE", "borough": "brooklyn", "direction": "TW", "total_row_ft": 66.0, "roadbed_ft": 45.8, "median_ft": 0.0, "left_sw_ft": 11.4, "right_sw_ft": 8.8}, "geometry": {"type": "LineString", "coordinates": [[-73.86950054996203, 40.69096735526358], [-73.86942557208788, 40.69079543126211]]}}, {"type": "Feature", "properties": {"segment_id": 1064318, "physicalid": "73700", "street_name": "JAMAICA AVE", "borough": "brooklyn", "direction": "TW", "total_row_ft": 66.0, "roadbed_ft": 45.8, "median_ft": 0.0, "left_sw_ft": 11.4, "right_sw_ft": 8.8}, "geometry": {"type": "LineString", "coordinates": [[-73.8694321104694, 40.690984666375], [-73.86935708663252, 40.69081263657641]]}}, {"type": "Feature", "properties": {"segment_id": 1064319, "physicalid": "73700", "street_name": "JAMAICA AVE", "borough": "brooklyn", "direction": "TW", "total_row_ft": 66.1, "roadbed_ft": 45.4, "median_ft": 0.0, "left_sw_ft": 11.8, "right_sw_ft": 8.9}, "geometry": {"type": "LineString", "coordinates": [[-73.86936367094124, 40.69100197744568], [-73.86928860114183, 40.690829841849926]]}}, {"type": "Feature", "properties": {"segment_id": 1064320, "physicalid": "73700", "street_name": "JAMAICA AVE", "borough": "brooklyn", "direction": "TW", "total_row_ft": 66.1, "roadbed_ft": 44.8, "median_ft": 0.0, "left_sw_ft": 12.4, "right_sw_ft": 8.9}, "geometry": {"type": "LineString", "coordinates": [[-73.86929520399912, 40.69101922569675], [-73.86922011561579, 40.690847047082606]]}}, {"type": "Feature", "properties": {"segment_id": 1064321, "physicalid": "73700", "street_name": "JAMAICA AVE", "borough": "brooklyn", "direction": "TW", "total_row_ft": 65.8, "roadbed_ft": 44.1, "median_ft": 0.0, "left_sw_ft": 12.8, "right_sw_ft": 9.0}, "geometry": {"type": "LineString", "coordinates": [[-73.86922642610259, 40.69103576096611], [-73.8691516300544, 40.69086425227452]]}}, {"type": "Feature", "properties": {"segment_id": 1064322, "physicalid": "73700", "street_name": "JAMAICA AVE", "borough": "brooklyn", "direction": "TW", "total_row_ft": 94.0, "roadbed_ft": 43.6, "median_ft": 0.0, "left_sw_ft": 13.2, "right_sw_ft": 37.2}, "geometry": {"type": "LineString", "coordinates": [[-73.86915764817195, 40.69105229619432], [-73.8690508633641, 40.69080743583105]]}}, {"type": "Feature", "properties": {"segment_id": 1064323, "physicalid": "73701", "street_name": "JAMAICA AVE", "borough": "brooklyn", "direction": "TW", "total_row_ft": 93.7, "roadbed_ft": 42.8, "median_ft": 0.0, "left_sw_ft": 13.0, "right_sw_ft": 37.9}, "geometry": {"type": "LineString", "coordinates": [[-73.8690107768403, 40.69108760606197], [-73.86891045416449, 40.69084212380303]]}}, {"type": "Feature", "properties": {"segment_id": 1064324, "physicalid": "73701", "street_name": "JAMAICA AVE", "borough": "brooklyn", "direction": "TW", "total_row_ft": 68.8, "roadbed_ft": 40.9, "median_ft": 0.0, "left_sw_ft": 12.7, "right_sw_ft": 15.2}, "geometry": {"type": "LineString", "coordinates": [[-73.86894200546091, 40.691104139560494], [-73.86886829438284, 40.69092377366837]]}}, {"type": "Feature", "properties": {"segment_id": 1064325, "physicalid": "73701", "street_name": "JAMAICA AVE", "borough": "brooklyn", "direction": "TW", "total_row_ft": 70.0, "roadbed_ft": 40.0, "median_ft": 0.0, "left_sw_ft": 12.7, "right_sw_ft": 17.3}, "geometry": {"type": "LineString", "coordinates": [[-73.86887323404743, 40.691120673017856], [-73.8687982985399, 40.69093731056152]]}}, {"type": "Feature", "properties": {"segment_id": 1064326, "physicalid": "73701", "street_name": "JAMAICA AVE", "borough": "brooklyn", "direction": "TW", "total_row_ft": 71.1, "roadbed_ft": 39.3, "median_ft": 0.0, "left_sw_ft": 13.0, "right_sw_ft": 18.8}, "geometry": {"type": "LineString", "coordinates": [[-73.86880446259983, 40.69113720643412], [-73.86872830266854, 40.69095084741207]]}}, {"type": "Feature", "properties": {"segment_id": 1064327, "physicalid": "73701", "street_name": "JAMAICA AVE", "borough": "brooklyn", "direction": "TW", "total_row_ft": 72.2, "roadbed_ft": 38.9, "median_ft": 0.0, "left_sw_ft": 13.3, "right_sw_ft": 20.1}, "geometry": {"type": "LineString", "coordinates": [[-73.86873569111813, 40.691153739809245], [-73.86865830676876, 40.69096438422]]}}, {"type": "Feature", "properties": {"segment_id": 1064328, "physicalid": "73701", "street_name": "JAMAICA AVE", "borough": "brooklyn", "direction": "TW", "total_row_ft": 73.4, "roadbed_ft": 38.4, "median_ft": 0.0, "left_sw_ft": 13.8, "right_sw_ft": 21.1}, "geometry": {"type": "LineString", "coordinates": [[-73.86866691960233, 40.691170273143236], [-73.86858831082085, 40.6909779209371]]}}, {"type": "Feature", "properties": {"segment_id": 1064329, "physicalid": "73701", "street_name": "JAMAICA AVE", "borough": "brooklyn", "direction": "TW", "total_row_ft": 74.4, "roadbed_ft": 38.1, "median_ft": 0.0, "left_sw_ft": 14.6, "right_sw_ft": 21.7}, "geometry": {"type": "LineString", "coordinates": [[-73.86859797453263, 40.691186381841085], [-73.86851831477104, 40.69099145743181]]}}, {"type": "Feature", "properties": {"segment_id": 1064330, "physicalid": "73701", "street_name": "JAMAICA AVE", "borough": "brooklyn", "direction": "TW", "total_row_ft": 73.1, "roadbed_ft": 38.0, "median_ft": 0.0, "left_sw_ft": 13.1, "right_sw_ft": 22.0}, "geometry": {"type": "LineString", "coordinates": [[-73.86851761430742, 40.69119851429085], [-73.86845969590352, 40.69100279366297]]}}, {"type": "Feature", "properties": {"segment_id": 1064331, "physicalid": "73701", "street_name": "JAMAICA AVE", "borough": "brooklyn", "direction": "TW", "total_row_ft": 72.0, "roadbed_ft": 38.0, "median_ft": 0.0, "left_sw_ft": 12.1, "right_sw_ft": 21.9}, "geometry": {"type": "LineString", "coordinates": [[-73.8684468494213, 40.691209198026456], [-73.86838977138258, 40.691016316513256]]}}, {"type": "Feature", "properties": {"segment_id": 1064332, "physicalid": "73701", "street_name": "JAMAICA AVE", "borough": "brooklyn", "direction": "TW", "total_row_ft": 71.0, "roadbed_ft": 38.1, "median_ft": 0.0, "left_sw_ft": 11.3, "right_sw_ft": 21.6}, "geometry": {"type": "LineString", "coordinates": [[-73.86837608451252, 40.69121988171852], [-73.86831984687623, 40.69102983946634]]}}, {"type": "Feature", "properties": {"segment_id": 1064333, "physicalid": "73701", "street_name": "JAMAICA AVE", "borough": "brooklyn", "direction": "TW", "total_row_ft": 69.9, "roadbed_ft": 38.3, "median_ft": 0.0, "left_sw_ft": 10.6, "right_sw_ft": 21.0}, "geometry": {"type": "LineString", "coordinates": [[-73.86830531948524, 40.69123056504332], [-73.86824992220839, 40.69104336192698]]}}, {"type": "Feature", "properties": {"segment_id": 1064334, "physicalid": "73701", "street_name": "JAMAICA AVE", "borough": "brooklyn", "direction": "TW", "total_row_ft": 91.2, "roadbed_ft": 38.8, "median_ft": 0.0, "left_sw_ft": 10.3, "right_sw_ft": 42.1}, "geometry": {"type": "LineString", "coordinates": [[-73.86823465567146, 40.69124159043056], [-73.86816239308098, 40.690997393541146]]}}, {"type": "Feature", "properties": {"segment_id": 1064335, "physicalid": "73701", "street_name": "JAMAICA AVE", "borough": "brooklyn", "direction": "TW", "total_row_ft": 90.8, "roadbed_ft": 40.6, "median_ft": 0.0, "left_sw_ft": 10.3, "right_sw_ft": 39.9}, "geometry": {"type": "LineString", "coordinates": [[-73.86816400445302, 40.69125265841679], [-73.86809203647503, 40.69100945624046]]}}, {"type": "Feature", "properties": {"segment_id": 1094814, "physicalid": "75662", "street_name": "ELDERT LN", "borough": "brooklyn", "direction": "TF", "total_row_ft": 95.4, "roadbed_ft": 33.3, "median_ft": 0.0, "left_sw_ft": 20.5, "right_sw_ft": 41.6}, "geometry": {"type": "LineString", "coordinates": [[-73.8676873069446, 40.69046157065946], [-73.86802693964648, 40.690420293188716]]}}, {"type": "Feature", "properties": {"segment_id": 1094815, "physicalid": "75662", "street_name": "ELDERT LN", "borough": "brooklyn", "direction": "TF", "total_row_ft": 62.1, "roadbed_ft": 30.0, "median_ft": 0.0, "left_sw_ft": 20.1, "right_sw_ft": 12.0}, "geometry": {"type": "LineString", "coordinates": [[-73.8677927545655, 40.69039316440685], [-73.86801399495744, 40.690366275702765]]}}, {"type": "Feature", "properties": {"segment_id": 1094816, "physicalid": "75662", "street_name": "ELDERT LN", "borough": "brooklyn", "direction": "TF", "total_row_ft": 61.7, "roadbed_ft": 30.0, "median_ft": 0.0, "left_sw_ft": 19.8, "right_sw_ft": 12.0}, "geometry": {"type": "LineString", "coordinates": [[-73.86778124713749, 40.69033897224034], [-73.86800101116046, 40.69031226297057]]}}, {"type": "Feature", "properties": {"segment_id": 1094817, "physicalid": "75662", "street_name": "ELDERT LN", "borough": "brooklyn", "direction": "TF", "total_row_ft": 61.3, "roadbed_ft": 29.9, "median_ft": 0.0, "left_sw_ft": 19.4, "right_sw_ft": 12.0}, "geometry": {"type": "LineString", "coordinates": [[-73.86776973972817, 40.69028478007233], [-73.86798802738451, 40.69025825023655]]}}, {"type": "Feature", "properties": {"segment_id": 1094818, "physicalid": "75662", "street_name": "ELDERT LN", "borough": "brooklyn", "direction": "TF", "total_row_ft": 60.9, "roadbed_ft": 29.8, "median_ft": 0.0, "left_sw_ft": 19.0, "right_sw_ft": 12.0}, "geometry": {"type": "LineString", "coordinates": [[-73.86775823233758, 40.69023058790282], [-73.86797504362958, 40.69020423750071]]}}, {"type": "Feature", "properties": {"segment_id": 1094819, "physicalid": "75662", "street_name": "ELDERT LN", "borough": "brooklyn", "direction": "TF", "total_row_ft": 60.5, "roadbed_ft": 29.8, "median_ft": 0.0, "left_sw_ft": 18.6, "right_sw_ft": 12.0}, "geometry": {"type": "LineString", "coordinates": [[-73.86774672506071, 40.690176395720194], [-73.8679620598957, 40.69015022476303]]}}, {"type": "Feature", "properties": {"segment_id": 1094820, "physicalid": "75662", "street_name": "ELDERT LN", "borough": "brooklyn", "direction": "TF", "total_row_ft": 60.1, "roadbed_ft": 29.7, "median_ft": 0.0, "left_sw_ft": 18.3, "right_sw_ft": 12.1}, "geometry": {"type": "LineString", "coordinates": [[-73.86773521786873, 40.69012220352802], [-73.86794907618287, 40.690096212023526]]}}, {"type": "Feature", "properties": {"segment_id": 1094821, "physicalid": "75662", "street_name": "ELDERT LN", "borough": "brooklyn", "direction": "TF", "total_row_ft": 59.6, "roadbed_ft": 29.7, "median_ft": 0.0, "left_sw_ft": 17.9, "right_sw_ft": 12.1}, "geometry": {"type": "LineString", "coordinates": [[-73.86772371069546, 40.69006801133434], [-73.86793609249105, 40.690042199282196]]}}, {"type": "Feature", "properties": {"segment_id": 1094822, "physicalid": "75662", "street_name": "ELDERT LN", "borough": "brooklyn", "direction": "TF", "total_row_ft": 59.2, "roadbed_ft": 29.6, "median_ft": 0.0, "left_sw_ft": 17.5, "right_sw_ft": 12.1}, "geometry": {"type": "LineString", "coordinates": [[-73.86771220354088, 40.690013819139146], [-73.86792302503125, 40.689988196722524]]}}, {"type": "Feature", "properties": {"segment_id": 1105646, "physicalid": "76514", "street_name": "GRANT AVE", "borough": "brooklyn", "direction": "FT", "total_row_ft": 135.0, "roadbed_ft": 99.5, "median_ft": 0.0, "left_sw_ft": 20.5, "right_sw_ft": 15.0}, "geometry": {"type": "LineString", "coordinates": [[-73.86880383225444, 40.69097600640571], [-73.86922961075615, 40.6909172657928]]}}, {"type": "Feature", "properties": {"segment_id": 1105647, "physicalid": "76514", "street_name": "GRANT AVE", "borough": "brooklyn", "direction": "FT", "total_row_ft": 88.1, "roadbed_ft": 30.4, "median_ft": 0.0, "left_sw_ft": 13.0, "right_sw_ft": 44.7}, "geometry": {"type": "LineString", "coordinates": [[-73.86890412610613, 40.69090638020998], [-73.86921674877664, 40.69086325046861]]}}, {"type": "Feature", "properties": {"segment_id": 1105648, "physicalid": "76514", "street_name": "GRANT AVE", "borough": "brooklyn", "direction": "FT", "total_row_ft": 54.5, "roadbed_ft": 30.4, "median_ft": 0.0, "left_sw_ft": 12.8, "right_sw_ft": 11.3}, "geometry": {"type": "LineString", "coordinates": [[-73.86889200247887, 40.69085226302327], [-73.86908534682061, 40.69082558914734]]}}, {"type": "Feature", "properties": {"segment_id": 1105649, "physicalid": "76514", "street_name": "GRANT AVE", "borough": "brooklyn", "direction": "FT", "total_row_ft": 53.9, "roadbed_ft": 30.4, "median_ft": 0.0, "left_sw_ft": 12.6, "right_sw_ft": 10.9}, "geometry": {"type": "LineString", "coordinates": [[-73.86887987831665, 40.690798145911366], [-73.8690712150571, 40.690771749006075]]}}, {"type": "Feature", "properties": {"segment_id": 1105650, "physicalid": "76514", "street_name": "GRANT AVE", "borough": "brooklyn", "direction": "FT", "total_row_ft": 53.4, "roadbed_ft": 30.3, "median_ft": 0.0, "left_sw_ft": 12.4, "right_sw_ft": 10.6}, "geometry": {"type": "LineString", "coordinates": [[-73.86886775417408, 40.69074402879788], [-73.86905708331639, 40.69071790886271]]}}, {"type": "Feature", "properties": {"segment_id": 1105651, "physicalid": "76514", "street_name": "GRANT AVE", "borough": "brooklyn", "direction": "FT", "total_row_ft": 52.8, "roadbed_ft": 30.3, "median_ft": 0.0, "left_sw_ft": 12.2, "right_sw_ft": 10.2}, "geometry": {"type": "LineString", "coordinates": [[-73.8688556300512, 40.6906899116827], [-73.8690429512701, 40.690664068762565]]}}, {"type": "Feature", "properties": {"segment_id": 1105652, "physicalid": "76514", "street_name": "GRANT AVE", "borough": "brooklyn", "direction": "FT", "total_row_ft": 52.2, "roadbed_ft": 30.3, "median_ft": 0.0, "left_sw_ft": 12.1, "right_sw_ft": 9.9}, "geometry": {"type": "LineString", "coordinates": [[-73.868843505948, 40.6906357945659], [-73.86902881930547, 40.690610228652204]]}}, {"type": "Feature", "properties": {"segment_id": 1105653, "physicalid": "76514", "street_name": "GRANT AVE", "borough": "brooklyn", "direction": "FT", "total_row_ft": 51.7, "roadbed_ft": 30.3, "median_ft": 0.0, "left_sw_ft": 11.9, "right_sw_ft": 9.5}, "geometry": {"type": "LineString", "coordinates": [[-73.86883138186448, 40.69058167744745], [-73.86901468762255, 40.690556388504014]]}}, {"type": "Feature", "properties": {"segment_id": 1105654, "physicalid": "76514", "street_name": "GRANT AVE", "borough": "brooklyn", "direction": "FT", "total_row_ft": 51.1, "roadbed_ft": 30.3, "median_ft": 0.0, "left_sw_ft": 11.7, "right_sw_ft": 9.1}, "geometry": {"type": "LineString", "coordinates": [[-73.86881925780065, 40.69052756032737], [-73.8690005556948, 40.69050254839067]]}}, {"type": "Feature", "properties": {"segment_id": 1105655, "physicalid": "76514", "street_name": "GRANT AVE", "borough": "brooklyn", "direction": "FT", "total_row_ft": 50.5, "roadbed_ft": 30.3, "median_ft": 0.0, "left_sw_ft": 11.5, "right_sw_ft": 8.8}, "geometry": {"type": "LineString", "coordinates": [[-73.86880713380602, 40.69047344319882], [-73.86898642378986, 40.690448708275184]]}}, {"type": "Feature", "properties": {"segment_id": 1105656, "physicalid": "76514", "street_name": "GRANT AVE", "borough": "brooklyn", "direction": "FT", "total_row_ft": 50.3, "roadbed_ft": 30.3, "median_ft": 0.0, "left_sw_ft": 11.3, "right_sw_ft": 8.7}, "geometry": {"type": "LineString", "coordinates": [[-73.86879500987561, 40.69041932606243], [-73.86897333067479, 40.69039472484805]]}}, {"type": "Feature", "properties": {"segment_id": 1105657, "physicalid": "76514", "street_name": "GRANT AVE", "borough": "brooklyn", "direction": "FT", "total_row_ft": 50.0, "roadbed_ft": 30.2, "median_ft": 0.0, "left_sw_ft": 11.1, "right_sw_ft": 8.7}, "geometry": {"type": "LineString", "coordinates": [[-73.86878288596492, 40.69036520892442], [-73.86896031265621, 40.690340731061546]]}}, {"type": "Feature", "properties": {"segment_id": 1105658, "physicalid": "76514", "street_name": "GRANT AVE", "borough": "brooklyn", "direction": "FT", "total_row_ft": 49.8, "roadbed_ft": 30.2, "median_ft": 0.0, "left_sw_ft": 10.9, "right_sw_ft": 8.6}, "geometry": {"type": "LineString", "coordinates": [[-73.86877076215447, 40.69031109177366], [-73.86894729465872, 40.69028673727322]]}}, {"type": "Feature", "properties": {"segment_id": 1105659, "physicalid": "76514", "street_name": "GRANT AVE", "borough": "brooklyn", "direction": "FT", "total_row_ft": 49.5, "roadbed_ft": 30.2, "median_ft": 0.0, "left_sw_ft": 10.7, "right_sw_ft": 8.6}, "geometry": {"type": "LineString", "coordinates": [[-73.86875863845493, 40.69025697460866], [-73.86893427668232, 40.69023274348306]]}}, {"type": "Feature", "properties": {"segment_id": 1105660, "physicalid": "76514", "street_name": "GRANT AVE", "borough": "brooklyn", "direction": "FT", "total_row_ft": 49.2, "roadbed_ft": 30.2, "median_ft": 0.0, "left_sw_ft": 10.6, "right_sw_ft": 8.5}, "geometry": {"type": "LineString", "coordinates": [[-73.8687465147751, 40.69020285744201], [-73.86892125879226, 40.690178749682055]]}}, {"type": "Feature", "properties": {"segment_id": 1105661, "physicalid": "76514", "street_name": "GRANT AVE", "borough": "brooklyn", "direction": "FT", "total_row_ft": 49.0, "roadbed_ft": 30.1, "median_ft": 0.0, "left_sw_ft": 10.4, "right_sw_ft": 8.5}, "geometry": {"type": "LineString", "coordinates": [[-73.86873437982449, 40.690148741831344], [-73.86890824101644, 40.69012475586635]]}}, {"type": "Feature", "properties": {"segment_id": 1105662, "physicalid": "76514", "street_name": "GRANT AVE", "borough": "brooklyn", "direction": "FT", "total_row_ft": 49.0, "roadbed_ft": 30.1, "median_ft": 0.0, "left_sw_ft": 10.5, "right_sw_ft": 8.4}, "geometry": {"type": "LineString", "coordinates": [[-73.86872130041391, 40.690094756519095], [-73.86889522326173, 40.690070762048805]]}}, {"type": "Feature", "properties": {"segment_id": 1105663, "physicalid": "76514", "street_name": "GRANT AVE", "borough": "brooklyn", "direction": "FT", "total_row_ft": 49.0, "roadbed_ft": 30.1, "median_ft": 0.0, "left_sw_ft": 10.6, "right_sw_ft": 8.4}, "geometry": {"type": "LineString", "coordinates": [[-73.86870822102453, 40.69004077120498], [-73.86888220552808, 40.69001676822942]]}}, {"type": "Feature", "properties": {"segment_id": 1326720, "physicalid": "90495", "street_name": "NICHOLS AVE", "borough": "brooklyn", "direction": "TF", "total_row_ft": 59.0, "roadbed_ft": 33.8, "median_ft": 0.0, "left_sw_ft": 12.3, "right_sw_ft": 12.8}, "geometry": {"type": "LineString", "coordinates": [[-73.86989430578637, 40.6901970438797], [-73.87010364239788, 40.69016809650701]]}}, {"type": "Feature", "properties": {"segment_id": 1326721, "physicalid": "90495", "street_name": "NICHOLS AVE", "borough": "brooklyn", "direction": "TF", "total_row_ft": 58.7, "roadbed_ft": 33.8, "median_ft": 0.0, "left_sw_ft": 12.1, "right_sw_ft": 12.8}, "geometry": {"type": "LineString", "coordinates": [[-73.86988181993102, 40.69014297655466], [-73.87008995924931, 40.69011419474639]]}}, {"type": "Feature", "properties": {"segment_id": 1326722, "physicalid": "90495", "street_name": "NICHOLS AVE", "borough": "brooklyn", "direction": "TF", "total_row_ft": 58.2, "roadbed_ft": 33.8, "median_ft": 0.0, "left_sw_ft": 11.8, "right_sw_ft": 12.5}, "geometry": {"type": "LineString", "coordinates": [[-73.86986987091616, 40.69008883499613], [-73.87007627611753, 40.690060292984505]]}}, {"type": "Feature", "properties": {"segment_id": 1326723, "physicalid": "90495", "street_name": "NICHOLS AVE", "borough": "brooklyn", "direction": "TF", "total_row_ft": 57.7, "roadbed_ft": 33.8, "median_ft": 0.0, "left_sw_ft": 11.6, "right_sw_ft": 12.3}, "geometry": {"type": "LineString", "coordinates": [[-73.86985792190973, 40.69003469343753], [-73.87006259300787, 40.69000639122064]]}}, {"type": "Feature", "properties": {"segment_id": 1777403, "physicalid": "192824", "street_name": "ELDERT LN", "borough": "brooklyn", "direction": "TF", "total_row_ft": 65.2, "roadbed_ft": 30.1, "median_ft": 0.0, "left_sw_ft": 22.7, "right_sw_ft": 12.4}, "geometry": {"type": "LineString", "coordinates": [[-73.86787152189488, 40.690766768256324], [-73.86810356200161, 40.690738392883986]]}}, {"type": "Feature", "properties": {"segment_id": 1777404, "physicalid": "192824", "street_name": "ELDERT LN", "borough": "brooklyn", "direction": "TF", "total_row_ft": 64.8, "roadbed_ft": 30.0, "median_ft": 0.0, "left_sw_ft": 22.3, "right_sw_ft": 12.5}, "geometry": {"type": "LineString", "coordinates": [[-73.86785985382694, 40.69071259580523], [-73.86809054739378, 40.690684385098834]]}}, {"type": "Feature", "properties": {"segment_id": 1777405, "physicalid": "192824", "street_name": "ELDERT LN", "borough": "brooklyn", "direction": "TF", "total_row_ft": 64.4, "roadbed_ft": 29.9, "median_ft": 0.0, "left_sw_ft": 21.9, "right_sw_ft": 12.5}, "geometry": {"type": "LineString", "coordinates": [[-73.86784818577797, 40.69065842335254], [-73.86807753280704, 40.69063037731185]]}}, {"type": "Feature", "properties": {"segment_id": 1777406, "physicalid": "192824", "street_name": "ELDERT LN", "borough": "brooklyn", "direction": "TF", "total_row_ft": 64.0, "roadbed_ft": 29.9, "median_ft": 0.0, "left_sw_ft": 21.6, "right_sw_ft": 12.6}, "geometry": {"type": "LineString", "coordinates": [[-73.86783651774795, 40.69060425089836], [-73.86806451824137, 40.69057636952302]]}}, {"type": "Feature", "properties": {"segment_id": 1777407, "physicalid": "192824", "street_name": "ELDERT LN", "borough": "brooklyn", "direction": "TF", "total_row_ft": 63.7, "roadbed_ft": 30.0, "median_ft": 0.0, "left_sw_ft": 21.2, "right_sw_ft": 12.4}, "geometry": {"type": "LineString", "coordinates": [[-73.86782484973689, 40.690550078442584], [-73.86805150369679, 40.69052236173237]]}}, {"type": "Feature", "properties": {"segment_id": 1777455, "physicalid": "192835", "street_name": "ELDERT LN", "borough": "brooklyn", "direction": "TF", "total_row_ft": 150.0, "roadbed_ft": 120.0, "median_ft": 0.0, "left_sw_ft": 15.0, "right_sw_ft": 15.0}, "geometry": {"type": "LineString", "coordinates": [[-73.86783665380709, 40.69116943026434], [-73.86826389203758, 40.691117184257635]]}}, {"type": "Feature", "properties": {"segment_id": 1777456, "physicalid": "192835", "street_name": "ELDERT LN", "borough": "brooklyn", "direction": "TF", "total_row_ft": 86.8, "roadbed_ft": 31.2, "median_ft": 0.0, "left_sw_ft": 43.7, "right_sw_ft": 11.9}, "geometry": {"type": "LineString", "coordinates": [[-73.86794346081057, 40.691100769924], [-73.86825245207714, 40.691062983907294]]}}, {"type": "Feature", "properties": {"segment_id": 1777457, "physicalid": "192835", "street_name": "ELDERT LN", "borough": "brooklyn", "direction": "TF", "total_row_ft": 69.3, "roadbed_ft": 30.8, "median_ft": 0.0, "left_sw_ft": 26.5, "right_sw_ft": 12.0}, "geometry": {"type": "LineString", "coordinates": [[-73.86793179289515, 40.69104659744985], [-73.86817865905034, 40.69101640867843]]}}, {"type": "Feature", "properties": {"segment_id": 1777458, "physicalid": "192835", "street_name": "ELDERT LN", "borough": "brooklyn", "direction": "TF", "total_row_ft": 68.4, "roadbed_ft": 30.4, "median_ft": 0.0, "left_sw_ft": 25.9, "right_sw_ft": 12.1}, "geometry": {"type": "LineString", "coordinates": [[-73.86792012499872, 40.69099242497414], [-73.86816371201198, 40.690962637207036]]}}, {"type": "Feature", "properties": {"segment_id": 1777459, "physicalid": "192835", "street_name": "ELDERT LN", "borough": "brooklyn", "direction": "TF", "total_row_ft": 67.5, "roadbed_ft": 30.3, "median_ft": 0.0, "left_sw_ft": 25.0, "right_sw_ft": 12.2}, "geometry": {"type": "LineString", "coordinates": [[-73.8679084570495, 40.690938252505624], [-73.8681487649977, 40.6909088657334]]}}, {"type": "Feature", "properties": {"segment_id": 1777460, "physicalid": "192835", "street_name": "ELDERT LN", "borough": "brooklyn", "direction": "TF", "total_row_ft": 66.6, "roadbed_ft": 30.2, "median_ft": 0.0, "left_sw_ft": 24.1, "right_sw_ft": 12.2}, "geometry": {"type": "LineString", "coordinates": [[-73.86789678908673, 40.69088408003959], [-73.86813381800752, 40.69085509425737]]}}]}