{"type": "FeatureCollection", "features": [{"type": "Feature", "properties": {"segment_id": 1769473, "physicalid": "191503", "street_name": "FOUNTAIN AVE", "borough": "brooklyn", "direction": "TW", "total_row_ft": 75.4, "roadbed_ft": 45.4, "median_ft": 0.0, "left_sw_ft": 15.0, "right_sw_ft": 15.0}, "geometry": {"type": "LineString", "coordinates": [[-73.85972058496397, 40.653754099924946], [-73.86013534462948, 40.65384740373422]]}}, {"type": "Feature", "properties": {"segment_id": 1769474, "physicalid": "191503", "street_name": "FOUNTAIN AVE", "borough": "brooklyn", "direction": "TW", "total_row_ft": 75.6, "roadbed_ft": 45.6, "median_ft": 0.0, "left_sw_ft": 15.0, "right_sw_ft": 15.0}, "geometry": {"type": "LineString", "coordinates": [[-73.85974100339914, 40.65370145294249], [-73.86015576276588, 40.653794756678735]]}}, {"type": "Feature", "properties": {"segment_id": 1769475, "physicalid": "191503", "street_name": "FOUNTAIN AVE", "borough": "brooklyn", "direction": "TW", "total_row_ft": 75.4, "roadbed_ft": 45.4, "median_ft": 0.0, "left_sw_ft": 15.0, "right_sw_ft": 15.0}, "geometry": {"type": "LineString", "coordinates": [[-73.85976142180206, 40.65364880595613], [-73.86017618087007, 40.65374210961926]]}}, {"type": "Feature", "properties": {"segment_id": 1769476, "physicalid": "191503", "street_name": "FOUNTAIN AVE", "borough": "brooklyn", "direction": "TW", "total_row_ft": 75.3, "roadbed_ft": 45.3, "median_ft": 0.0, "left_sw_ft": 15.0, "right_sw_ft": 15.0}, "geometry": {"type": "LineString", "coordinates": [[-73.85978184017277, 40.65359615896578], [-73.86019659894203, 40.653689462555896]]}}]}