{"type": "FeatureCollection", "features": [{"type": "Feature", "properties": {"segment_id": 651889, "physicalid": "46719", "street_name": "KENT ST", "borough": "brooklyn", "direction": "TW", "total_row_ft": 30.0, "roadbed_ft": 0.0, "median_ft": 0.0, "left_sw_ft": 15.0, "right_sw_ft": 15.0}, "geometry": {"type": "LineString", "coordinates": [[-73.96127387525743, 40.73042139687317], [-73.96122154903932, 40.73009444042589]]}}, {"type": "Feature", "properties": {"segment_id": 651890, "physicalid": "46719", "street_name": "KENT ST", "borough": "brooklyn", "direction": "TW", "total_row_ft": 85.6, "roadbed_ft": 31.1, "median_ft": 0.0, "left_sw_ft": 12.8, "right_sw_ft": 41.7}, "geometry": {"type": "LineString", "coordinates": [[-73.9611874352032, 40.73033551039638], [-73.96114991633769, 40.73010107467691]]}}, {"type": "Feature", "properties": {"segment_id": 651891, "physicalid": "46719", "street_name": "KENT ST", "borough": "brooklyn", "direction": "TW", "total_row_ft": 62.0, "roadbed_ft": 31.3, "median_ft": 0.0, "left_sw_ft": 13.3, "right_sw_ft": 17.4}, "geometry": {"type": "LineString", "coordinates": [[-73.96111602895338, 40.730343561249356], [-73.96107828362183, 40.73010770888336]]}}, {"type": "Feature", "properties": {"segment_id": 651892, "physicalid": "46719", "street_name": "KENT ST", "borough": "brooklyn", "direction": "TW", "total_row_ft": 57.2, "roadbed_ft": 31.5, "median_ft": 0.0, "left_sw_ft": 13.2, "right_sw_ft": 12.5}, "geometry": {"type": "LineString", "coordinates": [[-73.96104452487984, 40.73035100091075], [-73.96101956815642, 40.73019505753256]]}}, {"type": "Feature", "properties": {"segment_id": 651893, "physicalid": "46719", "street_name": "KENT ST", "borough": "brooklyn", "direction": "TW", "total_row_ft": 57.4, "roadbed_ft": 31.7, "median_ft": 0.0, "left_sw_ft": 13.2, "right_sw_ft": 12.5}, "geometry": {"type": "LineString", "coordinates": [[-73.96097302082775, 40.730358440761584], [-73.96094800284898, 40.73020211357916]]}}, {"type": "Feature", "properties": {"segment_id": 651894, "physicalid": "46719", "street_name": "KENT ST", "borough": "brooklyn", "direction": "TW", "total_row_ft": 57.6, "roadbed_ft": 31.6, "median_ft": 0.0, "left_sw_ft": 13.2, "right_sw_ft": 12.7}, "geometry": {"type": "LineString", "coordinates": [[-73.96090145967887, 40.730365523891514], [-73.96087635996325, 40.73020868491633]]}}, {"type": "Feature", "properties": {"segment_id": 651895, "physicalid": "46719", "street_name": "KENT ST", "borough": "brooklyn", "direction": "TW", "total_row_ft": 57.7, "roadbed_ft": 31.5, "median_ft": 0.0, "left_sw_ft": 13.4, "right_sw_ft": 12.9}, "geometry": {"type": "LineString", "coordinates": [[-73.96082986334378, 40.730372387205215], [-73.96080469106376, 40.73021509374523]]}}, {"type": "Feature", "properties": {"segment_id": 651896, "physicalid": "46719", "street_name": "KENT ST", "borough": "brooklyn", "direction": "TW", "total_row_ft": 57.9, "roadbed_ft": 31.3, "median_ft": 0.0, "left_sw_ft": 13.5, "right_sw_ft": 13.1}, "geometry": {"type": "LineString", "coordinates": [[-73.96075826699392, 40.73037925047441], [-73.9607330175187, 40.73022147358672]]}}, {"type": "Feature", "properties": {"segment_id": 651897, "physicalid": "46719", "street_name": "KENT ST", "borough": "brooklyn", "direction": "TW", "total_row_ft": 58.1, "roadbed_ft": 31.2, "median_ft": 0.0, "left_sw_ft": 13.6, "right_sw_ft": 13.4}, "geometry": {"type": "LineString", "coordinates": [[-73.96068667061766, 40.73038611362619], [-73.96066132507983, 40.7302277354061]]}}, {"type": "Feature", "properties": {"segment_id": 651898, "physicalid": "46719", "street_name": "KENT ST", "borough": "brooklyn", "direction": "TW", "total_row_ft": 76.9, "roadbed_ft": 31.0, "median_ft": 0.0, "left_sw_ft": 13.7, "right_sw_ft": 32.2}, "geometry": {"type": "LineString", "coordinates": [[-73.96061507422047, 40.73039297669488], [-73.96057685421137, 40.73015414708072]]}}, {"type": "Feature", "properties": {"segment_id": 651899, "physicalid": "46719", "street_name": "KENT ST", "borough": "brooklyn", "direction": "TW", "total_row_ft": 58.6, "roadbed_ft": 30.8, "median_ft": 0.0, "left_sw_ft": 13.8, "right_sw_ft": 13.9}, "geometry": {"type": "LineString", "coordinates": [[-73.96054347780854, 40.73039983971901], [-73.96051793999858, 40.730240257891964]]}}, {"type": "Feature", "properties": {"segment_id": 651900, "physicalid": "46719", "street_name": "KENT ST", "borough": "brooklyn", "direction": "TW", "total_row_ft": 58.8, "roadbed_ft": 30.7, "median_ft": 0.0, "left_sw_ft": 13.9, "right_sw_ft": 14.2}, "geometry": {"type": "LineString", "coordinates": [[-73.96047188138186, 40.730406702698666], [-73.96044624743307, 40.7302465190387]]}}, {"type": "Feature", "properties": {"segment_id": 651901, "physicalid": "46719", "street_name": "KENT ST", "borough": "brooklyn", "direction": "TW", "total_row_ft": 59.0, "roadbed_ft": 30.5, "median_ft": 0.0, "left_sw_ft": 14.1, "right_sw_ft": 14.4}, "geometry": {"type": "LineString", "coordinates": [[-73.96040028494043, 40.73041356563377], [-73.96037455485408, 40.73025278014076]]}}, {"type": "Feature", "properties": {"segment_id": 651902, "physicalid": "46719", "street_name": "KENT ST", "borough": "brooklyn", "direction": "TW", "total_row_ft": 59.2, "roadbed_ft": 30.4, "median_ft": 0.0, "left_sw_ft": 14.2, "right_sw_ft": 14.7}, "geometry": {"type": "LineString", "coordinates": [[-73.96032868848427, 40.73042042852436], [-73.96030286226758, 40.73025904123546]]}}, {"type": "Feature", "properties": {"segment_id": 651903, "physicalid": "46719", "street_name": "KENT ST", "borough": "brooklyn", "direction": "TW", "total_row_ft": 59.5, "roadbed_ft": 30.2, "median_ft": 0.0, "left_sw_ft": 14.3, "right_sw_ft": 15.0}, "geometry": {"type": "LineString", "coordinates": [[-73.96025709201335, 40.73042729137042], [-73.96023116966997, 40.7302653023001]]}}, {"type": "Feature", "properties": {"segment_id": 651904, "physicalid": "46719", "street_name": "KENT ST", "borough": "brooklyn", "direction": "TW", "total_row_ft": 59.7, "roadbed_ft": 30.0, "median_ft": 0.0, "left_sw_ft": 14.4, "right_sw_ft": 15.2}, "geometry": {"type": "LineString", "coordinates": [[-73.96018549657727, 40.73043416073092], [-73.9601594770672, 40.730271563372185]]}}, {"type": "Feature", "properties": {"segment_id": 651905, "physicalid": "46719", "street_name": "KENT ST", "borough": "brooklyn", "direction": "TW", "total_row_ft": 59.9, "roadbed_ft": 29.9, "median_ft": 0.0, "left_sw_ft": 14.5, "right_sw_ft": 15.5}, "geometry": {"type": "LineString", "coordinates": [[-73.96011390213998, 40.73044103638059], [-73.96008778445423, 40.73027782442006]]}}, {"type": "Feature", "properties": {"segment_id": 651906, "physicalid": "46719", "street_name": "KENT ST", "borough": "brooklyn", "direction": "TW", "total_row_ft": 60.0, "roadbed_ft": 29.8, "median_ft": 0.0, "left_sw_ft": 14.6, "right_sw_ft": 15.6}, "geometry": {"type": "LineString", "coordinates": [[-73.96004230768791, 40.73044791198573], [-73.9600161631095, 40.73028453087381]]}}, {"type": "Feature", "properties": {"segment_id": 913493, "physicalid": "63818", "street_name": "GREEN ST", "borough": "brooklyn", "direction": "TW", "total_row_ft": 95.8, "roadbed_ft": 65.8, "median_ft": 0.0, "left_sw_ft": 15.0, "right_sw_ft": 15.0}, "geometry": {"type": "LineString", "coordinates": [[-73.96033836718131, 40.73339010323827], [-73.96028348311015, 40.73306338946323]]}}, {"type": "Feature", "properties": {"segment_id": 913494, "physicalid": "63818", "street_name": "GREEN ST", "borough": "brooklyn", "direction": "TW", "total_row_ft": 95.9, "roadbed_ft": 65.9, "median_ft": 0.0, "left_sw_ft": 15.0, "right_sw_ft": 15.0}, "geometry": {"type": "LineString", "coordinates": [[-73.96026678408218, 40.73339706151226], [-73.96021190035626, 40.73307034770341]]}}, {"type": "Feature", "properties": {"segment_id": 913495, "physicalid": "63818", "street_name": "GREEN ST", "borough": "brooklyn", "direction": "TW", "total_row_ft": 96.3, "roadbed_ft": 66.3, "median_ft": 0.0, "left_sw_ft": 15.0, "right_sw_ft": 15.0}, "geometry": {"type": "LineString", "coordinates": [[-73.96019520096809, 40.73340401974175], [-73.96014031758742, 40.7330773058991]]}}, {"type": "Feature", "properties": {"segment_id": 913496, "physicalid": "63818", "street_name": "GREEN ST", "borough": "brooklyn", "direction": "TW", "total_row_ft": 96.7, "roadbed_ft": 66.7, "median_ft": 0.0, "left_sw_ft": 15.0, "right_sw_ft": 15.0}, "geometry": {"type": "LineString", "coordinates": [[-73.96012361783905, 40.73341097792673], [-73.96006873480363, 40.733084264050284]]}}, {"type": "Feature", "properties": {"segment_id": 913497, "physicalid": "63818", "street_name": "GREEN ST", "borough": "brooklyn", "direction": "TW", "total_row_ft": 69.6, "roadbed_ft": 39.6, "median_ft": 0.0, "left_sw_ft": 15.0, "right_sw_ft": 15.0}, "geometry": {"type": "LineString", "coordinates": [[-73.96005203469507, 40.733417936067184], [-73.95999715200489, 40.733091222156965]]}}, {"type": "Feature", "properties": {"segment_id": 927184, "physicalid": "64767", "street_name": "JAVA ST", "borough": "brooklyn", "direction": "TW", "total_row_ft": 30.0, "roadbed_ft": 0.0, "median_ft": 0.0, "left_sw_ft": 15.0, "right_sw_ft": 15.0}, "geometry": {"type": "LineString", "coordinates": [[-73.96140362631813, 40.73113355904275], [-73.96135263675002, 40.73080648038826]]}}, {"type": "Feature", "properties": {"segment_id": 927185, "physicalid": "64767", "street_name": "JAVA ST", "borough": "brooklyn", "direction": "TW", "total_row_ft": 55.8, "roadbed_ft": 30.4, "median_ft": 0.0, "left_sw_ft": 12.1, "right_sw_ft": 13.2}, "geometry": {"type": "LineString", "coordinates": [[-73.96131712234285, 40.73104480883531], [-73.96129342970094, 40.73089282847979]]}}, {"type": "Feature", "properties": {"segment_id": 927186, "physicalid": "64767", "street_name": "JAVA ST", "borough": "brooklyn", "direction": "TW", "total_row_ft": 56.0, "roadbed_ft": 30.5, "median_ft": 0.0, "left_sw_ft": 12.1, "right_sw_ft": 13.4}, "geometry": {"type": "LineString", "coordinates": [[-73.96124551786043, 40.731051632912184], [-73.96122173079488, 40.730899045808414]]}}, {"type": "Feature", "properties": {"segment_id": 927187, "physicalid": "64767", "street_name": "JAVA ST", "borough": "brooklyn", "direction": "TW", "total_row_ft": 56.2, "roadbed_ft": 30.5, "median_ft": 0.0, "left_sw_ft": 12.1, "right_sw_ft": 13.6}, "geometry": {"type": "LineString", "coordinates": [[-73.96117391336335, 40.731058456944524], [-73.96115003187543, 40.73090526309243]]}}, {"type": "Feature", "properties": {"segment_id": 927188, "physicalid": "64767", "street_name": "JAVA ST", "borough": "brooklyn", "direction": "TW", "total_row_ft": 56.4, "roadbed_ft": 30.5, "median_ft": 0.0, "left_sw_ft": 12.1, "right_sw_ft": 13.8}, "geometry": {"type": "LineString", "coordinates": [[-73.96110230885162, 40.73106528093232], [-73.9610783329426, 40.73091148033179]]}}, {"type": "Feature", "properties": {"segment_id": 927189, "physicalid": "64767", "street_name": "JAVA ST", "borough": "brooklyn", "direction": "TW", "total_row_ft": 56.7, "roadbed_ft": 30.6, "median_ft": 0.0, "left_sw_ft": 12.0, "right_sw_ft": 14.0}, "geometry": {"type": "LineString", "coordinates": [[-73.96103070660705, 40.73107211951329], [-73.96100663399642, 40.73091769752651]]}}, {"type": "Feature", "properties": {"segment_id": 927190, "physicalid": "64767", "street_name": "JAVA ST", "borough": "brooklyn", "direction": "TW", "total_row_ft": 56.9, "roadbed_ft": 30.6, "median_ft": 0.0, "left_sw_ft": 12.1, "right_sw_ft": 14.2}, "geometry": {"type": "LineString", "coordinates": [[-73.96095912556086, 40.731079094128795], [-73.96093494473236, 40.730923976872326]]}}, {"type": "Feature", "properties": {"segment_id": 927191, "physicalid": "64767", "street_name": "JAVA ST", "borough": "brooklyn", "direction": "TW", "total_row_ft": 57.1, "roadbed_ft": 30.6, "median_ft": 0.0, "left_sw_ft": 12.1, "right_sw_ft": 14.4}, "geometry": {"type": "LineString", "coordinates": [[-73.96088754449968, 40.73108606869978], [-73.96086327165166, 40.730930360075604]]}}, {"type": "Feature", "properties": {"segment_id": 927192, "physicalid": "64767", "street_name": "JAVA ST", "borough": "brooklyn", "direction": "TW", "total_row_ft": 57.3, "roadbed_ft": 30.6, "median_ft": 0.0, "left_sw_ft": 12.2, "right_sw_ft": 14.6}, "geometry": {"type": "LineString", "coordinates": [[-73.96081596342351, 40.73109304322628], [-73.96079159855724, 40.73093674323426]]}}, {"type": "Feature", "properties": {"segment_id": 927193, "physicalid": "64767", "street_name": "JAVA ST", "borough": "brooklyn", "direction": "TW", "total_row_ft": 57.6, "roadbed_ft": 30.6, "median_ft": 0.0, "left_sw_ft": 12.2, "right_sw_ft": 14.7}, "geometry": {"type": "LineString", "coordinates": [[-73.96074438233238, 40.73110001770828], [-73.96071992544908, 40.73094312634831]]}}, {"type": "Feature", "properties": {"segment_id": 927194, "physicalid": "64767", "street_name": "JAVA ST", "borough": "brooklyn", "direction": "TW", "total_row_ft": 57.8, "roadbed_ft": 30.7, "median_ft": 0.0, "left_sw_ft": 12.2, "right_sw_ft": 14.9}, "geometry": {"type": "LineString", "coordinates": [[-73.96067280122624, 40.731106992145754], [-73.9606482523272, 40.73094950941773]]}}, {"type": "Feature", "properties": {"segment_id": 927195, "physicalid": "64767", "street_name": "JAVA ST", "borough": "brooklyn", "direction": "TW", "total_row_ft": 58.0, "roadbed_ft": 30.7, "median_ft": 0.0, "left_sw_ft": 12.3, "right_sw_ft": 15.0}, "geometry": {"type": "LineString", "coordinates": [[-73.96060122010513, 40.731113966538736], [-73.96057657919158, 40.730955892442545]]}}, {"type": "Feature", "properties": {"segment_id": 927196, "physicalid": "64767", "street_name": "JAVA ST", "borough": "brooklyn", "direction": "TW", "total_row_ft": 58.1, "roadbed_ft": 30.7, "median_ft": 0.0, "left_sw_ft": 12.2, "right_sw_ft": 15.2}, "geometry": {"type": "LineString", "coordinates": [[-73.96052958463112, 40.731120592302105], [-73.9605049060399, 40.7309622754078]]}}, {"type": "Feature", "properties": {"segment_id": 927197, "physicalid": "64767", "street_name": "JAVA ST", "borough": "brooklyn", "direction": "TW", "total_row_ft": 58.2, "roadbed_ft": 30.7, "median_ft": 0.0, "left_sw_ft": 12.1, "right_sw_ft": 15.3}, "geometry": {"type": "LineString", "coordinates": [[-73.96045793993467, 40.7311271589487], [-73.96043323287016, 40.730968658300604]]}}, {"type": "Feature", "properties": {"segment_id": 927198, "physicalid": "64767", "street_name": "JAVA ST", "borough": "brooklyn", "direction": "TW", "total_row_ft": 58.2, "roadbed_ft": 30.7, "median_ft": 0.0, "left_sw_ft": 12.0, "right_sw_ft": 15.5}, "geometry": {"type": "LineString", "coordinates": [[-73.9603862952241, 40.73113372555072], [-73.96036155968667, 40.730975041148795]]}}, {"type": "Feature", "properties": {"segment_id": 927199, "physicalid": "64767", "street_name": "JAVA ST", "borough": "brooklyn", "direction": "TW", "total_row_ft": 58.3, "roadbed_ft": 30.8, "median_ft": 0.0, "left_sw_ft": 11.9, "right_sw_ft": 15.6}, "geometry": {"type": "LineString", "coordinates": [[-73.96031465049941, 40.731140292108186], [-73.96028988648948, 40.73098142395238]]}}, {"type": "Feature", "properties": {"segment_id": 927200, "physicalid": "64767", "street_name": "JAVA ST", "borough": "brooklyn", "direction": "TW", "total_row_ft": 58.4, "roadbed_ft": 30.8, "median_ft": 0.0, "left_sw_ft": 11.8, "right_sw_ft": 15.8}, "geometry": {"type": "LineString", "coordinates": [[-73.96024300576062, 40.73114685862104], [-73.96021821327852, 40.73098780671135]]}}, {"type": "Feature", "properties": {"segment_id": 927201, "physicalid": "64767", "street_name": "JAVA ST", "borough": "brooklyn", "direction": "TW", "total_row_ft": 58.3, "roadbed_ft": 30.8, "median_ft": 0.0, "left_sw_ft": 11.7, "right_sw_ft": 15.8}, "geometry": {"type": "LineString", "coordinates": [[-73.96017136730373, 40.731153465480745], [-73.9601466013296, 40.73099458253333]]}}, {"type": "Feature", "properties": {"segment_id": 927202, "physicalid": "64767", "street_name": "JAVA ST", "borough": "brooklyn", "direction": "TW", "total_row_ft": 58.1, "roadbed_ft": 30.8, "median_ft": 0.0, "left_sw_ft": 11.7, "right_sw_ft": 15.5}, "geometry": {"type": "LineString", "coordinates": [[-73.9600997727986, 40.73116035435507], [-73.96007510701502, 40.731002113079334]]}}, {"type": "Feature", "properties": {"segment_id": 927203, "physicalid": "64767", "street_name": "JAVA ST", "borough": "brooklyn", "direction": "TW", "total_row_ft": 57.8, "roadbed_ft": 30.8, "median_ft": 0.0, "left_sw_ft": 11.7, "right_sw_ft": 15.3}, "geometry": {"type": "LineString", "coordinates": [[-73.96002817832454, 40.73116724347915], [-73.96000361268428, 40.73100964358097]]}}, {"type": "Feature", "properties": {"segment_id": 927408, "physicalid": "64781", "street_name": "FREEMAN ST", "borough": "brooklyn", "direction": "TW", "total_row_ft": 30.0, "roadbed_ft": 0.0, "median_ft": 0.0, "left_sw_ft": 15.0, "right_sw_ft": 15.0}, "geometry": {"type": "LineString", "coordinates": [[-73.96227908690419, 40.73407393355401], [-73.96226210569219, 40.73374481647807]]}}, {"type": "Feature", "properties": {"segment_id": 927409, "physicalid": "64781", "street_name": "FREEMAN ST", "borough": "brooklyn", "direction": "TW", "total_row_ft": 30.0, "roadbed_ft": 0.0, "median_ft": 0.0, "left_sw_ft": 15.0, "right_sw_ft": 15.0}, "geometry": {"type": "LineString", "coordinates": [[-73.96220697649674, 40.73407608641627], [-73.96218999564036, 40.733746969329786]]}}, {"type": "Feature", "properties": {"segment_id": 927410, "physicalid": "64781", "street_name": "FREEMAN ST", "borough": "brooklyn", "direction": "TW", "total_row_ft": 30.0, "roadbed_ft": 0.0, "median_ft": 0.0, "left_sw_ft": 15.0, "right_sw_ft": 15.0}, "geometry": {"type": "LineString", "coordinates": [[-73.96213486608464, 40.73407823923336], [-73.96211788558388, 40.733749122136345]]}}, {"type": "Feature", "properties": {"segment_id": 927411, "physicalid": "64781", "street_name": "FREEMAN ST", "borough": "brooklyn", "direction": "TW", "total_row_ft": 30.0, "roadbed_ft": 0.0, "median_ft": 0.0, "left_sw_ft": 15.0, "right_sw_ft": 15.0}, "geometry": {"type": "LineString", "coordinates": [[-73.96206275566787, 40.7340803920053], [-73.96204577552272, 40.733751274897735]]}}, {"type": "Feature", "properties": {"segment_id": 927412, "physicalid": "64781", "street_name": "FREEMAN ST", "borough": "brooklyn", "direction": "TW", "total_row_ft": 30.0, "roadbed_ft": 0.0, "median_ft": 0.0, "left_sw_ft": 15.0, "right_sw_ft": 15.0}, "geometry": {"type": "LineString", "coordinates": [[-73.96199064524646, 40.73408254473208], [-73.96197366545692, 40.733753427613976]]}}, {"type": "Feature", "properties": {"segment_id": 927413, "physicalid": "64781", "street_name": "FREEMAN ST", "borough": "brooklyn", "direction": "TW", "total_row_ft": 30.0, "roadbed_ft": 0.0, "median_ft": 0.0, "left_sw_ft": 15.0, "right_sw_ft": 15.0}, "geometry": {"type": "LineString", "coordinates": [[-73.96191853482038, 40.73408469741372], [-73.96190155538646, 40.73375558028509]]}}, {"type": "Feature", "properties": {"segment_id": 927414, "physicalid": "64781", "street_name": "FREEMAN ST", "borough": "brooklyn", "direction": "TW", "total_row_ft": 30.0, "roadbed_ft": 0.0, "median_ft": 0.0, "left_sw_ft": 15.0, "right_sw_ft": 15.0}, "geometry": {"type": "LineString", "coordinates": [[-73.96184642438965, 40.7340868500502], [-73.96182944531132, 40.73375773291102]]}}, {"type": "Feature", "properties": {"segment_id": 927415, "physicalid": "64781", "street_name": "FREEMAN ST", "borough": "brooklyn", "direction": "TW", "total_row_ft": 30.0, "roadbed_ft": 0.0, "median_ft": 0.0, "left_sw_ft": 15.0, "right_sw_ft": 15.0}, "geometry": {"type": "LineString", "coordinates": [[-73.96177431395424, 40.7340890026415], [-73.96175733523155, 40.73375988549181]]}}, {"type": "Feature", "properties": {"segment_id": 927416, "physicalid": "64781", "street_name": "FREEMAN ST", "borough": "brooklyn", "direction": "TW", "total_row_ft": 30.0, "roadbed_ft": 0.0, "median_ft": 0.0, "left_sw_ft": 15.0, "right_sw_ft": 15.0}, "geometry": {"type": "LineString", "coordinates": [[-73.96170220351416, 40.73409115518766], [-73.96168522514714, 40.73376203802743]]}}, {"type": "Feature", "properties": {"segment_id": 927417, "physicalid": "64781", "street_name": "FREEMAN ST", "borough": "brooklyn", "direction": "TW", "total_row_ft": 30.0, "roadbed_ft": 0.0, "median_ft": 0.0, "left_sw_ft": 15.0, "right_sw_ft": 15.0}, "geometry": {"type": "LineString", "coordinates": [[-73.96163009306946, 40.73409330768867], [-73.96161311505803, 40.7337641905179]]}}, {"type": "Feature", "properties": {"segment_id": 927418, "physicalid": "64781", "street_name": "FREEMAN ST", "borough": "brooklyn", "direction": "TW", "total_row_ft": 30.0, "roadbed_ft": 0.0, "median_ft": 0.0, "left_sw_ft": 15.0, "right_sw_ft": 15.0}, "geometry": {"type": "LineString", "coordinates": [[-73.96155798262008, 40.73409546014452], [-73.96154100496426, 40.733766342963236]]}}, {"type": "Feature", "properties": {"segment_id": 927419, "physicalid": "64781", "street_name": "FREEMAN ST", "borough": "brooklyn", "direction": "TW", "total_row_ft": 30.0, "roadbed_ft": 0.0, "median_ft": 0.0, "left_sw_ft": 15.0, "right_sw_ft": 15.0}, "geometry": {"type": "LineString", "coordinates": [[-73.96148587216604, 40.7340976125552], [-73.96146889486585, 40.73376849536339]]}}, {"type": "Feature", "properties": {"segment_id": 927420, "physicalid": "64781", "street_name": "FREEMAN ST", "borough": "brooklyn", "direction": "TW", "total_row_ft": 30.0, "roadbed_ft": 0.0, "median_ft": 0.0, "left_sw_ft": 15.0, "right_sw_ft": 15.0}, "geometry": {"type": "LineString", "coordinates": [[-73.96141376170735, 40.734099764920764], [-73.96139678476277, 40.733770647718394]]}}, {"type": "Feature", "properties": {"segment_id": 927421, "physicalid": "64781", "street_name": "FREEMAN ST", "borough": "brooklyn", "direction": "TW", "total_row_ft": 30.0, "roadbed_ft": 0.0, "median_ft": 0.0, "left_sw_ft": 15.0, "right_sw_ft": 15.0}, "geometry": {"type": "LineString", "coordinates": [[-73.961341651244, 40.734101917241134], [-73.96132467465505, 40.73377280002822]]}}, {"type": "Feature", "properties": {"segment_id": 927422, "physicalid": "64781", "street_name": "FREEMAN ST", "borough": "brooklyn", "direction": "TW", "total_row_ft": 30.0, "roadbed_ft": 0.0, "median_ft": 0.0, "left_sw_ft": 15.0, "right_sw_ft": 15.0}, "geometry": {"type": "LineString", "coordinates": [[-73.96126954077599, 40.73410406951635], [-73.96125256454265, 40.73377495229293]]}}, {"type": "Feature", "properties": {"segment_id": 927423, "physicalid": "64781", "street_name": "FREEMAN ST", "borough": "brooklyn", "direction": "TW", "total_row_ft": 30.0, "roadbed_ft": 0.0, "median_ft": 0.0, "left_sw_ft": 15.0, "right_sw_ft": 15.0}, "geometry": {"type": "LineString", "coordinates": [[-73.96119743030332, 40.73410622174643], [-73.96118045442559, 40.73377710451247]]}}, {"type": "Feature", "properties": {"segment_id": 927424, "physicalid": "64781", "street_name": "FREEMAN ST", "borough": "brooklyn", "direction": "TW", "total_row_ft": 30.0, "roadbed_ft": 0.0, "median_ft": 0.0, "left_sw_ft": 15.0, "right_sw_ft": 15.0}, "geometry": {"type": "LineString", "coordinates": [[-73.96112531982598, 40.73410837393135], [-73.9611083443039, 40.73377925668685]]}}, {"type": "Feature", "properties": {"segment_id": 927425, "physicalid": "64781", "street_name": "FREEMAN ST", "borough": "brooklyn", "direction": "TW", "total_row_ft": 30.0, "roadbed_ft": 0.0, "median_ft": 0.0, "left_sw_ft": 15.0, "right_sw_ft": 15.0}, "geometry": {"type": "LineString", "coordinates": [[-73.961053209344, 40.73411052607109], [-73.96103623417753, 40.733781408816085]]}}, {"type": "Feature", "properties": {"segment_id": 927426, "physicalid": "64781", "street_name": "FREEMAN ST", "borough": "brooklyn", "direction": "TW", "total_row_ft": 30.0, "roadbed_ft": 0.0, "median_ft": 0.0, "left_sw_ft": 15.0, "right_sw_ft": 15.0}, "geometry": {"type": "LineString", "coordinates": [[-73.96098109885736, 40.7341126781657], [-73.9609641240465, 40.73378356090015]]}}, {"type": "Feature", "properties": {"segment_id": 927427, "physicalid": "64781", "street_name": "FREEMAN ST", "borough": "brooklyn", "direction": "TW", "total_row_ft": 30.0, "roadbed_ft": 0.0, "median_ft": 0.0, "left_sw_ft": 15.0, "right_sw_ft": 15.0}, "geometry": {"type": "LineString", "coordinates": [[-73.96090898836606, 40.73411483021515], [-73.96089201391082, 40.73378571293906]]}}, {"type": "Feature", "properties": {"segment_id": 927428, "physicalid": "64781", "street_name": "FREEMAN ST", "borough": "brooklyn", "direction": "TW", "total_row_ft": 30.0, "roadbed_ft": 0.0, "median_ft": 0.0, "left_sw_ft": 15.0, "right_sw_ft": 15.0}, "geometry": {"type": "LineString", "coordinates": [[-73.9608368778701, 40.734116982219426], [-73.96081990377047, 40.733787864932815]]}}, {"type": "Feature", "properties": {"segment_id": 927429, "physicalid": "64781", "street_name": "FREEMAN ST", "borough": "brooklyn", "direction": "TW", "total_row_ft": 30.0, "roadbed_ft": 0.0, "median_ft": 0.0, "left_sw_ft": 15.0, "right_sw_ft": 15.0}, "geometry": {"type": "LineString", "coordinates": [[-73.96076476736947, 40.73411913417857], [-73.96074779362549, 40.73379001688142]]}}, {"type": "Feature", "properties": {"segment_id": 927430, "physicalid": "64781", "street_name": "FREEMAN ST", "borough": "brooklyn", "direction": "TW", "total_row_ft": 30.0, "roadbed_ft": 0.0, "median_ft": 0.0, "left_sw_ft": 15.0, "right_sw_ft": 15.0}, "geometry": {"type": "LineString", "coordinates": [[-73.9606926568642, 40.73412128609255], [-73.96067568347583, 40.733792168784895]]}}, {"type": "Feature", "properties": {"segment_id": 927431, "physicalid": "64781", "street_name": "FREEMAN ST", "borough": "brooklyn", "direction": "TW", "total_row_ft": 30.0, "roadbed_ft": 0.0, "median_ft": 0.0, "left_sw_ft": 15.0, "right_sw_ft": 15.0}, "geometry": {"type": "LineString", "coordinates": [[-73.96062054635428, 40.73412343796139], [-73.9606035733215, 40.73379432064317]]}}, {"type": "Feature", "properties": {"segment_id": 927432, "physicalid": "64781", "street_name": "FREEMAN ST", "borough": "brooklyn", "direction": "TW", "total_row_ft": 30.0, "roadbed_ft": 0.0, "median_ft": 0.0, "left_sw_ft": 15.0, "right_sw_ft": 15.0}, "geometry": {"type": "LineString", "coordinates": [[-73.96054843583968, 40.734125589785044], [-73.96053146316252, 40.733796472456305]]}}, {"type": "Feature", "properties": {"segment_id": 927433, "physicalid": "64781", "street_name": "FREEMAN ST", "borough": "brooklyn", "direction": "TW", "total_row_ft": 30.0, "roadbed_ft": 0.0, "median_ft": 0.0, "left_sw_ft": 15.0, "right_sw_ft": 15.0}, "geometry": {"type": "LineString", "coordinates": [[-73.96047632532043, 40.73412774156356], [-73.96045935299892, 40.733798624224285]]}}, {"type": "Feature", "properties": {"segment_id": 927434, "physicalid": "64781", "street_name": "FREEMAN ST", "borough": "brooklyn", "direction": "TW", "total_row_ft": 30.0, "roadbed_ft": 0.0, "median_ft": 0.0, "left_sw_ft": 15.0, "right_sw_ft": 15.0}, "geometry": {"type": "LineString", "coordinates": [[-73.96040421479653, 40.73412989329691], [-73.96038724283063, 40.733800775947124]]}}, {"type": "Feature", "properties": {"segment_id": 927435, "physicalid": "64781", "street_name": "FREEMAN ST", "borough": "brooklyn", "direction": "TW", "total_row_ft": 30.0, "roadbed_ft": 0.0, "median_ft": 0.0, "left_sw_ft": 15.0, "right_sw_ft": 15.0}, "geometry": {"type": "LineString", "coordinates": [[-73.96033210426795, 40.73413204498512], [-73.9603151326577, 40.73380292762479]]}}, {"type": "Feature", "properties": {"segment_id": 927436, "physicalid": "64781", "street_name": "FREEMAN ST", "borough": "brooklyn", "direction": "TW", "total_row_ft": 30.0, "roadbed_ft": 0.0, "median_ft": 0.0, "left_sw_ft": 15.0, "right_sw_ft": 15.0}, "geometry": {"type": "LineString", "coordinates": [[-73.96025999373474, 40.73413419662816], [-73.9602430224801, 40.733805079257294]]}}, {"type": "Feature", "properties": {"segment_id": 927437, "physicalid": "64781", "street_name": "FREEMAN ST", "borough": "brooklyn", "direction": "TW", "total_row_ft": 30.0, "roadbed_ft": 0.0, "median_ft": 0.0, "left_sw_ft": 15.0, "right_sw_ft": 15.0}, "geometry": {"type": "LineString", "coordinates": [[-73.96018788319687, 40.734136348226045], [-73.96017091229784, 40.733807230844675]]}}, {"type": "Feature", "properties": {"segment_id": 927438, "physicalid": "64781", "street_name": "FREEMAN ST", "borough": "brooklyn", "direction": "TW", "total_row_ft": 30.0, "roadbed_ft": 0.0, "median_ft": 0.0, "left_sw_ft": 15.0, "right_sw_ft": 15.0}, "geometry": {"type": "LineString", "coordinates": [[-73.96011577265432, 40.73413849977877], [-73.96009880211093, 40.73380938238686]]}}, {"type": "Feature", "properties": {"segment_id": 927439, "physicalid": "64781", "street_name": "FREEMAN ST", "borough": "brooklyn", "direction": "TW", "total_row_ft": 88.5, "roadbed_ft": 0.0, "median_ft": 0.0, "left_sw_ft": 60.0, "right_sw_ft": 28.5}, "geometry": {"type": "LineString", "coordinates": [[-73.96004366210714, 40.73414065128635], [-73.96003113996645, 40.7338977989909]]}}, {"type": "Feature", "properties": {"segment_id": 1035993, "physicalid": "71815", "street_name": "HURON ST", "borough": "brooklyn", "direction": "TW", "total_row_ft": 30.0, "roadbed_ft": 0.0, "median_ft": 0.0, "left_sw_ft": 15.0, "right_sw_ft": 15.0}, "geometry": {"type": "LineString", "coordinates": [[-73.96200244508053, 40.73254835389261], [-73.96195902452607, 40.73222064369286]]}}, {"type": "Feature", "properties": {"segment_id": 1035994, "physicalid": "71815", "street_name": "HURON ST", "borough": "brooklyn", "direction": "TW", "total_row_ft": 30.0, "roadbed_ft": 0.0, "median_ft": 0.0, "left_sw_ft": 15.0, "right_sw_ft": 15.0}, "geometry": {"type": "LineString", "coordinates": [[-73.96193064458028, 40.73255385887251], [-73.96188722437532, 40.732226148645935]]}}, {"type": "Feature", "properties": {"segment_id": 1035995, "physicalid": "71815", "street_name": "HURON ST", "borough": "brooklyn", "direction": "TW", "total_row_ft": 100.3, "roadbed_ft": 70.3, "median_ft": 0.0, "left_sw_ft": 15.0, "right_sw_ft": 15.0}, "geometry": {"type": "LineString", "coordinates": [[-73.96185884406813, 40.732559363807646], [-73.96181542421272, 40.73223165355425]]}}, {"type": "Feature", "properties": {"segment_id": 1035996, "physicalid": "71815", "street_name": "HURON ST", "borough": "brooklyn", "direction": "TW", "total_row_ft": 98.3, "roadbed_ft": 70.8, "median_ft": 0.0, "left_sw_ft": 15.0, "right_sw_ft": 12.5}, "geometry": {"type": "LineString", "coordinates": [[-73.96178704354415, 40.73256486869799], [-73.96175689152194, 40.73233729557295]]}}, {"type": "Feature", "properties": {"segment_id": 1035997, "physicalid": "71815", "street_name": "HURON ST", "borough": "brooklyn", "direction": "TW", "total_row_ft": 65.8, "roadbed_ft": 34.9, "median_ft": 0.0, "left_sw_ft": 15.0, "right_sw_ft": 15.9}, "geometry": {"type": "LineString", "coordinates": [[-73.96171524300829, 40.73257037354358], [-73.96167801421825, 40.73228938582777]]}}, {"type": "Feature", "properties": {"segment_id": 1035998, "physicalid": "71815", "street_name": "HURON ST", "borough": "brooklyn", "direction": "TW", "total_row_ft": 66.5, "roadbed_ft": 38.3, "median_ft": 0.0, "left_sw_ft": 15.0, "right_sw_ft": 13.2}, "geometry": {"type": "LineString", "coordinates": [[-73.96164344246056, 40.732575878344385], [-73.96160596289158, 40.73229299554286]]}}, {"type": "Feature", "properties": {"segment_id": 1035999, "physicalid": "71815", "street_name": "HURON ST", "borough": "brooklyn", "direction": "TW", "total_row_ft": 65.9, "roadbed_ft": 34.5, "median_ft": 0.0, "left_sw_ft": 15.0, "right_sw_ft": 16.4}, "geometry": {"type": "LineString", "coordinates": [[-73.96157164190096, 40.73258138310043], [-73.96153435245779, 40.73229993301985]]}}, {"type": "Feature", "properties": {"segment_id": 1036000, "physicalid": "71815", "street_name": "HURON ST", "borough": "brooklyn", "direction": "TW", "total_row_ft": 65.3, "roadbed_ft": 33.9, "median_ft": 0.0, "left_sw_ft": 15.0, "right_sw_ft": 16.3}, "geometry": {"type": "LineString", "coordinates": [[-73.96149984132951, 40.73258688781169], [-73.96146274200908, 40.73230687045233]]}}, {"type": "Feature", "properties": {"segment_id": 1036001, "physicalid": "71815", "street_name": "HURON ST", "borough": "brooklyn", "direction": "TW", "total_row_ft": 64.7, "roadbed_ft": 33.3, "median_ft": 0.0, "left_sw_ft": 15.0, "right_sw_ft": 16.3}, "geometry": {"type": "LineString", "coordinates": [[-73.96142804074621, 40.73259239247819], [-73.96139113154545, 40.73231380784025]]}}, {"type": "Feature", "properties": {"segment_id": 1036002, "physicalid": "71815", "street_name": "HURON ST", "borough": "brooklyn", "direction": "TW", "total_row_ft": 64.1, "roadbed_ft": 32.8, "median_ft": 0.0, "left_sw_ft": 15.0, "right_sw_ft": 16.3}, "geometry": {"type": "LineString", "coordinates": [[-73.96135624015103, 40.73259789709989], [-73.96131952106693, 40.73232074518365]]}}, {"type": "Feature", "properties": {"segment_id": 1036003, "physicalid": "71815", "street_name": "HURON ST", "borough": "brooklyn", "direction": "TW", "total_row_ft": 63.4, "roadbed_ft": 32.2, "median_ft": 0.0, "left_sw_ft": 15.0, "right_sw_ft": 16.3}, "geometry": {"type": "LineString", "coordinates": [[-73.96128443954399, 40.73260340167687], [-73.96124791057349, 40.7323276824825]]}}, {"type": "Feature", "properties": {"segment_id": 1036004, "physicalid": "71815", "street_name": "HURON ST", "borough": "brooklyn", "direction": "TW", "total_row_ft": 62.8, "roadbed_ft": 31.6, "median_ft": 0.0, "left_sw_ft": 15.0, "right_sw_ft": 16.2}, "geometry": {"type": "LineString", "coordinates": [[-73.96121263892509, 40.73260890620902], [-73.96117630006515, 40.7323346197368]]}}, {"type": "Feature", "properties": {"segment_id": 1036005, "physicalid": "71815", "street_name": "HURON ST", "borough": "brooklyn", "direction": "TW", "total_row_ft": 62.2, "roadbed_ft": 31.0, "median_ft": 0.0, "left_sw_ft": 15.0, "right_sw_ft": 16.2}, "geometry": {"type": "LineString", "coordinates": [[-73.96114083829433, 40.73261441069642], [-73.96110468954188, 40.73234155694655]]}}, {"type": "Feature", "properties": {"segment_id": 1036006, "physicalid": "71815", "street_name": "HURON ST", "borough": "brooklyn", "direction": "TW", "total_row_ft": 61.6, "roadbed_ft": 30.5, "median_ft": 0.0, "left_sw_ft": 15.0, "right_sw_ft": 16.2}, "geometry": {"type": "LineString", "coordinates": [[-73.96106903765173, 40.73261991513904], [-73.96103307900371, 40.73234849411179]]}}, {"type": "Feature", "properties": {"segment_id": 1036007, "physicalid": "71815", "street_name": "HURON ST", "borough": "brooklyn", "direction": "TW", "total_row_ft": 61.0, "roadbed_ft": 29.9, "median_ft": 0.0, "left_sw_ft": 15.0, "right_sw_ft": 16.2}, "geometry": {"type": "LineString", "coordinates": [[-73.96099723699722, 40.732625419536916], [-73.96096146845063, 40.73235543123249]]}}, {"type": "Feature", "properties": {"segment_id": 1036008, "physicalid": "71815", "street_name": "HURON ST", "borough": "brooklyn", "direction": "TW", "total_row_ft": 60.8, "roadbed_ft": 29.6, "median_ft": 0.0, "left_sw_ft": 15.0, "right_sw_ft": 16.1}, "geometry": {"type": "LineString", "coordinates": [[-73.96092543633087, 40.73263092388997], [-73.96088985788265, 40.73236236830863]]}}, {"type": "Feature", "properties": {"segment_id": 1036009, "physicalid": "71815", "street_name": "HURON ST", "borough": "brooklyn", "direction": "TW", "total_row_ft": 60.7, "roadbed_ft": 29.6, "median_ft": 0.0, "left_sw_ft": 15.0, "right_sw_ft": 16.1}, "geometry": {"type": "LineString", "coordinates": [[-73.96085363565265, 40.73263642819828], [-73.96081824729976, 40.73236930534025]]}}, {"type": "Feature", "properties": {"segment_id": 1036010, "physicalid": "71815", "street_name": "HURON ST", "borough": "brooklyn", "direction": "TW", "total_row_ft": 60.7, "roadbed_ft": 29.7, "median_ft": 0.0, "left_sw_ft": 15.0, "right_sw_ft": 16.1}, "geometry": {"type": "LineString", "coordinates": [[-73.96078183496259, 40.73264193246181], [-73.96074663670193, 40.73237624232731]]}}, {"type": "Feature", "properties": {"segment_id": 1036011, "physicalid": "71815", "street_name": "HURON ST", "borough": "brooklyn", "direction": "TW", "total_row_ft": 60.7, "roadbed_ft": 29.7, "median_ft": 0.0, "left_sw_ft": 15.0, "right_sw_ft": 16.0}, "geometry": {"type": "LineString", "coordinates": [[-73.96071003426066, 40.73264743668057], [-73.96067502608922, 40.73238317926985]]}}, {"type": "Feature", "properties": {"segment_id": 1036012, "physicalid": "71815", "street_name": "HURON ST", "borough": "brooklyn", "direction": "TW", "total_row_ft": 60.7, "roadbed_ft": 29.7, "median_ft": 0.0, "left_sw_ft": 15.0, "right_sw_ft": 16.0}, "geometry": {"type": "LineString", "coordinates": [[-73.96063823354686, 40.73265294085456], [-73.96060341546158, 40.73239011616784]]}}, {"type": "Feature", "properties": {"segment_id": 1036013, "physicalid": "71815", "street_name": "HURON ST", "borough": "brooklyn", "direction": "TW", "total_row_ft": 60.7, "roadbed_ft": 29.8, "median_ft": 0.0, "left_sw_ft": 15.0, "right_sw_ft": 15.9}, "geometry": {"type": "LineString", "coordinates": [[-73.9605664328212, 40.73265844498378], [-73.96053180481906, 40.7323970530213]]}}, {"type": "Feature", "properties": {"segment_id": 1036014, "physicalid": "71815", "street_name": "HURON ST", "borough": "brooklyn", "direction": "TW", "total_row_ft": 60.7, "roadbed_ft": 29.9, "median_ft": 0.0, "left_sw_ft": 15.0, "right_sw_ft": 15.8}, "geometry": {"type": "LineString", "coordinates": [[-73.96049463208367, 40.73266394906821], [-73.9604601941616, 40.732403989830225]]}}, {"type": "Feature", "properties": {"segment_id": 1036015, "physicalid": "71815", "street_name": "HURON ST", "borough": "brooklyn", "direction": "TW", "total_row_ft": 60.6, "roadbed_ft": 30.0, "median_ft": 0.0, "left_sw_ft": 15.0, "right_sw_ft": 15.7}, "geometry": {"type": "LineString", "coordinates": [[-73.9604228313343, 40.732669453107874], [-73.96038858348923, 40.7324109265946]]}}, {"type": "Feature", "properties": {"segment_id": 1036016, "physicalid": "71815", "street_name": "HURON ST", "borough": "brooklyn", "direction": "TW", "total_row_ft": 60.6, "roadbed_ft": 30.0, "median_ft": 0.0, "left_sw_ft": 15.0, "right_sw_ft": 15.6}, "geometry": {"type": "LineString", "coordinates": [[-73.96035103057304, 40.732674957102766], [-73.96031697280196, 40.73241786331444]]}}, {"type": "Feature", "properties": {"segment_id": 1036017, "physicalid": "71815", "street_name": "HURON ST", "borough": "brooklyn", "direction": "TW", "total_row_ft": 60.6, "roadbed_ft": 30.1, "median_ft": 0.0, "left_sw_ft": 15.0, "right_sw_ft": 15.5}, "geometry": {"type": "LineString", "coordinates": [[-73.96027922979994, 40.7326804610529], [-73.9602453620998, 40.73242479998975]]}}, {"type": "Feature", "properties": {"segment_id": 1036018, "physicalid": "71815", "street_name": "HURON ST", "borough": "brooklyn", "direction": "TW", "total_row_ft": 60.5, "roadbed_ft": 30.1, "median_ft": 0.0, "left_sw_ft": 15.0, "right_sw_ft": 15.4}, "geometry": {"type": "LineString", "coordinates": [[-73.96020742901497, 40.732685964958236], [-73.96017375138271, 40.73243173662051]]}}, {"type": "Feature", "properties": {"segment_id": 1036019, "physicalid": "71815", "street_name": "HURON ST", "borough": "brooklyn", "direction": "TW", "total_row_ft": 60.1, "roadbed_ft": 29.8, "median_ft": 0.0, "left_sw_ft": 15.0, "right_sw_ft": 15.3}, "geometry": {"type": "LineString", "coordinates": [[-73.96013562821814, 40.73269146881879], [-73.96010214065072, 40.73243867320673]]}}, {"type": "Feature", "properties": {"segment_id": 1036020, "physicalid": "71815", "street_name": "HURON ST", "borough": "brooklyn", "direction": "TW", "total_row_ft": 59.7, "roadbed_ft": 29.6, "median_ft": 0.0, "left_sw_ft": 15.0, "right_sw_ft": 15.2}, "geometry": {"type": "LineString", "coordinates": [[-73.96006382740947, 40.732696972634606], [-73.9600305299038, 40.732445609748396]]}}, {"type": "Feature", "properties": {"segment_id": 1036370, "physicalid": "71837", "street_name": "INDIA ST", "borough": "brooklyn", "direction": "TW", "total_row_ft": 75.7, "roadbed_ft": 46.4, "median_ft": 0.0, "left_sw_ft": 14.2, "right_sw_ft": 15.0}, "geometry": {"type": "LineString", "coordinates": [[-73.9614750380356, 40.73175744839754], [-73.96144044153932, 40.73152604362781]]}}, {"type": "Feature", "properties": {"segment_id": 1036371, "physicalid": "71837", "street_name": "INDIA ST", "borough": "brooklyn", "direction": "TW", "total_row_ft": 74.9, "roadbed_ft": 44.2, "median_ft": 0.0, "left_sw_ft": 15.7, "right_sw_ft": 15.0}, "geometry": {"type": "LineString", "coordinates": [[-73.96140315130667, 40.73176241067246], [-73.96136874058871, 40.731532246853064]]}}, {"type": "Feature", "properties": {"segment_id": 1036372, "physicalid": "71837", "street_name": "INDIA ST", "borough": "brooklyn", "direction": "TW", "total_row_ft": 75.0, "roadbed_ft": 44.2, "median_ft": 0.0, "left_sw_ft": 15.9, "right_sw_ft": 15.0}, "geometry": {"type": "LineString", "coordinates": [[-73.9613316397931, 40.731769882695566], [-73.96129703962474, 40.731538450033675]]}}, {"type": "Feature", "properties": {"segment_id": 1036373, "physicalid": "71837", "street_name": "INDIA ST", "borough": "brooklyn", "direction": "TW", "total_row_ft": 75.2, "roadbed_ft": 44.1, "median_ft": 0.0, "left_sw_ft": 16.1, "right_sw_ft": 15.0}, "geometry": {"type": "LineString", "coordinates": [[-73.96126012826349, 40.73177735467425], [-73.96122533864745, 40.73154465316963]]}}, {"type": "Feature", "properties": {"segment_id": 1036374, "physicalid": "71837", "street_name": "INDIA ST", "borough": "brooklyn", "direction": "TW", "total_row_ft": 75.3, "roadbed_ft": 44.0, "median_ft": 0.0, "left_sw_ft": 16.3, "right_sw_ft": 15.0}, "geometry": {"type": "LineString", "coordinates": [[-73.96118861671783, 40.73178482660853], [-73.96115363765678, 40.731550856260945]]}}, {"type": "Feature", "properties": {"segment_id": 1036375, "physicalid": "71837", "street_name": "INDIA ST", "borough": "brooklyn", "direction": "TW", "total_row_ft": 74.1, "roadbed_ft": 43.9, "median_ft": 0.0, "left_sw_ft": 15.1, "right_sw_ft": 15.0}, "geometry": {"type": "LineString", "coordinates": [[-73.96111655159886, 40.73178859581276], [-73.96108193665276, 40.73155705930761]]}}, {"type": "Feature", "properties": {"segment_id": 1036376, "physicalid": "71837", "street_name": "INDIA ST", "borough": "brooklyn", "direction": "TW", "total_row_ft": 74.0, "roadbed_ft": 43.8, "median_ft": 0.0, "left_sw_ft": 15.2, "right_sw_ft": 15.0}, "geometry": {"type": "LineString", "coordinates": [[-73.96104495812081, 40.73179551980522], [-73.9610102356354, 40.73156326230959]]}}, {"type": "Feature", "properties": {"segment_id": 1036377, "physicalid": "71837", "street_name": "INDIA ST", "borough": "brooklyn", "direction": "TW", "total_row_ft": 74.0, "roadbed_ft": 43.7, "median_ft": 0.0, "left_sw_ft": 15.2, "right_sw_ft": 15.0}, "geometry": {"type": "LineString", "coordinates": [[-73.96097336462788, 40.73180244375311], [-73.96093853460468, 40.73156946526695]]}}, {"type": "Feature", "properties": {"segment_id": 1036378, "physicalid": "71837", "street_name": "INDIA ST", "borough": "brooklyn", "direction": "TW", "total_row_ft": 73.9, "roadbed_ft": 43.6, "median_ft": 0.0, "left_sw_ft": 15.3, "right_sw_ft": 15.0}, "geometry": {"type": "LineString", "coordinates": [[-73.96090177112006, 40.73180936765654], [-73.96086683356064, 40.73157566817966]]}}, {"type": "Feature", "properties": {"segment_id": 1036379, "physicalid": "71837", "street_name": "INDIA ST", "borough": "brooklyn", "direction": "TW", "total_row_ft": 73.8, "roadbed_ft": 43.5, "median_ft": 0.0, "left_sw_ft": 15.3, "right_sw_ft": 15.0}, "geometry": {"type": "LineString", "coordinates": [[-73.96083017759739, 40.73181629151539], [-73.96079513250324, 40.731581871047695]]}}, {"type": "Feature", "properties": {"segment_id": 1036380, "physicalid": "71837", "street_name": "INDIA ST", "borough": "brooklyn", "direction": "TW", "total_row_ft": 73.7, "roadbed_ft": 43.4, "median_ft": 0.0, "left_sw_ft": 15.3, "right_sw_ft": 15.0}, "geometry": {"type": "LineString", "coordinates": [[-73.96075855041808, 40.731822990295655], [-73.96072343143247, 40.731588073871094]]}}, {"type": "Feature", "properties": {"segment_id": 1036381, "physicalid": "71837", "street_name": "INDIA ST", "borough": "brooklyn", "direction": "TW", "total_row_ft": 73.5, "roadbed_ft": 43.3, "median_ft": 0.0, "left_sw_ft": 15.3, "right_sw_ft": 15.0}, "geometry": {"type": "LineString", "coordinates": [[-73.96068691536753, 40.73182963647542], [-73.96065173034836, 40.73159427664985]]}}, {"type": "Feature", "properties": {"segment_id": 1036382, "physicalid": "71837", "street_name": "INDIA ST", "borough": "brooklyn", "direction": "TW", "total_row_ft": 73.4, "roadbed_ft": 43.2, "median_ft": 0.0, "left_sw_ft": 15.2, "right_sw_ft": 15.0}, "geometry": {"type": "LineString", "coordinates": [[-73.96061528029469, 40.73183628255727], [-73.9605800292509, 40.73160047938396]]}}, {"type": "Feature", "properties": {"segment_id": 1036383, "physicalid": "71837", "street_name": "INDIA ST", "borough": "brooklyn", "direction": "TW", "total_row_ft": 73.2, "roadbed_ft": 43.0, "median_ft": 0.0, "left_sw_ft": 15.2, "right_sw_ft": 15.0}, "geometry": {"type": "LineString", "coordinates": [[-73.96054364520757, 40.73184292859454], [-73.96050832814012, 40.731606682073405]]}}, {"type": "Feature", "properties": {"segment_id": 1036384, "physicalid": "71837", "street_name": "INDIA ST", "borough": "brooklyn", "direction": "TW", "total_row_ft": 73.0, "roadbed_ft": 42.9, "median_ft": 0.0, "left_sw_ft": 15.1, "right_sw_ft": 15.0}, "geometry": {"type": "LineString", "coordinates": [[-73.96047201010616, 40.73184957458725], [-73.96043662701598, 40.73161288471821]]}}, {"type": "Feature", "properties": {"segment_id": 1036385, "physicalid": "71837", "street_name": "INDIA ST", "borough": "brooklyn", "direction": "TW", "total_row_ft": 72.9, "roadbed_ft": 42.8, "median_ft": 0.0, "left_sw_ft": 15.0, "right_sw_ft": 15.0}, "geometry": {"type": "LineString", "coordinates": [[-73.96040037499048, 40.7318562205354], [-73.96036492587845, 40.73161908731835]]}}, {"type": "Feature", "properties": {"segment_id": 1036386, "physicalid": "71837", "street_name": "INDIA ST", "borough": "brooklyn", "direction": "TW", "total_row_ft": 72.7, "roadbed_ft": 42.9, "median_ft": 0.0, "left_sw_ft": 14.9, "right_sw_ft": 15.0}, "geometry": {"type": "LineString", "coordinates": [[-73.9603287398605, 40.73186286643897], [-73.96029322472762, 40.731625289873854]]}}, {"type": "Feature", "properties": {"segment_id": 1036387, "physicalid": "71837", "street_name": "INDIA ST", "borough": "brooklyn", "direction": "TW", "total_row_ft": 72.6, "roadbed_ft": 42.9, "median_ft": 0.0, "left_sw_ft": 14.7, "right_sw_ft": 15.0}, "geometry": {"type": "LineString", "coordinates": [[-73.96025710471622, 40.731869512297976], [-73.96022152356342, 40.73163149238468]]}}, {"type": "Feature", "properties": {"segment_id": 1036388, "physicalid": "71837", "street_name": "INDIA ST", "borough": "brooklyn", "direction": "TW", "total_row_ft": 72.4, "roadbed_ft": 42.9, "median_ft": 0.0, "left_sw_ft": 14.5, "right_sw_ft": 15.0}, "geometry": {"type": "LineString", "coordinates": [[-73.96018547356691, 40.73187618493233], [-73.96014982238589, 40.73163769485088]]}}, {"type": "Feature", "properties": {"segment_id": 1036389, "physicalid": "71837", "street_name": "INDIA ST", "borough": "brooklyn", "direction": "TW", "total_row_ft": 72.3, "roadbed_ft": 42.9, "median_ft": 0.0, "left_sw_ft": 14.4, "right_sw_ft": 15.0}, "geometry": {"type": "LineString", "coordinates": [[-73.96011384995091, 40.731882908012764], [-73.96007812119501, 40.731643897272434]]}}, {"type": "Feature", "properties": {"segment_id": 1036390, "physicalid": "71837", "street_name": "INDIA ST", "borough": "brooklyn", "direction": "TW", "total_row_ft": 57.1, "roadbed_ft": 30.5, "median_ft": 0.0, "left_sw_ft": 14.2, "right_sw_ft": 12.4}, "geometry": {"type": "LineString", "coordinates": [[-73.96004222632048, 40.73188963104865], [-73.96001893243105, 40.731733803548664]]}}, {"type": "Feature", "properties": {"segment_id": 1407822, "physicalid": "95450", "street_name": "WEST ST", "borough": "brooklyn", "direction": "FT", "total_row_ft": 58.4, "roadbed_ft": 35.4, "median_ft": 4.6, "left_sw_ft": 10.2, "right_sw_ft": 8.3}, "geometry": {"type": "LineString", "coordinates": [[-73.96009868350389, 40.73433906008883], [-73.9599055393544, 40.73435451323156]]}}, {"type": "Feature", "properties": {"segment_id": 1407823, "physicalid": "95450", "street_name": "WEST ST", "borough": "brooklyn", "direction": "FT", "total_row_ft": 57.8, "roadbed_ft": 35.4, "median_ft": 4.6, "left_sw_ft": 9.8, "right_sw_ft": 8.0}, "geometry": {"type": "LineString", "coordinates": [[-73.96010700537275, 40.73439359216014], [-73.95991583242696, 40.7344088875931]]}}, {"type": "Feature", "properties": {"segment_id": 1407824, "physicalid": "95450", "street_name": "WEST ST", "borough": "brooklyn", "direction": "FT", "total_row_ft": 57.3, "roadbed_ft": 35.5, "median_ft": 4.6, "left_sw_ft": 9.5, "right_sw_ft": 7.7}, "geometry": {"type": "LineString", "coordinates": [[-73.96011532725524, 40.73444812423042], [-73.95992612551633, 40.73446326195334]]}}, {"type": "Feature", "properties": {"segment_id": 1407825, "physicalid": "95450", "street_name": "WEST ST", "borough": "brooklyn", "direction": "FT", "total_row_ft": 56.7, "roadbed_ft": 35.6, "median_ft": 4.6, "left_sw_ft": 9.2, "right_sw_ft": 7.4}, "geometry": {"type": "LineString", "coordinates": [[-73.96012364915134, 40.73450265629968], [-73.9599364186225, 40.73451763631222]]}}, {"type": "Feature", "properties": {"segment_id": 1407826, "physicalid": "95450", "street_name": "WEST ST", "borough": "brooklyn", "direction": "FT", "total_row_ft": 55.2, "roadbed_ft": 35.7, "median_ft": 4.6, "left_sw_ft": 7.8, "right_sw_ft": 7.1}, "geometry": {"type": "LineString", "coordinates": [[-73.96012824847638, 40.73455748620896], [-73.95994671174546, 40.73457201066983]]}}, {"type": "Feature", "properties": {"segment_id": 1407827, "physicalid": "95450", "street_name": "WEST ST", "borough": "brooklyn", "direction": "FT", "total_row_ft": 49.3, "roadbed_ft": 36.1, "median_ft": 0.0, "left_sw_ft": 5.9, "right_sw_ft": 7.2}, "geometry": {"type": "LineString", "coordinates": [[-73.96013092956618, 40.73461246959467], [-73.95995401487241, 40.73462662424978]]}}]}