{"type": "FeatureCollection", "features": [{"type": "Feature", "properties": {"segment_id": 669975, "physicalid": "47991", "street_name": "LOMBARDY ST", "borough": "brooklyn", "direction": "TW", "total_row_ft": 70.3, "roadbed_ft": 42.5, "median_ft": 0.0, "left_sw_ft": 12.8, "right_sw_ft": 15.0}, "geometry": {"type": "LineString", "coordinates": [[-73.93002677692442, 40.72450639377144], [-73.92992987431383, 40.724285873166025]]}}, {"type": "Feature", "properties": {"segment_id": 669976, "physicalid": "47991", "street_name": "LOMBARDY ST", "borough": "brooklyn", "direction": "TW", "total_row_ft": 100.6, "roadbed_ft": 72.1, "median_ft": 0.0, "left_sw_ft": 13.5, "right_sw_ft": 15.0}, "geometry": {"type": "LineString", "coordinates": [[-73.92995935867734, 40.724526107502086], [-73.92986144183706, 40.72430327830916]]}}, {"type": "Feature", "properties": {"segment_id": 669977, "physicalid": "47991", "street_name": "LOMBARDY ST", "borough": "brooklyn", "direction": "TW", "total_row_ft": 77.0, "roadbed_ft": 47.7, "median_ft": 0.0, "left_sw_ft": 14.3, "right_sw_ft": 15.0}, "geometry": {"type": "LineString", "coordinates": [[-73.92989194039036, 40.72454582119322], [-73.92979300932456, 40.72432068341158]]}}, {"type": "Feature", "properties": {"segment_id": 669978, "physicalid": "47991", "street_name": "LOMBARDY ST", "borough": "brooklyn", "direction": "TW", "total_row_ft": 68.2, "roadbed_ft": 38.8, "median_ft": 0.0, "left_sw_ft": 14.4, "right_sw_ft": 15.0}, "geometry": {"type": "LineString", "coordinates": [[-73.92982392972282, 40.724564186854714], [-73.9297245767763, 40.72433808847325]]}}, {"type": "Feature", "properties": {"segment_id": 669979, "physicalid": "47991", "street_name": "LOMBARDY ST", "borough": "brooklyn", "direction": "TW", "total_row_ft": 68.3, "roadbed_ft": 39.5, "median_ft": 0.0, "left_sw_ft": 13.8, "right_sw_ft": 15.0}, "geometry": {"type": "LineString", "coordinates": [[-73.92975493775089, 40.724580319401035], [-73.92965614419231, 40.72435549349425]]}}, {"type": "Feature", "properties": {"segment_id": 669980, "physicalid": "47991", "street_name": "LOMBARDY ST", "borough": "brooklyn", "direction": "TW", "total_row_ft": 68.4, "roadbed_ft": 40.3, "median_ft": 0.0, "left_sw_ft": 13.1, "right_sw_ft": 15.0}, "geometry": {"type": "LineString", "coordinates": [[-73.92968594557641, 40.72459645152102], [-73.92958771157257, 40.72437289847453]]}}, {"type": "Feature", "properties": {"segment_id": 669981, "physicalid": "47991", "street_name": "LOMBARDY ST", "borough": "brooklyn", "direction": "TW", "total_row_ft": 68.5, "roadbed_ft": 41.0, "median_ft": 0.0, "left_sw_ft": 12.5, "right_sw_ft": 15.0}, "geometry": {"type": "LineString", "coordinates": [[-73.929616953392, 40.72461258365306], [-73.92951927891707, 40.7243903034141]]}}, {"type": "Feature", "properties": {"segment_id": 669982, "physicalid": "47991", "street_name": "LOMBARDY ST", "borough": "brooklyn", "direction": "TW", "total_row_ft": 68.2, "roadbed_ft": 41.3, "median_ft": 0.0, "left_sw_ft": 11.8, "right_sw_ft": 15.0}, "geometry": {"type": "LineString", "coordinates": [[-73.92954796115697, 40.72462871570455], [-73.92945084622585, 40.72440770831293]]}}, {"type": "Feature", "properties": {"segment_id": 669983, "physicalid": "47991", "street_name": "LOMBARDY ST", "borough": "brooklyn", "direction": "TW", "total_row_ft": 67.8, "roadbed_ft": 41.7, "median_ft": 0.0, "left_sw_ft": 11.1, "right_sw_ft": 15.0}, "geometry": {"type": "LineString", "coordinates": [[-73.92947896869394, 40.7246448472718], [-73.92938241349887, 40.724425113171066]]}}, {"type": "Feature", "properties": {"segment_id": 669984, "physicalid": "47991", "street_name": "LOMBARDY ST", "borough": "brooklyn", "direction": "TW", "total_row_ft": 67.6, "roadbed_ft": 42.1, "median_ft": 0.0, "left_sw_ft": 10.5, "right_sw_ft": 15.0}, "geometry": {"type": "LineString", "coordinates": [[-73.92941002400342, 40.72466108759117], [-73.92931398073615, 40.72444251798847]]}}, {"type": "Feature", "properties": {"segment_id": 669985, "physicalid": "47992", "street_name": "LOMBARDY ST", "borough": "brooklyn", "direction": "TW", "total_row_ft": 67.6, "roadbed_ft": 43.3, "median_ft": 0.0, "left_sw_ft": 9.4, "right_sw_ft": 15.0}, "geometry": {"type": "LineString", "coordinates": [[-73.92924173370484, 40.72470211028163], [-73.92914428400319, 40.724486025548615]]}}, {"type": "Feature", "properties": {"segment_id": 669986, "physicalid": "47992", "street_name": "LOMBARDY ST", "borough": "brooklyn", "direction": "TW", "total_row_ft": 73.5, "roadbed_ft": 43.5, "median_ft": 0.0, "left_sw_ft": 15.0, "right_sw_ft": 15.0}, "geometry": {"type": "LineString", "coordinates": [[-73.92921653351316, 40.72481538453551], [-73.92907603380431, 40.72450384058838]]}}, {"type": "Feature", "properties": {"segment_id": 669987, "physicalid": "47992", "street_name": "LOMBARDY ST", "borough": "brooklyn", "direction": "TW", "total_row_ft": 73.6, "roadbed_ft": 43.6, "median_ft": 0.0, "left_sw_ft": 15.0, "right_sw_ft": 15.0}, "geometry": {"type": "LineString", "coordinates": [[-73.9291482829963, 40.724833199617294], [-73.92900778356895, 40.724521655587644]]}}, {"type": "Feature", "properties": {"segment_id": 669988, "physicalid": "47992", "street_name": "LOMBARDY ST", "borough": "brooklyn", "direction": "TW", "total_row_ft": 73.7, "roadbed_ft": 43.7, "median_ft": 0.0, "left_sw_ft": 15.0, "right_sw_ft": 15.0}, "geometry": {"type": "LineString", "coordinates": [[-73.92908003244294, 40.72485101465861], [-73.9289395332971, 40.72453947054641]]}}, {"type": "Feature", "properties": {"segment_id": 669989, "physicalid": "47992", "street_name": "LOMBARDY ST", "borough": "brooklyn", "direction": "TW", "total_row_ft": 73.8, "roadbed_ft": 43.8, "median_ft": 0.0, "left_sw_ft": 15.0, "right_sw_ft": 15.0}, "geometry": {"type": "LineString", "coordinates": [[-73.9290117818531, 40.724868829659414], [-73.92887128298874, 40.724557285464705]]}}, {"type": "Feature", "properties": {"segment_id": 669990, "physicalid": "47992", "street_name": "LOMBARDY ST", "borough": "brooklyn", "direction": "TW", "total_row_ft": 73.9, "roadbed_ft": 43.9, "median_ft": 0.0, "left_sw_ft": 15.0, "right_sw_ft": 15.0}, "geometry": {"type": "LineString", "coordinates": [[-73.92894353122676, 40.72488664461971], [-73.92880303264391, 40.724575100342456]]}}, {"type": "Feature", "properties": {"segment_id": 669991, "physicalid": "47992", "street_name": "LOMBARDY ST", "borough": "brooklyn", "direction": "TW", "total_row_ft": 74.0, "roadbed_ft": 44.0, "median_ft": 0.0, "left_sw_ft": 15.0, "right_sw_ft": 15.0}, "geometry": {"type": "LineString", "coordinates": [[-73.92887528056394, 40.72490445953952], [-73.9287347822626, 40.72459291517975]]}}, {"type": "Feature", "properties": {"segment_id": 669992, "physicalid": "47992", "street_name": "LOMBARDY ST", "borough": "brooklyn", "direction": "TW", "total_row_ft": 74.1, "roadbed_ft": 44.1, "median_ft": 0.0, "left_sw_ft": 15.0, "right_sw_ft": 15.0}, "geometry": {"type": "LineString", "coordinates": [[-73.92880702986463, 40.72492227441881], [-73.92866653184478, 40.72461072997653]]}}, {"type": "Feature", "properties": {"segment_id": 669993, "physicalid": "47992", "street_name": "LOMBARDY ST", "borough": "brooklyn", "direction": "TW", "total_row_ft": 74.2, "roadbed_ft": 44.2, "median_ft": 0.0, "left_sw_ft": 15.0, "right_sw_ft": 15.0}, "geometry": {"type": "LineString", "coordinates": [[-73.92873877912884, 40.72494008925763], [-73.92859828139049, 40.7246285447328]]}}, {"type": "Feature", "properties": {"segment_id": 669994, "physicalid": "47992", "street_name": "LOMBARDY ST", "borough": "brooklyn", "direction": "TW", "total_row_ft": 74.2, "roadbed_ft": 44.2, "median_ft": 0.0, "left_sw_ft": 15.0, "right_sw_ft": 15.0}, "geometry": {"type": "LineString", "coordinates": [[-73.92867052835655, 40.72495790405592], [-73.92853003089971, 40.72464635944857]]}}, {"type": "Feature", "properties": {"segment_id": 669995, "physicalid": "47992", "street_name": "LOMBARDY ST", "borough": "brooklyn", "direction": "TW", "total_row_ft": 74.2, "roadbed_ft": 44.2, "median_ft": 0.0, "left_sw_ft": 15.0, "right_sw_ft": 15.0}, "geometry": {"type": "LineString", "coordinates": [[-73.92860227754775, 40.72497571881372], [-73.92846178037243, 40.724664174123845]]}}, {"type": "Feature", "properties": {"segment_id": 669996, "physicalid": "47992", "street_name": "LOMBARDY ST", "borough": "brooklyn", "direction": "TW", "total_row_ft": 74.2, "roadbed_ft": 44.2, "median_ft": 0.0, "left_sw_ft": 15.0, "right_sw_ft": 15.0}, "geometry": {"type": "LineString", "coordinates": [[-73.9285340267025, 40.72499353353105], [-73.92839352980866, 40.72468198875862]]}}, {"type": "Feature", "properties": {"segment_id": 669997, "physicalid": "47992", "street_name": "LOMBARDY ST", "borough": "brooklyn", "direction": "TW", "total_row_ft": 74.2, "roadbed_ft": 44.2, "median_ft": 0.0, "left_sw_ft": 15.0, "right_sw_ft": 15.0}, "geometry": {"type": "LineString", "coordinates": [[-73.92846577582074, 40.72501134820784], [-73.92832527920841, 40.724699803352905]]}}, {"type": "Feature", "properties": {"segment_id": 669998, "physicalid": "47992", "street_name": "LOMBARDY ST", "borough": "brooklyn", "direction": "TW", "total_row_ft": 74.2, "roadbed_ft": 44.2, "median_ft": 0.0, "left_sw_ft": 15.0, "right_sw_ft": 15.0}, "geometry": {"type": "LineString", "coordinates": [[-73.9283975249025, 40.725029162844166], [-73.92825702857166, 40.72471761790669]]}}, {"type": "Feature", "properties": {"segment_id": 669999, "physicalid": "47992", "street_name": "LOMBARDY ST", "borough": "brooklyn", "direction": "TW", "total_row_ft": 74.2, "roadbed_ft": 44.2, "median_ft": 0.0, "left_sw_ft": 15.0, "right_sw_ft": 15.0}, "geometry": {"type": "LineString", "coordinates": [[-73.92832927394774, 40.725046977439966], [-73.92818877789846, 40.72473543241997]]}}, {"type": "Feature", "properties": {"segment_id": 670000, "physicalid": "47992", "street_name": "LOMBARDY ST", "borough": "brooklyn", "direction": "TW", "total_row_ft": 74.2, "roadbed_ft": 44.2, "median_ft": 0.0, "left_sw_ft": 15.0, "right_sw_ft": 15.0}, "geometry": {"type": "LineString", "coordinates": [[-73.92826102295652, 40.72506479199527], [-73.92812052718872, 40.72475324689277]]}}, {"type": "Feature", "properties": {"segment_id": 670001, "physicalid": "47992", "street_name": "LOMBARDY ST", "borough": "brooklyn", "direction": "TW", "total_row_ft": 74.2, "roadbed_ft": 44.2, "median_ft": 0.0, "left_sw_ft": 15.0, "right_sw_ft": 15.0}, "geometry": {"type": "LineString", "coordinates": [[-73.9281927719288, 40.72508260651008], [-73.92805227644251, 40.724771061325036]]}}, {"type": "Feature", "properties": {"segment_id": 670002, "physicalid": "47992", "street_name": "LOMBARDY ST", "borough": "brooklyn", "direction": "TW", "total_row_ft": 74.2, "roadbed_ft": 44.2, "median_ft": 0.0, "left_sw_ft": 15.0, "right_sw_ft": 15.0}, "geometry": {"type": "LineString", "coordinates": [[-73.9281245208646, 40.72510042098438], [-73.92798402565982, 40.724788875716825]]}}, {"type": "Feature", "properties": {"segment_id": 670003, "physicalid": "47992", "street_name": "LOMBARDY ST", "borough": "brooklyn", "direction": "TW", "total_row_ft": 30.0, "roadbed_ft": 0.0, "median_ft": 0.0, "left_sw_ft": 15.0, "right_sw_ft": 15.0}, "geometry": {"type": "LineString", "coordinates": [[-73.92805626976391, 40.72511823541819], [-73.92791577484063, 40.72480669006811]]}}, {"type": "Feature", "properties": {"segment_id": 670004, "physicalid": "47992", "street_name": "LOMBARDY ST", "borough": "brooklyn", "direction": "TW", "total_row_ft": 30.0, "roadbed_ft": 0.0, "median_ft": 0.0, "left_sw_ft": 15.0, "right_sw_ft": 15.0}, "geometry": {"type": "LineString", "coordinates": [[-73.92798801862673, 40.725136049811496], [-73.92784752398495, 40.7248245043789]]}}, {"type": "Feature", "properties": {"segment_id": 1013748, "physicalid": "70495", "street_name": "TOWNSEND ST", "borough": "brooklyn", "direction": "TW", "total_row_ft": 30.0, "roadbed_ft": 0.0, "median_ft": 0.0, "left_sw_ft": 15.0, "right_sw_ft": 15.0}, "geometry": {"type": "LineString", "coordinates": [[-73.93005586008265, 40.72764991631893], [-73.92988303739278, 40.72734792416868]]}}, {"type": "Feature", "properties": {"segment_id": 1013749, "physicalid": "70495", "street_name": "TOWNSEND ST", "borough": "brooklyn", "direction": "TW", "total_row_ft": 30.0, "roadbed_ft": 0.0, "median_ft": 0.0, "left_sw_ft": 15.0, "right_sw_ft": 15.0}, "geometry": {"type": "LineString", "coordinates": [[-73.92998969926235, 40.72767182895222], [-73.9298168768155, 40.72736983670359]]}}, {"type": "Feature", "properties": {"segment_id": 1013750, "physicalid": "70495", "street_name": "TOWNSEND ST", "borough": "brooklyn", "direction": "TW", "total_row_ft": 30.0, "roadbed_ft": 0.0, "median_ft": 0.0, "left_sw_ft": 15.0, "right_sw_ft": 15.0}, "geometry": {"type": "LineString", "coordinates": [[-73.92992353839855, 40.72769374154744], [-73.92975071619469, 40.72739174920039]]}}, {"type": "Feature", "properties": {"segment_id": 1629869, "physicalid": "153505", "street_name": "CHERRY ST", "borough": "brooklyn", "direction": "TW", "total_row_ft": 59.5, "roadbed_ft": 24.0, "median_ft": 0.0, "left_sw_ft": 20.4, "right_sw_ft": 15.0}, "geometry": {"type": "LineString", "coordinates": [[-73.93004456732616, 40.72605043380693], [-73.92992024088277, 40.72582338899898]]}}, {"type": "Feature", "properties": {"segment_id": 1722048, "physicalid": "183027", "street_name": "KOSCIUSZKO BRG", "borough": "brooklyn", "direction": "FT", "total_row_ft": 117.9, "roadbed_ft": 84.9, "median_ft": 3.0, "left_sw_ft": 15.0, "right_sw_ft": 15.0}, "geometry": {"type": "LineString", "coordinates": [[-73.92936921255006, 40.727482204776535], [-73.92904568534733, 40.72726332699551]]}}, {"type": "Feature", "properties": {"segment_id": 1722049, "physicalid": "183027", "street_name": "KOSCIUSZKO BRG", "borough": "brooklyn", "direction": "FT", "total_row_ft": 117.6, "roadbed_ft": 84.5, "median_ft": 3.1, "left_sw_ft": 15.0, "right_sw_ft": 15.0}, "geometry": {"type": "LineString", "coordinates": [[-73.9293212607171, 40.727523225701155], [-73.92899773347273, 40.7273043477866]]}}, {"type": "Feature", "properties": {"segment_id": 1722050, "physicalid": "183027", "street_name": "KOSCIUSZKO BRG", "borough": "brooklyn", "direction": "FT", "total_row_ft": 117.3, "roadbed_ft": 84.2, "median_ft": 3.1, "left_sw_ft": 15.0, "right_sw_ft": 15.0}, "geometry": {"type": "LineString", "coordinates": [[-73.92927330882509, 40.72756424660557], [-73.9289497815391, 40.727345368557486]]}}, {"type": "Feature", "properties": {"segment_id": 1722051, "physicalid": "183027", "street_name": "KOSCIUSZKO BRG", "borough": "brooklyn", "direction": "FT", "total_row_ft": 117.0, "roadbed_ft": 83.8, "median_ft": 3.2, "left_sw_ft": 15.0, "right_sw_ft": 15.0}, "geometry": {"type": "LineString", "coordinates": [[-73.92922535687407, 40.72760526748976], [-73.92890182954639, 40.727386389308194]]}}, {"type": "Feature", "properties": {"segment_id": 1722052, "physicalid": "183027", "street_name": "KOSCIUSZKO BRG", "borough": "brooklyn", "direction": "FT", "total_row_ft": 116.7, "roadbed_ft": 83.4, "median_ft": 3.3, "left_sw_ft": 15.0, "right_sw_ft": 15.0}, "geometry": {"type": "LineString", "coordinates": [[-73.929177404864, 40.72764628835374], [-73.92885387749469, 40.72742741003869]]}}, {"type": "Feature", "properties": {"segment_id": 1722053, "physicalid": "183029", "street_name": "THOMAS ST", "borough": "brooklyn", "direction": "TW", "total_row_ft": 116.3, "roadbed_ft": 82.9, "median_ft": 3.4, "left_sw_ft": 15.0, "right_sw_ft": 15.0}, "geometry": {"type": "LineString", "coordinates": [[-73.93007076663028, 40.72683726736508], [-73.92991962854553, 40.72652861767162]]}}, {"type": "Feature", "properties": {"segment_id": 1722054, "physicalid": "183029", "street_name": "THOMAS ST", "borough": "brooklyn", "direction": "TW", "total_row_ft": 116.3, "roadbed_ft": 83.0, "median_ft": 3.2, "left_sw_ft": 15.0, "right_sw_ft": 15.0}, "geometry": {"type": "LineString", "coordinates": [[-73.93000314809464, 40.726856430786036], [-73.92985201027962, 40.72654778100461]]}}, {"type": "Feature", "properties": {"segment_id": 1722055, "physicalid": "183029", "street_name": "THOMAS ST", "borough": "brooklyn", "direction": "TW", "total_row_ft": 126.9, "roadbed_ft": 93.9, "median_ft": 3.0, "left_sw_ft": 15.0, "right_sw_ft": 15.0}, "geometry": {"type": "LineString", "coordinates": [[-73.9299355295201, 40.72687559416722], [-73.9297843919748, 40.72656694429782]]}}, {"type": "Feature", "properties": {"segment_id": 1722056, "physicalid": "183029", "street_name": "THOMAS ST", "borough": "brooklyn", "direction": "TW", "total_row_ft": 128.6, "roadbed_ft": 95.8, "median_ft": 2.8, "left_sw_ft": 15.0, "right_sw_ft": 15.0}, "geometry": {"type": "LineString", "coordinates": [[-73.9298679109067, 40.72689475750865], [-73.92971677363111, 40.726586107551334]]}}, {"type": "Feature", "properties": {"segment_id": 1722057, "physicalid": "183029", "street_name": "THOMAS ST", "borough": "brooklyn", "direction": "TW", "total_row_ft": 128.8, "roadbed_ft": 96.0, "median_ft": 2.8, "left_sw_ft": 15.0, "right_sw_ft": 15.0}, "geometry": {"type": "LineString", "coordinates": [[-73.9298002922544, 40.72691392081029], [-73.9296491552485, 40.72660527076502]]}}, {"type": "Feature", "properties": {"segment_id": 1722080, "physicalid": "183031", "street_name": "SCOTT AVE", "borough": "brooklyn", "direction": "TW", "total_row_ft": 93.2, "roadbed_ft": 39.1, "median_ft": 0.0, "left_sw_ft": 39.1, "right_sw_ft": 15.0}, "geometry": {"type": "LineString", "coordinates": [[-73.93011388278813, 40.725995712689596], [-73.92970490918927, 40.72610378661935]]}}, {"type": "Feature", "properties": {"segment_id": 1722081, "physicalid": "183031", "street_name": "SCOTT AVE", "borough": "brooklyn", "direction": "TW", "total_row_ft": 69.6, "roadbed_ft": 39.6, "median_ft": 0.0, "left_sw_ft": 15.0, "right_sw_ft": 15.0}, "geometry": {"type": "LineString", "coordinates": [[-73.93013755934818, 40.726047568526226], [-73.92972858546946, 40.72615564253925]]}}, {"type": "Feature", "properties": {"segment_id": 1722082, "physicalid": "183031", "street_name": "SCOTT AVE", "borough": "brooklyn", "direction": "TW", "total_row_ft": 70.1, "roadbed_ft": 40.1, "median_ft": 0.0, "left_sw_ft": 15.0, "right_sw_ft": 15.0}, "geometry": {"type": "LineString", "coordinates": [[-73.93016123594506, 40.72609942435755], [-73.92975226178652, 40.72620749845398]]}}, {"type": "Feature", "properties": {"segment_id": 1722083, "physicalid": "183031", "street_name": "SCOTT AVE", "borough": "brooklyn", "direction": "TW", "total_row_ft": 70.7, "roadbed_ft": 40.7, "median_ft": 0.0, "left_sw_ft": 15.0, "right_sw_ft": 15.0}, "geometry": {"type": "LineString", "coordinates": [[-73.93018491257881, 40.72615128018369], [-73.92977593814041, 40.72625935436345]]}}, {"type": "Feature", "properties": {"segment_id": 1722102, "physicalid": "183036", "street_name": "KOSCIUSZKO BRG", "borough": "brooklyn", "direction": "FT", "total_row_ft": 110.2, "roadbed_ft": 77.7, "median_ft": 2.6, "left_sw_ft": 15.0, "right_sw_ft": 15.0}, "geometry": {"type": "LineString", "coordinates": [[-73.9297391587059, 40.72693142619005], [-73.9294160676847, 40.726712178103504]]}}, {"type": "Feature", "properties": {"segment_id": 1722103, "physicalid": "183036", "street_name": "KOSCIUSZKO BRG", "borough": "brooklyn", "direction": "FT", "total_row_ft": 110.1, "roadbed_ft": 77.5, "median_ft": 2.6, "left_sw_ft": 15.0, "right_sw_ft": 15.0}, "geometry": {"type": "LineString", "coordinates": [[-73.92969112614647, 40.72697239215181], [-73.92936803508468, 40.7267531439317]]}}, {"type": "Feature", "properties": {"segment_id": 1722104, "physicalid": "183036", "street_name": "KOSCIUSZKO BRG", "borough": "brooklyn", "direction": "FT", "total_row_ft": 110.0, "roadbed_ft": 77.3, "median_ft": 2.7, "left_sw_ft": 15.0, "right_sw_ft": 15.0}, "geometry": {"type": "LineString", "coordinates": [[-73.92964309352799, 40.7270133580933], [-73.9293200024256, 40.72679410973965]]}}, {"type": "Feature", "properties": {"segment_id": 1722105, "physicalid": "183036", "street_name": "KOSCIUSZKO BRG", "borough": "brooklyn", "direction": "FT", "total_row_ft": 109.9, "roadbed_ft": 77.0, "median_ft": 2.9, "left_sw_ft": 15.0, "right_sw_ft": 15.0}, "geometry": {"type": "LineString", "coordinates": [[-73.92959506085045, 40.727054324014524], [-73.92927196970747, 40.72683507552732]]}}, {"type": "Feature", "properties": {"segment_id": 1722106, "physicalid": "183036", "street_name": "KOSCIUSZKO BRG", "borough": "brooklyn", "direction": "FT", "total_row_ft": 109.7, "roadbed_ft": 76.6, "median_ft": 3.1, "left_sw_ft": 15.0, "right_sw_ft": 15.0}, "geometry": {"type": "LineString", "coordinates": [[-73.92954702811384, 40.7270952899155], [-73.9292239369303, 40.726876041294716]]}}, {"type": "Feature", "properties": {"segment_id": 1722107, "physicalid": "183036", "street_name": "KOSCIUSZKO BRG", "borough": "brooklyn", "direction": "FT", "total_row_ft": 109.4, "roadbed_ft": 76.2, "median_ft": 3.2, "left_sw_ft": 15.0, "right_sw_ft": 15.0}, "geometry": {"type": "LineString", "coordinates": [[-73.9294989953182, 40.7271362557962], [-73.92917590409407, 40.72691700704186]]}}, {"type": "Feature", "properties": {"segment_id": 1722108, "physicalid": "183036", "street_name": "KOSCIUSZKO BRG", "borough": "brooklyn", "direction": "FT", "total_row_ft": 109.1, "roadbed_ft": 75.9, "median_ft": 3.3, "left_sw_ft": 15.0, "right_sw_ft": 15.0}, "geometry": {"type": "LineString", "coordinates": [[-73.9294509624635, 40.72717722165661], [-73.92912787119877, 40.72695797276875]]}}, {"type": "Feature", "properties": {"segment_id": 1722109, "physicalid": "183036", "street_name": "KOSCIUSZKO BRG", "borough": "brooklyn", "direction": "FT", "total_row_ft": 108.9, "roadbed_ft": 75.7, "median_ft": 3.2, "left_sw_ft": 15.0, "right_sw_ft": 15.0}, "geometry": {"type": "LineString", "coordinates": [[-73.92940292954974, 40.727218187496774], [-73.92907983824442, 40.726998938475354]]}}, {"type": "Feature", "properties": {"segment_id": 1722110, "physicalid": "183036", "street_name": "KOSCIUSZKO BRG", "borough": "brooklyn", "direction": "FT", "total_row_ft": 108.7, "roadbed_ft": 75.6, "median_ft": 3.1, "left_sw_ft": 15.0, "right_sw_ft": 15.0}, "geometry": {"type": "LineString", "coordinates": [[-73.92935489657692, 40.72725915331668], [-73.92903180523103, 40.7270399041617]]}}, {"type": "Feature", "properties": {"segment_id": 1722111, "physicalid": "183037", "street_name": "KOSCIUSZKO BRG", "borough": "brooklyn", "direction": "FT", "total_row_ft": 109.2, "roadbed_ft": 76.3, "median_ft": 3.0, "left_sw_ft": 15.0, "right_sw_ft": 15.0}, "geometry": {"type": "LineString", "coordinates": [[-73.92923926684696, 40.727358659227306], [-73.92891194089917, 40.727143075501075]]}}, {"type": "Feature", "properties": {"segment_id": 1722112, "physicalid": "183037", "street_name": "KOSCIUSZKO BRG", "borough": "brooklyn", "direction": "FT", "total_row_ft": 109.7, "roadbed_ft": 76.6, "median_ft": 3.1, "left_sw_ft": 15.0, "right_sw_ft": 15.0}, "geometry": {"type": "LineString", "coordinates": [[-73.92919203676873, 40.727400161881484], [-73.92886471076986, 40.727184578022225]]}}, {"type": "Feature", "properties": {"segment_id": 1722113, "physicalid": "183037", "street_name": "KOSCIUSZKO BRG", "borough": "brooklyn", "direction": "FT", "total_row_ft": 110.1, "roadbed_ft": 77.0, "median_ft": 3.1, "left_sw_ft": 15.0, "right_sw_ft": 15.0}, "geometry": {"type": "LineString", "coordinates": [[-73.92914480663165, 40.727441664516064], [-73.92881748058173, 40.72722608052376]]}}, {"type": "Feature", "properties": {"segment_id": 1722114, "physicalid": "183037", "street_name": "KOSCIUSZKO BRG", "borough": "brooklyn", "direction": "FT", "total_row_ft": 110.6, "roadbed_ft": 77.4, "median_ft": 3.2, "left_sw_ft": 15.0, "right_sw_ft": 15.0}, "geometry": {"type": "LineString", "coordinates": [[-73.92909757643572, 40.72748316713107], [-73.92877025033478, 40.72726758300568]]}}, {"type": "Feature", "properties": {"segment_id": 1722115, "physicalid": "183037", "street_name": "KOSCIUSZKO BRG", "borough": "brooklyn", "direction": "FT", "total_row_ft": 111.0, "roadbed_ft": 77.8, "median_ft": 3.2, "left_sw_ft": 15.0, "right_sw_ft": 15.0}, "geometry": {"type": "LineString", "coordinates": [[-73.929050346181, 40.727524669726414], [-73.92872302002901, 40.727309085467994]]}}, {"type": "Feature", "properties": {"segment_id": 1738704, "physicalid": "187390", "street_name": "KOSCIUSZKO BRG", "borough": "brooklyn", "direction": "TF", "total_row_ft": 87.1, "roadbed_ft": 59.0, "median_ft": 0.0, "left_sw_ft": 15.0, "right_sw_ft": 13.1}, "geometry": {"type": "LineString", "coordinates": [[-73.92948666524671, 40.727611830353545], [-73.92922943322057, 40.72742968469071]]}}, {"type": "Feature", "properties": {"segment_id": 1738705, "physicalid": "187390", "street_name": "KOSCIUSZKO BRG", "borough": "brooklyn", "direction": "TF", "total_row_ft": 86.8, "roadbed_ft": 58.9, "median_ft": 0.0, "left_sw_ft": 15.0, "right_sw_ft": 13.0}, "geometry": {"type": "LineString", "coordinates": [[-73.92943866096552, 40.72765283352124], [-73.92918026987142, 40.7274698670329]]}}, {"type": "Feature", "properties": {"segment_id": 1738706, "physicalid": "187390", "street_name": "KOSCIUSZKO BRG", "borough": "brooklyn", "direction": "TF", "total_row_ft": 86.6, "roadbed_ft": 58.7, "median_ft": 0.0, "left_sw_ft": 15.0, "right_sw_ft": 12.8}, "geometry": {"type": "LineString", "coordinates": [[-73.92939065662524, 40.72769383666873], [-73.92913110646299, 40.727510049353874]]}}, {"type": "Feature", "properties": {"segment_id": 1738707, "physicalid": "187390", "street_name": "KOSCIUSZKO BRG", "borough": "brooklyn", "direction": "TF", "total_row_ft": 86.3, "roadbed_ft": 58.6, "median_ft": 0.0, "left_sw_ft": 15.0, "right_sw_ft": 12.7}, "geometry": {"type": "LineString", "coordinates": [[-73.92934265222591, 40.727734839795936], [-73.92908194299527, 40.72755023165364]]}}, {"type": "Feature", "properties": {"segment_id": 1738708, "physicalid": "187390", "street_name": "KOSCIUSZKO BRG", "borough": "brooklyn", "direction": "TF", "total_row_ft": 86.1, "roadbed_ft": 58.5, "median_ft": 0.0, "left_sw_ft": 15.0, "right_sw_ft": 12.6}, "geometry": {"type": "LineString", "coordinates": [[-73.9292947555163, 40.7277759191995], [-73.92903277946826, 40.727590413932205]]}}, {"type": "Feature", "properties": {"segment_id": 1739120, "physicalid": "187483", "street_name": "KOSCIUSZKO BRG", "borough": "brooklyn", "direction": "FT", "total_row_ft": 113.4, "roadbed_ft": 80.4, "median_ft": 3.0, "left_sw_ft": 15.0, "right_sw_ft": 15.0}, "geometry": {"type": "LineString", "coordinates": [[-73.93014760450987, 40.726583048028246], [-73.92982450447307, 40.7263638090614]]}}, {"type": "Feature", "properties": {"segment_id": 1739121, "physicalid": "187483", "street_name": "KOSCIUSZKO BRG", "borough": "brooklyn", "direction": "FT", "total_row_ft": 110.5, "roadbed_ft": 77.5, "median_ft": 3.0, "left_sw_ft": 15.0, "right_sw_ft": 15.0}, "geometry": {"type": "LineString", "coordinates": [[-73.93009957411171, 40.72662401540471], [-73.92977647418651, 40.726404776174455]]}}, {"type": "Feature", "properties": {"segment_id": 1739122, "physicalid": "187483", "street_name": "KOSCIUSZKO BRG", "borough": "brooklyn", "direction": "FT", "total_row_ft": 110.5, "roadbed_ft": 77.5, "median_ft": 3.0, "left_sw_ft": 15.0, "right_sw_ft": 15.0}, "geometry": {"type": "LineString", "coordinates": [[-73.93005154371608, 40.726664982686124], [-73.92972844375028, 40.72644574332232]]}}, {"type": "Feature", "properties": {"segment_id": 1739123, "physicalid": "187483", "street_name": "KOSCIUSZKO BRG", "borough": "brooklyn", "direction": "FT", "total_row_ft": 110.5, "roadbed_ft": 77.6, "median_ft": 2.9, "left_sw_ft": 15.0, "right_sw_ft": 15.0}, "geometry": {"type": "LineString", "coordinates": [[-73.93000351326138, 40.7267059499473], [-73.929680413255, 40.726486710449926]]}}, {"type": "Feature", "properties": {"segment_id": 1739124, "physicalid": "187483", "street_name": "KOSCIUSZKO BRG", "borough": "brooklyn", "direction": "FT", "total_row_ft": 110.5, "roadbed_ft": 77.8, "median_ft": 2.7, "left_sw_ft": 15.0, "right_sw_ft": 15.0}, "geometry": {"type": "LineString", "coordinates": [[-73.92995548274767, 40.72674691718817], [-73.92963238270063, 40.72652767755728]]}}, {"type": "Feature", "properties": {"segment_id": 1739125, "physicalid": "187483", "street_name": "KOSCIUSZKO BRG", "borough": "brooklyn", "direction": "FT", "total_row_ft": 110.5, "roadbed_ft": 77.9, "median_ft": 2.6, "left_sw_ft": 15.0, "right_sw_ft": 15.0}, "geometry": {"type": "LineString", "coordinates": [[-73.92990745217489, 40.726787884408814], [-73.92958435208725, 40.72656864464435]]}}, {"type": "Feature", "properties": {"segment_id": 1739126, "physicalid": "187483", "street_name": "KOSCIUSZKO BRG", "borough": "brooklyn", "direction": "FT", "total_row_ft": 110.5, "roadbed_ft": 78.1, "median_ft": 2.4, "left_sw_ft": 15.0, "right_sw_ft": 15.0}, "geometry": {"type": "LineString", "coordinates": [[-73.92985942154306, 40.72682885160917], [-73.9295363214148, 40.726609611711154]]}}, {"type": "Feature", "properties": {"segment_id": 1739127, "physicalid": "187483", "street_name": "KOSCIUSZKO BRG", "borough": "brooklyn", "direction": "FT", "total_row_ft": 110.4, "roadbed_ft": 78.0, "median_ft": 2.5, "left_sw_ft": 15.0, "right_sw_ft": 15.0}, "geometry": {"type": "LineString", "coordinates": [[-73.92981139085214, 40.726869818789304], [-73.92948829068332, 40.7266505787577]]}}, {"type": "Feature", "properties": {"segment_id": 1739132, "physicalid": "187484", "street_name": "KOSCIUSZKO BRG", "borough": "brooklyn", "direction": "TF", "total_row_ft": 87.5, "roadbed_ft": 60.3, "median_ft": 0.0, "left_sw_ft": 15.0, "right_sw_ft": 12.2}, "geometry": {"type": "LineString", "coordinates": [[-73.93011388502687, 40.72706341490752], [-73.92986253059856, 40.726892507948925]]}}, {"type": "Feature", "properties": {"segment_id": 1739133, "physicalid": "187484", "street_name": "KOSCIUSZKO BRG", "borough": "brooklyn", "direction": "TF", "total_row_ft": 87.5, "roadbed_ft": 60.1, "median_ft": 0.0, "left_sw_ft": 15.0, "right_sw_ft": 12.4}, "geometry": {"type": "LineString", "coordinates": [[-73.9300667689761, 40.72710500414151], [-73.9298144447346, 40.7269334376837]]}}, {"type": "Feature", "properties": {"segment_id": 1739134, "physicalid": "187484", "street_name": "KOSCIUSZKO BRG", "borough": "brooklyn", "direction": "TF", "total_row_ft": 87.6, "roadbed_ft": 60.0, "median_ft": 0.0, "left_sw_ft": 15.0, "right_sw_ft": 12.6}, "geometry": {"type": "LineString", "coordinates": [[-73.93001965286656, 40.72714659335597], [-73.92976635881155, 40.726974367398206]]}}, {"type": "Feature", "properties": {"segment_id": 1739135, "physicalid": "187484", "street_name": "KOSCIUSZKO BRG", "borough": "brooklyn", "direction": "TF", "total_row_ft": 87.7, "roadbed_ft": 59.9, "median_ft": 0.0, "left_sw_ft": 15.0, "right_sw_ft": 12.8}, "geometry": {"type": "LineString", "coordinates": [[-73.92997253669817, 40.72718818255092], [-73.92971827282948, 40.72701529709232]]}}, {"type": "Feature", "properties": {"segment_id": 1739136, "physicalid": "187484", "street_name": "KOSCIUSZKO BRG", "borough": "brooklyn", "direction": "TF", "total_row_ft": 87.8, "roadbed_ft": 59.8, "median_ft": 0.0, "left_sw_ft": 15.0, "right_sw_ft": 12.9}, "geometry": {"type": "LineString", "coordinates": [[-73.92992536706868, 40.727229818878996], [-73.92967024942547, 40.72705612579689]]}}, {"type": "Feature", "properties": {"segment_id": 1739137, "physicalid": "187484", "street_name": "KOSCIUSZKO BRG", "borough": "brooklyn", "direction": "TF", "total_row_ft": 87.8, "roadbed_ft": 59.8, "median_ft": 0.0, "left_sw_ft": 15.0, "right_sw_ft": 13.0}, "geometry": {"type": "LineString", "coordinates": [[-73.92987825027144, 40.727271408565386], [-73.92962212837084, 40.72709703166763]]}}, {"type": "Feature", "properties": {"segment_id": 1739138, "physicalid": "187484", "street_name": "KOSCIUSZKO BRG", "borough": "brooklyn", "direction": "TF", "total_row_ft": 87.9, "roadbed_ft": 59.8, "median_ft": 0.0, "left_sw_ft": 15.0, "right_sw_ft": 13.1}, "geometry": {"type": "LineString", "coordinates": [[-73.9298311334154, 40.7273129982323], [-73.92957400725713, 40.72713793751803]]}}, {"type": "Feature", "properties": {"segment_id": 1739139, "physicalid": "187484", "street_name": "KOSCIUSZKO BRG", "borough": "brooklyn", "direction": "TF", "total_row_ft": 88.0, "roadbed_ft": 59.8, "median_ft": 0.0, "left_sw_ft": 15.0, "right_sw_ft": 13.2}, "geometry": {"type": "LineString", "coordinates": [[-73.92978401650056, 40.72735458787969], [-73.92952588608433, 40.727178843348085]]}}, {"type": "Feature", "properties": {"segment_id": 1739140, "physicalid": "187484", "street_name": "KOSCIUSZKO BRG", "borough": "brooklyn", "direction": "TF", "total_row_ft": 88.0, "roadbed_ft": 59.6, "median_ft": 0.0, "left_sw_ft": 15.0, "right_sw_ft": 13.4}, "geometry": {"type": "LineString", "coordinates": [[-73.92973689952692, 40.72739617750756], [-73.92947776485244, 40.72721974915783]]}}, {"type": "Feature", "properties": {"segment_id": 1739141, "physicalid": "187484", "street_name": "KOSCIUSZKO BRG", "borough": "brooklyn", "direction": "TF", "total_row_ft": 88.1, "roadbed_ft": 59.5, "median_ft": 0.0, "left_sw_ft": 15.0, "right_sw_ft": 13.6}, "geometry": {"type": "LineString", "coordinates": [[-73.92968978249445, 40.72743776711591], [-73.92942964356149, 40.72726065494722]]}}, {"type": "Feature", "properties": {"segment_id": 1739142, "physicalid": "187484", "street_name": "KOSCIUSZKO BRG", "borough": "brooklyn", "direction": "TF", "total_row_ft": 88.0, "roadbed_ft": 59.4, "median_ft": 0.0, "left_sw_ft": 15.0, "right_sw_ft": 13.6}, "geometry": {"type": "LineString", "coordinates": [[-73.92964215985072, 40.72747901250733], [-73.92938152221147, 40.72730156071626]]}}, {"type": "Feature", "properties": {"segment_id": 1739143, "physicalid": "187484", "street_name": "KOSCIUSZKO BRG", "borough": "brooklyn", "direction": "TF", "total_row_ft": 87.7, "roadbed_ft": 59.3, "median_ft": 0.0, "left_sw_ft": 15.0, "right_sw_ft": 13.4}, "geometry": {"type": "LineString", "coordinates": [[-73.92959416772298, 40.727520006361495], [-73.92933340080238, 40.72734246646497]]}}, {"type": "Feature", "properties": {"segment_id": 1739145, "physicalid": "187485", "street_name": "KOSCIUSZKO BRG", "borough": "brooklyn", "direction": "FT", "total_row_ft": 120.1, "roadbed_ft": 87.4, "median_ft": 2.8, "left_sw_ft": 15.0, "right_sw_ft": 15.0}, "geometry": {"type": "LineString", "coordinates": [[-73.93012147806041, 40.72685035316457], [-73.92980071891117, 40.726629132656896]]}}, {"type": "Feature", "properties": {"segment_id": 1739146, "physicalid": "187485", "street_name": "KOSCIUSZKO BRG", "borough": "brooklyn", "direction": "FT", "total_row_ft": 120.0, "roadbed_ft": 87.4, "median_ft": 2.6, "left_sw_ft": 15.0, "right_sw_ft": 15.0}, "geometry": {"type": "LineString", "coordinates": [[-73.93007301344315, 40.726891023510134], [-73.92975225425904, 40.726669802868656]]}}, {"type": "Feature", "properties": {"segment_id": 1739147, "physicalid": "187485", "street_name": "KOSCIUSZKO BRG", "borough": "brooklyn", "direction": "FT", "total_row_ft": 119.9, "roadbed_ft": 87.4, "median_ft": 2.5, "left_sw_ft": 15.0, "right_sw_ft": 15.0}, "geometry": {"type": "LineString", "coordinates": [[-73.93002454876675, 40.72693169383506], [-73.92970378954776, 40.72671047305981]]}}, {"type": "Feature", "properties": {"segment_id": 1739148, "physicalid": "187485", "street_name": "KOSCIUSZKO BRG", "borough": "brooklyn", "direction": "FT", "total_row_ft": 119.7, "roadbed_ft": 87.2, "median_ft": 2.4, "left_sw_ft": 15.0, "right_sw_ft": 15.0}, "geometry": {"type": "LineString", "coordinates": [[-73.92997608403114, 40.72697236413939], [-73.92965532477734, 40.726751143230324]]}}, {"type": "Feature", "properties": {"segment_id": 1739149, "physicalid": "187485", "street_name": "KOSCIUSZKO BRG", "borough": "brooklyn", "direction": "FT", "total_row_ft": 119.5, "roadbed_ft": 87.0, "median_ft": 2.5, "left_sw_ft": 15.0, "right_sw_ft": 15.0}, "geometry": {"type": "LineString", "coordinates": [[-73.92992761923645, 40.72701303442307], [-73.92960685994771, 40.726791813380245]]}}, {"type": "Feature", "properties": {"segment_id": 1739150, "physicalid": "187485", "street_name": "KOSCIUSZKO BRG", "borough": "brooklyn", "direction": "FT", "total_row_ft": 119.4, "roadbed_ft": 86.8, "median_ft": 2.6, "left_sw_ft": 15.0, "right_sw_ft": 15.0}, "geometry": {"type": "LineString", "coordinates": [[-73.92987915459503, 40.72705370454245], [-73.9295583948918, 40.72683248368445]]}}, {"type": "Feature", "properties": {"segment_id": 1739151, "physicalid": "187485", "street_name": "KOSCIUSZKO BRG", "borough": "brooklyn", "direction": "FT", "total_row_ft": 119.4, "roadbed_ft": 86.7, "median_ft": 2.7, "left_sw_ft": 15.0, "right_sw_ft": 15.0}, "geometry": {"type": "LineString", "coordinates": [[-73.92983068975178, 40.72709437483303], [-73.9295099300137, 40.72687315384124]]}}, {"type": "Feature", "properties": {"segment_id": 1739152, "physicalid": "187485", "street_name": "KOSCIUSZKO BRG", "borough": "brooklyn", "direction": "FT", "total_row_ft": 119.3, "roadbed_ft": 86.6, "median_ft": 2.8, "left_sw_ft": 15.0, "right_sw_ft": 15.0}, "geometry": {"type": "LineString", "coordinates": [[-73.92978222484939, 40.72713504510298], [-73.92946146507641, 40.72691382397738]]}}, {"type": "Feature", "properties": {"segment_id": 1739153, "physicalid": "187485", "street_name": "KOSCIUSZKO BRG", "borough": "brooklyn", "direction": "FT", "total_row_ft": 119.3, "roadbed_ft": 86.4, "median_ft": 2.9, "left_sw_ft": 15.0, "right_sw_ft": 15.0}, "geometry": {"type": "LineString", "coordinates": [[-73.92973375988784, 40.72717571535232], [-73.92941300008, 40.726954494092936]]}}, {"type": "Feature", "properties": {"segment_id": 1739154, "physicalid": "187485", "street_name": "KOSCIUSZKO BRG", "borough": "brooklyn", "direction": "FT", "total_row_ft": 119.3, "roadbed_ft": 86.2, "median_ft": 3.1, "left_sw_ft": 15.0, "right_sw_ft": 15.0}, "geometry": {"type": "LineString", "coordinates": [[-73.92968529486713, 40.727216385580995], [-73.9293645350244, 40.72699516418786]]}}, {"type": "Feature", "properties": {"segment_id": 1739155, "physicalid": "187485", "street_name": "KOSCIUSZKO BRG", "borough": "brooklyn", "direction": "FT", "total_row_ft": 119.3, "roadbed_ft": 86.0, "median_ft": 3.3, "left_sw_ft": 15.0, "right_sw_ft": 15.0}, "geometry": {"type": "LineString", "coordinates": [[-73.92963682978727, 40.72725705578906], [-73.92931606990967, 40.727035834262146]]}}, {"type": "Feature", "properties": {"segment_id": 1739156, "physicalid": "187485", "street_name": "KOSCIUSZKO BRG", "borough": "brooklyn", "direction": "FT", "total_row_ft": 119.1, "roadbed_ft": 85.8, "median_ft": 3.2, "left_sw_ft": 15.0, "right_sw_ft": 15.0}, "geometry": {"type": "LineString", "coordinates": [[-73.92958836464825, 40.727297725976506], [-73.92926760473578, 40.727076504315804]]}}, {"type": "Feature", "properties": {"segment_id": 1739157, "physicalid": "187485", "street_name": "KOSCIUSZKO BRG", "borough": "brooklyn", "direction": "FT", "total_row_ft": 118.9, "roadbed_ft": 85.7, "median_ft": 3.2, "left_sw_ft": 15.0, "right_sw_ft": 15.0}, "geometry": {"type": "LineString", "coordinates": [[-73.92953989945005, 40.727338396143324], [-73.92921913950273, 40.72711717434884]]}}, {"type": "Feature", "properties": {"segment_id": 1739158, "physicalid": "187485", "street_name": "KOSCIUSZKO BRG", "borough": "brooklyn", "direction": "FT", "total_row_ft": 118.6, "roadbed_ft": 85.6, "median_ft": 3.1, "left_sw_ft": 15.0, "right_sw_ft": 15.0}, "geometry": {"type": "LineString", "coordinates": [[-73.92949143419273, 40.72737906628953], [-73.92917067421052, 40.72715784436125]]}}, {"type": "Feature", "properties": {"segment_id": 1739159, "physicalid": "187485", "street_name": "KOSCIUSZKO BRG", "borough": "brooklyn", "direction": "FT", "total_row_ft": 118.3, "roadbed_ft": 85.3, "median_ft": 3.0, "left_sw_ft": 15.0, "right_sw_ft": 15.0}, "geometry": {"type": "LineString", "coordinates": [[-73.92944296887624, 40.727419736415115], [-73.92912220885917, 40.727198514353056]]}}]}