{"type": "FeatureCollection", "features": [{"type": "Feature", "properties": {"segment_id": 519075, "physicalid": "37533", "street_name": "BELT PKWY", "borough": "brooklyn", "direction": "FT", "total_row_ft": 126.4, "roadbed_ft": 78.0, "median_ft": 18.5, "left_sw_ft": 15.0, "right_sw_ft": 15.0}, "geometry": {"type": "LineString", "coordinates": [[-73.91012738298066, 40.587559803267695], [-73.90981983711353, 40.58732846801269]]}}, {"type": "Feature", "properties": {"segment_id": 519076, "physicalid": "37533", "street_name": "BELT PKWY", "borough": "brooklyn", "direction": "FT", "total_row_ft": 126.4, "roadbed_ft": 76.0, "median_ft": 20.3, "left_sw_ft": 15.0, "right_sw_ft": 15.0}, "geometry": {"type": "LineString", "coordinates": [[-73.91007680895203, 40.58759888038552], [-73.90976926308014, 40.58736754499599]]}}, {"type": "Feature", "properties": {"segment_id": 519077, "physicalid": "37533", "street_name": "BELT PKWY", "borough": "brooklyn", "direction": "FT", "total_row_ft": 126.6, "roadbed_ft": 74.7, "median_ft": 21.9, "left_sw_ft": 15.0, "right_sw_ft": 15.0}, "geometry": {"type": "LineString", "coordinates": [[-73.91003253543265, 40.58763529463472], [-73.90971548479966, 40.58741154085536]]}}, {"type": "Feature", "properties": {"segment_id": 519078, "physicalid": "37533", "street_name": "BELT PKWY", "borough": "brooklyn", "direction": "FT", "total_row_ft": 126.7, "roadbed_ft": 73.2, "median_ft": 23.5, "left_sw_ft": 15.0, "right_sw_ft": 15.0}, "geometry": {"type": "LineString", "coordinates": [[-73.90998361880237, 40.587675579389256], [-73.90966656814203, 40.587451825475775]]}}, {"type": "Feature", "properties": {"segment_id": 519079, "physicalid": "37533", "street_name": "BELT PKWY", "borough": "brooklyn", "direction": "FT", "total_row_ft": 126.7, "roadbed_ft": 71.5, "median_ft": 25.2, "left_sw_ft": 15.0, "right_sw_ft": 15.0}, "geometry": {"type": "LineString", "coordinates": [[-73.90993470211309, 40.58771586412282], [-73.90961765142539, 40.58749211007521]]}}, {"type": "Feature", "properties": {"segment_id": 519080, "physicalid": "37533", "street_name": "BELT PKWY", "borough": "brooklyn", "direction": "FT", "total_row_ft": 127.0, "roadbed_ft": 70.3, "median_ft": 26.7, "left_sw_ft": 15.0, "right_sw_ft": 15.0}, "geometry": {"type": "LineString", "coordinates": [[-73.90989528050801, 40.5877492670842], [-73.90956109439543, 40.587540508294104]]}}, {"type": "Feature", "properties": {"segment_id": 519081, "physicalid": "37533", "street_name": "BELT PKWY", "borough": "brooklyn", "direction": "FT", "total_row_ft": 127.9, "roadbed_ft": 69.5, "median_ft": 28.5, "left_sw_ft": 15.0, "right_sw_ft": 15.0}, "geometry": {"type": "LineString", "coordinates": [[-73.90984964199123, 40.58779172900848], [-73.90951545580879, 40.58758297008652]]}}, {"type": "Feature", "properties": {"segment_id": 519082, "physicalid": "37533", "street_name": "BELT PKWY", "borough": "brooklyn", "direction": "FT", "total_row_ft": 128.7, "roadbed_ft": 68.6, "median_ft": 30.1, "left_sw_ft": 15.0, "right_sw_ft": 15.0}, "geometry": {"type": "LineString", "coordinates": [[-73.90980400341637, 40.58783419091451], [-73.90946981716415, 40.587625431860594]]}}, {"type": "Feature", "properties": {"segment_id": 519083, "physicalid": "37533", "street_name": "BELT PKWY", "borough": "brooklyn", "direction": "FT", "total_row_ft": 129.3, "roadbed_ft": 67.8, "median_ft": 31.5, "left_sw_ft": 15.0, "right_sw_ft": 15.0}, "geometry": {"type": "LineString", "coordinates": [[-73.9097583647835, 40.587876652802215], [-73.90942417846145, 40.587667893616405]]}}, {"type": "Feature", "properties": {"segment_id": 519084, "physicalid": "37533", "street_name": "BELT PKWY", "borough": "brooklyn", "direction": "FT", "total_row_ft": 129.6, "roadbed_ft": 66.7, "median_ft": 32.9, "left_sw_ft": 15.0, "right_sw_ft": 15.0}, "geometry": {"type": "LineString", "coordinates": [[-73.9097127260926, 40.587919114671614], [-73.9093785397007, 40.58771035535394]]}}, {"type": "Feature", "properties": {"segment_id": 519085, "physicalid": "37533", "street_name": "BELT PKWY", "borough": "brooklyn", "direction": "FT", "total_row_ft": 129.7, "roadbed_ft": 65.3, "median_ft": 34.4, "left_sw_ft": 15.0, "right_sw_ft": 15.0}, "geometry": {"type": "LineString", "coordinates": [[-73.9096670898881, 40.587961574315884], [-73.90933289854394, 40.58775281940897]]}}, {"type": "Feature", "properties": {"segment_id": 519086, "physicalid": "37533", "street_name": "BELT PKWY", "borough": "brooklyn", "direction": "FT", "total_row_ft": 130.2, "roadbed_ft": 64.7, "median_ft": 35.5, "left_sw_ft": 15.0, "right_sw_ft": 15.0}, "geometry": {"type": "LineString", "coordinates": [[-73.90962605912672, 40.58800155392853], [-73.90928510340908, 40.58779925608811]]}}, {"type": "Feature", "properties": {"segment_id": 519087, "physicalid": "37533", "street_name": "BELT PKWY", "borough": "brooklyn", "direction": "FT", "total_row_ft": 130.4, "roadbed_ft": 63.8, "median_ft": 36.6, "left_sw_ft": 15.0, "right_sw_ft": 15.0}, "geometry": {"type": "LineString", "coordinates": [[-73.90958183293145, 40.588044875835486], [-73.90924087712659, 40.58784257786467]]}}, {"type": "Feature", "properties": {"segment_id": 519088, "physicalid": "37533", "street_name": "BELT PKWY", "borough": "brooklyn", "direction": "FT", "total_row_ft": 130.3, "roadbed_ft": 62.3, "median_ft": 38.0, "left_sw_ft": 15.0, "right_sw_ft": 15.0}, "geometry": {"type": "LineString", "coordinates": [[-73.9095376066788, 40.58808819772528], [-73.90919665078673, 40.58788589962404]]}}, {"type": "Feature", "properties": {"segment_id": 519089, "physicalid": "37533", "street_name": "BELT PKWY", "borough": "brooklyn", "direction": "FT", "total_row_ft": 129.8, "roadbed_ft": 60.6, "median_ft": 39.3, "left_sw_ft": 15.0, "right_sw_ft": 15.0}, "geometry": {"type": "LineString", "coordinates": [[-73.90949338036873, 40.588131519597866], [-73.9091524243895, 40.587929221366174]]}}, {"type": "Feature", "properties": {"segment_id": 519090, "physicalid": "37533", "street_name": "BELT PKWY", "borough": "brooklyn", "direction": "FT", "total_row_ft": 129.3, "roadbed_ft": 58.7, "median_ft": 40.6, "left_sw_ft": 15.0, "right_sw_ft": 15.0}, "geometry": {"type": "LineString", "coordinates": [[-73.90944915400134, 40.58817484145322], [-73.90910819793486, 40.58797254309116]]}}, {"type": "Feature", "properties": {"segment_id": 519091, "physicalid": "37533", "street_name": "BELT PKWY", "borough": "brooklyn", "direction": "FT", "total_row_ft": 129.8, "roadbed_ft": 58.7, "median_ft": 41.1, "left_sw_ft": 15.0, "right_sw_ft": 15.0}, "geometry": {"type": "LineString", "coordinates": [[-73.90941646027072, 40.588211559429546], [-73.90905926648537, 40.58802625927944]]}}, {"type": "Feature", "properties": {"segment_id": 519092, "physicalid": "37533", "street_name": "BELT PKWY", "borough": "brooklyn", "direction": "FT", "total_row_ft": 131.7, "roadbed_ft": 59.1, "median_ft": 42.6, "left_sw_ft": 15.0, "right_sw_ft": 15.0}, "geometry": {"type": "LineString", "coordinates": [[-73.90937594998779, 40.588256944395475], [-73.90901875607206, 40.58807164412028]]}}, {"type": "Feature", "properties": {"segment_id": 519093, "physicalid": "37533", "street_name": "BELT PKWY", "borough": "brooklyn", "direction": "FT", "total_row_ft": 134.9, "roadbed_ft": 61.0, "median_ft": 43.8, "left_sw_ft": 15.0, "right_sw_ft": 15.0}, "geometry": {"type": "LineString", "coordinates": [[-73.90933543964981, 40.58830232934696], [-73.90897824560372, 40.58811702894662]]}}, {"type": "Feature", "properties": {"segment_id": 519094, "physicalid": "37533", "street_name": "BELT PKWY", "borough": "brooklyn", "direction": "FT", "total_row_ft": 136.0, "roadbed_ft": 61.3, "median_ft": 44.7, "left_sw_ft": 15.0, "right_sw_ft": 15.0}, "geometry": {"type": "LineString", "coordinates": [[-73.90929492925673, 40.588347714283934], [-73.9089377350803, 40.58816241375847]]}}, {"type": "Feature", "properties": {"segment_id": 519095, "physicalid": "37533", "street_name": "BELT PKWY", "borough": "brooklyn", "direction": "FT", "total_row_ft": 135.4, "roadbed_ft": 59.9, "median_ft": 45.5, "left_sw_ft": 15.0, "right_sw_ft": 15.0}, "geometry": {"type": "LineString", "coordinates": [[-73.90925441880859, 40.588393099206485], [-73.90889722450186, 40.588207798555814]]}}, {"type": "Feature", "properties": {"segment_id": 519096, "physicalid": "37533", "street_name": "BELT PKWY", "borough": "brooklyn", "direction": "FT", "total_row_ft": 134.5, "roadbed_ft": 57.9, "median_ft": 46.6, "left_sw_ft": 15.0, "right_sw_ft": 15.0}, "geometry": {"type": "LineString", "coordinates": [[-73.9092139083054, 40.58843848411455], [-73.90885671386832, 40.58825318333874]]}}, {"type": "Feature", "properties": {"segment_id": 519097, "physicalid": "37533", "street_name": "BELT PKWY", "borough": "brooklyn", "direction": "FT", "total_row_ft": 133.6, "roadbed_ft": 56.0, "median_ft": 47.7, "left_sw_ft": 15.0, "right_sw_ft": 15.0}, "geometry": {"type": "LineString", "coordinates": [[-73.90917894971616, 40.58847835109408], [-73.90881184120065, 40.58830467579274]]}}, {"type": "Feature", "properties": {"segment_id": 519098, "physicalid": "37533", "street_name": "BELT PKWY", "borough": "brooklyn", "direction": "FT", "total_row_ft": 133.2, "roadbed_ft": 54.4, "median_ft": 48.9, "left_sw_ft": 15.0, "right_sw_ft": 15.0}, "geometry": {"type": "LineString", "coordinates": [[-73.90914098071649, 40.58852499562895], [-73.90877387204328, 40.58835132020707]]}}, {"type": "Feature", "properties": {"segment_id": 519099, "physicalid": "37533", "street_name": "BELT PKWY", "borough": "brooklyn", "direction": "FT", "total_row_ft": 132.7, "roadbed_ft": 54.0, "median_ft": 48.7, "left_sw_ft": 15.0, "right_sw_ft": 15.0}, "geometry": {"type": "LineString", "coordinates": [[-73.90910301166377, 40.58857164015103], [-73.90873590283287, 40.58839796460866]]}}, {"type": "Feature", "properties": {"segment_id": 519100, "physicalid": "37533", "street_name": "BELT PKWY", "borough": "brooklyn", "direction": "FT", "total_row_ft": 131.9, "roadbed_ft": 53.7, "median_ft": 48.2, "left_sw_ft": 15.0, "right_sw_ft": 15.0}, "geometry": {"type": "LineString", "coordinates": [[-73.90906504255801, 40.5886182846604], [-73.90869793356943, 40.58844460899748]]}}, {"type": "Feature", "properties": {"segment_id": 519101, "physicalid": "37533", "street_name": "BELT PKWY", "borough": "brooklyn", "direction": "FT", "total_row_ft": 131.0, "roadbed_ft": 53.2, "median_ft": 47.8, "left_sw_ft": 15.0, "right_sw_ft": 15.0}, "geometry": {"type": "LineString", "coordinates": [[-73.9090270733992, 40.58866492915701], [-73.90865996425295, 40.588491253373554]]}}, {"type": "Feature", "properties": {"segment_id": 519102, "physicalid": "37533", "street_name": "BELT PKWY", "borough": "brooklyn", "direction": "FT", "total_row_ft": 130.3, "roadbed_ft": 52.8, "median_ft": 47.5, "left_sw_ft": 15.0, "right_sw_ft": 15.0}, "geometry": {"type": "LineString", "coordinates": [[-73.90899859757626, 40.58870176121792], [-73.90861574066757, 40.58854911954722]]}}, {"type": "Feature", "properties": {"segment_id": 519103, "physicalid": "37533", "street_name": "BELT PKWY", "borough": "brooklyn", "direction": "FT", "total_row_ft": 130.4, "roadbed_ft": 52.7, "median_ft": 47.7, "left_sw_ft": 15.0, "right_sw_ft": 15.0}, "geometry": {"type": "LineString", "coordinates": [[-73.90896522687504, 40.58875040655449], [-73.90858236976374, 40.58859776477333]]}}, {"type": "Feature", "properties": {"segment_id": 519104, "physicalid": "37533", "street_name": "BELT PKWY", "borough": "brooklyn", "direction": "FT", "total_row_ft": 130.1, "roadbed_ft": 52.2, "median_ft": 47.9, "left_sw_ft": 15.0, "right_sw_ft": 15.0}, "geometry": {"type": "LineString", "coordinates": [[-73.90893185612519, 40.58879905188117], [-73.9085489988113, 40.588646409989515]]}}, {"type": "Feature", "properties": {"segment_id": 519105, "physicalid": "37533", "street_name": "BELT PKWY", "borough": "brooklyn", "direction": "FT", "total_row_ft": 129.7, "roadbed_ft": 51.7, "median_ft": 48.1, "left_sw_ft": 15.0, "right_sw_ft": 15.0}, "geometry": {"type": "LineString", "coordinates": [[-73.90889848532673, 40.588847697197934], [-73.90851562781022, 40.58869505519578]]}}, {"type": "Feature", "properties": {"segment_id": 519106, "physicalid": "37533", "street_name": "BELT PKWY", "borough": "brooklyn", "direction": "FT", "total_row_ft": 129.2, "roadbed_ft": 51.1, "median_ft": 48.1, "left_sw_ft": 15.0, "right_sw_ft": 15.0}, "geometry": {"type": "LineString", "coordinates": [[-73.90886511447967, 40.58889634250477], [-73.90848225676054, 40.58874370039211]]}}, {"type": "Feature", "properties": {"segment_id": 519107, "physicalid": "37533", "street_name": "BELT PKWY", "borough": "brooklyn", "direction": "FT", "total_row_ft": 128.6, "roadbed_ft": 51.1, "median_ft": 47.5, "left_sw_ft": 15.0, "right_sw_ft": 15.0}, "geometry": {"type": "LineString", "coordinates": [[-73.90883174358397, 40.588944987801675], [-73.90844888566224, 40.58879234557857]]}}, {"type": "Feature", "properties": {"segment_id": 519108, "physicalid": "37533", "street_name": "BELT PKWY", "borough": "brooklyn", "direction": "FT", "total_row_ft": 127.9, "roadbed_ft": 51.0, "median_ft": 46.8, "left_sw_ft": 15.0, "right_sw_ft": 15.0}, "geometry": {"type": "LineString", "coordinates": [[-73.90880273686632, 40.58898690195443], [-73.90841115025916, 40.58884772187472]]}}, {"type": "Feature", "properties": {"segment_id": 519109, "physicalid": "37533", "street_name": "BELT PKWY", "borough": "brooklyn", "direction": "FT", "total_row_ft": 128.0, "roadbed_ft": 50.8, "median_ft": 47.2, "left_sw_ft": 15.0, "right_sw_ft": 15.0}, "geometry": {"type": "LineString", "coordinates": [[-73.90877281353494, 40.58903624242622], [-73.90838063326574, 40.58889803674194]]}}, {"type": "Feature", "properties": {"segment_id": 519110, "physicalid": "37533", "street_name": "BELT PKWY", "borough": "brooklyn", "direction": "FT", "total_row_ft": 127.7, "roadbed_ft": 50.5, "median_ft": 47.1, "left_sw_ft": 15.0, "right_sw_ft": 15.0}, "geometry": {"type": "LineString", "coordinates": [[-73.90874259871323, 40.58908607211675], [-73.9083504182139, 40.58894786633006]]}}, {"type": "Feature", "properties": {"segment_id": 519111, "physicalid": "37533", "street_name": "BELT PKWY", "borough": "brooklyn", "direction": "FT", "total_row_ft": 127.1, "roadbed_ft": 50.5, "median_ft": 46.7, "left_sw_ft": 15.0, "right_sw_ft": 15.0}, "geometry": {"type": "LineString", "coordinates": [[-73.90871238463956, 40.589135900720336], [-73.90832020255289, 40.58899769706948]]}}, {"type": "Feature", "properties": {"segment_id": 519112, "physicalid": "37533", "street_name": "BELT PKWY", "borough": "brooklyn", "direction": "FT", "total_row_ft": 126.4, "roadbed_ft": 50.2, "median_ft": 46.2, "left_sw_ft": 15.0, "right_sw_ft": 15.0}, "geometry": {"type": "LineString", "coordinates": [[-73.90868217021705, 40.58918573056696], [-73.90828998790023, 40.589047526813715]]}}, {"type": "Feature", "properties": {"segment_id": 519113, "physicalid": "37533", "street_name": "BELT PKWY", "borough": "brooklyn", "direction": "FT", "total_row_ft": 125.7, "roadbed_ft": 49.8, "median_ft": 45.9, "left_sw_ft": 15.0, "right_sw_ft": 15.0}, "geometry": {"type": "LineString", "coordinates": [[-73.90865736397434, 40.58922703822746], [-73.90825542215788, 40.58910622354388]]}}, {"type": "Feature", "properties": {"segment_id": 519114, "physicalid": "37533", "street_name": "BELT PKWY", "borough": "brooklyn", "direction": "FT", "total_row_ft": 125.8, "roadbed_ft": 49.4, "median_ft": 46.4, "left_sw_ft": 15.0, "right_sw_ft": 15.0}, "geometry": {"type": "LineString", "coordinates": [[-73.90863095115968, 40.589278108042826], [-73.90822900908358, 40.589157293267476]]}}, {"type": "Feature", "properties": {"segment_id": 519115, "physicalid": "37533", "street_name": "BELT PKWY", "borough": "brooklyn", "direction": "FT", "total_row_ft": 125.8, "roadbed_ft": 49.6, "median_ft": 46.1, "left_sw_ft": 15.0, "right_sw_ft": 15.0}, "geometry": {"type": "LineString", "coordinates": [[-73.90860453830462, 40.589329177851894], [-73.9082025959689, 40.58920836298475]]}}, {"type": "Feature", "properties": {"segment_id": 519116, "physicalid": "37533", "street_name": "BELT PKWY", "borough": "brooklyn", "direction": "FT", "total_row_ft": 125.6, "roadbed_ft": 49.7, "median_ft": 45.9, "left_sw_ft": 15.0, "right_sw_ft": 15.0}, "geometry": {"type": "LineString", "coordinates": [[-73.90857812540911, 40.589380247654674], [-73.90817618281385, 40.58925943269566]]}}, {"type": "Feature", "properties": {"segment_id": 519117, "physicalid": "37533", "street_name": "BELT PKWY", "borough": "brooklyn", "direction": "FT", "total_row_ft": 125.2, "roadbed_ft": 49.6, "median_ft": 45.6, "left_sw_ft": 15.0, "right_sw_ft": 15.0}, "geometry": {"type": "LineString", "coordinates": [[-73.90855171247325, 40.58943131745108], [-73.90814976961835, 40.58931050240032]]}}, {"type": "Feature", "properties": {"segment_id": 519118, "physicalid": "37533", "street_name": "BELT PKWY", "borough": "brooklyn", "direction": "FT", "total_row_ft": 125.0, "roadbed_ft": 49.3, "median_ft": 45.7, "left_sw_ft": 15.0, "right_sw_ft": 15.0}, "geometry": {"type": "LineString", "coordinates": [[-73.90853066164478, 40.5894738106268], [-73.90812028580457, 40.58937078018456]]}}, {"type": "Feature", "properties": {"segment_id": 519119, "physicalid": "37533", "street_name": "BELT PKWY", "borough": "brooklyn", "direction": "FT", "total_row_ft": 125.5, "roadbed_ft": 49.3, "median_ft": 46.1, "left_sw_ft": 15.0, "right_sw_ft": 15.0}, "geometry": {"type": "LineString", "coordinates": [[-73.90850813681132, 40.58952595184325], [-73.90809776068548, 40.589422921321]]}}, {"type": "Feature", "properties": {"segment_id": 519120, "physicalid": "37533", "street_name": "BELT PKWY", "borough": "brooklyn", "direction": "FT", "total_row_ft": 125.8, "roadbed_ft": 49.8, "median_ft": 45.9, "left_sw_ft": 15.0, "right_sw_ft": 15.0}, "geometry": {"type": "LineString", "coordinates": [[-73.9084856119427, 40.58957809305498], [-73.90807523553121, 40.589475062452806]]}}, {"type": "Feature", "properties": {"segment_id": 519121, "physicalid": "37533", "street_name": "BELT PKWY", "borough": "brooklyn", "direction": "FT", "total_row_ft": 125.8, "roadbed_ft": 50.1, "median_ft": 45.7, "left_sw_ft": 15.0, "right_sw_ft": 15.0}, "geometry": {"type": "LineString", "coordinates": [[-73.90846308703892, 40.589630234262046], [-73.90805271034175, 40.58952720357991]]}}, {"type": "Feature", "properties": {"segment_id": 519122, "physicalid": "37533", "street_name": "BELT PKWY", "borough": "brooklyn", "direction": "FT", "total_row_ft": 125.6, "roadbed_ft": 50.0, "median_ft": 45.5, "left_sw_ft": 15.0, "right_sw_ft": 15.0}, "geometry": {"type": "LineString", "coordinates": [[-73.90844056209995, 40.589682375464434], [-73.90803018511711, 40.58957934470237]]}}, {"type": "Feature", "properties": {"segment_id": 519123, "physicalid": "37533", "street_name": "BELT PKWY", "borough": "brooklyn", "direction": "FT", "total_row_ft": 125.1, "roadbed_ft": 49.8, "median_ft": 45.3, "left_sw_ft": 15.0, "right_sw_ft": 15.0}, "geometry": {"type": "LineString", "coordinates": [[-73.90841803712584, 40.58973451666212], [-73.9080076598573, 40.5896314858202]]}}, {"type": "Feature", "properties": {"segment_id": 519124, "physicalid": "37533", "street_name": "BELT PKWY", "borough": "brooklyn", "direction": "FT", "total_row_ft": 124.5, "roadbed_ft": 49.4, "median_ft": 45.1, "left_sw_ft": 15.0, "right_sw_ft": 15.0}, "geometry": {"type": "LineString", "coordinates": [[-73.90839551211653, 40.58978665785516], [-73.90798513456231, 40.589683626933294]]}}, {"type": "Feature", "properties": {"segment_id": 519125, "physicalid": "37533", "street_name": "BELT PKWY", "borough": "brooklyn", "direction": "FT", "total_row_ft": 123.6, "roadbed_ft": 48.9, "median_ft": 44.7, "left_sw_ft": 15.0, "right_sw_ft": 15.0}, "geometry": {"type": "LineString", "coordinates": [[-73.90837298707204, 40.58983879904353], [-73.90796260923216, 40.589735768041734]]}}, {"type": "Feature", "properties": {"segment_id": 519126, "physicalid": "37533", "street_name": "BELT PKWY", "borough": "brooklyn", "direction": "FT", "total_row_ft": 122.8, "roadbed_ft": 48.2, "median_ft": 44.6, "left_sw_ft": 15.0, "right_sw_ft": 15.0}, "geometry": {"type": "LineString", "coordinates": [[-73.90835558204076, 40.58988002918281], [-73.90793672953146, 40.58979921166468]]}}, {"type": "Feature", "properties": {"segment_id": 519127, "physicalid": "37533", "street_name": "BELT PKWY", "borough": "brooklyn", "direction": "FT", "total_row_ft": 123.0, "roadbed_ft": 47.4, "median_ft": 45.7, "left_sw_ft": 15.0, "right_sw_ft": 15.0}, "geometry": {"type": "LineString", "coordinates": [[-73.90833791339816, 40.589933247078704], [-73.90791906057645, 40.58985242949658]]}}, {"type": "Feature", "properties": {"segment_id": 519128, "physicalid": "37533", "street_name": "BELT PKWY", "borough": "brooklyn", "direction": "FT", "total_row_ft": 123.0, "roadbed_ft": 46.3, "median_ft": 46.7, "left_sw_ft": 15.0, "right_sw_ft": 15.0}, "geometry": {"type": "LineString", "coordinates": [[-73.90832024472738, 40.58998646497165], [-73.90790139159328, 40.589905647325466]]}}, {"type": "Feature", "properties": {"segment_id": 519129, "physicalid": "37533", "street_name": "BELT PKWY", "borough": "brooklyn", "direction": "FT", "total_row_ft": 122.0, "roadbed_ft": 45.1, "median_ft": 46.9, "left_sw_ft": 15.0, "right_sw_ft": 15.0}, "geometry": {"type": "LineString", "coordinates": [[-73.90830257602846, 40.59003968286153], [-73.90788372258191, 40.58995886515143]]}}, {"type": "Feature", "properties": {"segment_id": 538448, "physicalid": "38798", "street_name": "FLATBUSH AVE", "borough": "brooklyn", "direction": "TF", "total_row_ft": 116.0, "roadbed_ft": 51.2, "median_ft": 34.9, "left_sw_ft": 15.0, "right_sw_ft": 15.0}, "geometry": {"type": "LineString", "coordinates": [[-73.90037284123818, 40.590069854797896], [-73.90070145016244, 40.58985600207855]]}}, {"type": "Feature", "properties": {"segment_id": 538449, "physicalid": "38798", "street_name": "FLATBUSH AVE", "borough": "brooklyn", "direction": "TF", "total_row_ft": 115.9, "roadbed_ft": 51.0, "median_ft": 34.9, "left_sw_ft": 15.0, "right_sw_ft": 15.0}, "geometry": {"type": "LineString", "coordinates": [[-73.90032608751252, 40.590028102953376], [-73.90065469638111, 40.58981425036689]]}}, {"type": "Feature", "properties": {"segment_id": 538450, "physicalid": "38798", "street_name": "FLATBUSH AVE", "borough": "brooklyn", "direction": "TF", "total_row_ft": 115.8, "roadbed_ft": 50.9, "median_ft": 34.8, "left_sw_ft": 15.0, "right_sw_ft": 15.0}, "geometry": {"type": "LineString", "coordinates": [[-73.90027933384539, 40.58998635108966], [-73.9006079426582, 40.589772498636016]]}}, {"type": "Feature", "properties": {"segment_id": 538451, "physicalid": "38798", "street_name": "FLATBUSH AVE", "borough": "brooklyn", "direction": "TF", "total_row_ft": 115.6, "roadbed_ft": 50.9, "median_ft": 34.8, "left_sw_ft": 15.0, "right_sw_ft": 15.0}, "geometry": {"type": "LineString", "coordinates": [[-73.90023258023668, 40.58994459920675], [-73.90056118899376, 40.58973074688599]]}}, {"type": "Feature", "properties": {"segment_id": 538452, "physicalid": "38798", "street_name": "FLATBUSH AVE", "borough": "brooklyn", "direction": "TF", "total_row_ft": 115.5, "roadbed_ft": 50.8, "median_ft": 34.7, "left_sw_ft": 15.0, "right_sw_ft": 15.0}, "geometry": {"type": "LineString", "coordinates": [[-73.90018582668641, 40.58990284730465], [-73.90051443538782, 40.58968899511677]]}}, {"type": "Feature", "properties": {"segment_id": 538453, "physicalid": "38798", "street_name": "FLATBUSH AVE", "borough": "brooklyn", "direction": "TF", "total_row_ft": 115.4, "roadbed_ft": 50.7, "median_ft": 34.7, "left_sw_ft": 15.0, "right_sw_ft": 15.0}, "geometry": {"type": "LineString", "coordinates": [[-73.90013907319468, 40.5898610953834], [-73.90046768184028, 40.589647243328336]]}}, {"type": "Feature", "properties": {"segment_id": 538454, "physicalid": "38798", "street_name": "FLATBUSH AVE", "borough": "brooklyn", "direction": "TF", "total_row_ft": 115.2, "roadbed_ft": 50.6, "median_ft": 34.6, "left_sw_ft": 15.0, "right_sw_ft": 15.0}, "geometry": {"type": "LineString", "coordinates": [[-73.90009231976136, 40.58981934344292], [-73.90042092835124, 40.589605491520736]]}}, {"type": "Feature", "properties": {"segment_id": 538455, "physicalid": "38798", "street_name": "FLATBUSH AVE", "borough": "brooklyn", "direction": "TF", "total_row_ft": 115.1, "roadbed_ft": 49.8, "median_ft": 35.3, "left_sw_ft": 15.0, "right_sw_ft": 15.0}, "geometry": {"type": "LineString", "coordinates": [[-73.90004556638648, 40.589777591483255], [-73.90037417492069, 40.58956373969394]]}}, {"type": "Feature", "properties": {"segment_id": 538456, "physicalid": "38798", "street_name": "FLATBUSH AVE", "borough": "brooklyn", "direction": "TF", "total_row_ft": 115.0, "roadbed_ft": 48.6, "median_ft": 36.3, "left_sw_ft": 15.0, "right_sw_ft": 15.0}, "geometry": {"type": "LineString", "coordinates": [[-73.8999988130701, 40.58973583950441], [-73.90032742154855, 40.58952198784796]]}}, {"type": "Feature", "properties": {"segment_id": 538457, "physicalid": "38798", "street_name": "FLATBUSH AVE", "borough": "brooklyn", "direction": "TF", "total_row_ft": 114.9, "roadbed_ft": 47.3, "median_ft": 37.7, "left_sw_ft": 15.0, "right_sw_ft": 15.0}, "geometry": {"type": "LineString", "coordinates": [[-73.8999520598122, 40.58969408750641], [-73.90028066823488, 40.58948023598277]]}}, {"type": "Feature", "properties": {"segment_id": 538458, "physicalid": "38798", "street_name": "FLATBUSH AVE", "borough": "brooklyn", "direction": "TF", "total_row_ft": 114.9, "roadbed_ft": 45.7, "median_ft": 39.2, "left_sw_ft": 15.0, "right_sw_ft": 15.0}, "geometry": {"type": "LineString", "coordinates": [[-73.89990530661274, 40.5896523354892], [-73.9002339149797, 40.589438484098416]]}}, {"type": "Feature", "properties": {"segment_id": 538459, "physicalid": "38798", "street_name": "FLATBUSH AVE", "borough": "brooklyn", "direction": "TF", "total_row_ft": 114.8, "roadbed_ft": 44.3, "median_ft": 40.5, "left_sw_ft": 15.0, "right_sw_ft": 15.0}, "geometry": {"type": "LineString", "coordinates": [[-73.89985855347172, 40.58961058345275], [-73.90018716178298, 40.589396732194885]]}}, {"type": "Feature", "properties": {"segment_id": 538703, "physicalid": "38807", "street_name": "FLATBUSH AVE", "borough": "brooklyn", "direction": "FT", "total_row_ft": 111.8, "roadbed_ft": 50.0, "median_ft": 34.9, "left_sw_ft": 15.0, "right_sw_ft": 11.9}, "geometry": {"type": "LineString", "coordinates": [[-73.90064770607869, 40.5900520746432], [-73.90091395038235, 40.589880564427084]]}}, {"type": "Feature", "properties": {"segment_id": 538704, "physicalid": "38807", "street_name": "FLATBUSH AVE", "borough": "brooklyn", "direction": "FT", "total_row_ft": 111.7, "roadbed_ft": 50.0, "median_ft": 34.9, "left_sw_ft": 15.0, "right_sw_ft": 11.8}, "geometry": {"type": "LineString", "coordinates": [[-73.90060122831588, 40.59001014412838], [-73.90086715707854, 40.58983883725563]]}}, {"type": "Feature", "properties": {"segment_id": 538705, "physicalid": "38807", "street_name": "FLATBUSH AVE", "borough": "brooklyn", "direction": "FT", "total_row_ft": 111.7, "roadbed_ft": 50.0, "median_ft": 34.8, "left_sw_ft": 15.0, "right_sw_ft": 11.9}, "geometry": {"type": "LineString", "coordinates": [[-73.90055475061145, 40.5899682135946], [-73.90082080732304, 40.58979682437508]]}}, {"type": "Feature", "properties": {"segment_id": 538706, "physicalid": "38807", "street_name": "FLATBUSH AVE", "borough": "brooklyn", "direction": "FT", "total_row_ft": 111.8, "roadbed_ft": 50.0, "median_ft": 34.9, "left_sw_ft": 15.0, "right_sw_ft": 11.9}, "geometry": {"type": "LineString", "coordinates": [[-73.90050827296538, 40.589926283041855], [-73.90077445762586, 40.58975481147566]]}}, {"type": "Feature", "properties": {"segment_id": 538707, "physicalid": "38807", "street_name": "FLATBUSH AVE", "borough": "brooklyn", "direction": "FT", "total_row_ft": 111.8, "roadbed_ft": 50.0, "median_ft": 34.8, "left_sw_ft": 15.0, "right_sw_ft": 12.0}, "geometry": {"type": "LineString", "coordinates": [[-73.90046179537771, 40.58988435247013], [-73.90072810798699, 40.58971279855738]]}}, {"type": "Feature", "properties": {"segment_id": 538708, "physicalid": "38807", "street_name": "FLATBUSH AVE", "borough": "brooklyn", "direction": "FT", "total_row_ft": 111.9, "roadbed_ft": 50.0, "median_ft": 34.8, "left_sw_ft": 15.0, "right_sw_ft": 12.1}, "geometry": {"type": "LineString", "coordinates": [[-73.90041531784837, 40.58984242187944], [-73.90068175840645, 40.58967078562023]]}}, {"type": "Feature", "properties": {"segment_id": 538709, "physicalid": "38807", "street_name": "FLATBUSH AVE", "borough": "brooklyn", "direction": "FT", "total_row_ft": 111.9, "roadbed_ft": 50.0, "median_ft": 34.8, "left_sw_ft": 15.0, "right_sw_ft": 12.2}, "geometry": {"type": "LineString", "coordinates": [[-73.90036884037742, 40.58980049126977], [-73.90063540888423, 40.589628772664206]]}}, {"type": "Feature", "properties": {"segment_id": 538710, "physicalid": "38807", "street_name": "FLATBUSH AVE", "borough": "brooklyn", "direction": "FT", "total_row_ft": 111.9, "roadbed_ft": 50.0, "median_ft": 34.7, "left_sw_ft": 15.0, "right_sw_ft": 12.3}, "geometry": {"type": "LineString", "coordinates": [[-73.90032236296481, 40.58975856064116], [-73.90058897063136, 40.58958681688581]]}}, {"type": "Feature", "properties": {"segment_id": 538711, "physicalid": "38807", "street_name": "FLATBUSH AVE", "borough": "brooklyn", "direction": "FT", "total_row_ft": 111.8, "roadbed_ft": 50.0, "median_ft": 34.7, "left_sw_ft": 15.0, "right_sw_ft": 12.2}, "geometry": {"type": "LineString", "coordinates": [[-73.9002758856106, 40.58971662999357], [-73.90054218462524, 40.5895450851432]]}}, {"type": "Feature", "properties": {"segment_id": 538712, "physicalid": "38807", "street_name": "FLATBUSH AVE", "borough": "brooklyn", "direction": "FT", "total_row_ft": 111.7, "roadbed_ft": 49.5, "median_ft": 35.1, "left_sw_ft": 15.0, "right_sw_ft": 12.1}, "geometry": {"type": "LineString", "coordinates": [[-73.90022940831473, 40.58967469932701], [-73.90049539867758, 40.58950335338138]]}}, {"type": "Feature", "properties": {"segment_id": 538713, "physicalid": "38807", "street_name": "FLATBUSH AVE", "borough": "brooklyn", "direction": "FT", "total_row_ft": 111.6, "roadbed_ft": 48.5, "median_ft": 36.1, "left_sw_ft": 15.0, "right_sw_ft": 12.0}, "geometry": {"type": "LineString", "coordinates": [[-73.90018293107724, 40.589632768641486], [-73.90044861278838, 40.58946162160036]]}}, {"type": "Feature", "properties": {"segment_id": 538714, "physicalid": "38807", "street_name": "FLATBUSH AVE", "borough": "brooklyn", "direction": "FT", "total_row_ft": 111.5, "roadbed_ft": 47.2, "median_ft": 37.3, "left_sw_ft": 15.0, "right_sw_ft": 12.0}, "geometry": {"type": "LineString", "coordinates": [[-73.9001364538981, 40.589590837936996], [-73.90040182695766, 40.58941988980011]]}}, {"type": "Feature", "properties": {"segment_id": 538715, "physicalid": "38807", "street_name": "FLATBUSH AVE", "borough": "brooklyn", "direction": "FT", "total_row_ft": 111.4, "roadbed_ft": 45.7, "median_ft": 38.8, "left_sw_ft": 15.0, "right_sw_ft": 11.9}, "geometry": {"type": "LineString", "coordinates": [[-73.90008997677735, 40.58954890721355], [-73.90035504118542, 40.58937815798065]]}}, {"type": "Feature", "properties": {"segment_id": 538716, "physicalid": "38807", "street_name": "FLATBUSH AVE", "borough": "brooklyn", "direction": "FT", "total_row_ft": 111.3, "roadbed_ft": 44.2, "median_ft": 40.2, "left_sw_ft": 15.0, "right_sw_ft": 11.8}, "geometry": {"type": "LineString", "coordinates": [[-73.90004349971495, 40.589506976471135], [-73.90030825547166, 40.589336426141976]]}}, {"type": "Feature", "properties": {"segment_id": 538717, "physicalid": "38807", "street_name": "FLATBUSH AVE", "borough": "brooklyn", "direction": "FT", "total_row_ft": 111.2, "roadbed_ft": 42.9, "median_ft": 41.5, "left_sw_ft": 15.0, "right_sw_ft": 11.8}, "geometry": {"type": "LineString", "coordinates": [[-73.89999702271092, 40.58946504570975], [-73.90026170563797, 40.58929454237197]]}}, {"type": "Feature", "properties": {"segment_id": 538718, "physicalid": "38807", "street_name": "FLATBUSH AVE", "borough": "brooklyn", "direction": "FT", "total_row_ft": 111.3, "roadbed_ft": 41.8, "median_ft": 42.6, "left_sw_ft": 15.0, "right_sw_ft": 11.9}, "geometry": {"type": "LineString", "coordinates": [[-73.89995054576526, 40.58942311492942], [-73.90021526507218, 40.58925258823212]]}}, {"type": "Feature", "properties": {"segment_id": 538719, "physicalid": "38807", "street_name": "FLATBUSH AVE", "borough": "brooklyn", "direction": "FT", "total_row_ft": 111.3, "roadbed_ft": 40.9, "median_ft": 43.5, "left_sw_ft": 15.0, "right_sw_ft": 11.9}, "geometry": {"type": "LineString", "coordinates": [[-73.89990406887796, 40.58938118413009], [-73.90016882456474, 40.58921063407333]]}}, {"type": "Feature", "properties": {"segment_id": 970762, "physicalid": "67812", "street_name": "BELT PKWY", "borough": "brooklyn", "direction": "TF", "total_row_ft": 117.6, "roadbed_ft": 63.3, "median_ft": 24.3, "left_sw_ft": 15.0, "right_sw_ft": 15.0}, "geometry": {"type": "LineString", "coordinates": [[-73.91012956458724, 40.587795283174884], [-73.909796337149, 40.58758563540083]]}}, {"type": "Feature", "properties": {"segment_id": 970763, "physicalid": "67812", "street_name": "BELT PKWY", "borough": "brooklyn", "direction": "TF", "total_row_ft": 118.1, "roadbed_ft": 61.9, "median_ft": 26.1, "left_sw_ft": 15.0, "right_sw_ft": 15.0}, "geometry": {"type": "LineString", "coordinates": [[-73.91008952753353, 40.587833078446955], [-73.90974601533604, 40.587633310867915]]}}, {"type": "Feature", "properties": {"segment_id": 970764, "physicalid": "67812", "street_name": "BELT PKWY", "borough": "brooklyn", "direction": "TF", "total_row_ft": 118.2, "roadbed_ft": 60.4, "median_ft": 27.8, "left_sw_ft": 15.0, "right_sw_ft": 15.0}, "geometry": {"type": "LineString", "coordinates": [[-73.91004585461572, 40.58787672529022], [-73.90970234232438, 40.587676957581444]]}}, {"type": "Feature", "properties": {"segment_id": 970765, "physicalid": "67812", "street_name": "BELT PKWY", "borough": "brooklyn", "direction": "TF", "total_row_ft": 118.4, "roadbed_ft": 58.8, "median_ft": 29.6, "left_sw_ft": 15.0, "right_sw_ft": 15.0}, "geometry": {"type": "LineString", "coordinates": [[-73.91000218164082, 40.587920372116706], [-73.9096586692556, 40.58772060427819]]}}, {"type": "Feature", "properties": {"segment_id": 970766, "physicalid": "67812", "street_name": "BELT PKWY", "borough": "brooklyn", "direction": "TF", "total_row_ft": 118.6, "roadbed_ft": 57.6, "median_ft": 31.0, "left_sw_ft": 15.0, "right_sw_ft": 15.0}, "geometry": {"type": "LineString", "coordinates": [[-73.90995850860882, 40.58796401892644], [-73.90961499612975, 40.58776425095817]]}}, {"type": "Feature", "properties": {"segment_id": 970767, "physicalid": "67812", "street_name": "BELT PKWY", "borough": "brooklyn", "direction": "TF", "total_row_ft": 118.7, "roadbed_ft": 56.4, "median_ft": 32.4, "left_sw_ft": 15.0, "right_sw_ft": 15.0}, "geometry": {"type": "LineString", "coordinates": [[-73.90991483551976, 40.58800766571937], [-73.9095713229468, 40.58780789762137]]}}, {"type": "Feature", "properties": {"segment_id": 970768, "physicalid": "67812", "street_name": "BELT PKWY", "borough": "brooklyn", "direction": "TF", "total_row_ft": 119.8, "roadbed_ft": 55.9, "median_ft": 34.0, "left_sw_ft": 15.0, "right_sw_ft": 15.0}, "geometry": {"type": "LineString", "coordinates": [[-73.90987116237359, 40.58805131249552], [-73.90952764970677, 40.587851544267764]]}}, {"type": "Feature", "properties": {"segment_id": 970769, "physicalid": "67812", "street_name": "BELT PKWY", "borough": "brooklyn", "direction": "TF", "total_row_ft": 121.0, "roadbed_ft": 55.9, "median_ft": 35.1, "left_sw_ft": 15.0, "right_sw_ft": 15.0}, "geometry": {"type": "LineString", "coordinates": [[-73.90982748917034, 40.58809495925491], [-73.90948397640963, 40.58789519089741]]}}, {"type": "Feature", "properties": {"segment_id": 970770, "physicalid": "67812", "street_name": "BELT PKWY", "borough": "brooklyn", "direction": "TF", "total_row_ft": 122.1, "roadbed_ft": 55.6, "median_ft": 36.5, "left_sw_ft": 15.0, "right_sw_ft": 15.0}, "geometry": {"type": "LineString", "coordinates": [[-73.90979430288496, 40.5881271482805], [-73.9094298160493, 40.587950295195164]]}}, {"type": "Feature", "properties": {"segment_id": 970771, "physicalid": "67812", "street_name": "BELT PKWY", "borough": "brooklyn", "direction": "TF", "total_row_ft": 121.0, "roadbed_ft": 53.1, "median_ft": 37.9, "left_sw_ft": 15.0, "right_sw_ft": 15.0}, "geometry": {"type": "LineString", "coordinates": [[-73.90976096975062, 40.58817000038965], [-73.90938950943396, 40.58800179102692]]}}, {"type": "Feature", "properties": {"segment_id": 970772, "physicalid": "67812", "street_name": "BELT PKWY", "borough": "brooklyn", "direction": "TF", "total_row_ft": 120.2, "roadbed_ft": 51.2, "median_ft": 39.1, "left_sw_ft": 15.0, "right_sw_ft": 15.0}, "geometry": {"type": "LineString", "coordinates": [[-73.90972419589536, 40.588217198077054], [-73.90935273540885, 40.588048988596135]]}}, {"type": "Feature", "properties": {"segment_id": 970773, "physicalid": "67812", "street_name": "BELT PKWY", "borough": "brooklyn", "direction": "TF", "total_row_ft": 119.8, "roadbed_ft": 51.7, "median_ft": 38.1, "left_sw_ft": 15.0, "right_sw_ft": 15.0}, "geometry": {"type": "LineString", "coordinates": [[-73.90968731328573, 40.58826451041174], [-73.9093160415474, 40.58809605858191]]}}, {"type": "Feature", "properties": {"segment_id": 970774, "physicalid": "67812", "street_name": "BELT PKWY", "borough": "brooklyn", "direction": "TF", "total_row_ft": 119.3, "roadbed_ft": 52.2, "median_ft": 37.2, "left_sw_ft": 15.0, "right_sw_ft": 15.0}, "geometry": {"type": "LineString", "coordinates": [[-73.90965048636971, 40.58831168407136], [-73.90927921446199, 40.5881432321233]]}}, {"type": "Feature", "properties": {"segment_id": 970775, "physicalid": "67812", "street_name": "BELT PKWY", "borough": "brooklyn", "direction": "TF", "total_row_ft": 119.0, "roadbed_ft": 51.9, "median_ft": 37.1, "left_sw_ft": 15.0, "right_sw_ft": 15.0}, "geometry": {"type": "LineString", "coordinates": [[-73.90961365940167, 40.58835885771894], [-73.90924238732454, 40.588190405652675]]}}, {"type": "Feature", "properties": {"segment_id": 970776, "physicalid": "67812", "street_name": "BELT PKWY", "borough": "brooklyn", "direction": "TF", "total_row_ft": 118.9, "roadbed_ft": 51.9, "median_ft": 37.0, "left_sw_ft": 15.0, "right_sw_ft": 15.0}, "geometry": {"type": "LineString", "coordinates": [[-73.90957683238155, 40.58840603135456], [-73.9092055601351, 40.588237579170006]]}}, {"type": "Feature", "properties": {"segment_id": 970777, "physicalid": "67812", "street_name": "BELT PKWY", "borough": "brooklyn", "direction": "TF", "total_row_ft": 118.8, "roadbed_ft": 51.9, "median_ft": 37.0, "left_sw_ft": 15.0, "right_sw_ft": 15.0}, "geometry": {"type": "LineString", "coordinates": [[-73.90954000530944, 40.58845320497813], [-73.9091687328936, 40.588284752675335]]}}, {"type": "Feature", "properties": {"segment_id": 970778, "physicalid": "67812", "street_name": "BELT PKWY", "borough": "brooklyn", "direction": "TF", "total_row_ft": 118.8, "roadbed_ft": 51.8, "median_ft": 36.9, "left_sw_ft": 15.0, "right_sw_ft": 15.0}, "geometry": {"type": "LineString", "coordinates": [[-73.90950317818529, 40.58850037858969], [-73.90913190560008, 40.58833192616866]]}}, {"type": "Feature", "properties": {"segment_id": 970779, "physicalid": "67812", "street_name": "BELT PKWY", "borough": "brooklyn", "direction": "TF", "total_row_ft": 119.0, "roadbed_ft": 51.9, "median_ft": 37.2, "left_sw_ft": 15.0, "right_sw_ft": 15.0}, "geometry": {"type": "LineString", "coordinates": [[-73.9094663510091, 40.58854755218927], [-73.90909507825454, 40.58837909964997]]}}, {"type": "Feature", "properties": {"segment_id": 970780, "physicalid": "67812", "street_name": "BELT PKWY", "borough": "brooklyn", "direction": "TF", "total_row_ft": 120.0, "roadbed_ft": 52.3, "median_ft": 37.7, "left_sw_ft": 15.0, "right_sw_ft": 15.0}, "geometry": {"type": "LineString", "coordinates": [[-73.9094295237809, 40.5885947257768], [-73.90905825085694, 40.58842627311926]]}}, {"type": "Feature", "properties": {"segment_id": 970781, "physicalid": "67812", "street_name": "BELT PKWY", "borough": "brooklyn", "direction": "TF", "total_row_ft": 120.9, "roadbed_ft": 52.7, "median_ft": 38.1, "left_sw_ft": 15.0, "right_sw_ft": 15.0}, "geometry": {"type": "LineString", "coordinates": [[-73.90939269650066, 40.58864189935233], [-73.90902142340734, 40.58847344657656]]}}, {"type": "Feature", "properties": {"segment_id": 970782, "physicalid": "67812", "street_name": "BELT PKWY", "borough": "brooklyn", "direction": "TF", "total_row_ft": 121.8, "roadbed_ft": 53.2, "median_ft": 38.6, "left_sw_ft": 15.0, "right_sw_ft": 15.0}, "geometry": {"type": "LineString", "coordinates": [[-73.90935586916838, 40.588689072915834], [-73.9089845959057, 40.58852062002182]]}}, {"type": "Feature", "properties": {"segment_id": 970783, "physicalid": "67812", "street_name": "BELT PKWY", "borough": "brooklyn", "direction": "TF", "total_row_ft": 121.9, "roadbed_ft": 54.0, "median_ft": 37.9, "left_sw_ft": 15.0, "right_sw_ft": 15.0}, "geometry": {"type": "LineString", "coordinates": [[-73.90933434625424, 40.58872155045661], [-73.90894071267145, 40.58858577031906]]}}, {"type": "Feature", "properties": {"segment_id": 970784, "physicalid": "67812", "street_name": "BELT PKWY", "borough": "brooklyn", "direction": "TF", "total_row_ft": 121.1, "roadbed_ft": 54.1, "median_ft": 37.0, "left_sw_ft": 15.0, "right_sw_ft": 15.0}, "geometry": {"type": "LineString", "coordinates": [[-73.90930466185506, 40.58877156503799], [-73.90891102803782, 40.58863578479938]]}}, {"type": "Feature", "properties": {"segment_id": 970785, "physicalid": "67812", "street_name": "BELT PKWY", "borough": "brooklyn", "direction": "TF", "total_row_ft": 120.4, "roadbed_ft": 54.2, "median_ft": 36.2, "left_sw_ft": 15.0, "right_sw_ft": 15.0}, "geometry": {"type": "LineString", "coordinates": [[-73.90927497741143, 40.588821579611476], [-73.90888134335972, 40.58868579927183]]}}, {"type": "Feature", "properties": {"segment_id": 970786, "physicalid": "67812", "street_name": "BELT PKWY", "borough": "brooklyn", "direction": "TF", "total_row_ft": 119.8, "roadbed_ft": 54.5, "median_ft": 35.3, "left_sw_ft": 15.0, "right_sw_ft": 15.0}, "geometry": {"type": "LineString", "coordinates": [[-73.90924529292332, 40.58887159417706], [-73.90885165863718, 40.58873581373635]]}}, {"type": "Feature", "properties": {"segment_id": 970787, "physicalid": "67812", "street_name": "BELT PKWY", "borough": "brooklyn", "direction": "TF", "total_row_ft": 119.6, "roadbed_ft": 55.1, "median_ft": 34.5, "left_sw_ft": 15.0, "right_sw_ft": 15.0}, "geometry": {"type": "LineString", "coordinates": [[-73.90921560839074, 40.58892160873477], [-73.90882197387016, 40.58878582819295]]}}, {"type": "Feature", "properties": {"segment_id": 970788, "physicalid": "67812", "street_name": "BELT PKWY", "borough": "brooklyn", "direction": "TF", "total_row_ft": 119.4, "roadbed_ft": 55.3, "median_ft": 34.1, "left_sw_ft": 15.0, "right_sw_ft": 15.0}, "geometry": {"type": "LineString", "coordinates": [[-73.90918592381371, 40.5889716232845], [-73.90879228905865, 40.58883584264167]]}}, {"type": "Feature", "properties": {"segment_id": 970789, "physicalid": "67812", "street_name": "BELT PKWY", "borough": "brooklyn", "direction": "TF", "total_row_ft": 118.8, "roadbed_ft": 55.1, "median_ft": 33.6, "left_sw_ft": 15.0, "right_sw_ft": 15.0}, "geometry": {"type": "LineString", "coordinates": [[-73.90915623919221, 40.589021637826356], [-73.90876260420269, 40.588885857082495]]}}, {"type": "Feature", "properties": {"segment_id": 970790, "physicalid": "67812", "street_name": "BELT PKWY", "borough": "brooklyn", "direction": "TF", "total_row_ft": 119.2, "roadbed_ft": 55.4, "median_ft": 33.9, "left_sw_ft": 15.0, "right_sw_ft": 15.0}, "geometry": {"type": "LineString", "coordinates": [[-73.90912655452625, 40.58907165236032], [-73.90873291930228, 40.588935871515396]]}}, {"type": "Feature", "properties": {"segment_id": 970791, "physicalid": "67812", "street_name": "BELT PKWY", "borough": "brooklyn", "direction": "TF", "total_row_ft": 118.2, "roadbed_ft": 56.0, "median_ft": 32.2, "left_sw_ft": 15.0, "right_sw_ft": 15.0}, "geometry": {"type": "LineString", "coordinates": [[-73.90911065645489, 40.58910702473823], [-73.90870037660237, 40.589003777569026]]}}, {"type": "Feature", "properties": {"segment_id": 970792, "physicalid": "67812", "street_name": "BELT PKWY", "borough": "brooklyn", "direction": "TF", "total_row_ft": 116.4, "roadbed_ft": 56.4, "median_ft": 30.0, "left_sw_ft": 15.0, "right_sw_ft": 15.0}, "geometry": {"type": "LineString", "coordinates": [[-73.90908808436429, 40.589159154046996], [-73.90867780422641, 40.589055906797725]]}}, {"type": "Feature", "properties": {"segment_id": 970793, "physicalid": "67812", "street_name": "BELT PKWY", "borough": "brooklyn", "direction": "TF", "total_row_ft": 115.1, "roadbed_ft": 56.6, "median_ft": 28.5, "left_sw_ft": 15.0, "right_sw_ft": 15.0}, "geometry": {"type": "LineString", "coordinates": [[-73.90906551223847, 40.589211283351084], [-73.9086552318152, 40.58910803602173]]}}, {"type": "Feature", "properties": {"segment_id": 970794, "physicalid": "67812", "street_name": "BELT PKWY", "borough": "brooklyn", "direction": "TF", "total_row_ft": 114.0, "roadbed_ft": 56.8, "median_ft": 27.1, "left_sw_ft": 15.0, "right_sw_ft": 15.0}, "geometry": {"type": "LineString", "coordinates": [[-73.90904294007743, 40.58926341265045], [-73.90863265936876, 40.589160165241054]]}}, {"type": "Feature", "properties": {"segment_id": 970795, "physicalid": "67812", "street_name": "BELT PKWY", "borough": "brooklyn", "direction": "TF", "total_row_ft": 112.8, "roadbed_ft": 57.1, "median_ft": 25.7, "left_sw_ft": 15.0, "right_sw_ft": 15.0}, "geometry": {"type": "LineString", "coordinates": [[-73.9090203678811, 40.58931554194519], [-73.9086100868871, 40.58921229445564]]}}, {"type": "Feature", "properties": {"segment_id": 970796, "physicalid": "67812", "street_name": "BELT PKWY", "borough": "brooklyn", "direction": "TF", "total_row_ft": 112.3, "roadbed_ft": 57.5, "median_ft": 24.8, "left_sw_ft": 15.0, "right_sw_ft": 15.0}, "geometry": {"type": "LineString", "coordinates": [[-73.90899027085406, 40.589379716266265], [-73.90859224875906, 40.589251579858875]]}}, {"type": "Feature", "properties": {"segment_id": 970797, "physicalid": "67812", "street_name": "BELT PKWY", "borough": "brooklyn", "direction": "TF", "total_row_ft": 113.1, "roadbed_ft": 57.5, "median_ft": 25.6, "left_sw_ft": 15.0, "right_sw_ft": 15.0}, "geometry": {"type": "LineString", "coordinates": [[-73.90896225726888, 40.58943028793951], [-73.90856423492623, 40.589302151435696]]}}, {"type": "Feature", "properties": {"segment_id": 970798, "physicalid": "67812", "street_name": "BELT PKWY", "borough": "brooklyn", "direction": "TF", "total_row_ft": 114.4, "roadbed_ft": 57.6, "median_ft": 26.9, "left_sw_ft": 15.0, "right_sw_ft": 15.0}, "geometry": {"type": "LineString", "coordinates": [[-73.90893424364128, 40.589480859605686], [-73.90853622105095, 40.58935272300546]]}}, {"type": "Feature", "properties": {"segment_id": 970799, "physicalid": "67812", "street_name": "BELT PKWY", "borough": "brooklyn", "direction": "TF", "total_row_ft": 115.8, "roadbed_ft": 57.7, "median_ft": 28.1, "left_sw_ft": 15.0, "right_sw_ft": 15.0}, "geometry": {"type": "LineString", "coordinates": [[-73.90890622997125, 40.58953143126482], [-73.90850820713324, 40.58940329456815]]}}, {"type": "Feature", "properties": {"segment_id": 970800, "physicalid": "67812", "street_name": "BELT PKWY", "borough": "brooklyn", "direction": "TF", "total_row_ft": 115.2, "roadbed_ft": 57.9, "median_ft": 27.4, "left_sw_ft": 15.0, "right_sw_ft": 15.0}, "geometry": {"type": "LineString", "coordinates": [[-73.90889368713982, 40.58956450196461], [-73.90847792331196, 40.58947489918178]]}}, {"type": "Feature", "properties": {"segment_id": 970801, "physicalid": "67812", "street_name": "BELT PKWY", "borough": "brooklyn", "direction": "TF", "total_row_ft": 114.4, "roadbed_ft": 57.8, "median_ft": 26.6, "left_sw_ft": 15.0, "right_sw_ft": 15.0}, "geometry": {"type": "LineString", "coordinates": [[-73.90887409790089, 40.58961732768156], [-73.90845833377041, 40.58952772482829]]}}, {"type": "Feature", "properties": {"segment_id": 970802, "physicalid": "67812", "street_name": "BELT PKWY", "borough": "brooklyn", "direction": "TF", "total_row_ft": 114.0, "roadbed_ft": 57.9, "median_ft": 26.1, "left_sw_ft": 15.0, "right_sw_ft": 15.0}, "geometry": {"type": "LineString", "coordinates": [[-73.90885450863094, 40.5896701533949], [-73.9084387441979, 40.58958055047114]]}}, {"type": "Feature", "properties": {"segment_id": 970803, "physicalid": "67812", "street_name": "BELT PKWY", "borough": "brooklyn", "direction": "TF", "total_row_ft": 113.9, "roadbed_ft": 58.4, "median_ft": 25.5, "left_sw_ft": 15.0, "right_sw_ft": 15.0}, "geometry": {"type": "LineString", "coordinates": [[-73.90883491933, 40.589722979104636], [-73.90841915459436, 40.58963337611043]]}}, {"type": "Feature", "properties": {"segment_id": 970804, "physicalid": "67812", "street_name": "BELT PKWY", "borough": "brooklyn", "direction": "TF", "total_row_ft": 113.5, "roadbed_ft": 58.3, "median_ft": 25.1, "left_sw_ft": 15.0, "right_sw_ft": 15.0}, "geometry": {"type": "LineString", "coordinates": [[-73.90881532999809, 40.58977580481074], [-73.90839956495984, 40.589686201746126]]}}, {"type": "Feature", "properties": {"segment_id": 970805, "physicalid": "67812", "street_name": "BELT PKWY", "borough": "brooklyn", "direction": "TF", "total_row_ft": 112.6, "roadbed_ft": 57.4, "median_ft": 25.2, "left_sw_ft": 15.0, "right_sw_ft": 15.0}, "geometry": {"type": "LineString", "coordinates": [[-73.90879574063517, 40.58982863051326], [-73.90837997529431, 40.589739027378215]]}}, {"type": "Feature", "properties": {"segment_id": 970806, "physicalid": "67812", "street_name": "BELT PKWY", "borough": "brooklyn", "direction": "TF", "total_row_ft": 111.6, "roadbed_ft": 56.3, "median_ft": 25.3, "left_sw_ft": 15.0, "right_sw_ft": 15.0}, "geometry": {"type": "LineString", "coordinates": [[-73.90877615124128, 40.589881456212154], [-73.90836038559777, 40.589791853006716]]}}, {"type": "Feature", "properties": {"segment_id": 970807, "physicalid": "67812", "street_name": "BELT PKWY", "borough": "brooklyn", "direction": "TF", "total_row_ft": 110.5, "roadbed_ft": 55.1, "median_ft": 25.4, "left_sw_ft": 15.0, "right_sw_ft": 15.0}, "geometry": {"type": "LineString", "coordinates": [[-73.90875656181639, 40.58993428190745], [-73.90834079587027, 40.58984467863161]]}}, {"type": "Feature", "properties": {"segment_id": 970808, "physicalid": "67812", "street_name": "BELT PKWY", "borough": "brooklyn", "direction": "TF", "total_row_ft": 109.4, "roadbed_ft": 53.9, "median_ft": 25.5, "left_sw_ft": 15.0, "right_sw_ft": 15.0}, "geometry": {"type": "LineString", "coordinates": [[-73.9087369723605, 40.58998710759915], [-73.90832120611178, 40.58989750425286]]}}, {"type": "Feature", "properties": {"segment_id": 970809, "physicalid": "67812", "street_name": "BELT PKWY", "borough": "brooklyn", "direction": "TF", "total_row_ft": 107.9, "roadbed_ft": 51.8, "median_ft": 26.0, "left_sw_ft": 15.0, "right_sw_ft": 15.0}, "geometry": {"type": "LineString", "coordinates": [[-73.90871738287359, 40.5900399332873], [-73.90830161632228, 40.58995032987051]]}}]}