{"type": "FeatureCollection", "features": [{"type": "Feature", "properties": {"segment_id": 538287, "physicalid": "38789", "street_name": "FLATBUSH AVE", "borough": "brooklyn", "direction": "TW", "total_row_ft": 92.0, "roadbed_ft": 71.2, "median_ft": 0.0, "left_sw_ft": 7.3, "right_sw_ft": 13.5}, "geometry": {"type": "LineString", "coordinates": [[-73.91159450677893, 40.60004138532905], [-73.91184704722988, 40.59987784361907]]}}, {"type": "Feature", "properties": {"segment_id": 538288, "physicalid": "38789", "street_name": "FLATBUSH AVE", "borough": "brooklyn", "direction": "TW", "total_row_ft": 92.6, "roadbed_ft": 71.3, "median_ft": 0.0, "left_sw_ft": 7.5, "right_sw_ft": 13.7}, "geometry": {"type": "LineString", "coordinates": [[-73.91154717417511, 40.600000003674964], [-73.91180117679932, 40.599835515155384]]}}, {"type": "Feature", "properties": {"segment_id": 538289, "physicalid": "38789", "street_name": "FLATBUSH AVE", "borough": "brooklyn", "direction": "TW", "total_row_ft": 93.1, "roadbed_ft": 71.4, "median_ft": 0.0, "left_sw_ft": 7.7, "right_sw_ft": 14.0}, "geometry": {"type": "LineString", "coordinates": [[-73.91149984163005, 40.599958622001246], [-73.91175530642687, 40.599793186673196]]}}, {"type": "Feature", "properties": {"segment_id": 538290, "physicalid": "38789", "street_name": "FLATBUSH AVE", "borough": "brooklyn", "direction": "TW", "total_row_ft": 94.1, "roadbed_ft": 71.4, "median_ft": 0.6, "left_sw_ft": 7.8, "right_sw_ft": 14.2}, "geometry": {"type": "LineString", "coordinates": [[-73.91145298770192, 40.599916930401804], [-73.91170943611262, 40.59975085817256]]}}, {"type": "Feature", "properties": {"segment_id": 538291, "physicalid": "38789", "street_name": "FLATBUSH AVE", "borough": "brooklyn", "direction": "TW", "total_row_ft": 96.6, "roadbed_ft": 71.3, "median_ft": 3.3, "left_sw_ft": 7.8, "right_sw_ft": 14.2}, "geometry": {"type": "LineString", "coordinates": [[-73.91140680773482, 40.59987480237577], [-73.91166276664029, 40.59970904721606]]}}, {"type": "Feature", "properties": {"segment_id": 538292, "physicalid": "38789", "street_name": "FLATBUSH AVE", "borough": "brooklyn", "direction": "TW", "total_row_ft": 99.0, "roadbed_ft": 71.2, "median_ft": 6.0, "left_sw_ft": 7.7, "right_sw_ft": 14.0}, "geometry": {"type": "LineString", "coordinates": [[-73.91136061209696, 40.59983268451684], [-73.91161559342905, 40.59966756249333]]}}, {"type": "Feature", "properties": {"segment_id": 538293, "physicalid": "38789", "street_name": "FLATBUSH AVE", "borough": "brooklyn", "direction": "TW", "total_row_ft": 98.9, "roadbed_ft": 71.1, "median_ft": 6.2, "left_sw_ft": 7.8, "right_sw_ft": 13.8}, "geometry": {"type": "LineString", "coordinates": [[-73.91131418816215, 40.599790714517816], [-73.91156842027645, 40.599626077751076]]}}, {"type": "Feature", "properties": {"segment_id": 538294, "physicalid": "38789", "street_name": "FLATBUSH AVE", "borough": "brooklyn", "direction": "TW", "total_row_ft": 98.4, "roadbed_ft": 70.9, "median_ft": 6.0, "left_sw_ft": 7.8, "right_sw_ft": 13.6}, "geometry": {"type": "LineString", "coordinates": [[-73.91126776593717, 40.599748743430474], [-73.91152124718242, 40.59958459298926]]}}, {"type": "Feature", "properties": {"segment_id": 538295, "physicalid": "38789", "street_name": "FLATBUSH AVE", "borough": "brooklyn", "direction": "TW", "total_row_ft": 97.9, "roadbed_ft": 70.8, "median_ft": 5.8, "left_sw_ft": 7.9, "right_sw_ft": 13.4}, "geometry": {"type": "LineString", "coordinates": [[-73.91122136802255, 40.59970675661899], [-73.91147407414707, 40.59954310820792]]}}, {"type": "Feature", "properties": {"segment_id": 538296, "physicalid": "38789", "street_name": "FLATBUSH AVE", "borough": "brooklyn", "direction": "TW", "total_row_ft": 97.4, "roadbed_ft": 70.7, "median_ft": 5.6, "left_sw_ft": 7.9, "right_sw_ft": 13.2}, "geometry": {"type": "LineString", "coordinates": [[-73.91117497016634, 40.59966476978864], [-73.91142697145652, 40.59950157789065]]}}, {"type": "Feature", "properties": {"segment_id": 538297, "physicalid": "38789", "street_name": "FLATBUSH AVE", "borough": "brooklyn", "direction": "TW", "total_row_ft": 97.2, "roadbed_ft": 70.5, "median_ft": 5.2, "left_sw_ft": 8.2, "right_sw_ft": 13.2}, "geometry": {"type": "LineString", "coordinates": [[-73.91112801565187, 40.59962314345823], [-73.91138047062051, 40.599459657839304]]}}, {"type": "Feature", "properties": {"segment_id": 538298, "physicalid": "38789", "street_name": "FLATBUSH AVE", "borough": "brooklyn", "direction": "TW", "total_row_ft": 97.1, "roadbed_ft": 70.4, "median_ft": 4.9, "left_sw_ft": 8.5, "right_sw_ft": 13.3}, "geometry": {"type": "LineString", "coordinates": [[-73.91108095032428, 40.599581588906766], [-73.9113339698429, 40.599417737769]]}}, {"type": "Feature", "properties": {"segment_id": 538299, "physicalid": "38789", "street_name": "FLATBUSH AVE", "borough": "brooklyn", "direction": "TW", "total_row_ft": 97.2, "roadbed_ft": 70.3, "median_ft": 4.2, "left_sw_ft": 9.3, "right_sw_ft": 13.3}, "geometry": {"type": "LineString", "coordinates": [[-73.9110323706073, 40.59954101506206], [-73.91128746912365, 40.599375817679686]]}}, {"type": "Feature", "properties": {"segment_id": 538300, "physicalid": "38789", "street_name": "FLATBUSH AVE", "borough": "brooklyn", "direction": "TW", "total_row_ft": 99.4, "roadbed_ft": 70.2, "median_ft": 3.2, "left_sw_ft": 12.7, "right_sw_ft": 13.4}, "geometry": {"type": "LineString", "coordinates": [[-73.9109769431976, 40.59950487566075], [-73.91124099550996, 40.59933388005609]]}}, {"type": "Feature", "properties": {"segment_id": 538301, "physicalid": "38790", "street_name": "FLATBUSH AVE", "borough": "brooklyn", "direction": "TW", "total_row_ft": 96.6, "roadbed_ft": 69.9, "median_ft": 0.0, "left_sw_ft": 13.2, "right_sw_ft": 13.5}, "geometry": {"type": "LineString", "coordinates": [[-73.91088395814386, 40.599422454997345], [-73.91115593788398, 40.599257056031995]]}}, {"type": "Feature", "properties": {"segment_id": 538302, "physicalid": "38790", "street_name": "FLATBUSH AVE", "borough": "brooklyn", "direction": "TW", "total_row_ft": 96.9, "roadbed_ft": 69.8, "median_ft": 0.0, "left_sw_ft": 13.6, "right_sw_ft": 13.6}, "geometry": {"type": "LineString", "coordinates": [[-73.91083663092056, 40.599381009262565], [-73.91110947108162, 40.59921508712757]]}}, {"type": "Feature", "properties": {"segment_id": 538303, "physicalid": "38790", "street_name": "FLATBUSH AVE", "borough": "brooklyn", "direction": "TW", "total_row_ft": 97.2, "roadbed_ft": 69.7, "median_ft": 0.0, "left_sw_ft": 14.1, "right_sw_ft": 13.4}, "geometry": {"type": "LineString", "coordinates": [[-73.91078889569994, 40.59933981165786], [-73.91106242846683, 40.599173468409546]]}}, {"type": "Feature", "properties": {"segment_id": 538304, "physicalid": "38790", "street_name": "FLATBUSH AVE", "borough": "brooklyn", "direction": "TW", "total_row_ft": 97.3, "roadbed_ft": 69.7, "median_ft": 0.0, "left_sw_ft": 14.4, "right_sw_ft": 13.3}, "geometry": {"type": "LineString", "coordinates": [[-73.91074775763202, 40.59930432167339], [-73.91100924762128, 40.59912641683634]]}}, {"type": "Feature", "properties": {"segment_id": 538305, "physicalid": "38790", "street_name": "FLATBUSH AVE", "borough": "brooklyn", "direction": "TW", "total_row_ft": 97.8, "roadbed_ft": 70.0, "median_ft": 0.0, "left_sw_ft": 14.4, "right_sw_ft": 13.3}, "geometry": {"type": "LineString", "coordinates": [[-73.91070006282577, 40.599263187790854], [-73.9109627994118, 40.59908443491247]]}}, {"type": "Feature", "properties": {"segment_id": 538306, "physicalid": "38790", "street_name": "FLATBUSH AVE", "borough": "brooklyn", "direction": "TW", "total_row_ft": 98.7, "roadbed_ft": 70.9, "median_ft": 0.0, "left_sw_ft": 14.6, "right_sw_ft": 13.2}, "geometry": {"type": "LineString", "coordinates": [[-73.91065112258916, 40.599222901252915], [-73.91091635126075, 40.59904245296968]]}}, {"type": "Feature", "properties": {"segment_id": 538307, "physicalid": "38790", "street_name": "FLATBUSH AVE", "borough": "brooklyn", "direction": "TW", "total_row_ft": 100.5, "roadbed_ft": 73.5, "median_ft": 0.0, "left_sw_ft": 15.0, "right_sw_ft": 12.0}, "geometry": {"type": "LineString", "coordinates": [[-73.91060054677237, 40.59918372749542], [-73.91087067054798, 40.598999948919065]]}}, {"type": "Feature", "properties": {"segment_id": 538308, "physicalid": "38790", "street_name": "FLATBUSH AVE", "borough": "brooklyn", "direction": "TW", "total_row_ft": 103.7, "roadbed_ft": 76.8, "median_ft": 0.0, "left_sw_ft": 15.5, "right_sw_ft": 11.4}, "geometry": {"type": "LineString", "coordinates": [[-73.91054368663464, 40.59914281624777], [-73.91082971306611, 40.598959928764245]]}}, {"type": "Feature", "properties": {"segment_id": 538309, "physicalid": "38790", "street_name": "FLATBUSH AVE", "borough": "brooklyn", "direction": "TW", "total_row_ft": 111.0, "roadbed_ft": 80.1, "median_ft": 0.0, "left_sw_ft": 19.9, "right_sw_ft": 11.0}, "geometry": {"type": "LineString", "coordinates": [[-73.91047908216028, 40.59911247155413], [-73.91078538763063, 40.598916617636945]]}}, {"type": "Feature", "properties": {"segment_id": 538310, "physicalid": "38790", "street_name": "FLATBUSH AVE", "borough": "brooklyn", "direction": "TW", "total_row_ft": 112.1, "roadbed_ft": 83.7, "median_ft": 0.0, "left_sw_ft": 17.2, "right_sw_ft": 11.2}, "geometry": {"type": "LineString", "coordinates": [[-73.91043279641596, 40.59907041380169], [-73.91074205157675, 40.59887267390852]]}}, {"type": "Feature", "properties": {"segment_id": 538311, "physicalid": "38790", "street_name": "FLATBUSH AVE", "borough": "brooklyn", "direction": "TW", "total_row_ft": 108.6, "roadbed_ft": 87.9, "median_ft": 0.0, "left_sw_ft": 9.1, "right_sw_ft": 11.6}, "geometry": {"type": "LineString", "coordinates": [[-73.9103999077733, 40.59901978991339], [-73.91069944793689, 40.59882826188718]]}}, {"type": "Feature", "properties": {"segment_id": 538312, "physicalid": "38790", "street_name": "FLATBUSH AVE", "borough": "brooklyn", "direction": "TW", "total_row_ft": 113.4, "roadbed_ft": 92.0, "median_ft": 0.0, "left_sw_ft": 9.1, "right_sw_ft": 12.3}, "geometry": {"type": "LineString", "coordinates": [[-73.91034317489425, 40.59898441213397], [-73.91065910776086, 40.598782402605195]]}}, {"type": "Feature", "properties": {"segment_id": 538313, "physicalid": "38790", "street_name": "FLATBUSH AVE", "borough": "brooklyn", "direction": "TW", "total_row_ft": 116.2, "roadbed_ft": 88.3, "median_ft": 0.0, "left_sw_ft": 15.4, "right_sw_ft": 12.6}, "geometry": {"type": "LineString", "coordinates": [[-73.91029393953279, 40.59894424043144], [-73.91061878414145, 40.598736532757755]]}}, {"type": "Feature", "properties": {"segment_id": 538314, "physicalid": "38790", "street_name": "FLATBUSH AVE", "borough": "brooklyn", "direction": "TW", "total_row_ft": 115.6, "roadbed_ft": 92.6, "median_ft": 0.0, "left_sw_ft": 10.7, "right_sw_ft": 12.3}, "geometry": {"type": "LineString", "coordinates": [[-73.9102476540217, 40.598902182603716], [-73.91057871542361, 40.598690499944915]]}}, {"type": "Feature", "properties": {"segment_id": 538315, "physicalid": "38790", "street_name": "FLATBUSH AVE", "borough": "brooklyn", "direction": "TW", "total_row_ft": 101.9, "roadbed_ft": 83.4, "median_ft": 0.0, "left_sw_ft": 9.2, "right_sw_ft": 9.3}, "geometry": {"type": "LineString", "coordinates": [[-73.91024707440774, 40.59883089946704], [-73.91053243407038, 40.598648440746146]]}}, {"type": "Feature", "properties": {"segment_id": 538316, "physicalid": "38790", "street_name": "FLATBUSH AVE", "borough": "brooklyn", "direction": "TW", "total_row_ft": 101.2, "roadbed_ft": 86.4, "median_ft": 0.0, "left_sw_ft": 9.1, "right_sw_ft": 5.7}, "geometry": {"type": "LineString", "coordinates": [[-73.91020057683582, 40.59878897727989], [-73.91048614891591, 40.59860638282035]]}}, {"type": "Feature", "properties": {"segment_id": 538317, "physicalid": "38790", "street_name": "FLATBUSH AVE", "borough": "brooklyn", "direction": "TW", "total_row_ft": 98.9, "roadbed_ft": 88.3, "median_ft": 0.0, "left_sw_ft": 9.0, "right_sw_ft": 1.6}, "geometry": {"type": "LineString", "coordinates": [[-73.91015391351486, 40.59874716109034], [-73.91043986381969, 40.59856432487569]]}}, {"type": "Feature", "properties": {"segment_id": 538318, "physicalid": "38790", "street_name": "FLATBUSH AVE", "borough": "brooklyn", "direction": "TW", "total_row_ft": 108.2, "roadbed_ft": 84.1, "median_ft": 0.0, "left_sw_ft": 9.1, "right_sw_ft": 15.0}, "geometry": {"type": "LineString", "coordinates": [[-73.91010689148625, 40.598705574274945], [-73.91039357878184, 40.59852226691226]]}}, {"type": "Feature", "properties": {"segment_id": 538319, "physicalid": "38790", "street_name": "FLATBUSH AVE", "borough": "brooklyn", "direction": "TW", "total_row_ft": 102.6, "roadbed_ft": 78.4, "median_ft": 0.0, "left_sw_ft": 9.2, "right_sw_ft": 15.0}, "geometry": {"type": "LineString", "coordinates": [[-73.91005971201892, 40.59866408814317], [-73.91034729380227, 40.59848020892998]]}}, {"type": "Feature", "properties": {"segment_id": 538320, "physicalid": "38790", "street_name": "FLATBUSH AVE", "borough": "brooklyn", "direction": "TW", "total_row_ft": 82.0, "roadbed_ft": 60.3, "median_ft": 0.0, "left_sw_ft": 9.4, "right_sw_ft": 12.3}, "geometry": {"type": "LineString", "coordinates": [[-73.91001231470818, 40.598622741317286], [-73.91026946633805, 40.59845831924322]]}}, {"type": "Feature", "properties": {"segment_id": 538321, "physicalid": "38790", "street_name": "FLATBUSH AVE", "borough": "brooklyn", "direction": "TW", "total_row_ft": 81.7, "roadbed_ft": 60.2, "median_ft": 0.0, "left_sw_ft": 9.8, "right_sw_ft": 11.8}, "geometry": {"type": "LineString", "coordinates": [[-73.90996461029575, 40.59858159086824], [-73.91022124491201, 40.59841749945248]]}}, {"type": "Feature", "properties": {"segment_id": 538322, "physicalid": "38790", "street_name": "FLATBUSH AVE", "borough": "brooklyn", "direction": "TW", "total_row_ft": 81.7, "roadbed_ft": 60.1, "median_ft": 0.0, "left_sw_ft": 10.0, "right_sw_ft": 11.6}, "geometry": {"type": "LineString", "coordinates": [[-73.90991711892481, 40.59854030421942], [-73.91017403735371, 40.598376031412556]]}}, {"type": "Feature", "properties": {"segment_id": 1500182, "physicalid": "101206", "street_name": "BELT PARKWAY EXIT 11 NORTH WB", "borough": "brooklyn", "direction": "TF", "total_row_ft": 100.8, "roadbed_ft": 73.2, "median_ft": 0.0, "left_sw_ft": 14.2, "right_sw_ft": 13.5}, "geometry": {"type": "LineString", "coordinates": [[-73.91091949823003, 40.599453578369285], [-73.91111557759706, 40.59922060254804]]}}, {"type": "Feature", "properties": {"segment_id": 1500183, "physicalid": "101206", "street_name": "BELT PARKWAY EXIT 11 NORTH WB", "borough": "brooklyn", "direction": "TF", "total_row_ft": 98.4, "roadbed_ft": 73.0, "median_ft": 0.0, "left_sw_ft": 11.5, "right_sw_ft": 13.9}, "geometry": {"type": "LineString", "coordinates": [[-73.91087023842181, 40.599410440271456], [-73.9110616498637, 40.59918301089985]]}}, {"type": "Feature", "properties": {"segment_id": 1500184, "physicalid": "101206", "street_name": "BELT PARKWAY EXIT 11 NORTH WB", "borough": "brooklyn", "direction": "TF", "total_row_ft": 92.6, "roadbed_ft": 72.9, "median_ft": 0.0, "left_sw_ft": 5.4, "right_sw_ft": 14.4}, "geometry": {"type": "LineString", "coordinates": [[-73.91082088589445, 40.59936741239353], [-73.91100103109264, 40.59915336941537]]}}, {"type": "Feature", "properties": {"segment_id": 1500185, "physicalid": "101206", "street_name": "BELT PARKWAY EXIT 11 NORTH WB", "borough": "brooklyn", "direction": "TF", "total_row_ft": 86.4, "roadbed_ft": 70.4, "median_ft": 0.0, "left_sw_ft": 1.5, "right_sw_ft": 14.5}, "geometry": {"type": "LineString", "coordinates": [[-73.91076187461559, 40.59931649818286], [-73.91096600491423, 40.59913762570343]]}}, {"type": "Feature", "properties": {"segment_id": 1500186, "physicalid": "101206", "street_name": "BELT PARKWAY EXIT 11 NORTH WB", "borough": "brooklyn", "direction": "TF", "total_row_ft": 98.7, "roadbed_ft": 69.2, "median_ft": 0.0, "left_sw_ft": 15.0, "right_sw_ft": 14.6}, "geometry": {"type": "LineString", "coordinates": [[-73.91071376848033, 40.59927500809529], [-73.9109116661085, 40.599101597197745]]}}, {"type": "Feature", "properties": {"segment_id": 1500187, "physicalid": "101206", "street_name": "BELT PARKWAY EXIT 11 NORTH WB", "borough": "brooklyn", "direction": "TF", "total_row_ft": 96.7, "roadbed_ft": 67.2, "median_ft": 0.0, "left_sw_ft": 15.0, "right_sw_ft": 14.5}, "geometry": {"type": "LineString", "coordinates": [[-73.9106627103397, 40.59923187659471], [-73.91086612681228, 40.599069724337106]]}}, {"type": "Feature", "properties": {"segment_id": 1500188, "physicalid": "101206", "street_name": "BELT PARKWAY EXIT 11 NORTH WB", "borough": "brooklyn", "direction": "TF", "total_row_ft": 96.1, "roadbed_ft": 66.2, "median_ft": 0.0, "left_sw_ft": 15.0, "right_sw_ft": 14.9}, "geometry": {"type": "LineString", "coordinates": [[-73.91061217107078, 40.599192731161246], [-73.9108140738051, 40.59903178566649]]}}, {"type": "Feature", "properties": {"segment_id": 1500189, "physicalid": "101206", "street_name": "BELT PARKWAY EXIT 11 NORTH WB", "borough": "brooklyn", "direction": "TF", "total_row_ft": 95.9, "roadbed_ft": 65.8, "median_ft": 0.0, "left_sw_ft": 15.0, "right_sw_ft": 15.2}, "geometry": {"type": "LineString", "coordinates": [[-73.91056056893254, 40.59915443300878], [-73.91076202085706, 40.59899384697213]]}}, {"type": "Feature", "properties": {"segment_id": 1500190, "physicalid": "101206", "street_name": "BELT PARKWAY EXIT 11 NORTH WB", "borough": "brooklyn", "direction": "TF", "total_row_ft": 100.5, "roadbed_ft": 65.7, "median_ft": 0.0, "left_sw_ft": 15.0, "right_sw_ft": 19.8}, "geometry": {"type": "LineString", "coordinates": [[-73.91049714177167, 40.59912556107613], [-73.91070996796817, 40.59895590825405]]}}, {"type": "Feature", "properties": {"segment_id": 1500191, "physicalid": "101206", "street_name": "BELT PARKWAY EXIT 11 NORTH WB", "borough": "brooklyn", "direction": "TF", "total_row_ft": 101.5, "roadbed_ft": 66.1, "median_ft": 0.0, "left_sw_ft": 15.0, "right_sw_ft": 20.4}, "geometry": {"type": "LineString", "coordinates": [[-73.91044270373472, 40.59908952425003], [-73.91065791411778, 40.59891796878822]]}}, {"type": "Feature", "properties": {"segment_id": 1500192, "physicalid": "101206", "street_name": "BELT PARKWAY EXIT 11 NORTH WB", "borough": "brooklyn", "direction": "TF", "total_row_ft": 95.7, "roadbed_ft": 67.0, "median_ft": 0.0, "left_sw_ft": 15.0, "right_sw_ft": 13.7}, "geometry": {"type": "LineString", "coordinates": [[-73.91040493638766, 40.59904019776659], [-73.91060586102603, 40.598880030278764]]}}, {"type": "Feature", "properties": {"segment_id": 1500193, "physicalid": "101206", "street_name": "BELT PARKWAY EXIT 11 NORTH WB", "borough": "brooklyn", "direction": "TF", "total_row_ft": 92.2, "roadbed_ft": 68.2, "median_ft": 0.0, "left_sw_ft": 15.0, "right_sw_ft": 9.0}, "geometry": {"type": "LineString", "coordinates": [[-73.91036842989548, 40.599000160785145], [-73.9105284265456, 40.59882671021049]]}}, {"type": "Feature", "properties": {"segment_id": 1500194, "physicalid": "101206", "street_name": "BELT PARKWAY EXIT 11 NORTH WB", "borough": "brooklyn", "direction": "TF", "total_row_ft": 28.5, "roadbed_ft": 9.8, "median_ft": 0.0, "left_sw_ft": 9.4, "right_sw_ft": 9.3}, "geometry": {"type": "LineString", "coordinates": [[-73.91031155895936, 40.598966370632], [-73.91037060764289, 40.5989023568031]]}}, {"type": "Feature", "properties": {"segment_id": 1500195, "physicalid": "101206", "street_name": "BELT PARKWAY EXIT 11 NORTH WB", "borough": "brooklyn", "direction": "TF", "total_row_ft": 31.7, "roadbed_ft": 11.5, "median_ft": 0.0, "left_sw_ft": 9.7, "right_sw_ft": 10.5}, "geometry": {"type": "LineString", "coordinates": [[-73.91025157498522, 40.59893595530555], [-73.91032239481324, 40.59885918060635]]}}, {"type": "Feature", "properties": {"segment_id": 1500196, "physicalid": "101206", "street_name": "BELT PARKWAY EXIT 11 NORTH WB", "borough": "brooklyn", "direction": "TF", "total_row_ft": 34.2, "roadbed_ft": 13.4, "median_ft": 0.0, "left_sw_ft": 9.5, "right_sw_ft": 11.3}, "geometry": {"type": "LineString", "coordinates": [[-73.91019159106574, 40.5989055399477], [-73.9102740772917, 40.59881611795176]]}}, {"type": "Feature", "properties": {"segment_id": 1500197, "physicalid": "101206", "street_name": "BELT PARKWAY EXIT 11 NORTH WB", "borough": "brooklyn", "direction": "TF", "total_row_ft": 29.4, "roadbed_ft": 14.7, "median_ft": 0.0, "left_sw_ft": 9.4, "right_sw_ft": 5.3}, "geometry": {"type": "LineString", "coordinates": [[-73.91012848061418, 40.59887851403178], [-73.91022575983938, 40.598773055269184]]}}, {"type": "Feature", "properties": {"segment_id": 1500198, "physicalid": "101206", "street_name": "BELT PARKWAY EXIT 11 NORTH WB", "borough": "brooklyn", "direction": "TF", "total_row_ft": 30.1, "roadbed_ft": 15.2, "median_ft": 0.0, "left_sw_ft": 9.5, "right_sw_ft": 5.3}, "geometry": {"type": "LineString", "coordinates": [[-73.91006870706372, 40.598855449985166], [-73.91017150749049, 40.59872470953755]]}}, {"type": "Feature", "properties": {"segment_id": 1500199, "physicalid": "101206", "street_name": "BELT PARKWAY EXIT 11 NORTH WB", "borough": "brooklyn", "direction": "TF", "total_row_ft": 30.3, "roadbed_ft": 15.4, "median_ft": 0.0, "left_sw_ft": 9.6, "right_sw_ft": 5.3}, "geometry": {"type": "LineString", "coordinates": [[-73.91000326467378, 40.59883189397651], [-73.91012213921547, 40.59868071079472]]}}, {"type": "Feature", "properties": {"segment_id": 1500200, "physicalid": "101206", "street_name": "BELT PARKWAY EXIT 11 NORTH WB", "borough": "brooklyn", "direction": "TF", "total_row_ft": 30.6, "roadbed_ft": 15.5, "median_ft": 0.0, "left_sw_ft": 9.8, "right_sw_ft": 5.3}, "geometry": {"type": "LineString", "coordinates": [[-73.90993732047444, 40.59880897618168], [-73.91007276823564, 40.598636715553205]]}}, {"type": "Feature", "properties": {"segment_id": 1583830, "physicalid": "125150", "street_name": "BELT PKWY WB EN FLATBUSH AVE SB", "borough": "brooklyn", "direction": "TF", "total_row_ft": 42.5, "roadbed_ft": 12.5, "median_ft": 0.0, "left_sw_ft": 15.0, "right_sw_ft": 15.0}, "geometry": {"type": "LineString", "coordinates": [[-73.91022097215804, 40.597709090621436], [-73.90980419176962, 40.59779604853514]]}}, {"type": "Feature", "properties": {"segment_id": 1583831, "physicalid": "125150", "street_name": "BELT PKWY WB EN FLATBUSH AVE SB", "borough": "brooklyn", "direction": "TF", "total_row_ft": 43.1, "roadbed_ft": 13.1, "median_ft": 0.0, "left_sw_ft": 15.0, "right_sw_ft": 15.0}, "geometry": {"type": "LineString", "coordinates": [[-73.91023913602729, 40.59775946735625], [-73.90982424547286, 40.59785152733129]]}}, {"type": "Feature", "properties": {"segment_id": 1583832, "physicalid": "125150", "street_name": "BELT PKWY WB EN FLATBUSH AVE SB", "borough": "brooklyn", "direction": "TF", "total_row_ft": 43.6, "roadbed_ft": 13.6, "median_ft": 0.0, "left_sw_ft": 15.0, "right_sw_ft": 15.0}, "geometry": {"type": "LineString", "coordinates": [[-73.9102592652841, 40.59781217546362], [-73.90984437442991, 40.597904235510896]]}}, {"type": "Feature", "properties": {"segment_id": 1583833, "physicalid": "125150", "street_name": "BELT PKWY WB EN FLATBUSH AVE SB", "borough": "brooklyn", "direction": "TF", "total_row_ft": 43.7, "roadbed_ft": 13.7, "median_ft": 0.0, "left_sw_ft": 15.0, "right_sw_ft": 15.0}, "geometry": {"type": "LineString", "coordinates": [[-73.91027939457271, 40.59786488356727], [-73.90986450341875, 40.59795694368665]]}}, {"type": "Feature", "properties": {"segment_id": 1583834, "physicalid": "125150", "street_name": "BELT PKWY WB EN FLATBUSH AVE SB", "borough": "brooklyn", "direction": "TF", "total_row_ft": 43.8, "roadbed_ft": 13.8, "median_ft": 0.0, "left_sw_ft": 15.0, "right_sw_ft": 15.0}, "geometry": {"type": "LineString", "coordinates": [[-73.91029952389307, 40.597917591667034], [-73.90988463243937, 40.59800965185868]]}}, {"type": "Feature", "properties": {"segment_id": 1583835, "physicalid": "125150", "street_name": "BELT PKWY WB EN FLATBUSH AVE SB", "borough": "brooklyn", "direction": "TF", "total_row_ft": 43.8, "roadbed_ft": 13.8, "median_ft": 0.0, "left_sw_ft": 15.0, "right_sw_ft": 15.0}, "geometry": {"type": "LineString", "coordinates": [[-73.91031965324524, 40.59797029976305], [-73.90990476149177, 40.5980623600269]]}}, {"type": "Feature", "properties": {"segment_id": 1583836, "physicalid": "125150", "street_name": "BELT PKWY WB EN FLATBUSH AVE SB", "borough": "brooklyn", "direction": "TF", "total_row_ft": 44.1, "roadbed_ft": 14.1, "median_ft": 0.0, "left_sw_ft": 15.0, "right_sw_ft": 15.0}, "geometry": {"type": "LineString", "coordinates": [[-73.91033897912294, 40.5980182646077], [-73.90992771402479, 40.5981193392272]]}}, {"type": "Feature", "properties": {"segment_id": 1583837, "physicalid": "125150", "street_name": "BELT PKWY WB EN FLATBUSH AVE SB", "borough": "brooklyn", "direction": "TF", "total_row_ft": 44.6, "roadbed_ft": 14.6, "median_ft": 0.0, "left_sw_ft": 15.0, "right_sw_ft": 15.0}, "geometry": {"type": "LineString", "coordinates": [[-73.91036107953259, 40.59807051192227], [-73.90994981414609, 40.59817158662037]]}}, {"type": "Feature", "properties": {"segment_id": 1583838, "physicalid": "125150", "street_name": "BELT PKWY WB EN FLATBUSH AVE SB", "borough": "brooklyn", "direction": "TF", "total_row_ft": 37.0, "roadbed_ft": 15.0, "median_ft": 0.0, "left_sw_ft": 6.9, "right_sw_ft": 15.0}, "geometry": {"type": "LineString", "coordinates": [[-73.91038317997682, 40.59812275923233], [-73.90997191430196, 40.598223834009]]}}, {"type": "Feature", "properties": {"segment_id": 1583839, "physicalid": "125150", "street_name": "BELT PKWY WB EN FLATBUSH AVE SB", "borough": "brooklyn", "direction": "TF", "total_row_ft": 43.3, "roadbed_ft": 16.1, "median_ft": 0.0, "left_sw_ft": 12.1, "right_sw_ft": 15.0}, "geometry": {"type": "LineString", "coordinates": [[-73.91040528045565, 40.598175006537886], [-73.91000503683753, 40.598273372507634]]}}, {"type": "Feature", "properties": {"segment_id": 1583840, "physicalid": "125150", "street_name": "BELT PKWY WB EN FLATBUSH AVE SB", "borough": "brooklyn", "direction": "TF", "total_row_ft": 44.5, "roadbed_ft": 17.4, "median_ft": 0.0, "left_sw_ft": 12.0, "right_sw_ft": 15.0}, "geometry": {"type": "LineString", "coordinates": [[-73.91042421945895, 40.598216179453246], [-73.91006359547373, 40.59832601436923]]}}, {"type": "Feature", "properties": {"segment_id": 1583841, "physicalid": "125150", "street_name": "BELT PKWY WB EN FLATBUSH AVE SB", "borough": "brooklyn", "direction": "TF", "total_row_ft": 46.1, "roadbed_ft": 18.9, "median_ft": 0.0, "left_sw_ft": 12.2, "right_sw_ft": 15.0}, "geometry": {"type": "LineString", "coordinates": [[-73.91045094207084, 40.59826715657091], [-73.91011271487818, 40.598370170171904]]}}, {"type": "Feature", "properties": {"segment_id": 1583842, "physicalid": "125150", "street_name": "BELT PKWY WB EN FLATBUSH AVE SB", "borough": "brooklyn", "direction": "TF", "total_row_ft": 48.5, "roadbed_ft": 21.2, "median_ft": 0.0, "left_sw_ft": 12.3, "right_sw_ft": 15.0}, "geometry": {"type": "LineString", "coordinates": [[-73.91047766472353, 40.59831813368211], [-73.91016198149352, 40.59841428113752]]}}, {"type": "Feature", "properties": {"segment_id": 1583843, "physicalid": "125151", "street_name": "BELT PKWY WB EN FLATBUSH AVE SB", "borough": "brooklyn", "direction": "TF", "total_row_ft": 82.7, "roadbed_ft": 51.1, "median_ft": 0.0, "left_sw_ft": 15.0, "right_sw_ft": 16.6}, "geometry": {"type": "LineString", "coordinates": [[-73.91042242690962, 40.598443073938896], [-73.91015328795098, 40.59856000464283]]}}, {"type": "Feature", "properties": {"segment_id": 1583844, "physicalid": "125151", "street_name": "BELT PKWY WB EN FLATBUSH AVE SB", "borough": "brooklyn", "direction": "TF", "total_row_ft": 84.2, "roadbed_ft": 55.4, "median_ft": 0.0, "left_sw_ft": 15.0, "right_sw_ft": 13.8}, "geometry": {"type": "LineString", "coordinates": [[-73.91044529852968, 40.59849752418998], [-73.91018696878523, 40.59860524716315]]}}, {"type": "Feature", "properties": {"segment_id": 1583845, "physicalid": "125151", "street_name": "BELT PKWY WB EN FLATBUSH AVE SB", "borough": "brooklyn", "direction": "TF", "total_row_ft": 88.7, "roadbed_ft": 60.5, "median_ft": 0.0, "left_sw_ft": 15.0, "right_sw_ft": 13.2}, "geometry": {"type": "LineString", "coordinates": [[-73.91047566506803, 40.59854743524099], [-73.91022153407724, 40.598653407357446]]}}, {"type": "Feature", "properties": {"segment_id": 1583846, "physicalid": "125151", "street_name": "BELT PKWY WB EN FLATBUSH AVE SB", "borough": "brooklyn", "direction": "TF", "total_row_ft": 92.2, "roadbed_ft": 64.0, "median_ft": 0.0, "left_sw_ft": 15.0, "right_sw_ft": 13.2}, "geometry": {"type": "LineString", "coordinates": [[-73.9105097095355, 40.59859581260684], [-73.9102560994191, 40.598701567541106]]}}, {"type": "Feature", "properties": {"segment_id": 1583847, "physicalid": "125151", "street_name": "BELT PKWY WB EN FLATBUSH AVE SB", "borough": "brooklyn", "direction": "TF", "total_row_ft": 94.1, "roadbed_ft": 65.9, "median_ft": 0.0, "left_sw_ft": 15.0, "right_sw_ft": 13.3}, "geometry": {"type": "LineString", "coordinates": [[-73.9105456019366, 40.59864341939472], [-73.91029066481086, 40.59874972771414]]}}, {"type": "Feature", "properties": {"segment_id": 1583848, "physicalid": "125151", "street_name": "BELT PKWY WB EN FLATBUSH AVE SB", "borough": "brooklyn", "direction": "TF", "total_row_ft": 94.0, "roadbed_ft": 65.9, "median_ft": 0.0, "left_sw_ft": 15.0, "right_sw_ft": 13.2}, "geometry": {"type": "LineString", "coordinates": [[-73.91057867836045, 40.5986855042202], [-73.91034002841374, 40.59881069910173]]}}, {"type": "Feature", "properties": {"segment_id": 1583849, "physicalid": "125151", "street_name": "BELT PKWY WB EN FLATBUSH AVE SB", "borough": "brooklyn", "direction": "TF", "total_row_ft": 92.9, "roadbed_ft": 65.4, "median_ft": 0.0, "left_sw_ft": 15.0, "right_sw_ft": 12.6}, "geometry": {"type": "LineString", "coordinates": [[-73.91061576393247, 40.598732690003516], [-73.91038085916693, 40.59885592020833]]}}, {"type": "Feature", "properties": {"segment_id": 1583850, "physicalid": "125151", "street_name": "BELT PKWY WB EN FLATBUSH AVE SB", "borough": "brooklyn", "direction": "TF", "total_row_ft": 92.7, "roadbed_ft": 65.4, "median_ft": 0.0, "left_sw_ft": 15.0, "right_sw_ft": 12.3}, "geometry": {"type": "LineString", "coordinates": [[-73.91065561186966, 40.59877842666932], [-73.91042168997544, 40.59890114130025]]}}, {"type": "Feature", "properties": {"segment_id": 1583851, "physicalid": "125151", "street_name": "BELT PKWY WB EN FLATBUSH AVE SB", "borough": "brooklyn", "direction": "TF", "total_row_ft": 93.5, "roadbed_ft": 66.9, "median_ft": 0.0, "left_sw_ft": 15.0, "right_sw_ft": 11.6}, "geometry": {"type": "LineString", "coordinates": [[-73.91069549737716, 40.598824143640414], [-73.91046252083926, 40.598946362377454]]}}, {"type": "Feature", "properties": {"segment_id": 1583852, "physicalid": "125151", "street_name": "BELT PKWY WB EN FLATBUSH AVE SB", "borough": "brooklyn", "direction": "TF", "total_row_ft": 94.1, "roadbed_ft": 67.9, "median_ft": 0.0, "left_sw_ft": 15.0, "right_sw_ft": 11.2}, "geometry": {"type": "LineString", "coordinates": [[-73.91073802383343, 40.59886847518726], [-73.91050335175836, 40.59899158343994]]}}, {"type": "Feature", "properties": {"segment_id": 1583853, "physicalid": "125151", "street_name": "BELT PKWY WB EN FLATBUSH AVE SB", "borough": "brooklyn", "direction": "TF", "total_row_ft": 94.9, "roadbed_ft": 68.9, "median_ft": 0.0, "left_sw_ft": 15.0, "right_sw_ft": 11.0}, "geometry": {"type": "LineString", "coordinates": [[-73.91078116011084, 40.598912486836205], [-73.91054418273278, 40.599036804487746]]}}, {"type": "Feature", "properties": {"segment_id": 1583854, "physicalid": "125151", "street_name": "BELT PKWY WB EN FLATBUSH AVE SB", "borough": "brooklyn", "direction": "TF", "total_row_ft": 96.1, "roadbed_ft": 69.8, "median_ft": 0.0, "left_sw_ft": 15.0, "right_sw_ft": 11.3}, "geometry": {"type": "LineString", "coordinates": [[-73.91082553660647, 40.59895584788089], [-73.91058501376251, 40.59908202552081]]}}, {"type": "Feature", "properties": {"segment_id": 1583855, "physicalid": "125151", "street_name": "BELT PKWY WB EN FLATBUSH AVE SB", "borough": "brooklyn", "direction": "TF", "total_row_ft": 97.3, "roadbed_ft": 70.3, "median_ft": 0.0, "left_sw_ft": 15.0, "right_sw_ft": 12.0}, "geometry": {"type": "LineString", "coordinates": [[-73.9108699131889, 40.59899920889298], [-73.9106258448475, 40.59912724653917]]}}, {"type": "Feature", "properties": {"segment_id": 1583856, "physicalid": "125151", "street_name": "BELT PKWY WB EN FLATBUSH AVE SB", "borough": "brooklyn", "direction": "TF", "total_row_ft": 98.9, "roadbed_ft": 70.8, "median_ft": 0.0, "left_sw_ft": 15.0, "right_sw_ft": 13.1}, "geometry": {"type": "LineString", "coordinates": [[-73.91091567604533, 40.59904184267886], [-73.91066667598786, 40.59917246754283]]}}, {"type": "Feature", "properties": {"segment_id": 1583857, "physicalid": "125151", "street_name": "BELT PKWY WB EN FLATBUSH AVE SB", "borough": "brooklyn", "direction": "TF", "total_row_ft": 85.9, "roadbed_ft": 70.6, "median_ft": 0.0, "left_sw_ft": 1.9, "right_sw_ft": 13.4}, "geometry": {"type": "LineString", "coordinates": [[-73.91096232885863, 40.59908400960556], [-73.91070750718349, 40.599217688531766]]}}, {"type": "Feature", "properties": {"segment_id": 1583858, "physicalid": "125151", "street_name": "BELT PKWY WB EN FLATBUSH AVE SB", "borough": "brooklyn", "direction": "TF", "total_row_ft": 87.9, "roadbed_ft": 70.2, "median_ft": 0.0, "left_sw_ft": 4.4, "right_sw_ft": 13.3}, "geometry": {"type": "LineString", "coordinates": [[-73.91100898173084, 40.59912617651312], [-73.91074833843447, 40.59926290950606]]}}, {"type": "Feature", "properties": {"segment_id": 1583859, "physicalid": "125151", "street_name": "BELT PKWY WB EN FLATBUSH AVE SB", "borough": "brooklyn", "direction": "TF", "total_row_ft": 93.4, "roadbed_ft": 72.6, "median_ft": 0.0, "left_sw_ft": 6.7, "right_sw_ft": 14.0}, "geometry": {"type": "LineString", "coordinates": [[-73.91107038959618, 40.59918050490608], [-73.91076293864809, 40.59928428112876]]}}, {"type": "Feature", "properties": {"segment_id": 1583860, "physicalid": "125151", "street_name": "BELT PKWY WB EN FLATBUSH AVE SB", "borough": "brooklyn", "direction": "TF", "total_row_ft": 99.4, "roadbed_ft": 72.6, "median_ft": 0.0, "left_sw_ft": 12.6, "right_sw_ft": 14.1}, "geometry": {"type": "LineString", "coordinates": [[-73.91111935542882, 40.5992240146948], [-73.91079209987655, 40.599334475768956]]}}, {"type": "Feature", "properties": {"segment_id": 1583861, "physicalid": "125151", "street_name": "BELT PKWY WB EN FLATBUSH AVE SB", "borough": "brooklyn", "direction": "TF", "total_row_ft": 100.9, "roadbed_ft": 72.8, "median_ft": 0.0, "left_sw_ft": 14.1, "right_sw_ft": 14.1}, "geometry": {"type": "LineString", "coordinates": [[-73.9111677440046, 40.59926771933123], [-73.91083536922741, 40.59937990841978]]}}]}