{"type": "FeatureCollection", "features": [{"type": "Feature", "properties": {"segment_id": 1583357, "physicalid": "124881", "street_name": "COLUMBIA STREET ESPL", "borough": "brooklyn", "direction": "NV", "total_row_ft": 30.3, "roadbed_ft": 0.0, "median_ft": 0.0, "left_sw_ft": 3.3, "right_sw_ft": 27.0}, "geometry": {"type": "LineString", "coordinates": [[-74.01433893095441, 40.6648353007415], [-74.01432664014501, 40.664752527914466]]}}, {"type": "Feature", "properties": {"segment_id": 1583358, "physicalid": "124881", "street_name": "COLUMBIA STREET ESPL", "borough": "brooklyn", "direction": "NV", "total_row_ft": 35.9, "roadbed_ft": 0.0, "median_ft": 0.0, "left_sw_ft": 4.1, "right_sw_ft": 31.8}, "geometry": {"type": "LineString", "coordinates": [[-74.0142596488912, 40.66484240601093], [-74.01431538702717, 40.66475362284325]]}}, {"type": "Feature", "properties": {"segment_id": 1583359, "physicalid": "124881", "street_name": "COLUMBIA STREET ESPL", "borough": "brooklyn", "direction": "NV", "total_row_ft": 25.6, "roadbed_ft": 0.0, "median_ft": 0.0, "left_sw_ft": 6.8, "right_sw_ft": 18.9}, "geometry": {"type": "LineString", "coordinates": [[-74.01419040691646, 40.664825420904165], [-74.01423028333953, 40.66476190339835]]}}, {"type": "Feature", "properties": {"segment_id": 1583360, "physicalid": "124881", "street_name": "COLUMBIA STREET ESPL", "borough": "brooklyn", "direction": "NV", "total_row_ft": 16.7, "roadbed_ft": 0.0, "median_ft": 0.0, "left_sw_ft": 5.3, "right_sw_ft": 11.4}, "geometry": {"type": "LineString", "coordinates": [[-74.01413486784988, 40.66481740257199], [-74.01412658989362, 40.66477199264171]]}}, {"type": "Feature", "properties": {"segment_id": 1583361, "physicalid": "124881", "street_name": "COLUMBIA STREET ESPL", "borough": "brooklyn", "direction": "NV", "total_row_ft": 16.7, "roadbed_ft": 0.0, "median_ft": 0.0, "left_sw_ft": 5.1, "right_sw_ft": 11.6}, "geometry": {"type": "LineString", "coordinates": [[-74.01406333463541, 40.664824254295944], [-74.01405507612759, 40.66477895078599]]}}, {"type": "Feature", "properties": {"segment_id": 1583362, "physicalid": "124881", "street_name": "COLUMBIA STREET ESPL", "borough": "brooklyn", "direction": "NV", "total_row_ft": 16.6, "roadbed_ft": 0.0, "median_ft": 0.0, "left_sw_ft": 4.8, "right_sw_ft": 11.8}, "geometry": {"type": "LineString", "coordinates": [[-74.01399180140622, 40.66483110597539], [-74.01398356234664, 40.66478590888579]]}}, {"type": "Feature", "properties": {"segment_id": 1583363, "physicalid": "124881", "street_name": "COLUMBIA STREET ESPL", "borough": "brooklyn", "direction": "NV", "total_row_ft": 16.7, "roadbed_ft": 0.0, "median_ft": 0.0, "left_sw_ft": 4.6, "right_sw_ft": 12.2}, "geometry": {"type": "LineString", "coordinates": [[-74.01392026816237, 40.664837957610345], [-74.01391197078786, 40.66479244035371]]}}, {"type": "Feature", "properties": {"segment_id": 1583364, "physicalid": "124881", "street_name": "COLUMBIA STREET ESPL", "borough": "brooklyn", "direction": "NV", "total_row_ft": 16.9, "roadbed_ft": 0.0, "median_ft": 0.0, "left_sw_ft": 4.3, "right_sw_ft": 12.6}, "geometry": {"type": "LineString", "coordinates": [[-74.0138487349038, 40.66484480920082], [-74.01384036402732, 40.66479888846031]]}}, {"type": "Feature", "properties": {"segment_id": 1583365, "physicalid": "124881", "street_name": "COLUMBIA STREET ESPL", "borough": "brooklyn", "direction": "NV", "total_row_ft": 17.0, "roadbed_ft": 0.0, "median_ft": 0.0, "left_sw_ft": 4.0, "right_sw_ft": 13.0}, "geometry": {"type": "LineString", "coordinates": [[-74.01377720163055, 40.664851660746805], [-74.01376875783154, 40.66480533969659]]}}, {"type": "Feature", "properties": {"segment_id": 1583366, "physicalid": "124881", "street_name": "COLUMBIA STREET ESPL", "borough": "brooklyn", "direction": "NV", "total_row_ft": 16.6, "roadbed_ft": 0.0, "median_ft": 0.0, "left_sw_ft": 3.8, "right_sw_ft": 12.8}, "geometry": {"type": "LineString", "coordinates": [[-74.0137056683426, 40.664858512248315], [-74.01369742382745, 40.66481328416504]]}}, {"type": "Feature", "properties": {"segment_id": 1583367, "physicalid": "124881", "street_name": "COLUMBIA STREET ESPL", "borough": "brooklyn", "direction": "NV", "total_row_ft": 16.2, "roadbed_ft": 0.0, "median_ft": 0.0, "left_sw_ft": 3.5, "right_sw_ft": 12.7}, "geometry": {"type": "LineString", "coordinates": [[-74.01363413503995, 40.664865363705324], [-74.01362608980637, 40.66482122858926]]}}, {"type": "Feature", "properties": {"segment_id": 1583368, "physicalid": "124881", "street_name": "COLUMBIA STREET ESPL", "borough": "brooklyn", "direction": "NV", "total_row_ft": 16.1, "roadbed_ft": 0.0, "median_ft": 0.0, "left_sw_ft": 3.5, "right_sw_ft": 12.6}, "geometry": {"type": "LineString", "coordinates": [[-74.01356271143536, 40.66487281699102], [-74.01355475576827, 40.664829172969235]]}}, {"type": "Feature", "properties": {"segment_id": 1583369, "physicalid": "124881", "street_name": "COLUMBIA STREET ESPL", "borough": "brooklyn", "direction": "NV", "total_row_ft": 15.9, "roadbed_ft": 0.0, "median_ft": 0.0, "left_sw_ft": 3.5, "right_sw_ft": 12.4}, "geometry": {"type": "LineString", "coordinates": [[-74.01349132423813, 40.66488047004824], [-74.0134834217132, 40.66483711730498]]}}, {"type": "Feature", "properties": {"segment_id": 1583370, "physicalid": "124881", "street_name": "COLUMBIA STREET ESPL", "borough": "brooklyn", "direction": "NV", "total_row_ft": 15.8, "roadbed_ft": 0.0, "median_ft": 0.0, "left_sw_ft": 3.6, "right_sw_ft": 12.3}, "geometry": {"type": "LineString", "coordinates": [[-74.01341993702452, 40.664888123061175], [-74.01341208764113, 40.664845061596445]]}}, {"type": "Feature", "properties": {"segment_id": 1583371, "physicalid": "124881", "street_name": "COLUMBIA STREET ESPL", "borough": "brooklyn", "direction": "NV", "total_row_ft": 15.7, "roadbed_ft": 0.0, "median_ft": 0.0, "left_sw_ft": 3.6, "right_sw_ft": 12.1}, "geometry": {"type": "LineString", "coordinates": [[-74.01334854979453, 40.66489577602978], [-74.01334075355209, 40.6648530058437]]}}, {"type": "Feature", "properties": {"segment_id": 1583372, "physicalid": "124881", "street_name": "COLUMBIA STREET ESPL", "borough": "brooklyn", "direction": "NV", "total_row_ft": 15.6, "roadbed_ft": 0.0, "median_ft": 0.0, "left_sw_ft": 3.7, "right_sw_ft": 12.0}, "geometry": {"type": "LineString", "coordinates": [[-74.01327716254816, 40.66490342895409], [-74.01326942300331, 40.66486096956202]]}}, {"type": "Feature", "properties": {"segment_id": 1583373, "physicalid": "124881", "street_name": "COLUMBIA STREET ESPL", "borough": "brooklyn", "direction": "NV", "total_row_ft": 15.5, "roadbed_ft": 0.0, "median_ft": 0.0, "left_sw_ft": 3.7, "right_sw_ft": 11.8}, "geometry": {"type": "LineString", "coordinates": [[-74.01320577528541, 40.664911081834084], [-74.01319811559652, 40.664869060288126]]}}, {"type": "Feature", "properties": {"segment_id": 1583374, "physicalid": "124881", "street_name": "COLUMBIA STREET ESPL", "borough": "brooklyn", "direction": "NV", "total_row_ft": 15.3, "roadbed_ft": 0.0, "median_ft": 0.0, "left_sw_ft": 3.7, "right_sw_ft": 11.6}, "geometry": {"type": "LineString", "coordinates": [[-74.01313438800628, 40.66491873466976], [-74.01312680817246, 40.66487715097]]}}, {"type": "Feature", "properties": {"segment_id": 1583375, "physicalid": "124881", "street_name": "COLUMBIA STREET ESPL", "borough": "brooklyn", "direction": "NV", "total_row_ft": 15.2, "roadbed_ft": 0.0, "median_ft": 0.0, "left_sw_ft": 3.9, "right_sw_ft": 11.4}, "geometry": {"type": "LineString", "coordinates": [[-74.01306305780123, 40.66492670066656], [-74.01305550073107, 40.66488524160769]]}}, {"type": "Feature", "properties": {"segment_id": 1583376, "physicalid": "124881", "street_name": "COLUMBIA STREET ESPL", "borough": "brooklyn", "direction": "NV", "total_row_ft": 15.3, "roadbed_ft": 0.0, "median_ft": 0.0, "left_sw_ft": 4.0, "right_sw_ft": 11.3}, "geometry": {"type": "LineString", "coordinates": [[-74.01299205416713, 40.664934908013976], [-74.01298343357675, 40.66489341824449]]}}, {"type": "Feature", "properties": {"segment_id": 1583377, "physicalid": "124881", "street_name": "COLUMBIA STREET ESPL", "borough": "brooklyn", "direction": "NV", "total_row_ft": 29.9, "roadbed_ft": 0.0, "median_ft": 0.0, "left_sw_ft": 18.4, "right_sw_ft": 11.4}, "geometry": {"type": "LineString", "coordinates": [[-74.01292896045928, 40.66498252741153], [-74.01291212672841, 40.66490150850671]]}}, {"type": "Feature", "properties": {"segment_id": 1583378, "physicalid": "124881", "street_name": "COLUMBIA STREET ESPL", "borough": "brooklyn", "direction": "NV", "total_row_ft": 22.2, "roadbed_ft": 0.0, "median_ft": 0.0, "left_sw_ft": 10.8, "right_sw_ft": 11.3}, "geometry": {"type": "LineString", "coordinates": [[-74.01285345760662, 40.66497042313529], [-74.01284097677116, 40.664910353912575]]}}, {"type": "Feature", "properties": {"segment_id": 1583379, "physicalid": "124881", "street_name": "COLUMBIA STREET ESPL", "borough": "brooklyn", "direction": "NV", "total_row_ft": 16.4, "roadbed_ft": 0.0, "median_ft": 0.0, "left_sw_ft": 5.6, "right_sw_ft": 10.8}, "geometry": {"type": "LineString", "coordinates": [[-74.01277932220754, 40.66496490014909], [-74.01277008196169, 40.66492042737756]]}}, {"type": "Feature", "properties": {"segment_id": 1583380, "physicalid": "124881", "street_name": "COLUMBIA STREET ESPL", "borough": "brooklyn", "direction": "NV", "total_row_ft": 14.0, "roadbed_ft": 0.0, "median_ft": 0.0, "left_sw_ft": 3.8, "right_sw_ft": 10.2}, "geometry": {"type": "LineString", "coordinates": [[-74.01270708013365, 40.66496848956451], [-74.01269918713079, 40.66493050079884]]}}, {"type": "Feature", "properties": {"segment_id": 1583381, "physicalid": "124881", "street_name": "COLUMBIA STREET ESPL", "borough": "brooklyn", "direction": "NV", "total_row_ft": 13.6, "roadbed_ft": 0.0, "median_ft": 0.0, "left_sw_ft": 3.9, "right_sw_ft": 9.7}, "geometry": {"type": "LineString", "coordinates": [[-74.01263595885051, 40.664977473326374], [-74.01262829227849, 40.66494057417641]]}}, {"type": "Feature", "properties": {"segment_id": 1583382, "physicalid": "124881", "street_name": "COLUMBIA STREET ESPL", "borough": "brooklyn", "direction": "NV", "total_row_ft": 13.2, "roadbed_ft": 0.0, "median_ft": 0.0, "left_sw_ft": 4.1, "right_sw_ft": 9.1}, "geometry": {"type": "LineString", "coordinates": [[-74.01256483754823, 40.66498645704427], [-74.01255739740478, 40.66495064751032]]}}, {"type": "Feature", "properties": {"segment_id": 1583383, "physicalid": "124881", "street_name": "COLUMBIA STREET ESPL", "borough": "brooklyn", "direction": "NV", "total_row_ft": 12.8, "roadbed_ft": 0.0, "median_ft": 0.0, "left_sw_ft": 4.2, "right_sw_ft": 8.6}, "geometry": {"type": "LineString", "coordinates": [[-74.01249371622679, 40.66499544071815], [-74.01248650250965, 40.66496072080049]]}}, {"type": "Feature", "properties": {"segment_id": 1583384, "physicalid": "124881", "street_name": "COLUMBIA STREET ESPL", "borough": "brooklyn", "direction": "NV", "total_row_ft": 55.8, "roadbed_ft": 30.7, "median_ft": 0.0, "left_sw_ft": 17.0, "right_sw_ft": 8.0}, "geometry": {"type": "LineString", "coordinates": [[-74.01244703492516, 40.66512205559199], [-74.01241560758655, 40.66497079401541]]}}, {"type": "Feature", "properties": {"segment_id": 1583385, "physicalid": "124881", "street_name": "COLUMBIA STREET ESPL", "borough": "brooklyn", "direction": "NV", "total_row_ft": 55.8, "roadbed_ft": 30.8, "median_ft": 0.0, "left_sw_ft": 17.3, "right_sw_ft": 7.7}, "geometry": {"type": "LineString", "coordinates": [[-74.01237946819079, 40.665131663806896], [-74.01234418960198, 40.66498094123634]]}}, {"type": "Feature", "properties": {"segment_id": 1583386, "physicalid": "124881", "street_name": "COLUMBIA STREET ESPL", "borough": "brooklyn", "direction": "NV", "total_row_ft": 55.8, "roadbed_ft": 30.9, "median_ft": 0.0, "left_sw_ft": 17.4, "right_sw_ft": 7.5}, "geometry": {"type": "LineString", "coordinates": [[-74.01230859956449, 40.665141741516194], [-74.01227331928828, 40.66499101105358]]}}, {"type": "Feature", "properties": {"segment_id": 1583387, "physicalid": "124881", "street_name": "COLUMBIA STREET ESPL", "borough": "brooklyn", "direction": "NV", "total_row_ft": 55.8, "roadbed_ft": 31.0, "median_ft": 0.0, "left_sw_ft": 17.5, "right_sw_ft": 7.3}, "geometry": {"type": "LineString", "coordinates": [[-74.01223773091677, 40.665151819181844], [-74.0122024489532, 40.66500108082715]]}}, {"type": "Feature", "properties": {"segment_id": 1583388, "physicalid": "124881", "street_name": "COLUMBIA STREET ESPL", "borough": "brooklyn", "direction": "NV", "total_row_ft": 55.9, "roadbed_ft": 31.1, "median_ft": 0.0, "left_sw_ft": 17.5, "right_sw_ft": 7.3}, "geometry": {"type": "LineString", "coordinates": [[-74.0121668622476, 40.665161896803816], [-74.01213152955522, 40.66501094103117]]}}, {"type": "Feature", "properties": {"segment_id": 1583389, "physicalid": "124881", "street_name": "COLUMBIA STREET ESPL", "borough": "brooklyn", "direction": "NV", "total_row_ft": 56.0, "roadbed_ft": 31.2, "median_ft": 0.0, "left_sw_ft": 17.6, "right_sw_ft": 7.2}, "geometry": {"type": "LineString", "coordinates": [[-74.01209599355705, 40.66517197438212], [-74.01206056752265, 40.66502061912727]]}}, {"type": "Feature", "properties": {"segment_id": 1583390, "physicalid": "124881", "street_name": "COLUMBIA STREET ESPL", "borough": "brooklyn", "direction": "NV", "total_row_ft": 56.2, "roadbed_ft": 31.3, "median_ft": 0.0, "left_sw_ft": 17.7, "right_sw_ft": 7.2}, "geometry": {"type": "LineString", "coordinates": [[-74.0120251248451, 40.665182051916744], [-74.01198960546948, 40.665030297179605]]}}, {"type": "Feature", "properties": {"segment_id": 1583391, "physicalid": "124881", "street_name": "COLUMBIA STREET ESPL", "borough": "brooklyn", "direction": "NV", "total_row_ft": 56.3, "roadbed_ft": 31.4, "median_ft": 0.0, "left_sw_ft": 17.7, "right_sw_ft": 7.2}, "geometry": {"type": "LineString", "coordinates": [[-74.01195425611171, 40.66519212940771], [-74.01191864339572, 40.66503997518816]]}}, {"type": "Feature", "properties": {"segment_id": 1583392, "physicalid": "124881", "street_name": "COLUMBIA STREET ESPL", "borough": "brooklyn", "direction": "NV", "total_row_ft": 56.5, "roadbed_ft": 31.5, "median_ft": 0.0, "left_sw_ft": 17.8, "right_sw_ft": 7.2}, "geometry": {"type": "LineString", "coordinates": [[-74.0118833873569, 40.66520220685499], [-74.01184768130138, 40.66504965315292]]}}, {"type": "Feature", "properties": {"segment_id": 1583393, "physicalid": "124881", "street_name": "COLUMBIA STREET ESPL", "borough": "brooklyn", "direction": "NV", "total_row_ft": 57.2, "roadbed_ft": 31.6, "median_ft": 0.0, "left_sw_ft": 18.2, "right_sw_ft": 7.3}, "geometry": {"type": "LineString", "coordinates": [[-74.0118271442319, 40.66521177063908], [-74.01177475525485, 40.66506000150222]]}}, {"type": "Feature", "properties": {"segment_id": 1583394, "physicalid": "124881", "street_name": "COLUMBIA STREET ESPL", "borough": "brooklyn", "direction": "NV", "total_row_ft": 61.7, "roadbed_ft": 38.3, "median_ft": 0.0, "left_sw_ft": 14.7, "right_sw_ft": 8.8}, "geometry": {"type": "LineString", "coordinates": [[-74.01176023553924, 40.665233879054945], [-74.01170370147824, 40.6650701012621]]}}, {"type": "Feature", "properties": {"segment_id": 1583395, "physicalid": "124881", "street_name": "COLUMBIA STREET ESPL", "borough": "brooklyn", "direction": "NV", "total_row_ft": 72.6, "roadbed_ft": 36.8, "median_ft": 0.0, "left_sw_ft": 18.4, "right_sw_ft": 17.4}, "geometry": {"type": "LineString", "coordinates": [[-74.01178988690081, 40.66522408146118], [-74.01160335105573, 40.66508436523984]]}}, {"type": "Feature", "properties": {"segment_id": 1584730, "physicalid": "125520", "street_name": "COLUMBIA ST", "borough": "brooklyn", "direction": "TW", "total_row_ft": 59.5, "roadbed_ft": 30.2, "median_ft": 0.0, "left_sw_ft": 18.3, "right_sw_ft": 11.1}, "geometry": {"type": "LineString", "coordinates": [[-74.00992355248488, 40.66849343174991], [-74.01025532053791, 40.66858686540634]]}}, {"type": "Feature", "properties": {"segment_id": 1584731, "physicalid": "125521", "street_name": "COLUMBIA ST", "borough": "brooklyn", "direction": "TW", "total_row_ft": 61.3, "roadbed_ft": 29.2, "median_ft": 0.0, "left_sw_ft": 24.1, "right_sw_ft": 8.1}, "geometry": {"type": "LineString", "coordinates": [[-74.00998461105873, 40.66836466856126], [-74.01019199679247, 40.668423111021845]]}}, {"type": "Feature", "properties": {"segment_id": 1584732, "physicalid": "125521", "street_name": "COLUMBIA ST", "borough": "brooklyn", "direction": "TW", "total_row_ft": 62.4, "roadbed_ft": 28.7, "median_ft": 0.0, "left_sw_ft": 26.5, "right_sw_ft": 7.2}, "geometry": {"type": "LineString", "coordinates": [[-74.01000909574023, 40.668313033965475], [-74.01022017336162, 40.668372516811715]]}}, {"type": "Feature", "properties": {"segment_id": 1584733, "physicalid": "125521", "street_name": "COLUMBIA ST", "borough": "brooklyn", "direction": "TW", "total_row_ft": 63.5, "roadbed_ft": 28.3, "median_ft": 0.0, "left_sw_ft": 28.8, "right_sw_ft": 6.4}, "geometry": {"type": "LineString", "coordinates": [[-74.01003358038382, 40.66826139936421], [-74.01024834957138, 40.66832192250514]]}}, {"type": "Feature", "properties": {"segment_id": 1584734, "physicalid": "125521", "street_name": "COLUMBIA ST", "borough": "brooklyn", "direction": "TW", "total_row_ft": 64.2, "roadbed_ft": 26.6, "median_ft": 0.0, "left_sw_ft": 31.2, "right_sw_ft": 6.5}, "geometry": {"type": "LineString", "coordinates": [[-74.01005806498948, 40.668209764757385], [-74.01027519394674, 40.668270952886814]]}}, {"type": "Feature", "properties": {"segment_id": 1584735, "physicalid": "125521", "street_name": "COLUMBIA ST", "borough": "brooklyn", "direction": "TW", "total_row_ft": 64.4, "roadbed_ft": 25.3, "median_ft": 0.0, "left_sw_ft": 32.5, "right_sw_ft": 6.6}, "geometry": {"type": "LineString", "coordinates": [[-74.01008254955725, 40.66815813014505], [-74.01030027110893, 40.668219485265304]]}}, {"type": "Feature", "properties": {"segment_id": 1584736, "physicalid": "125521", "street_name": "COLUMBIA ST", "borough": "brooklyn", "direction": "TW", "total_row_ft": 64.6, "roadbed_ft": 42.1, "median_ft": 0.0, "left_sw_ft": 15.7, "right_sw_ft": 6.7}, "geometry": {"type": "LineString", "coordinates": [[-74.0101070340871, 40.668106495527184], [-74.01032534823243, 40.668168017637996]]}}, {"type": "Feature", "properties": {"segment_id": 1584737, "physicalid": "125521", "street_name": "COLUMBIA ST", "borough": "brooklyn", "direction": "TW", "total_row_ft": 64.6, "roadbed_ft": 42.1, "median_ft": 0.0, "left_sw_ft": 15.9, "right_sw_ft": 6.7}, "geometry": {"type": "LineString", "coordinates": [[-74.01013151857906, 40.66805486090381], [-74.01034995825782, 40.668116418385644]]}}, {"type": "Feature", "properties": {"segment_id": 1584738, "physicalid": "125521", "street_name": "COLUMBIA ST", "borough": "brooklyn", "direction": "TW", "total_row_ft": 64.6, "roadbed_ft": 42.0, "median_ft": 0.0, "left_sw_ft": 16.0, "right_sw_ft": 6.6}, "geometry": {"type": "LineString", "coordinates": [[-74.0101560030331, 40.66800322627488], [-74.01037437021103, 40.66806476332085]]}}, {"type": "Feature", "properties": {"segment_id": 1584739, "physicalid": "125521", "street_name": "COLUMBIA ST", "borough": "brooklyn", "direction": "TW", "total_row_ft": 64.6, "roadbed_ft": 41.9, "median_ft": 0.0, "left_sw_ft": 16.1, "right_sw_ft": 6.5}, "geometry": {"type": "LineString", "coordinates": [[-74.01018048744923, 40.667951591640424], [-74.01039878249948, 40.6680131083557]]}}, {"type": "Feature", "properties": {"segment_id": 1584740, "physicalid": "125521", "street_name": "COLUMBIA ST", "borough": "brooklyn", "direction": "TW", "total_row_ft": 64.6, "roadbed_ft": 41.9, "median_ft": 0.0, "left_sw_ft": 16.2, "right_sw_ft": 6.4}, "geometry": {"type": "LineString", "coordinates": [[-74.01020497182745, 40.66789995700046], [-74.01042319390024, 40.667961453145544]]}}, {"type": "Feature", "properties": {"segment_id": 1584741, "physicalid": "125521", "street_name": "COLUMBIA ST", "borough": "brooklyn", "direction": "TW", "total_row_ft": 64.5, "roadbed_ft": 41.8, "median_ft": 0.0, "left_sw_ft": 16.4, "right_sw_ft": 6.3}, "geometry": {"type": "LineString", "coordinates": [[-74.01022945616776, 40.667848322354956], [-74.01044760523088, 40.66790979792081]]}}, {"type": "Feature", "properties": {"segment_id": 1584742, "physicalid": "125521", "street_name": "COLUMBIA ST", "borough": "brooklyn", "direction": "TW", "total_row_ft": 64.5, "roadbed_ft": 41.8, "median_ft": 0.0, "left_sw_ft": 16.5, "right_sw_ft": 6.3}, "geometry": {"type": "LineString", "coordinates": [[-74.01025394047016, 40.66779668770392], [-74.01047203998931, 40.667858149303264]]}}, {"type": "Feature", "properties": {"segment_id": 1584743, "physicalid": "125521", "street_name": "COLUMBIA ST", "borough": "brooklyn", "direction": "TW", "total_row_ft": 64.5, "roadbed_ft": 41.7, "median_ft": 0.0, "left_sw_ft": 16.6, "right_sw_ft": 6.2}, "geometry": {"type": "LineString", "coordinates": [[-74.01027842473466, 40.66774505304737], [-74.01049649194414, 40.66780650553687]]}}, {"type": "Feature", "properties": {"segment_id": 1584744, "physicalid": "125521", "street_name": "COLUMBIA ST", "borough": "brooklyn", "direction": "TW", "total_row_ft": 64.5, "roadbed_ft": 41.6, "median_ft": 0.0, "left_sw_ft": 16.8, "right_sw_ft": 6.1}, "geometry": {"type": "LineString", "coordinates": [[-74.01030290896125, 40.66769341838529], [-74.01052094372605, 40.667754861726934]]}}, {"type": "Feature", "properties": {"segment_id": 1584745, "physicalid": "125521", "street_name": "COLUMBIA ST", "borough": "brooklyn", "direction": "TW", "total_row_ft": 64.5, "roadbed_ft": 41.6, "median_ft": 0.0, "left_sw_ft": 16.9, "right_sw_ft": 6.0}, "geometry": {"type": "LineString", "coordinates": [[-74.01032739314994, 40.66764178371768], [-74.01054539579071, 40.66770321800182]]}}, {"type": "Feature", "properties": {"segment_id": 1584746, "physicalid": "125521", "street_name": "COLUMBIA ST", "borough": "brooklyn", "direction": "TW", "total_row_ft": 64.6, "roadbed_ft": 41.5, "median_ft": 0.0, "left_sw_ft": 17.1, "right_sw_ft": 6.0}, "geometry": {"type": "LineString", "coordinates": [[-74.0103514930999, 40.66759004077428], [-74.01056984806839, 40.66765157434192]]}}, {"type": "Feature", "properties": {"segment_id": 1584747, "physicalid": "125521", "street_name": "COLUMBIA ST", "borough": "brooklyn", "direction": "TW", "total_row_ft": 64.6, "roadbed_ft": 41.4, "median_ft": 0.0, "left_sw_ft": 17.3, "right_sw_ft": 5.9}, "geometry": {"type": "LineString", "coordinates": [[-74.01037593170793, 40.66753839327207], [-74.01059442205751, 40.667599964985904]]}}, {"type": "Feature", "properties": {"segment_id": 1584748, "physicalid": "125521", "street_name": "COLUMBIA ST", "borough": "brooklyn", "direction": "TW", "total_row_ft": 64.6, "roadbed_ft": 41.4, "median_ft": 0.0, "left_sw_ft": 17.3, "right_sw_ft": 6.0}, "geometry": {"type": "LineString", "coordinates": [[-74.01040073049295, 40.66748684727519], [-74.01061927047988, 40.66754843297145]]}}, {"type": "Feature", "properties": {"segment_id": 1584749, "physicalid": "125521", "street_name": "COLUMBIA ST", "borough": "brooklyn", "direction": "TW", "total_row_ft": 64.7, "roadbed_ft": 41.3, "median_ft": 0.0, "left_sw_ft": 17.3, "right_sw_ft": 6.0}, "geometry": {"type": "LineString", "coordinates": [[-74.01042552923964, 40.667435301272654], [-74.01064411886385, 40.6674969009513]]}}, {"type": "Feature", "properties": {"segment_id": 1584750, "physicalid": "125521", "street_name": "COLUMBIA ST", "borough": "brooklyn", "direction": "TW", "total_row_ft": 64.7, "roadbed_ft": 41.3, "median_ft": 0.0, "left_sw_ft": 17.4, "right_sw_ft": 6.0}, "geometry": {"type": "LineString", "coordinates": [[-74.01045032794799, 40.66738375526445], [-74.01066896720941, 40.667445368925456]]}}, {"type": "Feature", "properties": {"segment_id": 1584751, "physicalid": "125521", "street_name": "COLUMBIA ST", "borough": "brooklyn", "direction": "TW", "total_row_ft": 64.7, "roadbed_ft": 41.2, "median_ft": 0.0, "left_sw_ft": 17.4, "right_sw_ft": 6.1}, "geometry": {"type": "LineString", "coordinates": [[-74.01047512661803, 40.667332209250596], [-74.01069381551659, 40.66739383689395]]}}, {"type": "Feature", "properties": {"segment_id": 1584752, "physicalid": "125521", "street_name": "COLUMBIA ST", "borough": "brooklyn", "direction": "TW", "total_row_ft": 64.7, "roadbed_ft": 41.2, "median_ft": 0.0, "left_sw_ft": 17.4, "right_sw_ft": 6.1}, "geometry": {"type": "LineString", "coordinates": [[-74.01049992524973, 40.66728066323107], [-74.01071866378538, 40.66734230485676]]}}, {"type": "Feature", "properties": {"segment_id": 1584753, "physicalid": "125521", "street_name": "COLUMBIA ST", "borough": "brooklyn", "direction": "TW", "total_row_ft": 64.7, "roadbed_ft": 41.1, "median_ft": 0.0, "left_sw_ft": 17.5, "right_sw_ft": 6.1}, "geometry": {"type": "LineString", "coordinates": [[-74.0105247238431, 40.667229117205885], [-74.01074351201576, 40.66729077281387]]}}, {"type": "Feature", "properties": {"segment_id": 1584754, "physicalid": "125521", "street_name": "COLUMBIA ST", "borough": "brooklyn", "direction": "TW", "total_row_ft": 64.7, "roadbed_ft": 41.1, "median_ft": 0.0, "left_sw_ft": 17.5, "right_sw_ft": 6.2}, "geometry": {"type": "LineString", "coordinates": [[-74.01054952239814, 40.66717757117505], [-74.01076836020776, 40.6672392407653]]}}, {"type": "Feature", "properties": {"segment_id": 1584755, "physicalid": "125521", "street_name": "COLUMBIA ST", "borough": "brooklyn", "direction": "TW", "total_row_ft": 64.8, "roadbed_ft": 41.0, "median_ft": 0.0, "left_sw_ft": 17.5, "right_sw_ft": 6.2}, "geometry": {"type": "LineString", "coordinates": [[-74.01057432091486, 40.66712602513855], [-74.01079325155233, 40.66718772088245]]}}, {"type": "Feature", "properties": {"segment_id": 1584756, "physicalid": "125521", "street_name": "COLUMBIA ST", "borough": "brooklyn", "direction": "TW", "total_row_ft": 64.8, "roadbed_ft": 41.0, "median_ft": 0.0, "left_sw_ft": 17.5, "right_sw_ft": 6.3}, "geometry": {"type": "LineString", "coordinates": [[-74.01059911939325, 40.667074479096385], [-74.01081824405765, 40.6671362295122]]}}, {"type": "Feature", "properties": {"segment_id": 1584757, "physicalid": "125521", "street_name": "COLUMBIA ST", "borough": "brooklyn", "direction": "TW", "total_row_ft": 64.9, "roadbed_ft": 41.0, "median_ft": 0.0, "left_sw_ft": 17.5, "right_sw_ft": 6.4}, "geometry": {"type": "LineString", "coordinates": [[-74.0106239178333, 40.6670229330486], [-74.01084323652437, 40.667084738136175]]}}, {"type": "Feature", "properties": {"segment_id": 1584758, "physicalid": "125521", "street_name": "COLUMBIA ST", "borough": "brooklyn", "direction": "TW", "total_row_ft": 64.9, "roadbed_ft": 41.0, "median_ft": 0.0, "left_sw_ft": 17.5, "right_sw_ft": 6.4}, "geometry": {"type": "LineString", "coordinates": [[-74.01064871623502, 40.66697138699512], [-74.0108682289525, 40.66703324675444]]}}, {"type": "Feature", "properties": {"segment_id": 1584759, "physicalid": "125521", "street_name": "COLUMBIA ST", "borough": "brooklyn", "direction": "TW", "total_row_ft": 65.0, "roadbed_ft": 41.1, "median_ft": 0.0, "left_sw_ft": 17.4, "right_sw_ft": 6.5}, "geometry": {"type": "LineString", "coordinates": [[-74.01067351459844, 40.66691984093598], [-74.01089322134204, 40.66698175536696]]}}, {"type": "Feature", "properties": {"segment_id": 1584760, "physicalid": "125521", "street_name": "COLUMBIA ST", "borough": "brooklyn", "direction": "TW", "total_row_ft": 65.0, "roadbed_ft": 41.1, "median_ft": 0.0, "left_sw_ft": 17.4, "right_sw_ft": 6.6}, "geometry": {"type": "LineString", "coordinates": [[-74.01069831292351, 40.666868294871165], [-74.01091821369302, 40.66693026397374]]}}, {"type": "Feature", "properties": {"segment_id": 1584761, "physicalid": "125521", "street_name": "COLUMBIA ST", "borough": "brooklyn", "direction": "TW", "total_row_ft": 65.0, "roadbed_ft": 41.1, "median_ft": 0.0, "left_sw_ft": 17.3, "right_sw_ft": 6.6}, "geometry": {"type": "LineString", "coordinates": [[-74.01072311121025, 40.666816748800706], [-74.01094298173314, 40.66687870937405]]}}, {"type": "Feature", "properties": {"segment_id": 1584762, "physicalid": "125521", "street_name": "COLUMBIA ST", "borough": "brooklyn", "direction": "TW", "total_row_ft": 65.0, "roadbed_ft": 41.1, "median_ft": 0.0, "left_sw_ft": 17.3, "right_sw_ft": 6.6}, "geometry": {"type": "LineString", "coordinates": [[-74.01074790945867, 40.66676520272458], [-74.01096761549292, 40.66682711693882]]}}, {"type": "Feature", "properties": {"segment_id": 1584763, "physicalid": "125521", "street_name": "COLUMBIA ST", "borough": "brooklyn", "direction": "TW", "total_row_ft": 64.9, "roadbed_ft": 41.2, "median_ft": 0.0, "left_sw_ft": 17.3, "right_sw_ft": 6.5}, "geometry": {"type": "LineString", "coordinates": [[-74.01077270766876, 40.6667136566428], [-74.01099224921461, 40.66677552449799]]}}, {"type": "Feature", "properties": {"segment_id": 1584764, "physicalid": "125521", "street_name": "COLUMBIA ST", "borough": "brooklyn", "direction": "TW", "total_row_ft": 64.9, "roadbed_ft": 41.2, "median_ft": 0.0, "left_sw_ft": 17.2, "right_sw_ft": 6.5}, "geometry": {"type": "LineString", "coordinates": [[-74.01079750584053, 40.666662110555365], [-74.01101688259432, 40.66672393196596]]}}, {"type": "Feature", "properties": {"segment_id": 1584765, "physicalid": "125521", "street_name": "COLUMBIA ST", "borough": "brooklyn", "direction": "TW", "total_row_ft": 64.8, "roadbed_ft": 41.2, "median_ft": 0.0, "left_sw_ft": 17.2, "right_sw_ft": 6.5}, "geometry": {"type": "LineString", "coordinates": [[-74.01082230397397, 40.66661056446226], [-74.01104151592884, 40.66667233942632]]}}, {"type": "Feature", "properties": {"segment_id": 1584766, "physicalid": "125521", "street_name": "COLUMBIA ST", "borough": "brooklyn", "direction": "TW", "total_row_ft": 64.8, "roadbed_ft": 41.2, "median_ft": 0.0, "left_sw_ft": 17.1, "right_sw_ft": 6.4}, "geometry": {"type": "LineString", "coordinates": [[-74.01084710206909, 40.66655901836348], [-74.01106614920471, 40.66662074687532]]}}, {"type": "Feature", "properties": {"segment_id": 1584767, "physicalid": "125521", "street_name": "COLUMBIA ST", "borough": "brooklyn", "direction": "TW", "total_row_ft": 64.7, "roadbed_ft": 41.2, "median_ft": 0.0, "left_sw_ft": 17.1, "right_sw_ft": 6.4}, "geometry": {"type": "LineString", "coordinates": [[-74.01087190012586, 40.66650747225906], [-74.01109078244248, 40.666569154318736]]}}, {"type": "Feature", "properties": {"segment_id": 1584768, "physicalid": "125521", "street_name": "COLUMBIA ST", "borough": "brooklyn", "direction": "TW", "total_row_ft": 64.7, "roadbed_ft": 41.3, "median_ft": 0.0, "left_sw_ft": 17.1, "right_sw_ft": 6.4}, "geometry": {"type": "LineString", "coordinates": [[-74.01089669814434, 40.666455926149], [-74.01111541564214, 40.666517561756564]]}}, {"type": "Feature", "properties": {"segment_id": 1584769, "physicalid": "125521", "street_name": "COLUMBIA ST", "borough": "brooklyn", "direction": "TW", "total_row_ft": 64.7, "roadbed_ft": 41.3, "median_ft": 0.0, "left_sw_ft": 17.0, "right_sw_ft": 6.4}, "geometry": {"type": "LineString", "coordinates": [[-74.01092149612445, 40.666404380033256], [-74.01114016994975, 40.666466003328146]]}}, {"type": "Feature", "properties": {"segment_id": 1584770, "physicalid": "125521", "street_name": "COLUMBIA ST", "borough": "brooklyn", "direction": "TW", "total_row_ft": 64.7, "roadbed_ft": 41.3, "median_ft": 0.0, "left_sw_ft": 17.0, "right_sw_ft": 6.4}, "geometry": {"type": "LineString", "coordinates": [[-74.01094629406624, 40.66635283391186], [-74.01116505209605, 40.666414480930285]]}}, {"type": "Feature", "properties": {"segment_id": 1584771, "physicalid": "125521", "street_name": "COLUMBIA ST", "borough": "brooklyn", "direction": "TW", "total_row_ft": 64.7, "roadbed_ft": 41.3, "median_ft": 0.0, "left_sw_ft": 16.9, "right_sw_ft": 6.5}, "geometry": {"type": "LineString", "coordinates": [[-74.01097109196974, 40.666301287784805], [-74.01118993420391, 40.666362958526705]]}}, {"type": "Feature", "properties": {"segment_id": 1584772, "physicalid": "125521", "street_name": "COLUMBIA ST", "borough": "brooklyn", "direction": "TW", "total_row_ft": 64.8, "roadbed_ft": 41.4, "median_ft": 0.0, "left_sw_ft": 16.9, "right_sw_ft": 6.5}, "geometry": {"type": "LineString", "coordinates": [[-74.01099588983487, 40.66624974165208], [-74.01121481627335, 40.66631143611744]]}}, {"type": "Feature", "properties": {"segment_id": 1584773, "physicalid": "125521", "street_name": "COLUMBIA ST", "borough": "brooklyn", "direction": "TW", "total_row_ft": 64.8, "roadbed_ft": 24.1, "median_ft": 0.0, "left_sw_ft": 34.1, "right_sw_ft": 6.5}, "geometry": {"type": "LineString", "coordinates": [[-74.01102068766168, 40.6661981955137], [-74.01123969830435, 40.666259913702476]]}}, {"type": "Feature", "properties": {"segment_id": 1584774, "physicalid": "125521", "street_name": "COLUMBIA ST", "borough": "brooklyn", "direction": "TW", "total_row_ft": 64.8, "roadbed_ft": 24.5, "median_ft": 0.0, "left_sw_ft": 33.7, "right_sw_ft": 6.6}, "geometry": {"type": "LineString", "coordinates": [[-74.01104548545018, 40.666146649369686], [-74.01126458029688, 40.6662083912818]]}}, {"type": "Feature", "properties": {"segment_id": 1584775, "physicalid": "125521", "street_name": "COLUMBIA ST", "borough": "brooklyn", "direction": "TW", "total_row_ft": 64.8, "roadbed_ft": 24.8, "median_ft": 0.0, "left_sw_ft": 33.4, "right_sw_ft": 6.6}, "geometry": {"type": "LineString", "coordinates": [[-74.01107028320035, 40.666095103219995], [-74.011289462251, 40.66615686885546]]}}, {"type": "Feature", "properties": {"segment_id": 1584776, "physicalid": "125521", "street_name": "COLUMBIA ST", "borough": "brooklyn", "direction": "TW", "total_row_ft": 64.9, "roadbed_ft": 25.2, "median_ft": 0.0, "left_sw_ft": 33.0, "right_sw_ft": 6.7}, "geometry": {"type": "LineString", "coordinates": [[-74.0110950809122, 40.666043557064626], [-74.01131434416668, 40.66610534642341]]}}, {"type": "Feature", "properties": {"segment_id": 1584777, "physicalid": "125521", "street_name": "COLUMBIA ST", "borough": "brooklyn", "direction": "TW", "total_row_ft": 64.9, "roadbed_ft": 25.5, "median_ft": 0.0, "left_sw_ft": 32.6, "right_sw_ft": 6.7}, "geometry": {"type": "LineString", "coordinates": [[-74.01111987858572, 40.66599201090362], [-74.01133922773693, 40.666053824462765]]}}, {"type": "Feature", "properties": {"segment_id": 1584778, "physicalid": "125521", "street_name": "COLUMBIA ST", "borough": "brooklyn", "direction": "TW", "total_row_ft": 64.9, "roadbed_ft": 25.9, "median_ft": 0.0, "left_sw_ft": 32.3, "right_sw_ft": 6.7}, "geometry": {"type": "LineString", "coordinates": [[-74.0111446762209, 40.66594046473696], [-74.01136411227502, 40.66600230278]]}}, {"type": "Feature", "properties": {"segment_id": 1584779, "physicalid": "125521", "street_name": "COLUMBIA ST", "borough": "brooklyn", "direction": "TW", "total_row_ft": 64.9, "roadbed_ft": 26.3, "median_ft": 0.0, "left_sw_ft": 31.9, "right_sw_ft": 6.7}, "geometry": {"type": "LineString", "coordinates": [[-74.01116947381776, 40.665888918564654], [-74.01138899677466, 40.66595078109154]]}}, {"type": "Feature", "properties": {"segment_id": 1584780, "physicalid": "125521", "street_name": "COLUMBIA ST", "borough": "brooklyn", "direction": "TW", "total_row_ft": 65.0, "roadbed_ft": 26.7, "median_ft": 0.0, "left_sw_ft": 31.5, "right_sw_ft": 6.7}, "geometry": {"type": "LineString", "coordinates": [[-74.01119427137628, 40.665837372386655], [-74.01141388123587, 40.665899259397364]]}}, {"type": "Feature", "properties": {"segment_id": 1584781, "physicalid": "125521", "street_name": "COLUMBIA ST", "borough": "brooklyn", "direction": "TW", "total_row_ft": 65.0, "roadbed_ft": 27.1, "median_ft": 0.0, "left_sw_ft": 31.2, "right_sw_ft": 6.8}, "geometry": {"type": "LineString", "coordinates": [[-74.0112190688965, 40.66578582620301], [-74.01143876536106, 40.66584773761367]]}}, {"type": "Feature", "properties": {"segment_id": 1584782, "physicalid": "125521", "street_name": "COLUMBIA ST", "borough": "brooklyn", "direction": "TW", "total_row_ft": 65.0, "roadbed_ft": 27.4, "median_ft": 0.0, "left_sw_ft": 30.8, "right_sw_ft": 6.8}, "geometry": {"type": "LineString", "coordinates": [[-74.01124386637838, 40.665734280013695], [-74.01146364949726, 40.665796215838185]]}}, {"type": "Feature", "properties": {"segment_id": 1584783, "physicalid": "125521", "street_name": "COLUMBIA ST", "borough": "brooklyn", "direction": "TW", "total_row_ft": 65.0, "roadbed_ft": 27.8, "median_ft": 0.0, "left_sw_ft": 30.5, "right_sw_ft": 6.8}, "geometry": {"type": "LineString", "coordinates": [[-74.01126866382194, 40.66568273381874], [-74.01148853389749, 40.665744694142255]]}}, {"type": "Feature", "properties": {"segment_id": 1584784, "physicalid": "125521", "street_name": "COLUMBIA ST", "borough": "brooklyn", "direction": "TW", "total_row_ft": 65.1, "roadbed_ft": 28.2, "median_ft": 0.0, "left_sw_ft": 30.1, "right_sw_ft": 6.8}, "geometry": {"type": "LineString", "coordinates": [[-74.01129346122717, 40.66563118761812], [-74.01151351984404, 40.665693201067526]]}}, {"type": "Feature", "properties": {"segment_id": 1584785, "physicalid": "125521", "street_name": "COLUMBIA ST", "borough": "brooklyn", "direction": "TW", "total_row_ft": 65.2, "roadbed_ft": 28.6, "median_ft": 0.0, "left_sw_ft": 29.7, "right_sw_ft": 6.9}, "geometry": {"type": "LineString", "coordinates": [[-74.01131825859407, 40.665579641411846], [-74.01153871013062, 40.66564176558156]]}}, {"type": "Feature", "properties": {"segment_id": 1584786, "physicalid": "125521", "street_name": "COLUMBIA ST", "borough": "brooklyn", "direction": "TW", "total_row_ft": 65.3, "roadbed_ft": 29.0, "median_ft": 0.0, "left_sw_ft": 29.4, "right_sw_ft": 7.0}, "geometry": {"type": "LineString", "coordinates": [[-74.01134305592265, 40.6655280951999], [-74.01156390037836, 40.66559033008975]]}}, {"type": "Feature", "properties": {"segment_id": 1584787, "physicalid": "125521", "street_name": "COLUMBIA ST", "borough": "brooklyn", "direction": "TW", "total_row_ft": 65.4, "roadbed_ft": 29.4, "median_ft": 0.0, "left_sw_ft": 29.0, "right_sw_ft": 7.1}, "geometry": {"type": "LineString", "coordinates": [[-74.0113678532129, 40.665476548982305], [-74.01158909058724, 40.66553889459212]]}}, {"type": "Feature", "properties": {"segment_id": 1584788, "physicalid": "125521", "street_name": "COLUMBIA ST", "borough": "brooklyn", "direction": "TW", "total_row_ft": 65.6, "roadbed_ft": 29.8, "median_ft": 0.0, "left_sw_ft": 28.6, "right_sw_ft": 7.2}, "geometry": {"type": "LineString", "coordinates": [[-74.01139265046483, 40.66542500275908], [-74.01161428075727, 40.665487459088645]]}}, {"type": "Feature", "properties": {"segment_id": 1584789, "physicalid": "125521", "street_name": "COLUMBIA ST", "borough": "brooklyn", "direction": "TW", "total_row_ft": 65.7, "roadbed_ft": 30.2, "median_ft": 0.0, "left_sw_ft": 28.3, "right_sw_ft": 7.3}, "geometry": {"type": "LineString", "coordinates": [[-74.01141744767844, 40.66537345653016], [-74.01163947088845, 40.66543602357935]]}}, {"type": "Feature", "properties": {"segment_id": 1584790, "physicalid": "125521", "street_name": "COLUMBIA ST", "borough": "brooklyn", "direction": "TW", "total_row_ft": 65.8, "roadbed_ft": 30.5, "median_ft": 0.0, "left_sw_ft": 27.9, "right_sw_ft": 7.4}, "geometry": {"type": "LineString", "coordinates": [[-74.01144224485371, 40.66532191029556], [-74.01166466098078, 40.66538458806426]]}}, {"type": "Feature", "properties": {"segment_id": 1584791, "physicalid": "125521", "street_name": "COLUMBIA ST", "borough": "brooklyn", "direction": "TW", "total_row_ft": 66.3, "roadbed_ft": 30.9, "median_ft": 0.0, "left_sw_ft": 27.5, "right_sw_ft": 7.8}, "geometry": {"type": "LineString", "coordinates": [[-74.01146704199066, 40.66527036405537], [-74.01169110686249, 40.66533350643922]]}}, {"type": "Feature", "properties": {"segment_id": 1584792, "physicalid": "125521", "street_name": "COLUMBIA ST", "borough": "brooklyn", "direction": "TW", "total_row_ft": 66.8, "roadbed_ft": 31.3, "median_ft": 0.0, "left_sw_ft": 27.2, "right_sw_ft": 8.3}, "geometry": {"type": "LineString", "coordinates": [[-74.01149183908927, 40.66521881780948], [-74.01171755557941, 40.66528242561816]]}}, {"type": "Feature", "properties": {"segment_id": 1699659, "physicalid": "176245", "street_name": "COLUMBIA ST", "borough": "brooklyn", "direction": "TW", "total_row_ft": 62.6, "roadbed_ft": 39.9, "median_ft": 0.0, "left_sw_ft": 16.2, "right_sw_ft": 6.4}, "geometry": {"type": "LineString", "coordinates": [[-74.0117152201157, 40.66506846397763], [-74.01175125484787, 40.66523794780695]]}}, {"type": "Feature", "properties": {"segment_id": 1699660, "physicalid": "176245", "street_name": "COLUMBIA ST", "borough": "brooklyn", "direction": "TW", "total_row_ft": 57.6, "roadbed_ft": 31.5, "median_ft": 0.0, "left_sw_ft": 14.9, "right_sw_ft": 11.2}, "geometry": {"type": "LineString", "coordinates": [[-74.01178610774679, 40.665058387826534], [-74.0118192723541, 40.66521437172016]]}}, {"type": "Feature", "properties": {"segment_id": 1699661, "physicalid": "176245", "street_name": "COLUMBIA ST", "borough": "brooklyn", "direction": "TW", "total_row_ft": 56.5, "roadbed_ft": 31.5, "median_ft": 0.0, "left_sw_ft": 14.9, "right_sw_ft": 10.1}, "geometry": {"type": "LineString", "coordinates": [[-74.01185701007901, 40.665048380876584], [-74.01188953031654, 40.66520133333576]]}}, {"type": "Feature", "properties": {"segment_id": 1699662, "physicalid": "176245", "street_name": "COLUMBIA ST", "borough": "brooklyn", "direction": "TW", "total_row_ft": 56.3, "roadbed_ft": 31.4, "median_ft": 0.0, "left_sw_ft": 14.8, "right_sw_ft": 10.1}, "geometry": {"type": "LineString", "coordinates": [[-74.0119279820592, 40.66503870155745], [-74.01196041725893, 40.66519125329815]]}}, {"type": "Feature", "properties": {"segment_id": 1699663, "physicalid": "176245", "street_name": "COLUMBIA ST", "borough": "brooklyn", "direction": "TW", "total_row_ft": 56.2, "roadbed_ft": 31.3, "median_ft": 0.0, "left_sw_ft": 14.7, "right_sw_ft": 10.1}, "geometry": {"type": "LineString", "coordinates": [[-74.0119989540188, 40.66502902219451], [-74.01203130417993, 40.665181173216865]]}}, {"type": "Feature", "properties": {"segment_id": 1699664, "physicalid": "176245", "street_name": "COLUMBIA ST", "borough": "brooklyn", "direction": "TW", "total_row_ft": 56.0, "roadbed_ft": 31.2, "median_ft": 0.0, "left_sw_ft": 14.7, "right_sw_ft": 10.2}, "geometry": {"type": "LineString", "coordinates": [[-74.01206992595779, 40.665019342787765], [-74.01210219107949, 40.66517109309188]]}}, {"type": "Feature", "properties": {"segment_id": 1699665, "physicalid": "176245", "street_name": "COLUMBIA ST", "borough": "brooklyn", "direction": "TW", "total_row_ft": 55.9, "roadbed_ft": 31.1, "median_ft": 0.0, "left_sw_ft": 14.6, "right_sw_ft": 10.2}, "geometry": {"type": "LineString", "coordinates": [[-74.0121408978762, 40.66500966333725], [-74.01217307795761, 40.66516101292321]]}}, {"type": "Feature", "properties": {"segment_id": 1699666, "physicalid": "176245", "street_name": "COLUMBIA ST", "borough": "brooklyn", "direction": "TW", "total_row_ft": 55.8, "roadbed_ft": 31.0, "median_ft": 0.0, "left_sw_ft": 14.6, "right_sw_ft": 10.2}, "geometry": {"type": "LineString", "coordinates": [[-74.01221181991272, 40.664999749335635], [-74.01224396481432, 40.66515093271083]]}}, {"type": "Feature", "properties": {"segment_id": 1699667, "physicalid": "176245", "street_name": "COLUMBIA ST", "borough": "brooklyn", "direction": "TW", "total_row_ft": 55.8, "roadbed_ft": 30.9, "median_ft": 0.0, "left_sw_ft": 14.7, "right_sw_ft": 10.3}, "geometry": {"type": "LineString", "coordinates": [[-74.01228270827102, 40.664989676995], [-74.0123148516496, 40.66514085245475]]}}, {"type": "Feature", "properties": {"segment_id": 1699668, "physicalid": "176245", "street_name": "COLUMBIA ST", "borough": "brooklyn", "direction": "TW", "total_row_ft": 55.8, "roadbed_ft": 30.8, "median_ft": 0.0, "left_sw_ft": 14.7, "right_sw_ft": 10.3}, "geometry": {"type": "LineString", "coordinates": [[-74.01235359660791, 40.66497960461067], [-74.01238573846346, 40.66513077215501]]}}, {"type": "Feature", "properties": {"segment_id": 1699669, "physicalid": "176245", "street_name": "COLUMBIA ST", "borough": "brooklyn", "direction": "TW", "total_row_ft": 27.5, "roadbed_ft": 0.0, "median_ft": 0.0, "left_sw_ft": 12.5, "right_sw_ft": 15.0}, "geometry": {"type": "LineString", "coordinates": [[-74.0124244850294, 40.66496953268118], [-74.01248263584054, 40.665243022030936]]}}, {"type": "Feature", "properties": {"segment_id": 1699670, "physicalid": "176245", "street_name": "COLUMBIA ST", "borough": "brooklyn", "direction": "TW", "total_row_ft": 27.9, "roadbed_ft": 0.0, "median_ft": 0.0, "left_sw_ft": 12.9, "right_sw_ft": 15.0}, "geometry": {"type": "LineString", "coordinates": [[-74.01249537335657, 40.66495946036512], [-74.01255380054816, 40.66523424818803]]}}, {"type": "Feature", "properties": {"segment_id": 1699671, "physicalid": "176245", "street_name": "COLUMBIA ST", "borough": "brooklyn", "direction": "TW", "total_row_ft": 28.3, "roadbed_ft": 0.0, "median_ft": 0.0, "left_sw_ft": 13.3, "right_sw_ft": 15.0}, "geometry": {"type": "LineString", "coordinates": [[-74.01256626166231, 40.66494938800536], [-74.0126249652371, 40.66522547430108]]}}, {"type": "Feature", "properties": {"segment_id": 1699672, "physicalid": "176245", "street_name": "COLUMBIA ST", "borough": "brooklyn", "direction": "TW", "total_row_ft": 28.7, "roadbed_ft": 0.0, "median_ft": 0.0, "left_sw_ft": 13.7, "right_sw_ft": 15.0}, "geometry": {"type": "LineString", "coordinates": [[-74.01263714994667, 40.664939315601906], [-74.01269612990727, 40.66521670037011]]}}, {"type": "Feature", "properties": {"segment_id": 1699673, "physicalid": "176245", "street_name": "COLUMBIA ST", "borough": "brooklyn", "direction": "TW", "total_row_ft": 29.1, "roadbed_ft": 0.0, "median_ft": 0.0, "left_sw_ft": 14.1, "right_sw_ft": 15.0}, "geometry": {"type": "LineString", "coordinates": [[-74.01270803820961, 40.664929243154745], [-74.01276729455874, 40.665207926395084]]}}, {"type": "Feature", "properties": {"segment_id": 1699674, "physicalid": "176245", "street_name": "COLUMBIA ST", "borough": "brooklyn", "direction": "TW", "total_row_ft": 31.9, "roadbed_ft": 0.0, "median_ft": 0.0, "left_sw_ft": 16.9, "right_sw_ft": 15.0}, "geometry": {"type": "LineString", "coordinates": [[-74.01277892645116, 40.6649191706639], [-74.01283845919147, 40.66519915237604]]}}, {"type": "Feature", "properties": {"segment_id": 1699675, "physicalid": "176245", "street_name": "COLUMBIA ST", "borough": "brooklyn", "direction": "TW", "total_row_ft": 38.2, "roadbed_ft": 0.0, "median_ft": 0.0, "left_sw_ft": 23.2, "right_sw_ft": 15.0}, "geometry": {"type": "LineString", "coordinates": [[-74.01284981467128, 40.66490909812936], [-74.0129096238055, 40.66519037831295]]}}, {"type": "Feature", "properties": {"segment_id": 1699676, "physicalid": "176245", "street_name": "COLUMBIA ST", "borough": "brooklyn", "direction": "TW", "total_row_ft": 44.2, "roadbed_ft": 0.0, "median_ft": 0.0, "left_sw_ft": 29.2, "right_sw_ft": 15.0}, "geometry": {"type": "LineString", "coordinates": [[-74.01292101636747, 40.6649004999173], [-74.01298078840081, 40.66518160420583]]}}, {"type": "Feature", "properties": {"segment_id": 1699677, "physicalid": "176246", "street_name": "COLUMBIA STREET ESPL", "borough": "brooklyn", "direction": "NV", "total_row_ft": 70.0, "roadbed_ft": 36.9, "median_ft": 0.0, "left_sw_ft": 11.7, "right_sw_ft": 21.5}, "geometry": {"type": "LineString", "coordinates": [[-74.01175122733864, 40.66523796458477], [-74.011512701434, 40.66517493595886]]}}, {"type": "Feature", "properties": {"segment_id": 1699678, "physicalid": "176246", "street_name": "COLUMBIA STREET ESPL", "borough": "brooklyn", "direction": "NV", "total_row_ft": 66.7, "roadbed_ft": 31.3, "median_ft": 0.0, "left_sw_ft": 13.7, "right_sw_ft": 21.7}, "geometry": {"type": "LineString", "coordinates": [[-74.01171539285393, 40.66528660250234], [-74.01148812058754, 40.665226547541984]]}}, {"type": "Feature", "properties": {"segment_id": 1699679, "physicalid": "176246", "street_name": "COLUMBIA STREET ESPL", "borough": "brooklyn", "direction": "NV", "total_row_ft": 66.3, "roadbed_ft": 30.9, "median_ft": 0.0, "left_sw_ft": 13.3, "right_sw_ft": 22.1}, "geometry": {"type": "LineString", "coordinates": [[-74.01168892720565, 40.66533771605527], [-74.01146331998429, 40.66527810106024]]}}, {"type": "Feature", "properties": {"segment_id": 1699680, "physicalid": "176246", "street_name": "COLUMBIA STREET ESPL", "borough": "brooklyn", "direction": "NV", "total_row_ft": 65.8, "roadbed_ft": 30.5, "median_ft": 0.0, "left_sw_ft": 12.9, "right_sw_ft": 22.4}, "geometry": {"type": "LineString", "coordinates": [[-74.01166256972354, 40.665388858194476], [-74.01143851934269, 40.66532965457284]]}}, {"type": "Feature", "properties": {"segment_id": 1699681, "physicalid": "176246", "street_name": "COLUMBIA STREET ESPL", "borough": "brooklyn", "direction": "NV", "total_row_ft": 65.7, "roadbed_ft": 30.1, "median_ft": 0.0, "left_sw_ft": 12.8, "right_sw_ft": 22.8}, "geometry": {"type": "LineString", "coordinates": [[-74.01163737307998, 40.66544030707945], [-74.01141371866274, 40.66538120807978]]}}, {"type": "Feature", "properties": {"segment_id": 1699682, "physicalid": "176246", "street_name": "COLUMBIA STREET ESPL", "borough": "brooklyn", "direction": "NV", "total_row_ft": 65.6, "roadbed_ft": 29.7, "median_ft": 0.0, "left_sw_ft": 12.7, "right_sw_ft": 23.1}, "geometry": {"type": "LineString", "coordinates": [[-74.01161217639752, 40.66549175595864], [-74.01138891794446, 40.66543276158102]]}}, {"type": "Feature", "properties": {"segment_id": 1699683, "physicalid": "176246", "street_name": "COLUMBIA STREET ESPL", "borough": "brooklyn", "direction": "NV", "total_row_ft": 65.4, "roadbed_ft": 29.3, "median_ft": 0.0, "left_sw_ft": 12.7, "right_sw_ft": 23.5}, "geometry": {"type": "LineString", "coordinates": [[-74.0115869796762, 40.66554320483198], [-74.01136411718785, 40.665484315076654]]}}, {"type": "Feature", "properties": {"segment_id": 1699684, "physicalid": "176246", "street_name": "COLUMBIA STREET ESPL", "borough": "brooklyn", "direction": "NV", "total_row_ft": 65.3, "roadbed_ft": 28.9, "median_ft": 0.0, "left_sw_ft": 12.6, "right_sw_ft": 23.8}, "geometry": {"type": "LineString", "coordinates": [[-74.011561782916, 40.665594653699465], [-74.01133931639289, 40.665535868566614]]}}, {"type": "Feature", "properties": {"segment_id": 1699685, "physicalid": "176246", "street_name": "COLUMBIA STREET ESPL", "borough": "brooklyn", "direction": "NV", "total_row_ft": 65.2, "roadbed_ft": 28.6, "median_ft": 0.0, "left_sw_ft": 12.5, "right_sw_ft": 24.1}, "geometry": {"type": "LineString", "coordinates": [[-74.01153658611693, 40.665646102561155], [-74.01131451555963, 40.6655874220509]]}}, {"type": "Feature", "properties": {"segment_id": 1699686, "physicalid": "176246", "street_name": "COLUMBIA STREET ESPL", "borough": "brooklyn", "direction": "NV", "total_row_ft": 65.1, "roadbed_ft": 28.2, "median_ft": 0.0, "left_sw_ft": 12.4, "right_sw_ft": 24.5}, "geometry": {"type": "LineString", "coordinates": [[-74.01151138927901, 40.665697551416976], [-74.01128971468799, 40.66563897552955]]}}, {"type": "Feature", "properties": {"segment_id": 1699687, "physicalid": "176246", "street_name": "COLUMBIA STREET ESPL", "borough": "brooklyn", "direction": "NV", "total_row_ft": 65.0, "roadbed_ft": 27.8, "median_ft": 0.0, "left_sw_ft": 12.4, "right_sw_ft": 24.8}, "geometry": {"type": "LineString", "coordinates": [[-74.01148642447126, 40.665749061589295], [-74.01126491377804, 40.665690529002504]]}}, {"type": "Feature", "properties": {"segment_id": 1699688, "physicalid": "176246", "street_name": "COLUMBIA STREET ESPL", "borough": "brooklyn", "direction": "NV", "total_row_ft": 65.0, "roadbed_ft": 27.4, "median_ft": 0.0, "left_sw_ft": 12.5, "right_sw_ft": 25.2}, "geometry": {"type": "LineString", "coordinates": [[-74.01146153590125, 40.665800591911214], [-74.01124011282975, 40.66574208246981]]}}, {"type": "Feature", "properties": {"segment_id": 1699689, "physicalid": "176246", "street_name": "COLUMBIA STREET ESPL", "borough": "brooklyn", "direction": "NV", "total_row_ft": 65.0, "roadbed_ft": 27.0, "median_ft": 0.0, "left_sw_ft": 12.5, "right_sw_ft": 25.5}, "geometry": {"type": "LineString", "coordinates": [[-74.01143664762797, 40.66585212231598], [-74.0112153118431, 40.6657936359315]]}}, {"type": "Feature", "properties": {"segment_id": 1699690, "physicalid": "176246", "street_name": "COLUMBIA STREET ESPL", "borough": "brooklyn", "direction": "NV", "total_row_ft": 65.0, "roadbed_ft": 26.6, "median_ft": 0.0, "left_sw_ft": 12.5, "right_sw_ft": 25.9}, "geometry": {"type": "LineString", "coordinates": [[-74.01141175930991, 40.66590365271344], [-74.01119051081815, 40.665845189387476]]}}, {"type": "Feature", "properties": {"segment_id": 1699691, "physicalid": "176246", "street_name": "COLUMBIA STREET ESPL", "borough": "brooklyn", "direction": "NV", "total_row_ft": 64.9, "roadbed_ft": 26.2, "median_ft": 0.0, "left_sw_ft": 12.5, "right_sw_ft": 26.2}, "geometry": {"type": "LineString", "coordinates": [[-74.01138687067932, 40.66595518303276], [-74.01116570975483, 40.665896742837795]]}}, {"type": "Feature", "properties": {"segment_id": 1699692, "physicalid": "176246", "street_name": "COLUMBIA STREET ESPL", "borough": "brooklyn", "direction": "NV", "total_row_ft": 64.9, "roadbed_ft": 25.9, "median_ft": 0.0, "left_sw_ft": 12.5, "right_sw_ft": 26.5}, "geometry": {"type": "LineString", "coordinates": [[-74.01136198201029, 40.66600671334635], [-74.01114090865319, 40.665948296282494]]}}, {"type": "Feature", "properties": {"segment_id": 1699693, "physicalid": "176246", "street_name": "COLUMBIA STREET ESPL", "borough": "brooklyn", "direction": "NV", "total_row_ft": 64.9, "roadbed_ft": 25.5, "median_ft": 0.0, "left_sw_ft": 12.5, "right_sw_ft": 26.9}, "geometry": {"type": "LineString", "coordinates": [[-74.01133709330279, 40.66605824365429], [-74.01111610751322, 40.66599984972147]]}}, {"type": "Feature", "properties": {"segment_id": 1699694, "physicalid": "176246", "street_name": "COLUMBIA STREET ESPL", "borough": "brooklyn", "direction": "NV", "total_row_ft": 66.2, "roadbed_ft": 25.6, "median_ft": 0.0, "left_sw_ft": 15.8, "right_sw_ft": 24.8}, "geometry": {"type": "LineString", "coordinates": [[-74.01130153484488, 40.66613187041318], [-74.01109830108773, 40.666036863389664]]}}, {"type": "Feature", "properties": {"segment_id": 1699695, "physicalid": "176246", "street_name": "COLUMBIA STREET ESPL", "borough": "brooklyn", "direction": "NV", "total_row_ft": 66.1, "roadbed_ft": 25.3, "median_ft": 0.0, "left_sw_ft": 20.1, "right_sw_ft": 20.7}, "geometry": {"type": "LineString", "coordinates": [[-74.01127615608837, 40.6661844215969], [-74.01107300196774, 40.6660894518154]]}}, {"type": "Feature", "properties": {"segment_id": 1699696, "physicalid": "176246", "street_name": "COLUMBIA STREET ESPL", "borough": "brooklyn", "direction": "NV", "total_row_ft": 66.1, "roadbed_ft": 24.9, "median_ft": 0.0, "left_sw_ft": 24.5, "right_sw_ft": 16.7}, "geometry": {"type": "LineString", "coordinates": [[-74.0112507772919, 40.66623697277465], [-74.01104770280784, 40.66614204023526]]}}, {"type": "Feature", "properties": {"segment_id": 1699697, "physicalid": "176246", "street_name": "COLUMBIA STREET ESPL", "borough": "brooklyn", "direction": "NV", "total_row_ft": 66.1, "roadbed_ft": 25.9, "median_ft": 0.0, "left_sw_ft": 27.6, "right_sw_ft": 12.6}, "geometry": {"type": "LineString", "coordinates": [[-74.01122539845541, 40.66628952394649], [-74.01102240360807, 40.66619462864922]]}}, {"type": "Feature", "properties": {"segment_id": 1699698, "physicalid": "176246", "street_name": "COLUMBIA STREET ESPL", "borough": "brooklyn", "direction": "NV", "total_row_ft": 64.8, "roadbed_ft": 41.4, "median_ft": 0.0, "left_sw_ft": 11.5, "right_sw_ft": 11.9}, "geometry": {"type": "LineString", "coordinates": [[-74.01121370253175, 40.666313742304084], [-74.01099456504407, 40.666252495433326]]}}, {"type": "Feature", "properties": {"segment_id": 1699699, "physicalid": "176246", "street_name": "COLUMBIA STREET ESPL", "borough": "brooklyn", "direction": "NV", "total_row_ft": 64.7, "roadbed_ft": 41.3, "median_ft": 0.0, "left_sw_ft": 11.5, "right_sw_ft": 11.9}, "geometry": {"type": "LineString", "coordinates": [[-74.01118882050908, 40.666365264612686], [-74.01096976730798, 40.66630404129322]]}}, {"type": "Feature", "properties": {"segment_id": 1699700, "physicalid": "176246", "street_name": "COLUMBIA STREET ESPL", "borough": "brooklyn", "direction": "NV", "total_row_ft": 64.7, "roadbed_ft": 41.3, "median_ft": 0.0, "left_sw_ft": 11.5, "right_sw_ft": 11.9}, "geometry": {"type": "LineString", "coordinates": [[-74.01116393844798, 40.6664167869156], [-74.01094496953355, 40.6663555871475]]}}, {"type": "Feature", "properties": {"segment_id": 1699701, "physicalid": "176246", "street_name": "COLUMBIA STREET ESPL", "borough": "brooklyn", "direction": "NV", "total_row_ft": 64.7, "roadbed_ft": 41.3, "median_ft": 0.0, "left_sw_ft": 11.5, "right_sw_ft": 11.9}, "geometry": {"type": "LineString", "coordinates": [[-74.01113905634845, 40.6664683092128], [-74.0109201717208, 40.6664071329961]]}}, {"type": "Feature", "properties": {"segment_id": 1699702, "physicalid": "176246", "street_name": "COLUMBIA STREET ESPL", "borough": "brooklyn", "direction": "NV", "total_row_ft": 64.7, "roadbed_ft": 41.3, "median_ft": 0.0, "left_sw_ft": 11.5, "right_sw_ft": 11.9}, "geometry": {"type": "LineString", "coordinates": [[-74.01111431336767, 40.66651987039734], [-74.01089537386972, 40.66645867883903]]}}, {"type": "Feature", "properties": {"segment_id": 1699703, "physicalid": "176246", "street_name": "COLUMBIA STREET ESPL", "borough": "brooklyn", "direction": "NV", "total_row_ft": 64.7, "roadbed_ft": 41.2, "median_ft": 0.0, "left_sw_ft": 11.6, "right_sw_ft": 11.9}, "geometry": {"type": "LineString", "coordinates": [[-74.01108968045703, 40.66657146235034], [-74.0108705759803, 40.666510224676315]]}}, {"type": "Feature", "properties": {"segment_id": 1699704, "physicalid": "176246", "street_name": "COLUMBIA STREET ESPL", "borough": "brooklyn", "direction": "NV", "total_row_ft": 64.8, "roadbed_ft": 41.2, "median_ft": 0.0, "left_sw_ft": 11.7, "right_sw_ft": 11.9}, "geometry": {"type": "LineString", "coordinates": [[-74.0110650475083, 40.666623054297766], [-74.01084577805257, 40.66656177050792]]}}, {"type": "Feature", "properties": {"segment_id": 1699705, "physicalid": "176246", "street_name": "COLUMBIA STREET ESPL", "borough": "brooklyn", "direction": "NV", "total_row_ft": 64.8, "roadbed_ft": 41.2, "median_ft": 0.0, "left_sw_ft": 11.8, "right_sw_ft": 11.9}, "geometry": {"type": "LineString", "coordinates": [[-74.01104041452146, 40.66667464623959], [-74.0108209800865, 40.666613316333894]]}}, {"type": "Feature", "properties": {"segment_id": 1699706, "physicalid": "176246", "street_name": "COLUMBIA STREET ESPL", "borough": "brooklyn", "direction": "NV", "total_row_ft": 64.9, "roadbed_ft": 41.2, "median_ft": 0.0, "left_sw_ft": 11.9, "right_sw_ft": 11.8}, "geometry": {"type": "LineString", "coordinates": [[-74.01101578147475, 40.666726238169794], [-74.01079618208212, 40.66666486215417]]}}, {"type": "Feature", "properties": {"segment_id": 1699707, "physicalid": "176246", "street_name": "COLUMBIA STREET ESPL", "borough": "brooklyn", "direction": "NV", "total_row_ft": 64.9, "roadbed_ft": 41.2, "median_ft": 0.0, "left_sw_ft": 12.0, "right_sw_ft": 11.8}, "geometry": {"type": "LineString", "coordinates": [[-74.0109911483704, 40.66677783008888], [-74.0107713840394, 40.66671640796881]]}}, {"type": "Feature", "properties": {"segment_id": 1699708, "physicalid": "176246", "street_name": "COLUMBIA STREET ESPL", "borough": "brooklyn", "direction": "NV", "total_row_ft": 65.0, "roadbed_ft": 41.1, "median_ft": 0.0, "left_sw_ft": 12.0, "right_sw_ft": 11.8}, "geometry": {"type": "LineString", "coordinates": [[-74.01096651493744, 40.66682942192121], [-74.01074658595836, 40.66676795377779]]}}, {"type": "Feature", "properties": {"segment_id": 1699709, "physicalid": "176246", "street_name": "COLUMBIA STREET ESPL", "borough": "brooklyn", "direction": "NV", "total_row_ft": 65.0, "roadbed_ft": 41.1, "median_ft": 0.0, "left_sw_ft": 12.1, "right_sw_ft": 11.8}, "geometry": {"type": "LineString", "coordinates": [[-74.01094188146637, 40.66688101374796], [-74.01072178783899, 40.666819499581145]]}}, {"type": "Feature", "properties": {"segment_id": 1699710, "physicalid": "176246", "street_name": "COLUMBIA STREET ESPL", "borough": "brooklyn", "direction": "NV", "total_row_ft": 65.0, "roadbed_ft": 41.1, "median_ft": 0.0, "left_sw_ft": 12.2, "right_sw_ft": 11.8}, "geometry": {"type": "LineString", "coordinates": [[-74.01091709755754, 40.66693256353394], [-74.01069698968129, 40.6668710453788]]}}, {"type": "Feature", "properties": {"segment_id": 1699711, "physicalid": "176246", "street_name": "COLUMBIA STREET ESPL", "borough": "brooklyn", "direction": "NV", "total_row_ft": 65.0, "roadbed_ft": 41.1, "median_ft": 0.0, "left_sw_ft": 12.1, "right_sw_ft": 11.8}, "geometry": {"type": "LineString", "coordinates": [[-74.01089210514496, 40.66698405505036], [-74.01067219148527, 40.66692259117079]]}}, {"type": "Feature", "properties": {"segment_id": 1699712, "physicalid": "176246", "street_name": "COLUMBIA STREET ESPL", "borough": "brooklyn", "direction": "NV", "total_row_ft": 64.9, "roadbed_ft": 41.0, "median_ft": 0.0, "left_sw_ft": 12.1, "right_sw_ft": 11.8}, "geometry": {"type": "LineString", "coordinates": [[-74.01086711269377, 40.66703554656099], [-74.01064739325092, 40.666974136957116]]}}, {"type": "Feature", "properties": {"segment_id": 1699713, "physicalid": "176246", "street_name": "COLUMBIA STREET ESPL", "borough": "brooklyn", "direction": "NV", "total_row_ft": 64.9, "roadbed_ft": 41.0, "median_ft": 0.0, "left_sw_ft": 12.1, "right_sw_ft": 11.8}, "geometry": {"type": "LineString", "coordinates": [[-74.01084212020402, 40.667087038065894], [-74.01062259497824, 40.66702568273783]]}}, {"type": "Feature", "properties": {"segment_id": 1699714, "physicalid": "176246", "street_name": "COLUMBIA STREET ESPL", "borough": "brooklyn", "direction": "NV", "total_row_ft": 64.8, "roadbed_ft": 41.0, "median_ft": 0.0, "left_sw_ft": 12.1, "right_sw_ft": 11.7}, "geometry": {"type": "LineString", "coordinates": [[-74.01081712767567, 40.667138529565044], [-74.01059779666723, 40.66707722851284]]}}, {"type": "Feature", "properties": {"segment_id": 1699715, "physicalid": "176246", "street_name": "COLUMBIA STREET ESPL", "borough": "brooklyn", "direction": "NV", "total_row_ft": 64.8, "roadbed_ft": 41.0, "median_ft": 0.0, "left_sw_ft": 12.0, "right_sw_ft": 11.7}, "geometry": {"type": "LineString", "coordinates": [[-74.01079213510872, 40.66719002105847], [-74.0105729983179, 40.66712877428219]]}}, {"type": "Feature", "properties": {"segment_id": 1699716, "physicalid": "176246", "street_name": "COLUMBIA STREET ESPL", "borough": "brooklyn", "direction": "NV", "total_row_ft": 64.7, "roadbed_ft": 41.1, "median_ft": 0.0, "left_sw_ft": 12.0, "right_sw_ft": 11.7}, "geometry": {"type": "LineString", "coordinates": [[-74.0107672502588, 40.66724154266273], [-74.01054819993023, 40.667180320045915]]}}, {"type": "Feature", "properties": {"segment_id": 1699717, "physicalid": "176246", "street_name": "COLUMBIA STREET ESPL", "borough": "brooklyn", "direction": "NV", "total_row_ft": 64.7, "roadbed_ft": 41.1, "median_ft": 0.0, "left_sw_ft": 11.9, "right_sw_ft": 11.7}, "geometry": {"type": "LineString", "coordinates": [[-74.0107424021475, 40.667293074540126], [-74.01052340150424, 40.667231865803956]]}}, {"type": "Feature", "properties": {"segment_id": 1699718, "physicalid": "176246", "street_name": "COLUMBIA STREET ESPL", "borough": "brooklyn", "direction": "NV", "total_row_ft": 64.7, "roadbed_ft": 41.2, "median_ft": 0.0, "left_sw_ft": 11.8, "right_sw_ft": 11.7}, "geometry": {"type": "LineString", "coordinates": [[-74.01071755399781, 40.66734460641184], [-74.01049860303992, 40.66728341155633]]}}, {"type": "Feature", "properties": {"segment_id": 1699719, "physicalid": "176246", "street_name": "COLUMBIA STREET ESPL", "borough": "brooklyn", "direction": "NV", "total_row_ft": 64.7, "roadbed_ft": 41.2, "median_ft": 0.0, "left_sw_ft": 11.8, "right_sw_ft": 11.7}, "geometry": {"type": "LineString", "coordinates": [[-74.01069270580973, 40.66739613827788], [-74.01047380453727, 40.667334957303055]]}}, {"type": "Feature", "properties": {"segment_id": 1699720, "physicalid": "176246", "street_name": "COLUMBIA STREET ESPL", "borough": "brooklyn", "direction": "NV", "total_row_ft": 64.7, "roadbed_ft": 41.3, "median_ft": 0.0, "left_sw_ft": 11.7, "right_sw_ft": 11.7}, "geometry": {"type": "LineString", "coordinates": [[-74.01066785758324, 40.66744767013822], [-74.01044900599629, 40.66738650304412]]}}, {"type": "Feature", "properties": {"segment_id": 1699721, "physicalid": "176246", "street_name": "COLUMBIA STREET ESPL", "borough": "brooklyn", "direction": "NV", "total_row_ft": 64.7, "roadbed_ft": 41.3, "median_ft": 0.0, "left_sw_ft": 11.7, "right_sw_ft": 11.7}, "geometry": {"type": "LineString", "coordinates": [[-74.01064300931836, 40.66749920199289], [-74.010424207417, 40.66743804877954]]}}, {"type": "Feature", "properties": {"segment_id": 1699722, "physicalid": "176246", "street_name": "COLUMBIA STREET ESPL", "borough": "brooklyn", "direction": "NV", "total_row_ft": 64.6, "roadbed_ft": 41.4, "median_ft": 0.0, "left_sw_ft": 11.6, "right_sw_ft": 11.6}, "geometry": {"type": "LineString", "coordinates": [[-74.01061816101509, 40.667550733841885], [-74.01039940879937, 40.66748959450928]]}}, {"type": "Feature", "properties": {"segment_id": 1699723, "physicalid": "176246", "street_name": "COLUMBIA STREET ESPL", "borough": "brooklyn", "direction": "NV", "total_row_ft": 64.6, "roadbed_ft": 41.5, "median_ft": 0.0, "left_sw_ft": 11.6, "right_sw_ft": 11.6}, "geometry": {"type": "LineString", "coordinates": [[-74.01059331267342, 40.6676022656852], [-74.0103746101434, 40.667541140233354]]}}, {"type": "Feature", "properties": {"segment_id": 1699724, "physicalid": "176246", "street_name": "COLUMBIA STREET ESPL", "borough": "brooklyn", "direction": "NV", "total_row_ft": 64.5, "roadbed_ft": 41.5, "median_ft": 0.0, "left_sw_ft": 11.6, "right_sw_ft": 11.5}, "geometry": {"type": "LineString", "coordinates": [[-74.01056875673204, 40.66765387925654], [-74.01035036005833, 40.66759283928395]]}}, {"type": "Feature", "properties": {"segment_id": 1699725, "physicalid": "176246", "street_name": "COLUMBIA STREET ESPL", "borough": "brooklyn", "direction": "NV", "total_row_ft": 64.5, "roadbed_ft": 41.6, "median_ft": 0.0, "left_sw_ft": 11.6, "right_sw_ft": 11.3}, "geometry": {"type": "LineString", "coordinates": [[-74.01054430492398, 40.66770552193717], [-74.01032608965394, 40.667644532660525]]}}, {"type": "Feature", "properties": {"segment_id": 1699726, "physicalid": "176246", "street_name": "COLUMBIA STREET ESPL", "borough": "brooklyn", "direction": "NV", "total_row_ft": 64.5, "roadbed_ft": 41.6, "median_ft": 0.0, "left_sw_ft": 11.7, "right_sw_ft": 11.2}, "geometry": {"type": "LineString", "coordinates": [[-74.01051985334448, 40.66775716468677], [-74.01030160589757, 40.66769616641188]]}}, {"type": "Feature", "properties": {"segment_id": 1699727, "physicalid": "176246", "street_name": "COLUMBIA STREET ESPL", "borough": "brooklyn", "direction": "NV", "total_row_ft": 64.5, "roadbed_ft": 41.7, "median_ft": 0.0, "left_sw_ft": 11.7, "right_sw_ft": 11.1}, "geometry": {"type": "LineString", "coordinates": [[-74.01049540202794, 40.66780880751492], [-74.01027712210329, 40.667747800157706]]}}, {"type": "Feature", "properties": {"segment_id": 1699728, "physicalid": "176246", "street_name": "COLUMBIA STREET ESPL", "borough": "brooklyn", "direction": "NV", "total_row_ft": 64.5, "roadbed_ft": 41.8, "median_ft": 0.0, "left_sw_ft": 11.8, "right_sw_ft": 11.0}, "geometry": {"type": "LineString", "coordinates": [[-74.0104709504847, 40.6678604502848], [-74.01025263827111, 40.66779943389801]]}}, {"type": "Feature", "properties": {"segment_id": 1699729, "physicalid": "176246", "street_name": "COLUMBIA STREET ESPL", "borough": "brooklyn", "direction": "NV", "total_row_ft": 64.5, "roadbed_ft": 41.8, "median_ft": 0.0, "left_sw_ft": 11.8, "right_sw_ft": 10.9}, "geometry": {"type": "LineString", "coordinates": [[-74.01044651804158, 40.66791209839802], [-74.01022815440102, 40.6678510676328]]}}, {"type": "Feature", "properties": {"segment_id": 1699730, "physicalid": "176246", "street_name": "COLUMBIA STREET ESPL", "borough": "brooklyn", "direction": "NV", "total_row_ft": 64.6, "roadbed_ft": 41.9, "median_ft": 0.0, "left_sw_ft": 11.9, "right_sw_ft": 10.8}, "geometry": {"type": "LineString", "coordinates": [[-74.01042210723418, 40.66796375256327], [-74.01020367049301, 40.66790270136205]]}}, {"type": "Feature", "properties": {"segment_id": 1699731, "physicalid": "176246", "street_name": "COLUMBIA STREET ESPL", "borough": "brooklyn", "direction": "NV", "total_row_ft": 64.6, "roadbed_ft": 41.9, "median_ft": 0.0, "left_sw_ft": 12.0, "right_sw_ft": 10.6}, "geometry": {"type": "LineString", "coordinates": [[-74.01039769633513, 40.668015406708015], [-74.0101791865471, 40.66795433508577]]}}, {"type": "Feature", "properties": {"segment_id": 1699732, "physicalid": "176246", "street_name": "COLUMBIA STREET ESPL", "borough": "brooklyn", "direction": "NV", "total_row_ft": 64.6, "roadbed_ft": 42.0, "median_ft": 0.0, "left_sw_ft": 12.0, "right_sw_ft": 10.5}, "geometry": {"type": "LineString", "coordinates": [[-74.01037328452632, 40.66806706060357], [-74.0101547025633, 40.668005968803975]]}}, {"type": "Feature", "properties": {"segment_id": 1699733, "physicalid": "176246", "street_name": "COLUMBIA STREET ESPL", "borough": "brooklyn", "direction": "NV", "total_row_ft": 64.6, "roadbed_ft": 42.1, "median_ft": 0.0, "left_sw_ft": 12.1, "right_sw_ft": 10.4}, "geometry": {"type": "LineString", "coordinates": [[-74.01034887307436, 40.66811871460388], [-74.01013021854158, 40.66805760251667]]}}, {"type": "Feature", "properties": {"segment_id": 1699734, "physicalid": "176246", "street_name": "COLUMBIA STREET ESPL", "borough": "brooklyn", "direction": "NV", "total_row_ft": 64.6, "roadbed_ft": 42.1, "median_ft": 0.0, "left_sw_ft": 12.1, "right_sw_ft": 10.3}, "geometry": {"type": "LineString", "coordinates": [[-74.01032423377274, 40.66817030492753], [-74.01010573448195, 40.6681092362238]]}}, {"type": "Feature", "properties": {"segment_id": 1699735, "physicalid": "176246", "street_name": "COLUMBIA STREET ESPL", "borough": "brooklyn", "direction": "NV", "total_row_ft": 64.9, "roadbed_ft": 26.5, "median_ft": 0.0, "left_sw_ft": 27.2, "right_sw_ft": 11.1}, "geometry": {"type": "LineString", "coordinates": [[-74.01030710943036, 40.66820545048308], [-74.01007971453667, 40.668164108820996]]}}, {"type": "Feature", "properties": {"segment_id": 1699736, "physicalid": "176246", "street_name": "COLUMBIA STREET ESPL", "borough": "brooklyn", "direction": "NV", "total_row_ft": 64.7, "roadbed_ft": 26.6, "median_ft": 0.0, "left_sw_ft": 24.7, "right_sw_ft": 13.4}, "geometry": {"type": "LineString", "coordinates": [[-74.01028184793518, 40.668257296447244], [-74.01005507604353, 40.66821606803071]]}}, {"type": "Feature", "properties": {"segment_id": 1699737, "physicalid": "176246", "street_name": "COLUMBIA STREET ESPL", "borough": "brooklyn", "direction": "NV", "total_row_ft": 64.2, "roadbed_ft": 28.8, "median_ft": 0.0, "left_sw_ft": 19.7, "right_sw_ft": 15.6}, "geometry": {"type": "LineString", "coordinates": [[-74.01025556966829, 40.66830895755877], [-74.01003043751199, 40.668268027234845]]}}, {"type": "Feature", "properties": {"segment_id": 1699738, "physicalid": "176246", "street_name": "COLUMBIA STREET ESPL", "borough": "brooklyn", "direction": "NV", "total_row_ft": 63.1, "roadbed_ft": 29.3, "median_ft": 0.0, "left_sw_ft": 16.0, "right_sw_ft": 17.9}, "geometry": {"type": "LineString", "coordinates": [[-74.01022702868167, 40.66836020729815], [-74.01000579894206, 40.6683199864334]]}}, {"type": "Feature", "properties": {"segment_id": 1699739, "physicalid": "176246", "street_name": "COLUMBIA STREET ESPL", "borough": "brooklyn", "direction": "NV", "total_row_ft": 61.4, "roadbed_ft": 29.1, "median_ft": 0.0, "left_sw_ft": 13.6, "right_sw_ft": 18.7}, "geometry": {"type": "LineString", "coordinates": [[-74.01018627180764, 40.668433390867975], [-74.00998602960439, 40.66836167705922]]}}]}