{"type": "FeatureCollection", "features": [{"type": "Feature", "properties": {"segment_id": 757370, "physicalid": "53209", "street_name": "WOLCOTT ST", "borough": "brooklyn", "direction": "TW", "total_row_ft": 59.3, "roadbed_ft": 29.3, "median_ft": 0.0, "left_sw_ft": 15.0, "right_sw_ft": 15.0}, "geometry": {"type": "LineString", "coordinates": [[-74.0170215052173, 40.679898058278866], [-74.01673276321576, 40.68014334541023]]}}, {"type": "Feature", "properties": {"segment_id": 757371, "physicalid": "53209", "street_name": "WOLCOTT ST", "borough": "brooklyn", "direction": "TW", "total_row_ft": 59.1, "roadbed_ft": 29.1, "median_ft": 0.0, "left_sw_ft": 15.0, "right_sw_ft": 15.0}, "geometry": {"type": "LineString", "coordinates": [[-74.0170752043359, 40.67993469479835], [-74.01678646237325, 40.680179982063365]]}}, {"type": "Feature", "properties": {"segment_id": 757372, "physicalid": "53209", "street_name": "WOLCOTT ST", "borough": "brooklyn", "direction": "TW", "total_row_ft": 59.0, "roadbed_ft": 29.0, "median_ft": 0.0, "left_sw_ft": 15.0, "right_sw_ft": 15.0}, "geometry": {"type": "LineString", "coordinates": [[-74.01712890351352, 40.6799713312926], [-74.0168401615897, 40.680216618691254]]}}, {"type": "Feature", "properties": {"segment_id": 757373, "physicalid": "53209", "street_name": "WOLCOTT ST", "borough": "brooklyn", "direction": "TW", "total_row_ft": 58.8, "roadbed_ft": 28.8, "median_ft": 0.0, "left_sw_ft": 15.0, "right_sw_ft": 15.0}, "geometry": {"type": "LineString", "coordinates": [[-74.0171826027501, 40.680007967761625], [-74.01689386086522, 40.68025325529396]]}}, {"type": "Feature", "properties": {"segment_id": 757374, "physicalid": "53209", "street_name": "WOLCOTT ST", "borough": "brooklyn", "direction": "TW", "total_row_ft": 59.6, "roadbed_ft": 29.6, "median_ft": 0.0, "left_sw_ft": 15.0, "right_sw_ft": 15.0}, "geometry": {"type": "LineString", "coordinates": [[-74.0172363020457, 40.68004460420542], [-74.01694756019971, 40.680289891871425]]}}, {"type": "Feature", "properties": {"segment_id": 757375, "physicalid": "53209", "street_name": "WOLCOTT ST", "borough": "brooklyn", "direction": "TW", "total_row_ft": 60.9, "roadbed_ft": 30.9, "median_ft": 0.0, "left_sw_ft": 15.0, "right_sw_ft": 15.0}, "geometry": {"type": "LineString", "coordinates": [[-74.01729000140034, 40.68008124062401], [-74.01700125959319, 40.68032652842361]]}}, {"type": "Feature", "properties": {"segment_id": 757376, "physicalid": "53209", "street_name": "WOLCOTT ST", "borough": "brooklyn", "direction": "TW", "total_row_ft": 61.4, "roadbed_ft": 31.4, "median_ft": 0.0, "left_sw_ft": 15.0, "right_sw_ft": 15.0}, "geometry": {"type": "LineString", "coordinates": [[-74.01734370081395, 40.68011787701734], [-74.01705495904568, 40.680363164950634]]}}, {"type": "Feature", "properties": {"segment_id": 757377, "physicalid": "53209", "street_name": "WOLCOTT ST", "borough": "brooklyn", "direction": "TW", "total_row_ft": 61.8, "roadbed_ft": 31.8, "median_ft": 0.0, "left_sw_ft": 15.0, "right_sw_ft": 15.0}, "geometry": {"type": "LineString", "coordinates": [[-74.01739740028655, 40.68015451338546], [-74.0171086585572, 40.68039980145244]]}}, {"type": "Feature", "properties": {"segment_id": 757378, "physicalid": "53209", "street_name": "WOLCOTT ST", "borough": "brooklyn", "direction": "TW", "total_row_ft": 62.2, "roadbed_ft": 32.2, "median_ft": 0.0, "left_sw_ft": 15.0, "right_sw_ft": 15.0}, "geometry": {"type": "LineString", "coordinates": [[-74.01745109981816, 40.68019114972837], [-74.0171623581277, 40.68043643792898]]}}, {"type": "Feature", "properties": {"segment_id": 757379, "physicalid": "53209", "street_name": "WOLCOTT ST", "borough": "brooklyn", "direction": "TW", "total_row_ft": 62.6, "roadbed_ft": 32.6, "median_ft": 0.0, "left_sw_ft": 15.0, "right_sw_ft": 15.0}, "geometry": {"type": "LineString", "coordinates": [[-74.0175047994088, 40.68022778604605], [-74.0172160577572, 40.6804730743803]]}}, {"type": "Feature", "properties": {"segment_id": 757380, "physicalid": "53209", "street_name": "WOLCOTT ST", "borough": "brooklyn", "direction": "TW", "total_row_ft": 63.0, "roadbed_ft": 33.0, "median_ft": 0.0, "left_sw_ft": 15.0, "right_sw_ft": 15.0}, "geometry": {"type": "LineString", "coordinates": [[-74.0175584990584, 40.680264422338475], [-74.01726975744572, 40.68050971080641]]}}, {"type": "Feature", "properties": {"segment_id": 757381, "physicalid": "53209", "street_name": "WOLCOTT ST", "borough": "brooklyn", "direction": "TW", "total_row_ft": 63.5, "roadbed_ft": 33.5, "median_ft": 0.0, "left_sw_ft": 15.0, "right_sw_ft": 15.0}, "geometry": {"type": "LineString", "coordinates": [[-74.01761219876701, 40.6803010586057], [-74.01732345719324, 40.68054634720727]]}}, {"type": "Feature", "properties": {"segment_id": 757382, "physicalid": "53209", "street_name": "WOLCOTT ST", "borough": "brooklyn", "direction": "TW", "total_row_ft": 63.9, "roadbed_ft": 33.9, "median_ft": 0.0, "left_sw_ft": 15.0, "right_sw_ft": 15.0}, "geometry": {"type": "LineString", "coordinates": [[-74.01766589853466, 40.680337694847715], [-74.01737715699973, 40.68058298358292]]}}, {"type": "Feature", "properties": {"segment_id": 757383, "physicalid": "53209", "street_name": "WOLCOTT ST", "borough": "brooklyn", "direction": "TW", "total_row_ft": 30.0, "roadbed_ft": 0.0, "median_ft": 0.0, "left_sw_ft": 15.0, "right_sw_ft": 15.0}, "geometry": {"type": "LineString", "coordinates": [[-74.01771959836125, 40.68037433106446], [-74.01743085686526, 40.68061961993337]]}}, {"type": "Feature", "properties": {"segment_id": 757384, "physicalid": "53209", "street_name": "WOLCOTT ST", "borough": "brooklyn", "direction": "TW", "total_row_ft": 30.0, "roadbed_ft": 0.0, "median_ft": 0.0, "left_sw_ft": 15.0, "right_sw_ft": 15.0}, "geometry": {"type": "LineString", "coordinates": [[-74.01777329824688, 40.68041096725601], [-74.01748455678978, 40.68065625625857]]}}, {"type": "Feature", "properties": {"segment_id": 783664, "physicalid": "55026", "street_name": "VERONA ST", "borough": "brooklyn", "direction": "TW", "total_row_ft": 115.1, "roadbed_ft": 58.4, "median_ft": 0.0, "left_sw_ft": 41.7, "right_sw_ft": 15.0}, "geometry": {"type": "LineString", "coordinates": [[-74.01063839534609, 40.68033814063024], [-74.01034398822527, 40.68057949457574]]}}, {"type": "Feature", "properties": {"segment_id": 783665, "physicalid": "55026", "street_name": "VERONA ST", "borough": "brooklyn", "direction": "TW", "total_row_ft": 30.0, "roadbed_ft": 0.0, "median_ft": 0.0, "left_sw_ft": 15.0, "right_sw_ft": 15.0}, "geometry": {"type": "LineString", "coordinates": [[-74.01069123375437, 40.68037549571272], [-74.01039682665984, 40.680616849792294]]}}, {"type": "Feature", "properties": {"segment_id": 783666, "physicalid": "55026", "street_name": "VERONA ST", "borough": "brooklyn", "direction": "TW", "total_row_ft": 30.0, "roadbed_ft": 0.0, "median_ft": 0.0, "left_sw_ft": 15.0, "right_sw_ft": 15.0}, "geometry": {"type": "LineString", "coordinates": [[-74.01074407222181, 40.68041285077074], [-74.01044966515363, 40.68065420498442]]}}, {"type": "Feature", "properties": {"segment_id": 783667, "physicalid": "55026", "street_name": "VERONA ST", "borough": "brooklyn", "direction": "TW", "total_row_ft": 30.0, "roadbed_ft": 0.0, "median_ft": 0.0, "left_sw_ft": 15.0, "right_sw_ft": 15.0}, "geometry": {"type": "LineString", "coordinates": [[-74.01079691074845, 40.68045020580432], [-74.01050250370662, 40.68069156015212]]}}, {"type": "Feature", "properties": {"segment_id": 783668, "physicalid": "55026", "street_name": "VERONA ST", "borough": "brooklyn", "direction": "TW", "total_row_ft": 30.0, "roadbed_ft": 0.0, "median_ft": 0.0, "left_sw_ft": 15.0, "right_sw_ft": 15.0}, "geometry": {"type": "LineString", "coordinates": [[-74.01084974933431, 40.68048756081348], [-74.0105553423188, 40.68072891529537]]}}, {"type": "Feature", "properties": {"segment_id": 783669, "physicalid": "55026", "street_name": "VERONA ST", "borough": "brooklyn", "direction": "TW", "total_row_ft": 30.0, "roadbed_ft": 0.0, "median_ft": 0.0, "left_sw_ft": 15.0, "right_sw_ft": 15.0}, "geometry": {"type": "LineString", "coordinates": [[-74.01090258797937, 40.68052491579822], [-74.01060818099013, 40.68076627041415]]}}, {"type": "Feature", "properties": {"segment_id": 783670, "physicalid": "55026", "street_name": "VERONA ST", "borough": "brooklyn", "direction": "TW", "total_row_ft": 30.0, "roadbed_ft": 0.0, "median_ft": 0.0, "left_sw_ft": 15.0, "right_sw_ft": 15.0}, "geometry": {"type": "LineString", "coordinates": [[-74.01095542668361, 40.68056227075852], [-74.01066101972069, 40.68080362550855]]}}, {"type": "Feature", "properties": {"segment_id": 783671, "physicalid": "55026", "street_name": "VERONA ST", "borough": "brooklyn", "direction": "TW", "total_row_ft": 30.0, "roadbed_ft": 0.0, "median_ft": 0.0, "left_sw_ft": 15.0, "right_sw_ft": 15.0}, "geometry": {"type": "LineString", "coordinates": [[-74.01100826544703, 40.68059962569434], [-74.01071385851046, 40.68084098057849]]}}, {"type": "Feature", "properties": {"segment_id": 783672, "physicalid": "55026", "street_name": "VERONA ST", "borough": "brooklyn", "direction": "TW", "total_row_ft": 30.0, "roadbed_ft": 0.0, "median_ft": 0.0, "left_sw_ft": 15.0, "right_sw_ft": 15.0}, "geometry": {"type": "LineString", "coordinates": [[-74.01106110426967, 40.68063698060578], [-74.0107666973594, 40.68087833562397]]}}, {"type": "Feature", "properties": {"segment_id": 783673, "physicalid": "55026", "street_name": "VERONA ST", "borough": "brooklyn", "direction": "TW", "total_row_ft": 30.0, "roadbed_ft": 0.0, "median_ft": 0.0, "left_sw_ft": 15.0, "right_sw_ft": 15.0}, "geometry": {"type": "LineString", "coordinates": [[-74.0111139431515, 40.68067433549276], [-74.01081953626756, 40.680915690645065]]}}, {"type": "Feature", "properties": {"segment_id": 783677, "physicalid": "55027", "street_name": "VERONA ST", "borough": "brooklyn", "direction": "TF", "total_row_ft": 58.3, "roadbed_ft": 29.5, "median_ft": 0.0, "left_sw_ft": 16.0, "right_sw_ft": 12.8}, "geometry": {"type": "LineString", "coordinates": [[-74.01007226095614, 40.68007223600639], [-74.00993218260486, 40.68019144504723]]}}, {"type": "Feature", "properties": {"segment_id": 783678, "physicalid": "55027", "street_name": "VERONA ST", "borough": "brooklyn", "direction": "TF", "total_row_ft": 58.1, "roadbed_ft": 29.9, "median_ft": 0.0, "left_sw_ft": 15.4, "right_sw_ft": 12.8}, "geometry": {"type": "LineString", "coordinates": [[-74.01012597097042, 40.68010886340425], [-74.00998630532109, 40.68022772131046]]}}, {"type": "Feature", "properties": {"segment_id": 783679, "physicalid": "55027", "street_name": "VERONA ST", "borough": "brooklyn", "direction": "TF", "total_row_ft": 57.9, "roadbed_ft": 30.3, "median_ft": 0.0, "left_sw_ft": 14.9, "right_sw_ft": 12.8}, "geometry": {"type": "LineString", "coordinates": [[-74.01017968104371, 40.68014549077687], [-74.01004042809622, 40.68026399754808]]}}, {"type": "Feature", "properties": {"segment_id": 783680, "physicalid": "55027", "street_name": "VERONA ST", "borough": "brooklyn", "direction": "TF", "total_row_ft": 57.8, "roadbed_ft": 30.7, "median_ft": 0.0, "left_sw_ft": 14.4, "right_sw_ft": 12.7}, "geometry": {"type": "LineString", "coordinates": [[-74.010233391176, 40.68018211812423], [-74.01009455093025, 40.680300273760125]]}}, {"type": "Feature", "properties": {"segment_id": 783681, "physicalid": "55027", "street_name": "VERONA ST", "borough": "brooklyn", "direction": "TF", "total_row_ft": 57.8, "roadbed_ft": 30.7, "median_ft": 0.0, "left_sw_ft": 14.4, "right_sw_ft": 12.7}, "geometry": {"type": "LineString", "coordinates": [[-74.01028755061034, 40.68021836313094], [-74.01014867365645, 40.68033655008837]]}}, {"type": "Feature", "properties": {"segment_id": 783682, "physicalid": "55027", "street_name": "VERONA ST", "borough": "brooklyn", "direction": "TF", "total_row_ft": 58.1, "roadbed_ft": 30.8, "median_ft": 0.0, "left_sw_ft": 14.5, "right_sw_ft": 12.7}, "geometry": {"type": "LineString", "coordinates": [[-74.01034181061944, 40.68025452257081], [-74.01020224783998, 40.68037329326058]]}}, {"type": "Feature", "properties": {"segment_id": 783683, "physicalid": "55027", "street_name": "VERONA ST", "borough": "brooklyn", "direction": "TF", "total_row_ft": 58.4, "roadbed_ft": 30.8, "median_ft": 0.0, "left_sw_ft": 14.8, "right_sw_ft": 12.8}, "geometry": {"type": "LineString", "coordinates": [[-74.01039607071156, 40.68029068196431], [-74.01025561071599, 40.680410216284535]]}}, {"type": "Feature", "properties": {"segment_id": 783684, "physicalid": "55027", "street_name": "VERONA ST", "borough": "brooklyn", "direction": "TF", "total_row_ft": 58.8, "roadbed_ft": 31.5, "median_ft": 0.0, "left_sw_ft": 15.1, "right_sw_ft": 12.3}, "geometry": {"type": "LineString", "coordinates": [[-74.01045033097327, 40.68032684123784], [-74.01030897365106, 40.68044713928358]]}}, {"type": "Feature", "properties": {"segment_id": 1297973, "physicalid": "88677", "street_name": "FERRIS ST", "borough": "brooklyn", "direction": "TW", "total_row_ft": 104.5, "roadbed_ft": 76.1, "median_ft": 0.0, "left_sw_ft": 15.0, "right_sw_ft": 13.5}, "geometry": {"type": "LineString", "coordinates": [[-74.0142781585825, 40.680112061961324], [-74.01451850256396, 40.68027612801315]]}}, {"type": "Feature", "properties": {"segment_id": 1297974, "physicalid": "88677", "street_name": "FERRIS ST", "borough": "brooklyn", "direction": "TW", "total_row_ft": 56.5, "roadbed_ft": 29.3, "median_ft": 0.0, "left_sw_ft": 13.4, "right_sw_ft": 13.8}, "geometry": {"type": "LineString", "coordinates": [[-74.01441436433842, 40.68013130834948], [-74.01456597774057, 40.68023480403022]]}}, {"type": "Feature", "properties": {"segment_id": 1297975, "physicalid": "88677", "street_name": "FERRIS ST", "borough": "brooklyn", "direction": "TW", "total_row_ft": 56.4, "roadbed_ft": 29.0, "median_ft": 0.0, "left_sw_ft": 13.5, "right_sw_ft": 13.9}, "geometry": {"type": "LineString", "coordinates": [[-74.01446193563504, 40.68009005004953], [-74.01461345285837, 40.68019348002751]]}}, {"type": "Feature", "properties": {"segment_id": 1297976, "physicalid": "88677", "street_name": "FERRIS ST", "borough": "brooklyn", "direction": "TW", "total_row_ft": 56.4, "roadbed_ft": 29.4, "median_ft": 0.0, "left_sw_ft": 13.7, "right_sw_ft": 13.4}, "geometry": {"type": "LineString", "coordinates": [[-74.01450950687281, 40.68004879172972], [-74.0146609279173, 40.68015215600501]]}}, {"type": "Feature", "properties": {"segment_id": 1297977, "physicalid": "88677", "street_name": "FERRIS ST", "borough": "brooklyn", "direction": "TW", "total_row_ft": 56.2, "roadbed_ft": 29.7, "median_ft": 0.0, "left_sw_ft": 13.8, "right_sw_ft": 12.7}, "geometry": {"type": "LineString", "coordinates": [[-74.01455707805171, 40.68000753339004], [-74.0147079191134, 40.68011050170541]]}}, {"type": "Feature", "properties": {"segment_id": 1297978, "physicalid": "88677", "street_name": "FERRIS ST", "borough": "brooklyn", "direction": "TW", "total_row_ft": 55.8, "roadbed_ft": 30.0, "median_ft": 0.0, "left_sw_ft": 13.9, "right_sw_ft": 11.9}, "geometry": {"type": "LineString", "coordinates": [[-74.01460464917174, 40.67996627503048], [-74.01475449150276, 40.680068561538164]]}}, {"type": "Feature", "properties": {"segment_id": 1297985, "physicalid": "88678", "street_name": "FERRIS ST", "borough": "brooklyn", "direction": "TW", "total_row_ft": 150.0, "roadbed_ft": 120.0, "median_ft": 0.0, "left_sw_ft": 15.0, "right_sw_ft": 15.0}, "geometry": {"type": "LineString", "coordinates": [[-74.01369135124644, 40.680618605731915], [-74.01401599185647, 40.68083633255391]]}}, {"type": "Feature", "properties": {"segment_id": 1297986, "physicalid": "88678", "street_name": "FERRIS ST", "borough": "brooklyn", "direction": "TW", "total_row_ft": 84.7, "roadbed_ft": 24.2, "median_ft": 0.0, "left_sw_ft": 15.0, "right_sw_ft": 45.5}, "geometry": {"type": "LineString", "coordinates": [[-74.01373901725886, 40.680577414688386], [-74.014063657824, 40.680795141376954]]}}, {"type": "Feature", "properties": {"segment_id": 1297987, "physicalid": "88678", "street_name": "FERRIS ST", "borough": "brooklyn", "direction": "TW", "total_row_ft": 52.8, "roadbed_ft": 23.2, "median_ft": 0.0, "left_sw_ft": 15.0, "right_sw_ft": 14.6}, "geometry": {"type": "LineString", "coordinates": [[-74.01378668321242, 40.68053622362485], [-74.01402825379898, 40.680698237916964]]}}, {"type": "Feature", "properties": {"segment_id": 1297988, "physicalid": "88678", "street_name": "FERRIS ST", "borough": "brooklyn", "direction": "TW", "total_row_ft": 51.7, "roadbed_ft": 22.2, "median_ft": 0.0, "left_sw_ft": 15.0, "right_sw_ft": 14.6}, "geometry": {"type": "LineString", "coordinates": [[-74.01383434910709, 40.68049503254138], [-74.01407620161197, 40.68065723583013]]}}, {"type": "Feature", "properties": {"segment_id": 1297989, "physicalid": "88678", "street_name": "FERRIS ST", "borough": "brooklyn", "direction": "TW", "total_row_ft": 50.9, "roadbed_ft": 21.4, "median_ft": 0.0, "left_sw_ft": 15.0, "right_sw_ft": 14.5}, "geometry": {"type": "LineString", "coordinates": [[-74.01388201494287, 40.680453841437945], [-74.0141241359221, 40.680616224706725]]}}, {"type": "Feature", "properties": {"segment_id": 1297990, "physicalid": "88678", "street_name": "FERRIS ST", "borough": "brooklyn", "direction": "TW", "total_row_ft": 51.0, "roadbed_ft": 21.7, "median_ft": 0.0, "left_sw_ft": 15.0, "right_sw_ft": 14.4}, "geometry": {"type": "LineString", "coordinates": [[-74.01392968071977, 40.680412650314544], [-74.01417190734504, 40.68057510435965]]}}, {"type": "Feature", "properties": {"segment_id": 1297991, "physicalid": "88678", "street_name": "FERRIS ST", "borough": "brooklyn", "direction": "TW", "total_row_ft": 51.1, "roadbed_ft": 21.9, "median_ft": 0.0, "left_sw_ft": 15.0, "right_sw_ft": 14.2}, "geometry": {"type": "LineString", "coordinates": [[-74.01397734643774, 40.680371459171255], [-74.0142196787091, 40.68053398399248]]}}, {"type": "Feature", "properties": {"segment_id": 1297992, "physicalid": "88678", "street_name": "FERRIS ST", "borough": "brooklyn", "direction": "TW", "total_row_ft": 51.3, "roadbed_ft": 22.2, "median_ft": 0.0, "left_sw_ft": 15.0, "right_sw_ft": 14.1}, "geometry": {"type": "LineString", "coordinates": [[-74.01402501209688, 40.68033026800796], [-74.01426745001422, 40.680492863605316]]}}, {"type": "Feature", "properties": {"segment_id": 1297993, "physicalid": "88678", "street_name": "FERRIS ST", "borough": "brooklyn", "direction": "TW", "total_row_ft": 51.4, "roadbed_ft": 22.4, "median_ft": 0.0, "left_sw_ft": 15.0, "right_sw_ft": 14.0}, "geometry": {"type": "LineString", "coordinates": [[-74.01407267769713, 40.680289076824735], [-74.01431522509446, 40.68045174576947]]}}, {"type": "Feature", "properties": {"segment_id": 1297994, "physicalid": "88678", "street_name": "FERRIS ST", "borough": "brooklyn", "direction": "TW", "total_row_ft": 51.5, "roadbed_ft": 22.9, "median_ft": 0.0, "left_sw_ft": 15.0, "right_sw_ft": 13.7}, "geometry": {"type": "LineString", "coordinates": [[-74.01412034323852, 40.68024788562151], [-74.01436300293564, 40.68041062980477]]}}, {"type": "Feature", "properties": {"segment_id": 1297995, "physicalid": "88678", "street_name": "FERRIS ST", "borough": "brooklyn", "direction": "TW", "total_row_ft": 51.6, "roadbed_ft": 23.5, "median_ft": 0.0, "left_sw_ft": 15.0, "right_sw_ft": 13.1}, "geometry": {"type": "LineString", "coordinates": [[-74.014168008721, 40.68020669439836], [-74.01441078071792, 40.68036951382001]]}}, {"type": "Feature", "properties": {"segment_id": 1329232, "physicalid": "90694", "street_name": "IMLAY ST", "borough": "brooklyn", "direction": "TF", "total_row_ft": 50.6, "roadbed_ft": 31.6, "median_ft": 3.1, "left_sw_ft": 8.8, "right_sw_ft": 7.0}, "geometry": {"type": "LineString", "coordinates": [[-74.00994196215139, 40.68076787485897], [-74.01006941377341, 40.680854626937546]]}}, {"type": "Feature", "properties": {"segment_id": 1329233, "physicalid": "90694", "street_name": "IMLAY ST", "borough": "brooklyn", "direction": "TF", "total_row_ft": 50.6, "roadbed_ft": 31.5, "median_ft": 3.1, "left_sw_ft": 8.9, "right_sw_ft": 7.0}, "geometry": {"type": "LineString", "coordinates": [[-74.00998999019534, 40.680726928180604], [-74.01011747399512, 40.68081370211945]]}}, {"type": "Feature", "properties": {"segment_id": 1329234, "physicalid": "90694", "street_name": "IMLAY ST", "borough": "brooklyn", "direction": "TF", "total_row_ft": 50.6, "roadbed_ft": 31.5, "median_ft": 3.1, "left_sw_ft": 8.9, "right_sw_ft": 7.1}, "geometry": {"type": "LineString", "coordinates": [[-74.01003801818031, 40.68068598148198], [-74.01016553415785, 40.68077277728107]]}}, {"type": "Feature", "properties": {"segment_id": 1329235, "physicalid": "90694", "street_name": "IMLAY ST", "borough": "brooklyn", "direction": "TF", "total_row_ft": 50.6, "roadbed_ft": 31.5, "median_ft": 3.1, "left_sw_ft": 8.9, "right_sw_ft": 7.1}, "geometry": {"type": "LineString", "coordinates": [[-74.01008604610628, 40.68064503476314], [-74.01021359426161, 40.680731852422404]]}}, {"type": "Feature", "properties": {"segment_id": 1329236, "physicalid": "90694", "street_name": "IMLAY ST", "borough": "brooklyn", "direction": "TF", "total_row_ft": 50.6, "roadbed_ft": 31.4, "median_ft": 3.1, "left_sw_ft": 8.9, "right_sw_ft": 7.2}, "geometry": {"type": "LineString", "coordinates": [[-74.01013407397332, 40.680604088024026], [-74.01026165430636, 40.68069092754347]]}}, {"type": "Feature", "properties": {"segment_id": 1329237, "physicalid": "90694", "street_name": "IMLAY ST", "borough": "brooklyn", "direction": "TF", "total_row_ft": 50.8, "roadbed_ft": 31.4, "median_ft": 3.1, "left_sw_ft": 8.9, "right_sw_ft": 7.5}, "geometry": {"type": "LineString", "coordinates": [[-74.0101814208714, 40.68056267779204], [-74.01030971429213, 40.68065000264426]]}}, {"type": "Feature", "properties": {"segment_id": 1329238, "physicalid": "90694", "street_name": "IMLAY ST", "borough": "brooklyn", "direction": "TF", "total_row_ft": 51.1, "roadbed_ft": 31.3, "median_ft": 3.1, "left_sw_ft": 8.9, "right_sw_ft": 7.8}, "geometry": {"type": "LineString", "coordinates": [[-74.01022868402445, 40.680521210577986], [-74.01035777421892, 40.68060907772477]]}}, {"type": "Feature", "properties": {"segment_id": 1329239, "physicalid": "90694", "street_name": "IMLAY ST", "borough": "brooklyn", "direction": "TF", "total_row_ft": 51.4, "roadbed_ft": 31.2, "median_ft": 3.1, "left_sw_ft": 8.9, "right_sw_ft": 8.2}, "geometry": {"type": "LineString", "coordinates": [[-74.01027594711874, 40.68047974334431], [-74.01040583408671, 40.68056815278498]]}}, {"type": "Feature", "properties": {"segment_id": 1329240, "physicalid": "90694", "street_name": "IMLAY ST", "borough": "brooklyn", "direction": "TF", "total_row_ft": 89.5, "roadbed_ft": 31.2, "median_ft": 1.3, "left_sw_ft": 13.3, "right_sw_ft": 43.8}, "geometry": {"type": "LineString", "coordinates": [[-74.01022839768812, 40.680373740404995], [-74.01046557642168, 40.6805351796825]]}}, {"type": "Feature", "properties": {"segment_id": 1329241, "physicalid": "90695", "street_name": "IMLAY ST", "borough": "brooklyn", "direction": "TF", "total_row_ft": 84.0, "roadbed_ft": 74.7, "median_ft": 0.0, "left_sw_ft": 9.0, "right_sw_ft": 0.3}, "geometry": {"type": "LineString", "coordinates": [[-74.01032606223401, 40.68029048692629], [-74.0105620858128, 40.6804506459207]]}}, {"type": "Feature", "properties": {"segment_id": 1329242, "physicalid": "90695", "street_name": "IMLAY ST", "borough": "brooklyn", "direction": "TF", "total_row_ft": 48.6, "roadbed_ft": 31.2, "median_ft": 0.0, "left_sw_ft": 8.2, "right_sw_ft": 9.2}, "geometry": {"type": "LineString", "coordinates": [[-74.01046712044594, 40.68031266825165], [-74.01059805667379, 40.68040151774834]]}}, {"type": "Feature", "properties": {"segment_id": 1329243, "physicalid": "90695", "street_name": "IMLAY ST", "borough": "brooklyn", "direction": "TF", "total_row_ft": 48.4, "roadbed_ft": 31.2, "median_ft": 0.0, "left_sw_ft": 8.0, "right_sw_ft": 9.2}, "geometry": {"type": "LineString", "coordinates": [[-74.01051522297927, 40.68027177232493], [-74.01064560062993, 40.680360242745216]]}}, {"type": "Feature", "properties": {"segment_id": 1329244, "physicalid": "90695", "street_name": "IMLAY ST", "borough": "brooklyn", "direction": "TF", "total_row_ft": 48.2, "roadbed_ft": 31.2, "median_ft": 0.0, "left_sw_ft": 7.9, "right_sw_ft": 9.1}, "geometry": {"type": "LineString", "coordinates": [[-74.01056332545356, 40.680230876377934], [-74.01069314452722, 40.680318967722265]]}}, {"type": "Feature", "properties": {"segment_id": 1329245, "physicalid": "90695", "street_name": "IMLAY ST", "borough": "brooklyn", "direction": "TF", "total_row_ft": 48.0, "roadbed_ft": 31.3, "median_ft": 0.0, "left_sw_ft": 7.7, "right_sw_ft": 9.1}, "geometry": {"type": "LineString", "coordinates": [[-74.01061142786888, 40.6801899804106], [-74.01074073503565, 40.68027772434823]]}}, {"type": "Feature", "properties": {"segment_id": 1329246, "physicalid": "90695", "street_name": "IMLAY ST", "borough": "brooklyn", "direction": "TF", "total_row_ft": 48.0, "roadbed_ft": 31.3, "median_ft": 0.0, "left_sw_ft": 7.7, "right_sw_ft": 9.0}, "geometry": {"type": "LineString", "coordinates": [[-74.0106595302252, 40.68014908442299], [-74.0107887163338, 40.68023674617162]]}}, {"type": "Feature", "properties": {"segment_id": 1329247, "physicalid": "90695", "street_name": "IMLAY ST", "borough": "brooklyn", "direction": "TF", "total_row_ft": 48.0, "roadbed_ft": 31.3, "median_ft": 0.0, "left_sw_ft": 7.7, "right_sw_ft": 9.0}, "geometry": {"type": "LineString", "coordinates": [[-74.01070763252253, 40.68010818841504], [-74.01083669757298, 40.68019576797484]]}}, {"type": "Feature", "properties": {"segment_id": 1329248, "physicalid": "90695", "street_name": "IMLAY ST", "borough": "brooklyn", "direction": "TF", "total_row_ft": 47.9, "roadbed_ft": 31.3, "median_ft": 0.0, "left_sw_ft": 7.7, "right_sw_ft": 8.9}, "geometry": {"type": "LineString", "coordinates": [[-74.01075573462343, 40.680067292293565], [-74.0108846787532, 40.680154789757815]]}}, {"type": "Feature", "properties": {"segment_id": 1329249, "physicalid": "90695", "street_name": "IMLAY ST", "borough": "brooklyn", "direction": "TF", "total_row_ft": 47.9, "roadbed_ft": 31.3, "median_ft": 0.0, "left_sw_ft": 7.7, "right_sw_ft": 8.9}, "geometry": {"type": "LineString", "coordinates": [[-74.01080383665439, 40.680026396144314], [-74.01093265987444, 40.6801138115206]]}}, {"type": "Feature", "properties": {"segment_id": 1329250, "physicalid": "90695", "street_name": "IMLAY ST", "borough": "brooklyn", "direction": "TF", "total_row_ft": 47.8, "roadbed_ft": 31.3, "median_ft": 0.0, "left_sw_ft": 7.7, "right_sw_ft": 8.8}, "geometry": {"type": "LineString", "coordinates": [[-74.01085193862636, 40.679985499974755], [-74.01098064093671, 40.68007283326317]]}}, {"type": "Feature", "properties": {"segment_id": 1389378, "physicalid": "94355", "street_name": "COMMERCIAL WHARF", "borough": "brooklyn", "direction": "TW", "total_row_ft": 59.4, "roadbed_ft": 29.4, "median_ft": 0.0, "left_sw_ft": 15.0, "right_sw_ft": 15.0}, "geometry": {"type": "LineString", "coordinates": [[-74.00987840744875, 40.68155909395045], [-74.01020111317455, 40.68177848536476]]}}, {"type": "Feature", "properties": {"segment_id": 1389379, "physicalid": "94355", "street_name": "COMMERCIAL WHARF", "borough": "brooklyn", "direction": "TW", "total_row_ft": 59.4, "roadbed_ft": 29.4, "median_ft": 0.0, "left_sw_ft": 15.0, "right_sw_ft": 15.0}, "geometry": {"type": "LineString", "coordinates": [[-74.00992643856448, 40.68151814899182], [-74.01024914425017, 40.681737540272515]]}}, {"type": "Feature", "properties": {"segment_id": 1389380, "physicalid": "94355", "street_name": "COMMERCIAL WHARF", "borough": "brooklyn", "direction": "TW", "total_row_ft": 59.4, "roadbed_ft": 29.4, "median_ft": 0.0, "left_sw_ft": 15.0, "right_sw_ft": 15.0}, "geometry": {"type": "LineString", "coordinates": [[-74.00997446962123, 40.681477204012936], [-74.0102971752668, 40.68169659516002]]}}, {"type": "Feature", "properties": {"segment_id": 1389381, "physicalid": "94355", "street_name": "COMMERCIAL WHARF", "borough": "brooklyn", "direction": "TW", "total_row_ft": 59.4, "roadbed_ft": 29.4, "median_ft": 0.0, "left_sw_ft": 15.0, "right_sw_ft": 15.0}, "geometry": {"type": "LineString", "coordinates": [[-74.010022500619, 40.681436259013765], [-74.01034520622443, 40.68165565002729]]}}, {"type": "Feature", "properties": {"segment_id": 1389382, "physicalid": "94355", "street_name": "COMMERCIAL WHARF", "borough": "brooklyn", "direction": "TW", "total_row_ft": 59.4, "roadbed_ft": 29.4, "median_ft": 0.0, "left_sw_ft": 15.0, "right_sw_ft": 15.0}, "geometry": {"type": "LineString", "coordinates": [[-74.01007053155776, 40.68139531399441], [-74.01039323712313, 40.68161470487424]]}}, {"type": "Feature", "properties": {"segment_id": 1389383, "physicalid": "94355", "street_name": "COMMERCIAL WHARF", "borough": "brooklyn", "direction": "TW", "total_row_ft": 59.4, "roadbed_ft": 29.4, "median_ft": 0.0, "left_sw_ft": 15.0, "right_sw_ft": 15.0}, "geometry": {"type": "LineString", "coordinates": [[-74.01011856243757, 40.68135436895476], [-74.01044126796282, 40.68157375970099]]}}, {"type": "Feature", "properties": {"segment_id": 1389384, "physicalid": "94355", "street_name": "COMMERCIAL WHARF", "borough": "brooklyn", "direction": "TW", "total_row_ft": 59.4, "roadbed_ft": 29.4, "median_ft": 0.0, "left_sw_ft": 15.0, "right_sw_ft": 15.0}, "geometry": {"type": "LineString", "coordinates": [[-74.0101665932584, 40.68131342389485], [-74.01048929874351, 40.68153281450747]]}}, {"type": "Feature", "properties": {"segment_id": 1389385, "physicalid": "94355", "street_name": "COMMERCIAL WHARF", "borough": "brooklyn", "direction": "TW", "total_row_ft": 59.4, "roadbed_ft": 29.4, "median_ft": 0.0, "left_sw_ft": 15.0, "right_sw_ft": 15.0}, "geometry": {"type": "LineString", "coordinates": [[-74.01021462402025, 40.68127247881464], [-74.01053732946521, 40.681491869293716]]}}, {"type": "Feature", "properties": {"segment_id": 1389386, "physicalid": "94355", "street_name": "COMMERCIAL WHARF", "borough": "brooklyn", "direction": "TW", "total_row_ft": 59.3, "roadbed_ft": 29.3, "median_ft": 0.0, "left_sw_ft": 15.0, "right_sw_ft": 15.0}, "geometry": {"type": "LineString", "coordinates": [[-74.01026265472314, 40.681231533714225], [-74.01058536012795, 40.68145092405969]]}}, {"type": "Feature", "properties": {"segment_id": 1389387, "physicalid": "94355", "street_name": "COMMERCIAL WHARF", "borough": "brooklyn", "direction": "TW", "total_row_ft": 59.4, "roadbed_ft": 29.4, "median_ft": 0.0, "left_sw_ft": 15.0, "right_sw_ft": 15.0}, "geometry": {"type": "LineString", "coordinates": [[-74.010310685367, 40.68119058859355], [-74.0106333907317, 40.681409978805426]]}}, {"type": "Feature", "properties": {"segment_id": 1389388, "physicalid": "94355", "street_name": "COMMERCIAL WHARF", "borough": "brooklyn", "direction": "TW", "total_row_ft": 59.4, "roadbed_ft": 29.4, "median_ft": 0.0, "left_sw_ft": 15.0, "right_sw_ft": 15.0}, "geometry": {"type": "LineString", "coordinates": [[-74.01035871595191, 40.68114964345262], [-74.01068142127649, 40.68136903353088]]}}, {"type": "Feature", "properties": {"segment_id": 1389389, "physicalid": "94355", "street_name": "COMMERCIAL WHARF", "borough": "brooklyn", "direction": "TW", "total_row_ft": 59.5, "roadbed_ft": 29.5, "median_ft": 0.0, "left_sw_ft": 15.0, "right_sw_ft": 15.0}, "geometry": {"type": "LineString", "coordinates": [[-74.01040674647783, 40.68110869829143], [-74.01072945176229, 40.6813280882361]]}}, {"type": "Feature", "properties": {"segment_id": 1389390, "physicalid": "94355", "street_name": "COMMERCIAL WHARF", "borough": "brooklyn", "direction": "TW", "total_row_ft": 59.5, "roadbed_ft": 29.5, "median_ft": 0.0, "left_sw_ft": 15.0, "right_sw_ft": 15.0}, "geometry": {"type": "LineString", "coordinates": [[-74.01045477694478, 40.68106775311], [-74.0107774821891, 40.681287142921065]]}}, {"type": "Feature", "properties": {"segment_id": 1389391, "physicalid": "94355", "street_name": "COMMERCIAL WHARF", "borough": "brooklyn", "direction": "TW", "total_row_ft": 59.6, "roadbed_ft": 29.6, "median_ft": 0.0, "left_sw_ft": 15.0, "right_sw_ft": 15.0}, "geometry": {"type": "LineString", "coordinates": [[-74.01050280735272, 40.68102680790829], [-74.01082551255693, 40.68124619758576]]}}, {"type": "Feature", "properties": {"segment_id": 1389392, "physicalid": "94355", "street_name": "COMMERCIAL WHARF", "borough": "brooklyn", "direction": "TW", "total_row_ft": 59.7, "roadbed_ft": 29.7, "median_ft": 0.0, "left_sw_ft": 15.0, "right_sw_ft": 15.0}, "geometry": {"type": "LineString", "coordinates": [[-74.0105508377017, 40.680985862686356], [-74.01087354286578, 40.6812052522302]]}}, {"type": "Feature", "properties": {"segment_id": 1389393, "physicalid": "94355", "street_name": "COMMERCIAL WHARF", "borough": "brooklyn", "direction": "TW", "total_row_ft": 59.7, "roadbed_ft": 29.7, "median_ft": 0.0, "left_sw_ft": 15.0, "right_sw_ft": 15.0}, "geometry": {"type": "LineString", "coordinates": [[-74.01059886799172, 40.68094491744415], [-74.01092157311564, 40.68116430685442]]}}, {"type": "Feature", "properties": {"segment_id": 1389394, "physicalid": "94355", "street_name": "COMMERCIAL WHARF", "borough": "brooklyn", "direction": "TW", "total_row_ft": 59.8, "roadbed_ft": 29.8, "median_ft": 0.0, "left_sw_ft": 15.0, "right_sw_ft": 15.0}, "geometry": {"type": "LineString", "coordinates": [[-74.01064689822272, 40.680903972181696], [-74.01096960330655, 40.681123361458354]]}}, {"type": "Feature", "properties": {"segment_id": 1389395, "physicalid": "94355", "street_name": "COMMERCIAL WHARF", "borough": "brooklyn", "direction": "TW", "total_row_ft": 59.9, "roadbed_ft": 29.9, "median_ft": 0.0, "left_sw_ft": 15.0, "right_sw_ft": 15.0}, "geometry": {"type": "LineString", "coordinates": [[-74.01069492839476, 40.68086302689898], [-74.01101763343844, 40.68108241604203]]}}, {"type": "Feature", "properties": {"segment_id": 1389396, "physicalid": "94355", "street_name": "COMMERCIAL WHARF", "borough": "brooklyn", "direction": "TW", "total_row_ft": 60.0, "roadbed_ft": 30.0, "median_ft": 0.0, "left_sw_ft": 15.0, "right_sw_ft": 15.0}, "geometry": {"type": "LineString", "coordinates": [[-74.01074295850782, 40.68082208159601], [-74.01106566351137, 40.68104147060548]]}}, {"type": "Feature", "properties": {"segment_id": 1389397, "physicalid": "94355", "street_name": "COMMERCIAL WHARF", "borough": "brooklyn", "direction": "TW", "total_row_ft": 60.0, "roadbed_ft": 30.0, "median_ft": 0.0, "left_sw_ft": 15.0, "right_sw_ft": 15.0}, "geometry": {"type": "LineString", "coordinates": [[-74.0107909885619, 40.6807811362728], [-74.01111369352533, 40.68100052514863]]}}, {"type": "Feature", "properties": {"segment_id": 1408603, "physicalid": "95493", "street_name": "SULLIVAN ST", "borough": "brooklyn", "direction": "TW", "total_row_ft": 58.3, "roadbed_ft": 30.5, "median_ft": 0.0, "left_sw_ft": 15.0, "right_sw_ft": 12.8}, "geometry": {"type": "LineString", "coordinates": [[-74.01564513429763, 40.679916886708654], [-74.01543399629328, 40.68009724619158]]}}, {"type": "Feature", "properties": {"segment_id": 1408604, "physicalid": "95493", "street_name": "SULLIVAN ST", "borough": "brooklyn", "direction": "TW", "total_row_ft": 58.5, "roadbed_ft": 30.7, "median_ft": 0.0, "left_sw_ft": 15.0, "right_sw_ft": 12.9}, "geometry": {"type": "LineString", "coordinates": [[-74.0156989657635, 40.679953410499024], [-74.01548721916205, 40.68013428998304]]}}, {"type": "Feature", "properties": {"segment_id": 1408605, "physicalid": "95493", "street_name": "SULLIVAN ST", "borough": "brooklyn", "direction": "TW", "total_row_ft": 58.8, "roadbed_ft": 30.8, "median_ft": 0.0, "left_sw_ft": 15.0, "right_sw_ft": 13.0}, "geometry": {"type": "LineString", "coordinates": [[-74.01575279728833, 40.679989934264015], [-74.01554044208997, 40.68017133374969]]}}, {"type": "Feature", "properties": {"segment_id": 1408606, "physicalid": "95493", "street_name": "SULLIVAN ST", "borough": "brooklyn", "direction": "TW", "total_row_ft": 59.1, "roadbed_ft": 31.0, "median_ft": 0.0, "left_sw_ft": 15.0, "right_sw_ft": 13.0}, "geometry": {"type": "LineString", "coordinates": [[-74.0158066288721, 40.68002645800367], [-74.01559366507703, 40.68020837749158]]}}, {"type": "Feature", "properties": {"segment_id": 1408607, "physicalid": "95493", "street_name": "SULLIVAN ST", "borough": "brooklyn", "direction": "TW", "total_row_ft": 59.3, "roadbed_ft": 31.2, "median_ft": 0.0, "left_sw_ft": 15.0, "right_sw_ft": 13.1}, "geometry": {"type": "LineString", "coordinates": [[-74.01586046051484, 40.680062981717974], [-74.0156468881232, 40.68024542120869]]}}, {"type": "Feature", "properties": {"segment_id": 1408608, "physicalid": "95493", "street_name": "SULLIVAN ST", "borough": "brooklyn", "direction": "TW", "total_row_ft": 59.4, "roadbed_ft": 31.3, "median_ft": 0.0, "left_sw_ft": 15.0, "right_sw_ft": 13.1}, "geometry": {"type": "LineString", "coordinates": [[-74.01591429221655, 40.680099505406915], [-74.0157004532078, 40.680282172773666]]}}, {"type": "Feature", "properties": {"segment_id": 1408609, "physicalid": "95493", "street_name": "SULLIVAN ST", "borough": "brooklyn", "direction": "TW", "total_row_ft": 59.5, "roadbed_ft": 31.4, "median_ft": 0.0, "left_sw_ft": 15.0, "right_sw_ft": 13.1}, "geometry": {"type": "LineString", "coordinates": [[-74.0159681239772, 40.6801360290705], [-74.01575408951379, 40.68031886352486]]}}, {"type": "Feature", "properties": {"segment_id": 1408610, "physicalid": "95493", "street_name": "SULLIVAN ST", "borough": "brooklyn", "direction": "TW", "total_row_ft": 59.6, "roadbed_ft": 31.5, "median_ft": 0.0, "left_sw_ft": 15.0, "right_sw_ft": 13.1}, "geometry": {"type": "LineString", "coordinates": [[-74.01602195579684, 40.680172552708754], [-74.01580772587877, 40.68035555425089]]}}, {"type": "Feature", "properties": {"segment_id": 1408611, "physicalid": "95493", "street_name": "SULLIVAN ST", "borough": "brooklyn", "direction": "TW", "total_row_ft": 59.7, "roadbed_ft": 31.6, "median_ft": 0.0, "left_sw_ft": 15.0, "right_sw_ft": 13.1}, "geometry": {"type": "LineString", "coordinates": [[-74.01607578767548, 40.68020907632169], [-74.01586136230279, 40.680392244951726]]}}, {"type": "Feature", "properties": {"segment_id": 1408612, "physicalid": "95493", "street_name": "SULLIVAN ST", "borough": "brooklyn", "direction": "TW", "total_row_ft": 59.6, "roadbed_ft": 31.5, "median_ft": 0.0, "left_sw_ft": 15.0, "right_sw_ft": 13.1}, "geometry": {"type": "LineString", "coordinates": [[-74.01612961961305, 40.68024559990925], [-74.01591499878582, 40.68042893562741]]}}, {"type": "Feature", "properties": {"segment_id": 1408613, "physicalid": "95493", "street_name": "SULLIVAN ST", "borough": "brooklyn", "direction": "TW", "total_row_ft": 59.4, "roadbed_ft": 31.3, "median_ft": 0.0, "left_sw_ft": 15.0, "right_sw_ft": 13.1}, "geometry": {"type": "LineString", "coordinates": [[-74.01618345160958, 40.680282123471464], [-74.01596863532785, 40.68046562627795]]}}, {"type": "Feature", "properties": {"segment_id": 1408614, "physicalid": "95493", "street_name": "SULLIVAN ST", "borough": "brooklyn", "direction": "TW", "total_row_ft": 59.2, "roadbed_ft": 31.0, "median_ft": 0.0, "left_sw_ft": 15.0, "right_sw_ft": 13.2}, "geometry": {"type": "LineString", "coordinates": [[-74.01623728366509, 40.68031864700831], [-74.01602227192893, 40.68050231690331]]}}, {"type": "Feature", "properties": {"segment_id": 1408615, "physicalid": "95493", "street_name": "SULLIVAN ST", "borough": "brooklyn", "direction": "TW", "total_row_ft": 59.0, "roadbed_ft": 30.1, "median_ft": 0.0, "left_sw_ft": 15.0, "right_sw_ft": 13.9}, "geometry": {"type": "LineString", "coordinates": [[-74.01629111577954, 40.680355170519825], [-74.01607590858903, 40.68053900750348]]}}, {"type": "Feature", "properties": {"segment_id": 1408616, "physicalid": "95493", "street_name": "SULLIVAN ST", "borough": "brooklyn", "direction": "TW", "total_row_ft": 58.8, "roadbed_ft": 29.2, "median_ft": 0.0, "left_sw_ft": 15.0, "right_sw_ft": 14.6}, "geometry": {"type": "LineString", "coordinates": [[-74.01634494795297, 40.680391694006], [-74.01612953316501, 40.68057570845155]]}}, {"type": "Feature", "properties": {"segment_id": 1408617, "physicalid": "95493", "street_name": "SULLIVAN ST", "borough": "brooklyn", "direction": "TW", "total_row_ft": 57.7, "roadbed_ft": 28.3, "median_ft": 0.0, "left_sw_ft": 15.0, "right_sw_ft": 14.4}, "geometry": {"type": "LineString", "coordinates": [[-74.01639878018537, 40.680428217466805], [-74.01618547116205, 40.680610433230214]]}}, {"type": "Feature", "properties": {"segment_id": 1408618, "physicalid": "95493", "street_name": "SULLIVAN ST", "borough": "brooklyn", "direction": "TW", "total_row_ft": 53.5, "roadbed_ft": 27.4, "median_ft": 0.0, "left_sw_ft": 15.0, "right_sw_ft": 11.1}, "geometry": {"type": "LineString", "coordinates": [[-74.01645261247675, 40.68046474090229], [-74.0162486613041, 40.68063896302255]]}}, {"type": "Feature", "properties": {"segment_id": 1408619, "physicalid": "95493", "street_name": "SULLIVAN ST", "borough": "brooklyn", "direction": "TW", "total_row_ft": 56.5, "roadbed_ft": 26.5, "median_ft": 0.0, "left_sw_ft": 15.0, "right_sw_ft": 15.0}, "geometry": {"type": "LineString", "coordinates": [[-74.01650644482709, 40.68050126431242], [-74.0162185918414, 40.680747158050956]]}}, {"type": "Feature", "properties": {"segment_id": 1453453, "physicalid": "98301", "street_name": "KING ST", "borough": "brooklyn", "direction": "FT", "total_row_ft": 56.8, "roadbed_ft": 31.0, "median_ft": 0.0, "left_sw_ft": 10.7, "right_sw_ft": 15.1}, "geometry": {"type": "LineString", "coordinates": [[-74.01413647245433, 40.67996823735997], [-74.01399963331933, 40.68008406431687]]}}, {"type": "Feature", "properties": {"segment_id": 1453454, "physicalid": "98301", "street_name": "KING ST", "borough": "brooklyn", "direction": "FT", "total_row_ft": 56.4, "roadbed_ft": 31.2, "median_ft": 0.0, "left_sw_ft": 10.5, "right_sw_ft": 14.7}, "geometry": {"type": "LineString", "coordinates": [[-74.01419019715848, 40.68000485240197], [-74.01405433209764, 40.680119854937864]]}}, {"type": "Feature", "properties": {"segment_id": 1453455, "physicalid": "98301", "street_name": "KING ST", "borough": "brooklyn", "direction": "FT", "total_row_ft": 55.9, "roadbed_ft": 31.3, "median_ft": 0.0, "left_sw_ft": 10.4, "right_sw_ft": 14.3}, "geometry": {"type": "LineString", "coordinates": [[-74.01424392192166, 40.68004146741878], [-74.0141090308816, 40.68015564557755]]}}, {"type": "Feature", "properties": {"segment_id": 1453456, "physicalid": "98301", "street_name": "KING ST", "borough": "brooklyn", "direction": "FT", "total_row_ft": 55.5, "roadbed_ft": 31.4, "median_ft": 0.0, "left_sw_ft": 10.2, "right_sw_ft": 13.9}, "geometry": {"type": "LineString", "coordinates": [[-74.01429764674381, 40.68007808241029], [-74.01416372963523, 40.68019143626644]]}}, {"type": "Feature", "properties": {"segment_id": 1453457, "physicalid": "98301", "street_name": "KING ST", "borough": "brooklyn", "direction": "FT", "total_row_ft": 55.1, "roadbed_ft": 31.6, "median_ft": 0.0, "left_sw_ft": 10.1, "right_sw_ft": 13.5}, "geometry": {"type": "LineString", "coordinates": [[-74.01435137163962, 40.680114697364175], [-74.01421842844759, 40.68022722692921]]}}, {"type": "Feature", "properties": {"segment_id": 1453458, "physicalid": "98301", "street_name": "KING ST", "borough": "brooklyn", "direction": "FT", "total_row_ft": 86.9, "roadbed_ft": 31.7, "median_ft": 0.0, "left_sw_ft": 42.1, "right_sw_ft": 13.1}, "geometry": {"type": "LineString", "coordinates": [[-74.01448267948565, 40.680085642079376], [-74.01427312731863, 40.68026301756579]]}}, {"type": "Feature", "properties": {"segment_id": 1658639, "physicalid": "166402", "street_name": "COMMERCIAL WHARF", "borough": "brooklyn", "direction": "TW", "total_row_ft": 60.2, "roadbed_ft": 30.2, "median_ft": 0.0, "left_sw_ft": 15.0, "right_sw_ft": 15.0}, "geometry": {"type": "LineString", "coordinates": [[-74.01089551595427, 40.68069220697978], [-74.01121738555348, 40.68091230556971]]}}, {"type": "Feature", "properties": {"segment_id": 1658640, "physicalid": "166402", "street_name": "COMMERCIAL WHARF", "borough": "brooklyn", "direction": "TW", "total_row_ft": 60.3, "roadbed_ft": 30.3, "median_ft": 0.0, "left_sw_ft": 15.0, "right_sw_ft": 15.0}, "geometry": {"type": "LineString", "coordinates": [[-74.01094370125895, 40.68065136757415], [-74.01126557082003, 40.680871466030425]]}}, {"type": "Feature", "properties": {"segment_id": 1658641, "physicalid": "166402", "street_name": "COMMERCIAL WHARF", "borough": "brooklyn", "direction": "TW", "total_row_ft": 60.3, "roadbed_ft": 30.3, "median_ft": 0.0, "left_sw_ft": 15.0, "right_sw_ft": 15.0}, "geometry": {"type": "LineString", "coordinates": [[-74.0109918865046, 40.68061052814813], [-74.01131375602758, 40.68083062647073]]}}, {"type": "Feature", "properties": {"segment_id": 1658642, "physicalid": "166402", "street_name": "COMMERCIAL WHARF", "borough": "brooklyn", "direction": "TW", "total_row_ft": 60.2, "roadbed_ft": 30.2, "median_ft": 0.0, "left_sw_ft": 15.0, "right_sw_ft": 15.0}, "geometry": {"type": "LineString", "coordinates": [[-74.01104007169121, 40.68056968870174], [-74.01136194117612, 40.68078978689066]]}}, {"type": "Feature", "properties": {"segment_id": 1658643, "physicalid": "166402", "street_name": "COMMERCIAL WHARF", "borough": "brooklyn", "direction": "TW", "total_row_ft": 60.2, "roadbed_ft": 30.2, "median_ft": 0.0, "left_sw_ft": 15.0, "right_sw_ft": 15.0}, "geometry": {"type": "LineString", "coordinates": [[-74.01108825681881, 40.680528849234975], [-74.01141012626563, 40.680748947290205]]}}, {"type": "Feature", "properties": {"segment_id": 1658644, "physicalid": "166402", "street_name": "COMMERCIAL WHARF", "borough": "brooklyn", "direction": "TW", "total_row_ft": 60.1, "roadbed_ft": 30.1, "median_ft": 0.0, "left_sw_ft": 15.0, "right_sw_ft": 15.0}, "geometry": {"type": "LineString", "coordinates": [[-74.01113644188739, 40.680488009747826], [-74.01145831129614, 40.680708107669346]]}}, {"type": "Feature", "properties": {"segment_id": 1658645, "physicalid": "166402", "street_name": "COMMERCIAL WHARF", "borough": "brooklyn", "direction": "TW", "total_row_ft": 60.1, "roadbed_ft": 30.1, "median_ft": 0.0, "left_sw_ft": 15.0, "right_sw_ft": 15.0}, "geometry": {"type": "LineString", "coordinates": [[-74.01118462689696, 40.68044717024027], [-74.01150649626763, 40.68066726802811]]}}, {"type": "Feature", "properties": {"segment_id": 1658646, "physicalid": "166402", "street_name": "COMMERCIAL WHARF", "borough": "brooklyn", "direction": "TW", "total_row_ft": 60.0, "roadbed_ft": 30.0, "median_ft": 0.0, "left_sw_ft": 15.0, "right_sw_ft": 15.0}, "geometry": {"type": "LineString", "coordinates": [[-74.01123281184749, 40.68040633071236], [-74.01155468118009, 40.68062642836651]]}}, {"type": "Feature", "properties": {"segment_id": 1658647, "physicalid": "166402", "street_name": "COMMERCIAL WHARF", "borough": "brooklyn", "direction": "TW", "total_row_ft": 59.7, "roadbed_ft": 29.7, "median_ft": 0.0, "left_sw_ft": 15.0, "right_sw_ft": 15.0}, "geometry": {"type": "LineString", "coordinates": [[-74.01128099673903, 40.680365491164075], [-74.01160286603354, 40.680585588684536]]}}, {"type": "Feature", "properties": {"segment_id": 1658648, "physicalid": "166402", "street_name": "COMMERCIAL WHARF", "borough": "brooklyn", "direction": "TW", "total_row_ft": 59.5, "roadbed_ft": 29.5, "median_ft": 0.0, "left_sw_ft": 15.0, "right_sw_ft": 15.0}, "geometry": {"type": "LineString", "coordinates": [[-74.01132918157153, 40.6803246515954], [-74.011651050828, 40.680544748982136]]}}, {"type": "Feature", "properties": {"segment_id": 1658649, "physicalid": "166402", "street_name": "COMMERCIAL WHARF", "borough": "brooklyn", "direction": "TW", "total_row_ft": 59.2, "roadbed_ft": 29.2, "median_ft": 0.0, "left_sw_ft": 15.0, "right_sw_ft": 15.0}, "geometry": {"type": "LineString", "coordinates": [[-74.01137736634504, 40.68028381200631], [-74.01169923556338, 40.680503909259386]]}}, {"type": "Feature", "properties": {"segment_id": 1658650, "physicalid": "166402", "street_name": "COMMERCIAL WHARF", "borough": "brooklyn", "direction": "TW", "total_row_ft": 58.9, "roadbed_ft": 28.9, "median_ft": 0.0, "left_sw_ft": 15.0, "right_sw_ft": 15.0}, "geometry": {"type": "LineString", "coordinates": [[-74.01142555105953, 40.68024297239686], [-74.01174742023977, 40.68046306951628]]}}, {"type": "Feature", "properties": {"segment_id": 1658651, "physicalid": "166402", "street_name": "COMMERCIAL WHARF", "borough": "brooklyn", "direction": "TW", "total_row_ft": 58.7, "roadbed_ft": 28.7, "median_ft": 0.0, "left_sw_ft": 15.0, "right_sw_ft": 15.0}, "geometry": {"type": "LineString", "coordinates": [[-74.01147373571499, 40.680202132767036], [-74.01179560485716, 40.68042222975275]]}}, {"type": "Feature", "properties": {"segment_id": 1658652, "physicalid": "166402", "street_name": "COMMERCIAL WHARF", "borough": "brooklyn", "direction": "TW", "total_row_ft": 58.5, "roadbed_ft": 28.5, "median_ft": 0.0, "left_sw_ft": 15.0, "right_sw_ft": 15.0}, "geometry": {"type": "LineString", "coordinates": [[-74.01152192031144, 40.680161293116825], [-74.01184378941552, 40.680381389968844]]}}, {"type": "Feature", "properties": {"segment_id": 1658653, "physicalid": "166402", "street_name": "COMMERCIAL WHARF", "borough": "brooklyn", "direction": "TW", "total_row_ft": 58.6, "roadbed_ft": 28.6, "median_ft": 0.0, "left_sw_ft": 15.0, "right_sw_ft": 15.0}, "geometry": {"type": "LineString", "coordinates": [[-74.01157010484887, 40.68012045344622], [-74.01189197391486, 40.68034055016457]]}}, {"type": "Feature", "properties": {"segment_id": 1658654, "physicalid": "166402", "street_name": "COMMERCIAL WHARF", "borough": "brooklyn", "direction": "TW", "total_row_ft": 58.6, "roadbed_ft": 28.6, "median_ft": 0.0, "left_sw_ft": 15.0, "right_sw_ft": 15.0}, "geometry": {"type": "LineString", "coordinates": [[-74.01161828932729, 40.68007961375526], [-74.01194015835519, 40.6802997103399]]}}, {"type": "Feature", "properties": {"segment_id": 1658655, "physicalid": "166402", "street_name": "COMMERCIAL WHARF", "borough": "brooklyn", "direction": "TW", "total_row_ft": 58.7, "roadbed_ft": 28.7, "median_ft": 0.0, "left_sw_ft": 15.0, "right_sw_ft": 15.0}, "geometry": {"type": "LineString", "coordinates": [[-74.01166647374669, 40.68003877404389], [-74.01198834273652, 40.68025887049485]]}}, {"type": "Feature", "properties": {"segment_id": 1658656, "physicalid": "166402", "street_name": "COMMERCIAL WHARF", "borough": "brooklyn", "direction": "TW", "total_row_ft": 58.8, "roadbed_ft": 28.8, "median_ft": 0.0, "left_sw_ft": 15.0, "right_sw_ft": 15.0}, "geometry": {"type": "LineString", "coordinates": [[-74.01171465810707, 40.67999793431214], [-74.0120365270588, 40.680218030629426]]}}, {"type": "Feature", "properties": {"segment_id": 1658657, "physicalid": "166402", "street_name": "COMMERCIAL WHARF", "borough": "brooklyn", "direction": "TW", "total_row_ft": 58.9, "roadbed_ft": 28.9, "median_ft": 0.0, "left_sw_ft": 15.0, "right_sw_ft": 15.0}, "geometry": {"type": "LineString", "coordinates": [[-74.0117628424084, 40.679957094560045], [-74.0120847113221, 40.68017719074358]]}}, {"type": "Feature", "properties": {"segment_id": 1658658, "physicalid": "166402", "street_name": "COMMERCIAL WHARF", "borough": "brooklyn", "direction": "TW", "total_row_ft": 59.0, "roadbed_ft": 29.0, "median_ft": 0.0, "left_sw_ft": 15.0, "right_sw_ft": 15.0}, "geometry": {"type": "LineString", "coordinates": [[-74.01181102665078, 40.67991625478752], [-74.01213289552634, 40.680136350837415]]}}]}