{"type": "FeatureCollection", "features": [{"type": "Feature", "properties": {"segment_id": 589331, "physicalid": "42327", "street_name": "51 ST", "borough": "brooklyn", "direction": "TW", "total_row_ft": 58.1, "roadbed_ft": 28.1, "median_ft": 0.0, "left_sw_ft": 15.0, "right_sw_ft": 15.0}, "geometry": {"type": "LineString", "coordinates": [[-74.02057347931705, 40.65057912546286], [-74.02083940313713, 40.65031938459992]]}}, {"type": "Feature", "properties": {"segment_id": 589332, "physicalid": "42327", "street_name": "51 ST", "borough": "brooklyn", "direction": "TW", "total_row_ft": 58.4, "roadbed_ft": 28.4, "median_ft": 0.0, "left_sw_ft": 15.0, "right_sw_ft": 15.0}, "geometry": {"type": "LineString", "coordinates": [[-74.02051664133454, 40.65054536895613], [-74.02078256524136, 40.65028562822363]]}}, {"type": "Feature", "properties": {"segment_id": 589333, "physicalid": "42327", "street_name": "51 ST", "borough": "brooklyn", "direction": "TW", "total_row_ft": 58.6, "roadbed_ft": 28.6, "median_ft": 0.0, "left_sw_ft": 15.0, "right_sw_ft": 15.0}, "geometry": {"type": "LineString", "coordinates": [[-74.02045980340955, 40.65051161242122], [-74.02072572740309, 40.65025187181911]]}}, {"type": "Feature", "properties": {"segment_id": 589334, "physicalid": "42327", "street_name": "51 ST", "borough": "brooklyn", "direction": "TW", "total_row_ft": 58.8, "roadbed_ft": 28.8, "median_ft": 0.0, "left_sw_ft": 15.0, "right_sw_ft": 15.0}, "geometry": {"type": "LineString", "coordinates": [[-74.02040296554208, 40.65047785585807], [-74.02066888962234, 40.6502181153864]]}}, {"type": "Feature", "properties": {"segment_id": 589335, "physicalid": "42327", "street_name": "51 ST", "borough": "brooklyn", "direction": "TW", "total_row_ft": 59.1, "roadbed_ft": 29.1, "median_ft": 0.0, "left_sw_ft": 15.0, "right_sw_ft": 15.0}, "geometry": {"type": "LineString", "coordinates": [[-74.02034612773211, 40.650444099266714], [-74.0206120518991, 40.650184358925465]]}}, {"type": "Feature", "properties": {"segment_id": 589336, "physicalid": "42327", "street_name": "51 ST", "borough": "brooklyn", "direction": "TW", "total_row_ft": 59.3, "roadbed_ft": 29.3, "median_ft": 0.0, "left_sw_ft": 15.0, "right_sw_ft": 15.0}, "geometry": {"type": "LineString", "coordinates": [[-74.02028928997967, 40.650410342647135], [-74.0205552142334, 40.65015060243631]]}}, {"type": "Feature", "properties": {"segment_id": 589337, "physicalid": "42327", "street_name": "51 ST", "borough": "brooklyn", "direction": "TW", "total_row_ft": 59.5, "roadbed_ft": 29.5, "median_ft": 0.0, "left_sw_ft": 15.0, "right_sw_ft": 15.0}, "geometry": {"type": "LineString", "coordinates": [[-74.02023245228474, 40.650376585999346], [-74.02049837662518, 40.65011684591893]]}}, {"type": "Feature", "properties": {"segment_id": 589338, "physicalid": "42327", "street_name": "51 ST", "borough": "brooklyn", "direction": "TW", "total_row_ft": 59.7, "roadbed_ft": 29.7, "median_ft": 0.0, "left_sw_ft": 15.0, "right_sw_ft": 15.0}, "geometry": {"type": "LineString", "coordinates": [[-74.02017561464733, 40.65034282932332], [-74.02044153907451, 40.65008308937335]]}}, {"type": "Feature", "properties": {"segment_id": 589339, "physicalid": "42327", "street_name": "51 ST", "borough": "brooklyn", "direction": "TW", "total_row_ft": 60.0, "roadbed_ft": 30.0, "median_ft": 0.0, "left_sw_ft": 15.0, "right_sw_ft": 15.0}, "geometry": {"type": "LineString", "coordinates": [[-74.02011877706742, 40.65030907261908], [-74.02038470158134, 40.65004933279953]]}}, {"type": "Feature", "properties": {"segment_id": 589340, "physicalid": "42327", "street_name": "51 ST", "borough": "brooklyn", "direction": "TW", "total_row_ft": 60.3, "roadbed_ft": 30.3, "median_ft": 0.0, "left_sw_ft": 15.0, "right_sw_ft": 15.0}, "geometry": {"type": "LineString", "coordinates": [[-74.02006193954504, 40.65027531588662], [-74.02032786414567, 40.65001557619751]]}}, {"type": "Feature", "properties": {"segment_id": 589341, "physicalid": "42327", "street_name": "51 ST", "borough": "brooklyn", "direction": "TW", "total_row_ft": 60.8, "roadbed_ft": 30.8, "median_ft": 0.0, "left_sw_ft": 15.0, "right_sw_ft": 15.0}, "geometry": {"type": "LineString", "coordinates": [[-74.02000510208016, 40.65024155912595], [-74.02027102676755, 40.64998181956726]]}}, {"type": "Feature", "properties": {"segment_id": 589342, "physicalid": "42327", "street_name": "51 ST", "borough": "brooklyn", "direction": "TW", "total_row_ft": 61.2, "roadbed_ft": 31.2, "median_ft": 0.0, "left_sw_ft": 15.0, "right_sw_ft": 15.0}, "geometry": {"type": "LineString", "coordinates": [[-74.0199482646728, 40.65020780233708], [-74.0202141894469, 40.64994806290881]]}}, {"type": "Feature", "properties": {"segment_id": 589343, "physicalid": "42327", "street_name": "51 ST", "borough": "brooklyn", "direction": "TW", "total_row_ft": 61.7, "roadbed_ft": 31.7, "median_ft": 0.0, "left_sw_ft": 15.0, "right_sw_ft": 15.0}, "geometry": {"type": "LineString", "coordinates": [[-74.01989142732299, 40.65017404551998], [-74.0201573521838, 40.64991430622213]]}}, {"type": "Feature", "properties": {"segment_id": 722004, "physicalid": "51049", "street_name": "52 ST", "borough": "brooklyn", "direction": "TW", "total_row_ft": 85.8, "roadbed_ft": 55.8, "median_ft": 0.0, "left_sw_ft": 15.0, "right_sw_ft": 15.0}, "geometry": {"type": "LineString", "coordinates": [[-74.02276395842486, 40.65104529795487], [-74.0230368780375, 40.650789800090514]]}}, {"type": "Feature", "properties": {"segment_id": 722005, "physicalid": "51049", "street_name": "52 ST", "borough": "brooklyn", "direction": "TW", "total_row_ft": 61.6, "roadbed_ft": 31.6, "median_ft": 0.0, "left_sw_ft": 15.0, "right_sw_ft": 15.0}, "geometry": {"type": "LineString", "coordinates": [[-74.0227080485314, 40.65101065364559], [-74.02298096821642, 40.65075515591288]]}}, {"type": "Feature", "properties": {"segment_id": 722006, "physicalid": "51049", "street_name": "52 ST", "borough": "brooklyn", "direction": "TW", "total_row_ft": 62.0, "roadbed_ft": 32.0, "median_ft": 0.0, "left_sw_ft": 15.0, "right_sw_ft": 15.0}, "geometry": {"type": "LineString", "coordinates": [[-74.02265213869597, 40.650976009309], [-74.02292505845341, 40.65072051170795]]}}, {"type": "Feature", "properties": {"segment_id": 722007, "physicalid": "51049", "street_name": "52 ST", "borough": "brooklyn", "direction": "TW", "total_row_ft": 62.3, "roadbed_ft": 32.3, "median_ft": 0.0, "left_sw_ft": 15.0, "right_sw_ft": 15.0}, "geometry": {"type": "LineString", "coordinates": [[-74.02259622891867, 40.65094136494508], [-74.02286914874843, 40.65068586747568]]}}, {"type": "Feature", "properties": {"segment_id": 722008, "physicalid": "51049", "street_name": "52 ST", "borough": "brooklyn", "direction": "TW", "total_row_ft": 62.1, "roadbed_ft": 32.1, "median_ft": 0.0, "left_sw_ft": 15.0, "right_sw_ft": 15.0}, "geometry": {"type": "LineString", "coordinates": [[-74.0225403191994, 40.65090672055384], [-74.02281323910155, 40.65065122321612]]}}, {"type": "Feature", "properties": {"segment_id": 722009, "physicalid": "51049", "street_name": "52 ST", "borough": "brooklyn", "direction": "TW", "total_row_ft": 62.0, "roadbed_ft": 32.0, "median_ft": 0.0, "left_sw_ft": 15.0, "right_sw_ft": 15.0}, "geometry": {"type": "LineString", "coordinates": [[-74.02248440953817, 40.65087207613529], [-74.02275732951273, 40.65061657892924]]}}, {"type": "Feature", "properties": {"segment_id": 722010, "physicalid": "51049", "street_name": "52 ST", "borough": "brooklyn", "direction": "TW", "total_row_ft": 61.9, "roadbed_ft": 31.9, "median_ft": 0.0, "left_sw_ft": 15.0, "right_sw_ft": 15.0}, "geometry": {"type": "LineString", "coordinates": [[-74.02242849993503, 40.65083743168944], [-74.02270141998197, 40.65058193461503]]}}, {"type": "Feature", "properties": {"segment_id": 722011, "physicalid": "51049", "street_name": "52 ST", "borough": "brooklyn", "direction": "TW", "total_row_ft": 61.7, "roadbed_ft": 31.7, "median_ft": 0.0, "left_sw_ft": 15.0, "right_sw_ft": 15.0}, "geometry": {"type": "LineString", "coordinates": [[-74.02237259038995, 40.65080278721624], [-74.02264551050926, 40.650547290273536]]}}, {"type": "Feature", "properties": {"segment_id": 722012, "physicalid": "51049", "street_name": "52 ST", "borough": "brooklyn", "direction": "TW", "total_row_ft": 61.4, "roadbed_ft": 31.4, "median_ft": 0.0, "left_sw_ft": 15.0, "right_sw_ft": 15.0}, "geometry": {"type": "LineString", "coordinates": [[-74.02231668090295, 40.650768142715755], [-74.02258960109464, 40.65051264590471]]}}, {"type": "Feature", "properties": {"segment_id": 722013, "physicalid": "51049", "street_name": "52 ST", "borough": "brooklyn", "direction": "TW", "total_row_ft": 61.2, "roadbed_ft": 31.2, "median_ft": 0.0, "left_sw_ft": 15.0, "right_sw_ft": 15.0}, "geometry": {"type": "LineString", "coordinates": [[-74.02226077147395, 40.650733498187925], [-74.0225336917381, 40.65047800150859]]}}, {"type": "Feature", "properties": {"segment_id": 722014, "physicalid": "51049", "street_name": "52 ST", "borough": "brooklyn", "direction": "TW", "total_row_ft": 61.0, "roadbed_ft": 31.0, "median_ft": 0.0, "left_sw_ft": 15.0, "right_sw_ft": 15.0}, "geometry": {"type": "LineString", "coordinates": [[-74.02220486210308, 40.650698853632804], [-74.0224777824396, 40.65044335708513]]}}, {"type": "Feature", "properties": {"segment_id": 722015, "physicalid": "51049", "street_name": "52 ST", "borough": "brooklyn", "direction": "TW", "total_row_ft": 60.8, "roadbed_ft": 30.8, "median_ft": 0.0, "left_sw_ft": 15.0, "right_sw_ft": 15.0}, "geometry": {"type": "LineString", "coordinates": [[-74.02214895279023, 40.650664209050376], [-74.02242187319916, 40.650408712634345]]}}, {"type": "Feature", "properties": {"segment_id": 722016, "physicalid": "51049", "street_name": "52 ST", "borough": "brooklyn", "direction": "TW", "total_row_ft": 60.6, "roadbed_ft": 30.6, "median_ft": 0.0, "left_sw_ft": 15.0, "right_sw_ft": 15.0}, "geometry": {"type": "LineString", "coordinates": [[-74.02209304353549, 40.65062956444062], [-74.02236596401679, 40.65037406815626]]}}, {"type": "Feature", "properties": {"segment_id": 722017, "physicalid": "51049", "street_name": "52 ST", "borough": "brooklyn", "direction": "TW", "total_row_ft": 60.2, "roadbed_ft": 30.2, "median_ft": 0.0, "left_sw_ft": 15.0, "right_sw_ft": 15.0}, "geometry": {"type": "LineString", "coordinates": [[-74.0220371343388, 40.65059491980355], [-74.02231005489246, 40.65033942365087]]}}, {"type": "Feature", "properties": {"segment_id": 722018, "physicalid": "51049", "street_name": "52 ST", "borough": "brooklyn", "direction": "TW", "total_row_ft": 59.6, "roadbed_ft": 29.6, "median_ft": 0.0, "left_sw_ft": 15.0, "right_sw_ft": 15.0}, "geometry": {"type": "LineString", "coordinates": [[-74.02198122520018, 40.65056027513918], [-74.02225414582621, 40.65030477911816]]}}, {"type": "Feature", "properties": {"segment_id": 722019, "physicalid": "51049", "street_name": "52 ST", "borough": "brooklyn", "direction": "TW", "total_row_ft": 59.2, "roadbed_ft": 29.2, "median_ft": 0.0, "left_sw_ft": 15.0, "right_sw_ft": 15.0}, "geometry": {"type": "LineString", "coordinates": [[-74.02192531611962, 40.65052563044748], [-74.02219823681803, 40.65027013455812]]}}, {"type": "Feature", "properties": {"segment_id": 722020, "physicalid": "51049", "street_name": "52 ST", "borough": "brooklyn", "direction": "TW", "total_row_ft": 58.9, "roadbed_ft": 28.9, "median_ft": 0.0, "left_sw_ft": 15.0, "right_sw_ft": 15.0}, "geometry": {"type": "LineString", "coordinates": [[-74.02186940709711, 40.65049098572848], [-74.02214232786791, 40.65023548997079]]}}, {"type": "Feature", "properties": {"segment_id": 722021, "physicalid": "51049", "street_name": "52 ST", "borough": "brooklyn", "direction": "TW", "total_row_ft": 60.4, "roadbed_ft": 30.4, "median_ft": 0.0, "left_sw_ft": 15.0, "right_sw_ft": 15.0}, "geometry": {"type": "LineString", "coordinates": [[-74.02181349813269, 40.650456340982146], [-74.02208641897585, 40.65020084535612]]}}, {"type": "Feature", "properties": {"segment_id": 722022, "physicalid": "51049", "street_name": "52 ST", "borough": "brooklyn", "direction": "TW", "total_row_ft": 52.9, "roadbed_ft": 30.4, "median_ft": 0.0, "left_sw_ft": 15.0, "right_sw_ft": 7.5}, "geometry": {"type": "LineString", "coordinates": [[-74.02175758922631, 40.65042169620851], [-74.0219540415686, 40.650237787194676]]}}, {"type": "Feature", "properties": {"segment_id": 722023, "physicalid": "51049", "street_name": "52 ST", "borough": "brooklyn", "direction": "TW", "total_row_ft": 53.1, "roadbed_ft": 30.3, "median_ft": 0.0, "left_sw_ft": 15.0, "right_sw_ft": 7.8}, "geometry": {"type": "LineString", "coordinates": [[-74.02170168037797, 40.65038705140754], [-74.02190429139358, 40.650197377073106]]}}, {"type": "Feature", "properties": {"segment_id": 722024, "physicalid": "51049", "street_name": "52 ST", "borough": "brooklyn", "direction": "TW", "total_row_ft": 55.2, "roadbed_ft": 30.3, "median_ft": 0.0, "left_sw_ft": 15.0, "right_sw_ft": 9.8}, "geometry": {"type": "LineString", "coordinates": [[-74.02164577158773, 40.65035240657927], [-74.02185416182436, 40.65015732215734]]}}, {"type": "Feature", "properties": {"segment_id": 722025, "physicalid": "51049", "street_name": "52 ST", "borough": "brooklyn", "direction": "TW", "total_row_ft": 56.7, "roadbed_ft": 30.7, "median_ft": 0.0, "left_sw_ft": 15.0, "right_sw_ft": 11.0}, "geometry": {"type": "LineString", "coordinates": [[-74.02158986285554, 40.65031776172368], [-74.02180150710906, 40.65011963119796]]}}, {"type": "Feature", "properties": {"segment_id": 722026, "physicalid": "51049", "street_name": "52 ST", "borough": "brooklyn", "direction": "TW", "total_row_ft": 58.0, "roadbed_ft": 29.3, "median_ft": 0.0, "left_sw_ft": 15.0, "right_sw_ft": 13.7}, "geometry": {"type": "LineString", "coordinates": [[-74.02153395418146, 40.65028311684079], [-74.02174810128072, 40.6500826434259]]}}, {"type": "Feature", "properties": {"segment_id": 722027, "physicalid": "51049", "street_name": "52 ST", "borough": "brooklyn", "direction": "TW", "total_row_ft": 58.5, "roadbed_ft": 30.5, "median_ft": 0.0, "left_sw_ft": 15.0, "right_sw_ft": 13.0}, "geometry": {"type": "LineString", "coordinates": [[-74.0214780455654, 40.65024847193059], [-74.02169265745495, 40.650047563558196]]}}, {"type": "Feature", "properties": {"segment_id": 722028, "physicalid": "51049", "street_name": "52 ST", "borough": "brooklyn", "direction": "TW", "total_row_ft": 58.9, "roadbed_ft": 30.7, "median_ft": 0.0, "left_sw_ft": 15.0, "right_sw_ft": 13.2}, "geometry": {"type": "LineString", "coordinates": [[-74.0214221370074, 40.65021382699307], [-74.02163721384022, 40.650012483520655]]}}, {"type": "Feature", "properties": {"segment_id": 722029, "physicalid": "51049", "street_name": "52 ST", "borough": "brooklyn", "direction": "TW", "total_row_ft": 59.4, "roadbed_ft": 30.8, "median_ft": 0.0, "left_sw_ft": 15.0, "right_sw_ft": 13.6}, "geometry": {"type": "LineString", "coordinates": [[-74.02136622850747, 40.65017918202821], [-74.02158177050973, 40.64997740324469]]}}, {"type": "Feature", "properties": {"segment_id": 722030, "physicalid": "51049", "street_name": "52 ST", "borough": "brooklyn", "direction": "TW", "total_row_ft": 59.8, "roadbed_ft": 30.7, "median_ft": 0.0, "left_sw_ft": 15.0, "right_sw_ft": 14.1}, "geometry": {"type": "LineString", "coordinates": [[-74.02131032006562, 40.650144537036084], [-74.02152632697569, 40.64994232318702]]}}, {"type": "Feature", "properties": {"segment_id": 722031, "physicalid": "51049", "street_name": "52 ST", "borough": "brooklyn", "direction": "TW", "total_row_ft": 60.3, "roadbed_ft": 30.7, "median_ft": 0.0, "left_sw_ft": 15.0, "right_sw_ft": 14.6}, "geometry": {"type": "LineString", "coordinates": [[-74.02125441168182, 40.65010989201661], [-74.0214708651219, 40.64990726030706]]}}, {"type": "Feature", "properties": {"segment_id": 1660043, "physicalid": "166638", "street_name": "53 ST", "borough": "brooklyn", "direction": "TW", "total_row_ft": 60.4, "roadbed_ft": 30.4, "median_ft": 0.0, "left_sw_ft": 15.0, "right_sw_ft": 15.0}, "geometry": {"type": "LineString", "coordinates": [[-74.02418022753578, 40.65095513812439], [-74.02444874575501, 40.65069694934654]]}}, {"type": "Feature", "properties": {"segment_id": 1660044, "physicalid": "166638", "street_name": "53 ST", "borough": "brooklyn", "direction": "TW", "total_row_ft": 61.1, "roadbed_ft": 31.1, "median_ft": 0.0, "left_sw_ft": 15.0, "right_sw_ft": 15.0}, "geometry": {"type": "LineString", "coordinates": [[-74.02412372887058, 40.650921052477955], [-74.02439224717128, 40.65066286383104]]}}, {"type": "Feature", "properties": {"segment_id": 1660045, "physicalid": "166638", "street_name": "53 ST", "borough": "brooklyn", "direction": "TW", "total_row_ft": 61.9, "roadbed_ft": 31.9, "median_ft": 0.0, "left_sw_ft": 15.0, "right_sw_ft": 15.0}, "geometry": {"type": "LineString", "coordinates": [[-74.0240672302631, 40.65088696680366], [-74.02433574864526, 40.65062877828764]]}}, {"type": "Feature", "properties": {"segment_id": 1660046, "physicalid": "166638", "street_name": "53 ST", "borough": "brooklyn", "direction": "TW", "total_row_ft": 62.6, "roadbed_ft": 32.6, "median_ft": 0.0, "left_sw_ft": 15.0, "right_sw_ft": 15.0}, "geometry": {"type": "LineString", "coordinates": [[-74.0240107317134, 40.650852881101464], [-74.02427925017697, 40.65059469271633]]}}, {"type": "Feature", "properties": {"segment_id": 1660047, "physicalid": "166638", "street_name": "53 ST", "borough": "brooklyn", "direction": "TW", "total_row_ft": 63.4, "roadbed_ft": 33.4, "median_ft": 0.0, "left_sw_ft": 15.0, "right_sw_ft": 15.0}, "geometry": {"type": "LineString", "coordinates": [[-74.02395423322139, 40.65081879537139], [-74.02422275176642, 40.65056060711716]]}}, {"type": "Feature", "properties": {"segment_id": 1660048, "physicalid": "166638", "street_name": "53 ST", "borough": "brooklyn", "direction": "TW", "total_row_ft": 64.1, "roadbed_ft": 34.1, "median_ft": 0.0, "left_sw_ft": 15.0, "right_sw_ft": 15.0}, "geometry": {"type": "LineString", "coordinates": [[-74.02389773478711, 40.65078470961343], [-74.02416625341361, 40.65052652149011]]}}, {"type": "Feature", "properties": {"segment_id": 1660049, "physicalid": "166638", "street_name": "53 ST", "borough": "brooklyn", "direction": "TW", "total_row_ft": 64.7, "roadbed_ft": 34.7, "median_ft": 0.0, "left_sw_ft": 15.0, "right_sw_ft": 15.0}, "geometry": {"type": "LineString", "coordinates": [[-74.02384123641055, 40.65075062382757], [-74.02410975511854, 40.6504924358352]]}}, {"type": "Feature", "properties": {"segment_id": 1660050, "physicalid": "166638", "street_name": "53 ST", "borough": "brooklyn", "direction": "TW", "total_row_ft": 65.1, "roadbed_ft": 35.1, "median_ft": 0.0, "left_sw_ft": 15.0, "right_sw_ft": 15.0}, "geometry": {"type": "LineString", "coordinates": [[-74.02378473809173, 40.65071653801383], [-74.02405325688117, 40.65045835015237]]}}, {"type": "Feature", "properties": {"segment_id": 1660051, "physicalid": "166638", "street_name": "53 ST", "borough": "brooklyn", "direction": "TW", "total_row_ft": 65.5, "roadbed_ft": 35.5, "median_ft": 0.0, "left_sw_ft": 15.0, "right_sw_ft": 15.0}, "geometry": {"type": "LineString", "coordinates": [[-74.02372823983065, 40.6506824521722], [-74.02399675870154, 40.65042426444165]]}}, {"type": "Feature", "properties": {"segment_id": 1660052, "physicalid": "166638", "street_name": "53 ST", "borough": "brooklyn", "direction": "TW", "total_row_ft": 66.0, "roadbed_ft": 36.0, "median_ft": 0.0, "left_sw_ft": 15.0, "right_sw_ft": 15.0}, "geometry": {"type": "LineString", "coordinates": [[-74.02367174162728, 40.6506483663027], [-74.02394026057965, 40.65039017870305]]}}, {"type": "Feature", "properties": {"segment_id": 1660053, "physicalid": "166638", "street_name": "53 ST", "borough": "brooklyn", "direction": "TW", "total_row_ft": 66.5, "roadbed_ft": 36.5, "median_ft": 0.0, "left_sw_ft": 15.0, "right_sw_ft": 15.0}, "geometry": {"type": "LineString", "coordinates": [[-74.02361524348169, 40.650614280405314], [-74.02388376251545, 40.650356092936555]]}}, {"type": "Feature", "properties": {"segment_id": 1660054, "physicalid": "166638", "street_name": "53 ST", "borough": "brooklyn", "direction": "TW", "total_row_ft": 67.0, "roadbed_ft": 37.0, "median_ft": 0.0, "left_sw_ft": 15.0, "right_sw_ft": 15.0}, "geometry": {"type": "LineString", "coordinates": [[-74.02355874539379, 40.65058019448002], [-74.02382726450901, 40.650322007142194]]}}, {"type": "Feature", "properties": {"segment_id": 1660055, "physicalid": "166638", "street_name": "53 ST", "borough": "brooklyn", "direction": "TW", "total_row_ft": 67.5, "roadbed_ft": 37.5, "median_ft": 0.0, "left_sw_ft": 15.0, "right_sw_ft": 15.0}, "geometry": {"type": "LineString", "coordinates": [[-74.0235022473636, 40.65054610852687], [-74.02377076656032, 40.650287921319936]]}}, {"type": "Feature", "properties": {"segment_id": 1660056, "physicalid": "166638", "street_name": "53 ST", "borough": "brooklyn", "direction": "TW", "total_row_ft": 68.0, "roadbed_ft": 38.0, "median_ft": 0.0, "left_sw_ft": 15.0, "right_sw_ft": 15.0}, "geometry": {"type": "LineString", "coordinates": [[-74.02344574939117, 40.650512022545804], [-74.02371426866934, 40.650253835469805]]}}, {"type": "Feature", "properties": {"segment_id": 1660057, "physicalid": "166638", "street_name": "53 ST", "borough": "brooklyn", "direction": "TW", "total_row_ft": 68.2, "roadbed_ft": 38.2, "median_ft": 0.0, "left_sw_ft": 15.0, "right_sw_ft": 15.0}, "geometry": {"type": "LineString", "coordinates": [[-74.02338925147646, 40.650477936536866], [-74.02365777083607, 40.65021974959176]]}}, {"type": "Feature", "properties": {"segment_id": 1660058, "physicalid": "166638", "street_name": "53 ST", "borough": "brooklyn", "direction": "TW", "total_row_ft": 68.0, "roadbed_ft": 38.0, "median_ft": 0.0, "left_sw_ft": 15.0, "right_sw_ft": 15.0}, "geometry": {"type": "LineString", "coordinates": [[-74.02333275361947, 40.65044385050004], [-74.02360127306055, 40.65018566368586]]}}, {"type": "Feature", "properties": {"segment_id": 1660059, "physicalid": "166638", "street_name": "53 ST", "borough": "brooklyn", "direction": "TW", "total_row_ft": 67.8, "roadbed_ft": 37.8, "median_ft": 0.0, "left_sw_ft": 15.0, "right_sw_ft": 15.0}, "geometry": {"type": "LineString", "coordinates": [[-74.02327625582026, 40.65040976443536], [-74.02354477534273, 40.65015157775204]]}}, {"type": "Feature", "properties": {"segment_id": 1660060, "physicalid": "166638", "street_name": "53 ST", "borough": "brooklyn", "direction": "TW", "total_row_ft": 67.6, "roadbed_ft": 37.6, "median_ft": 0.0, "left_sw_ft": 15.0, "right_sw_ft": 15.0}, "geometry": {"type": "LineString", "coordinates": [[-74.02321975807874, 40.650375678342755], [-74.02348827768267, 40.65011749179037]]}}, {"type": "Feature", "properties": {"segment_id": 1660061, "physicalid": "166638", "street_name": "53 ST", "borough": "brooklyn", "direction": "TW", "total_row_ft": 67.4, "roadbed_ft": 37.4, "median_ft": 0.0, "left_sw_ft": 15.0, "right_sw_ft": 15.0}, "geometry": {"type": "LineString", "coordinates": [[-74.02316326039495, 40.65034159222228], [-74.02343178008033, 40.65008340580081]]}}, {"type": "Feature", "properties": {"segment_id": 1660062, "physicalid": "166638", "street_name": "53 ST", "borough": "brooklyn", "direction": "TW", "total_row_ft": 67.3, "roadbed_ft": 37.3, "median_ft": 0.0, "left_sw_ft": 15.0, "right_sw_ft": 15.0}, "geometry": {"type": "LineString", "coordinates": [[-74.02310676276886, 40.650307506073894], [-74.02337528253574, 40.65004931978337]]}}, {"type": "Feature", "properties": {"segment_id": 1660063, "physicalid": "166638", "street_name": "53 ST", "borough": "brooklyn", "direction": "TW", "total_row_ft": 67.2, "roadbed_ft": 37.2, "median_ft": 0.0, "left_sw_ft": 15.0, "right_sw_ft": 15.0}, "geometry": {"type": "LineString", "coordinates": [[-74.02305026520052, 40.650273419897665], [-74.02331878504884, 40.65001523373802]]}}, {"type": "Feature", "properties": {"segment_id": 1660064, "physicalid": "166638", "street_name": "53 ST", "borough": "brooklyn", "direction": "TW", "total_row_ft": 67.2, "roadbed_ft": 37.2, "median_ft": 0.0, "left_sw_ft": 15.0, "right_sw_ft": 15.0}, "geometry": {"type": "LineString", "coordinates": [[-74.02299376768994, 40.65023933369352], [-74.0232622876197, 40.649981147664796]]}}, {"type": "Feature", "properties": {"segment_id": 1660065, "physicalid": "166638", "street_name": "53 ST", "borough": "brooklyn", "direction": "TW", "total_row_ft": 67.1, "roadbed_ft": 37.1, "median_ft": 0.0, "left_sw_ft": 15.0, "right_sw_ft": 15.0}, "geometry": {"type": "LineString", "coordinates": [[-74.02293727023707, 40.6502052474615], [-74.02320579024828, 40.649947061563694]]}}, {"type": "Feature", "properties": {"segment_id": 1660066, "physicalid": "166638", "street_name": "53 ST", "borough": "brooklyn", "direction": "TW", "total_row_ft": 67.0, "roadbed_ft": 37.0, "median_ft": 0.0, "left_sw_ft": 15.0, "right_sw_ft": 15.0}, "geometry": {"type": "LineString", "coordinates": [[-74.02288077284194, 40.65017116120161], [-74.02314929293455, 40.64991297543469]]}}, {"type": "Feature", "properties": {"segment_id": 1660067, "physicalid": "166638", "street_name": "53 ST", "borough": "brooklyn", "direction": "TW", "total_row_ft": 67.0, "roadbed_ft": 37.0, "median_ft": 0.0, "left_sw_ft": 15.0, "right_sw_ft": 15.0}, "geometry": {"type": "LineString", "coordinates": [[-74.02282427550453, 40.650137074913815], [-74.0230927956786, 40.6498788892778]]}}]}