{"type": "FeatureCollection", "features": [{"type": "Feature", "properties": {"segment_id": 909962, "physicalid": "63609", "street_name": "CITY ISLAND AVE", "borough": "bronx", "direction": "TW", "total_row_ft": 76.4, "roadbed_ft": 50.0, "median_ft": 0.0, "left_sw_ft": 13.2, "right_sw_ft": 13.3}, "geometry": {"type": "LineString", "coordinates": [[-73.78383547266084, 40.83973917579226], [-73.7835696475984, 40.83979631147214]]}}, {"type": "Feature", "properties": {"segment_id": 909963, "physicalid": "63609", "street_name": "CITY ISLAND AVE", "borough": "bronx", "direction": "TW", "total_row_ft": 75.3, "roadbed_ft": 50.0, "median_ft": 0.0, "left_sw_ft": 13.3, "right_sw_ft": 12.1}, "geometry": {"type": "LineString", "coordinates": [[-73.78385565858639, 40.839791887339565], [-73.78359365364066, 40.8398482019439]]}}, {"type": "Feature", "properties": {"segment_id": 909964, "physicalid": "63609", "street_name": "CITY ISLAND AVE", "borough": "bronx", "direction": "TW", "total_row_ft": 76.1, "roadbed_ft": 50.0, "median_ft": 0.0, "left_sw_ft": 13.4, "right_sw_ft": 12.7}, "geometry": {"type": "LineString", "coordinates": [[-73.78387584454826, 40.839844598881946], [-73.78361124488379, 40.8399014711888]]}}, {"type": "Feature", "properties": {"segment_id": 909965, "physicalid": "63609", "street_name": "CITY ISLAND AVE", "borough": "bronx", "direction": "TW", "total_row_ft": 76.8, "roadbed_ft": 50.0, "median_ft": 0.0, "left_sw_ft": 13.5, "right_sw_ft": 13.3}, "geometry": {"type": "LineString", "coordinates": [[-73.78389603054212, 40.8398973104203], [-73.78362883615507, 40.839954740430514]]}}, {"type": "Feature", "properties": {"segment_id": 909966, "physicalid": "63610", "street_name": "CITY ISLAND AVE", "borough": "bronx", "direction": "TW", "total_row_ft": 99.7, "roadbed_ft": 51.6, "median_ft": 0.0, "left_sw_ft": 33.4, "right_sw_ft": 14.7}, "geometry": {"type": "LineString", "coordinates": [[-73.78383389614673, 40.83950943733183], [-73.7834867946415, 40.83958242948268]]}}, {"type": "Feature", "properties": {"segment_id": 909967, "physicalid": "63610", "street_name": "CITY ISLAND AVE", "borough": "bronx", "direction": "TW", "total_row_ft": 76.6, "roadbed_ft": 50.1, "median_ft": 0.0, "left_sw_ft": 12.2, "right_sw_ft": 14.3}, "geometry": {"type": "LineString", "coordinates": [[-73.78377435219937, 40.83957891866227], [-73.78350757986524, 40.839635018250874]]}}, {"type": "Feature", "properties": {"segment_id": 909968, "physicalid": "63610", "street_name": "CITY ISLAND AVE", "borough": "bronx", "direction": "TW", "total_row_ft": 97.6, "roadbed_ft": 49.7, "median_ft": 0.0, "left_sw_ft": 12.7, "right_sw_ft": 35.2}, "geometry": {"type": "LineString", "coordinates": [[-73.7837944025493, 40.83963166196392], [-73.78345451670461, 40.83970313648406]]}}, {"type": "Feature", "properties": {"segment_id": 909969, "physicalid": "63611", "street_name": "CITY ISLAND AVE", "borough": "bronx", "direction": "TW", "total_row_ft": 120.9, "roadbed_ft": 98.7, "median_ft": 0.0, "left_sw_ft": 15.0, "right_sw_ft": 7.2}, "geometry": {"type": "LineString", "coordinates": [[-73.7836022964365, 40.838894322864306], [-73.78323437463331, 40.83897440139126]]}}, {"type": "Feature", "properties": {"segment_id": 909970, "physicalid": "63611", "street_name": "CITY ISLAND AVE", "borough": "bronx", "direction": "TW", "total_row_ft": 79.7, "roadbed_ft": 65.2, "median_ft": 0.0, "left_sw_ft": 6.2, "right_sw_ft": 8.2}, "geometry": {"type": "LineString", "coordinates": [[-73.78354154564222, 40.83896464938399], [-73.78326476245029, 40.83902489141162]]}}, {"type": "Feature", "properties": {"segment_id": 909971, "physicalid": "63611", "street_name": "CITY ISLAND AVE", "borough": "bronx", "direction": "TW", "total_row_ft": 76.2, "roadbed_ft": 56.5, "median_ft": 0.0, "left_sw_ft": 10.5, "right_sw_ft": 9.2}, "geometry": {"type": "LineString", "coordinates": [[-73.78356001528627, 40.83901773338812], [-73.78329514980004, 40.83907538153523]]}}, {"type": "Feature", "properties": {"segment_id": 909972, "physicalid": "63611", "street_name": "CITY ISLAND AVE", "borough": "bronx", "direction": "TW", "total_row_ft": 74.7, "roadbed_ft": 52.1, "median_ft": 0.0, "left_sw_ft": 10.4, "right_sw_ft": 12.1}, "geometry": {"type": "LineString", "coordinates": [[-73.78357848516632, 40.839070817343845], [-73.78331901000477, 40.839127292289696]]}}, {"type": "Feature", "properties": {"segment_id": 909973, "physicalid": "63611", "street_name": "CITY ISLAND AVE", "borough": "bronx", "direction": "TW", "total_row_ft": 74.8, "roadbed_ft": 49.6, "median_ft": 0.0, "left_sw_ft": 10.1, "right_sw_ft": 15.1}, "geometry": {"type": "LineString", "coordinates": [[-73.78359695524412, 40.83912390125951], [-73.78333715021813, 40.83918044799951]]}}, {"type": "Feature", "properties": {"segment_id": 909974, "physicalid": "63611", "street_name": "CITY ISLAND AVE", "borough": "bronx", "direction": "TW", "total_row_ft": 74.9, "roadbed_ft": 49.6, "median_ft": 0.0, "left_sw_ft": 9.9, "right_sw_ft": 15.5}, "geometry": {"type": "LineString", "coordinates": [[-73.78361564372574, 40.839176937642115], [-73.78335529046046, 40.83923360370604]]}}, {"type": "Feature", "properties": {"segment_id": 909975, "physicalid": "63611", "street_name": "CITY ISLAND AVE", "borough": "bronx", "direction": "TW", "total_row_ft": 75.1, "roadbed_ft": 49.7, "median_ft": 0.0, "left_sw_ft": 9.6, "right_sw_ft": 15.8}, "geometry": {"type": "LineString", "coordinates": [[-73.78363439954144, 40.83922995937232], [-73.78337343119149, 40.83928675930915]]}}, {"type": "Feature", "properties": {"segment_id": 909976, "physicalid": "63611", "street_name": "CITY ISLAND AVE", "borough": "bronx", "direction": "TW", "total_row_ft": 75.3, "roadbed_ft": 49.7, "median_ft": 0.0, "left_sw_ft": 9.4, "right_sw_ft": 16.2}, "geometry": {"type": "LineString", "coordinates": [[-73.78365315554743, 40.83928298106406], [-73.78339157199669, 40.83933991489909]]}}, {"type": "Feature", "properties": {"segment_id": 909977, "physicalid": "63611", "street_name": "CITY ISLAND AVE", "borough": "bronx", "direction": "TW", "total_row_ft": 74.9, "roadbed_ft": 49.7, "median_ft": 0.0, "left_sw_ft": 9.2, "right_sw_ft": 15.9}, "geometry": {"type": "LineString", "coordinates": [[-73.78367191158331, 40.83933600275229], [-73.78341177534479, 40.83939262158088]]}}, {"type": "Feature", "properties": {"segment_id": 909978, "physicalid": "63611", "street_name": "CITY ISLAND AVE", "borough": "bronx", "direction": "TW", "total_row_ft": 74.3, "roadbed_ft": 49.8, "median_ft": 0.0, "left_sw_ft": 9.0, "right_sw_ft": 15.6}, "geometry": {"type": "LineString", "coordinates": [[-73.78369066763379, 40.8393890244403], [-73.78343255686636, 40.83944520242655]]}}, {"type": "Feature", "properties": {"segment_id": 909979, "physicalid": "63611", "street_name": "CITY ISLAND AVE", "borough": "bronx", "direction": "TW", "total_row_ft": 79.1, "roadbed_ft": 49.7, "median_ft": 0.0, "left_sw_ft": 14.1, "right_sw_ft": 15.3}, "geometry": {"type": "LineString", "coordinates": [[-73.7837280329943, 40.83943799577612], [-73.78345333902902, 40.83949778313559]]}}, {"type": "Feature", "properties": {"segment_id": 909980, "physicalid": "63612", "street_name": "CITY ISLAND AVE", "borough": "bronx", "direction": "TW", "total_row_ft": 71.2, "roadbed_ft": 49.7, "median_ft": 0.0, "left_sw_ft": 8.9, "right_sw_ft": 12.6}, "geometry": {"type": "LineString", "coordinates": [[-73.7832606001707, 40.83824593136612], [-73.78301339461879, 40.83830015694692]]}}, {"type": "Feature", "properties": {"segment_id": 909981, "physicalid": "63612", "street_name": "CITY ISLAND AVE", "borough": "bronx", "direction": "TW", "total_row_ft": 71.6, "roadbed_ft": 49.1, "median_ft": 0.0, "left_sw_ft": 9.3, "right_sw_ft": 13.3}, "geometry": {"type": "LineString", "coordinates": [[-73.7832818339716, 40.838298411576936], [-73.78303327672026, 40.83835293366311]]}}, {"type": "Feature", "properties": {"segment_id": 909982, "physicalid": "63612", "street_name": "CITY ISLAND AVE", "borough": "bronx", "direction": "TW", "total_row_ft": 72.0, "roadbed_ft": 48.9, "median_ft": 0.0, "left_sw_ft": 9.7, "right_sw_ft": 13.4}, "geometry": {"type": "LineString", "coordinates": [[-73.78330306778793, 40.8383508917874], [-73.78305315885328, 40.838405710375376]]}}, {"type": "Feature", "properties": {"segment_id": 909983, "physicalid": "63612", "street_name": "CITY ISLAND AVE", "borough": "bronx", "direction": "TW", "total_row_ft": 72.4, "roadbed_ft": 49.3, "median_ft": 0.0, "left_sw_ft": 9.5, "right_sw_ft": 13.5}, "geometry": {"type": "LineString", "coordinates": [[-73.78332430194583, 40.83840337192583], [-73.78307304101784, 40.838458487083784]]}}, {"type": "Feature", "properties": {"segment_id": 909984, "physicalid": "63612", "street_name": "CITY ISLAND AVE", "borough": "bronx", "direction": "TW", "total_row_ft": 72.8, "roadbed_ft": 49.3, "median_ft": 0.0, "left_sw_ft": 9.9, "right_sw_ft": 13.5}, "geometry": {"type": "LineString", "coordinates": [[-73.78334553581702, 40.83845585213019], [-73.78309292293048, 40.838511263850414]]}}, {"type": "Feature", "properties": {"segment_id": 909985, "physicalid": "63612", "street_name": "CITY ISLAND AVE", "borough": "bronx", "direction": "TW", "total_row_ft": 73.2, "roadbed_ft": 49.6, "median_ft": 0.0, "left_sw_ft": 10.1, "right_sw_ft": 13.5}, "geometry": {"type": "LineString", "coordinates": [[-73.78336676960845, 40.83850833235497], [-73.78311261586579, 40.83856408207288]]}}, {"type": "Feature", "properties": {"segment_id": 909986, "physicalid": "63612", "street_name": "CITY ISLAND AVE", "borough": "bronx", "direction": "TW", "total_row_ft": 73.5, "roadbed_ft": 49.7, "median_ft": 0.0, "left_sw_ft": 10.5, "right_sw_ft": 13.3}, "geometry": {"type": "LineString", "coordinates": [[-73.78338800366612, 40.83856081252432], [-73.78313286508444, 40.838616778275906]]}}, {"type": "Feature", "properties": {"segment_id": 909987, "physicalid": "63612", "street_name": "CITY ISLAND AVE", "borough": "bronx", "direction": "TW", "total_row_ft": 73.7, "roadbed_ft": 50.0, "median_ft": 0.0, "left_sw_ft": 10.7, "right_sw_ft": 13.0}, "geometry": {"type": "LineString", "coordinates": [[-73.78340849160622, 40.83861345636179], [-73.78315256890207, 40.83866959411727]]}}, {"type": "Feature", "properties": {"segment_id": 909988, "physicalid": "63612", "street_name": "CITY ISLAND AVE", "borough": "bronx", "direction": "TW", "total_row_ft": 74.2, "roadbed_ft": 49.7, "median_ft": 0.0, "left_sw_ft": 10.7, "right_sw_ft": 13.7}, "geometry": {"type": "LineString", "coordinates": [[-73.78342812528399, 40.838666287589476], [-73.78317062900808, 40.83872277051488]]}}, {"type": "Feature", "properties": {"segment_id": 909989, "physicalid": "63612", "street_name": "CITY ISLAND AVE", "borough": "bronx", "direction": "TW", "total_row_ft": 74.5, "roadbed_ft": 49.7, "median_ft": 0.0, "left_sw_ft": 10.7, "right_sw_ft": 14.1}, "geometry": {"type": "LineString", "coordinates": [[-73.78344775900068, 40.838719118811646], [-73.7831891431375, 40.838775847324044]]}}, {"type": "Feature", "properties": {"segment_id": 909990, "physicalid": "63612", "street_name": "CITY ISLAND AVE", "borough": "bronx", "direction": "TW", "total_row_ft": 74.8, "roadbed_ft": 49.8, "median_ft": 0.0, "left_sw_ft": 10.6, "right_sw_ft": 14.4}, "geometry": {"type": "LineString", "coordinates": [[-73.78346739409679, 40.838771949734294], [-73.78320765746243, 40.83882892409334]]}}, {"type": "Feature", "properties": {"segment_id": 909991, "physicalid": "63612", "street_name": "CITY ISLAND AVE", "borough": "bronx", "direction": "TW", "total_row_ft": 120.0, "roadbed_ft": 64.9, "median_ft": 0.0, "left_sw_ft": 24.7, "right_sw_ft": 30.4}, "geometry": {"type": "LineString", "coordinates": [[-73.78356911871533, 40.83880677382382], [-73.78315247155936, 40.83889816720627]]}}, {"type": "Feature", "properties": {"segment_id": 909992, "physicalid": "63613", "street_name": "CITY ISLAND AVE", "borough": "bronx", "direction": "TW", "total_row_ft": 38.5, "roadbed_ft": 9.3, "median_ft": 0.0, "left_sw_ft": 13.8, "right_sw_ft": 15.4}, "geometry": {"type": "LineString", "coordinates": [[-73.7830321614322, 40.837577625535644], [-73.78276340561928, 40.83763707352397]]}}, {"type": "Feature", "properties": {"segment_id": 909993, "physicalid": "63613", "street_name": "CITY ISLAND AVE", "borough": "bronx", "direction": "TW", "total_row_ft": 77.1, "roadbed_ft": 48.2, "median_ft": 0.0, "left_sw_ft": 13.7, "right_sw_ft": 15.1}, "geometry": {"type": "LineString", "coordinates": [[-73.78305050293635, 40.837630743451896], [-73.78278311759621, 40.837689888295934]]}}, {"type": "Feature", "properties": {"segment_id": 909994, "physicalid": "63613", "street_name": "CITY ISLAND AVE", "borough": "bronx", "direction": "TW", "total_row_ft": 77.2, "roadbed_ft": 48.6, "median_ft": 0.0, "left_sw_ft": 13.7, "right_sw_ft": 14.8}, "geometry": {"type": "LineString", "coordinates": [[-73.78307058657097, 40.83768347601476], [-73.7828028301342, 40.837742702946876]]}}, {"type": "Feature", "properties": {"segment_id": 909995, "physicalid": "63613", "street_name": "CITY ISLAND AVE", "borough": "bronx", "direction": "TW", "total_row_ft": 90.6, "roadbed_ft": 48.8, "median_ft": 13.4, "left_sw_ft": 13.9, "right_sw_ft": 14.6}, "geometry": {"type": "LineString", "coordinates": [[-73.783090669457, 40.8377362087463], [-73.78282254283553, 40.83779551756471]]}}, {"type": "Feature", "properties": {"segment_id": 909996, "physicalid": "63613", "street_name": "CITY ISLAND AVE", "borough": "bronx", "direction": "TW", "total_row_ft": 91.5, "roadbed_ft": 49.1, "median_ft": 13.4, "left_sw_ft": 14.1, "right_sw_ft": 14.9}, "geometry": {"type": "LineString", "coordinates": [[-73.78311075239229, 40.83778894147001], [-73.78283976373014, 40.83784888336259]]}}, {"type": "Feature", "properties": {"segment_id": 909997, "physicalid": "63613", "street_name": "CITY ISLAND AVE", "borough": "bronx", "direction": "TW", "total_row_ft": 91.5, "roadbed_ft": 49.3, "median_ft": 13.4, "left_sw_ft": 14.3, "right_sw_ft": 14.5}, "geometry": {"type": "LineString", "coordinates": [[-73.78313083535943, 40.83784167418972], [-73.78285977111608, 40.83790163280368]]}}, {"type": "Feature", "properties": {"segment_id": 909998, "physicalid": "63613", "street_name": "CITY ISLAND AVE", "borough": "bronx", "direction": "TW", "total_row_ft": 91.6, "roadbed_ft": 49.3, "median_ft": 13.4, "left_sw_ft": 14.5, "right_sw_ft": 14.3}, "geometry": {"type": "LineString", "coordinates": [[-73.78315091811281, 40.837894406959784], [-73.78287967635181, 40.83795440484306]]}}, {"type": "Feature", "properties": {"segment_id": 909999, "physicalid": "63613", "street_name": "CITY ISLAND AVE", "borough": "bronx", "direction": "TW", "total_row_ft": 91.9, "roadbed_ft": 49.4, "median_ft": 13.4, "left_sw_ft": 14.9, "right_sw_ft": 14.2}, "geometry": {"type": "LineString", "coordinates": [[-73.78317177945078, 40.837946967511215], [-73.78289937255954, 40.83800722312161]]}}, {"type": "Feature", "properties": {"segment_id": 910000, "physicalid": "63613", "street_name": "CITY ISLAND AVE", "borough": "bronx", "direction": "TW", "total_row_ft": 92.2, "roadbed_ft": 49.3, "median_ft": 13.4, "left_sw_ft": 15.3, "right_sw_ft": 14.2}, "geometry": {"type": "LineString", "coordinates": [[-73.78319267011344, 40.837999521579114], [-73.78291906807459, 40.838060041556425]]}}, {"type": "Feature", "properties": {"segment_id": 910001, "physicalid": "63613", "street_name": "CITY ISLAND AVE", "borough": "bronx", "direction": "TW", "total_row_ft": 92.5, "roadbed_ft": 49.0, "median_ft": 13.3, "left_sw_ft": 16.0, "right_sw_ft": 14.2}, "geometry": {"type": "LineString", "coordinates": [[-73.78321356109097, 40.838052075580435], [-73.78293876363479, 40.83811285998434]]}}, {"type": "Feature", "properties": {"segment_id": 910002, "physicalid": "63613", "street_name": "CITY ISLAND AVE", "borough": "bronx", "direction": "TW", "total_row_ft": 92.9, "roadbed_ft": 49.0, "median_ft": 13.3, "left_sw_ft": 16.4, "right_sw_ft": 14.2}, "geometry": {"type": "LineString", "coordinates": [[-73.78323445266247, 40.838104629453404], [-73.78295845956812, 40.83816567833283]]}}, {"type": "Feature", "properties": {"segment_id": 910003, "physicalid": "63613", "street_name": "CITY ISLAND AVE", "borough": "bronx", "direction": "TW", "total_row_ft": 79.9, "roadbed_ft": 50.6, "median_ft": 0.0, "left_sw_ft": 16.6, "right_sw_ft": 12.6}, "geometry": {"type": "LineString", "coordinates": [[-73.78325534415686, 40.838157183346496], [-73.78297815553272, 40.83821849667741]]}}, {"type": "Feature", "properties": {"segment_id": 1113911, "physicalid": "77200", "street_name": "ROCHELLE ST", "borough": "bronx", "direction": "TW", "total_row_ft": 150.0, "roadbed_ft": 120.0, "median_ft": 0.0, "left_sw_ft": 15.0, "right_sw_ft": 15.0}, "geometry": {"type": "LineString", "coordinates": [[-73.78338170871466, 40.8390698520756], [-73.78327127450684, 40.83875134466495]]}}, {"type": "Feature", "properties": {"segment_id": 1113912, "physicalid": "77200", "street_name": "ROCHELLE ST", "borough": "bronx", "direction": "TW", "total_row_ft": 120.0, "roadbed_ft": 46.4, "median_ft": 0.0, "left_sw_ft": 29.2, "right_sw_ft": 44.4}, "geometry": {"type": "LineString", "coordinates": [[-73.78331181163934, 40.83908383065653], [-73.78320137774297, 40.8387653231797]]}}, {"type": "Feature", "properties": {"segment_id": 1113913, "physicalid": "77200", "street_name": "ROCHELLE ST", "borough": "bronx", "direction": "TW", "total_row_ft": 43.2, "roadbed_ft": 25.1, "median_ft": 0.0, "left_sw_ft": 15.0, "right_sw_ft": 3.2}, "geometry": {"type": "LineString", "coordinates": [[-73.78324191453466, 40.83909780919507], [-73.78316950957112, 40.838888982437375]]}}, {"type": "Feature", "properties": {"segment_id": 1113914, "physicalid": "77200", "street_name": "ROCHELLE ST", "borough": "bronx", "direction": "TW", "total_row_ft": 42.9, "roadbed_ft": 24.9, "median_ft": 0.0, "left_sw_ft": 15.0, "right_sw_ft": 3.0}, "geometry": {"type": "LineString", "coordinates": [[-73.78317201740059, 40.83911178769118], [-73.78309980550827, 40.838903517151]]}}, {"type": "Feature", "properties": {"segment_id": 1113915, "physicalid": "77200", "street_name": "ROCHELLE ST", "borough": "bronx", "direction": "TW", "total_row_ft": 42.7, "roadbed_ft": 24.4, "median_ft": 0.0, "left_sw_ft": 15.0, "right_sw_ft": 3.3}, "geometry": {"type": "LineString", "coordinates": [[-73.78310212023715, 40.83912576614494], [-73.7830300523431, 40.83891791029051]]}}, {"type": "Feature", "properties": {"segment_id": 1113916, "physicalid": "77200", "street_name": "ROCHELLE ST", "borough": "bronx", "direction": "TW", "total_row_ft": 42.6, "roadbed_ft": 23.3, "median_ft": 0.0, "left_sw_ft": 15.0, "right_sw_ft": 4.3}, "geometry": {"type": "LineString", "coordinates": [[-73.78303222304437, 40.83913974455629], [-73.78296018894535, 40.838931985543745]]}}, {"type": "Feature", "properties": {"segment_id": 1113917, "physicalid": "77200", "street_name": "ROCHELLE ST", "borough": "bronx", "direction": "TW", "total_row_ft": 42.9, "roadbed_ft": 22.7, "median_ft": 0.0, "left_sw_ft": 15.0, "right_sw_ft": 5.1}, "geometry": {"type": "LineString", "coordinates": [[-73.78296232582218, 40.83915372292526], [-73.78288998276226, 40.83894507218034]]}}, {"type": "Feature", "properties": {"segment_id": 1113918, "physicalid": "77200", "street_name": "ROCHELLE ST", "borough": "bronx", "direction": "TW", "total_row_ft": 43.6, "roadbed_ft": 22.2, "median_ft": 0.0, "left_sw_ft": 15.0, "right_sw_ft": 6.4}, "geometry": {"type": "LineString", "coordinates": [[-73.78289242857063, 40.83916770125184], [-73.78281940073533, 40.83895707484406]]}}, {"type": "Feature", "properties": {"segment_id": 1113919, "physicalid": "77200", "street_name": "ROCHELLE ST", "borough": "bronx", "direction": "TW", "total_row_ft": 44.0, "roadbed_ft": 21.6, "median_ft": 0.0, "left_sw_ft": 15.0, "right_sw_ft": 7.4}, "geometry": {"type": "LineString", "coordinates": [[-73.78282253128971, 40.839181679536004], [-73.78274899169669, 40.83896957647278]]}}, {"type": "Feature", "properties": {"segment_id": 1113920, "physicalid": "77200", "street_name": "ROCHELLE ST", "borough": "bronx", "direction": "TW", "total_row_ft": 43.8, "roadbed_ft": 21.2, "median_ft": 0.0, "left_sw_ft": 15.0, "right_sw_ft": 7.5}, "geometry": {"type": "LineString", "coordinates": [[-73.78275263397941, 40.839195657777815], [-73.78267928124384, 40.838984093010446]]}}, {"type": "Feature", "properties": {"segment_id": 1113921, "physicalid": "77200", "street_name": "ROCHELLE ST", "borough": "bronx", "direction": "TW", "total_row_ft": 43.5, "roadbed_ft": 21.1, "median_ft": 0.0, "left_sw_ft": 15.0, "right_sw_ft": 7.4}, "geometry": {"type": "LineString", "coordinates": [[-73.78268273663974, 40.839209635977184], [-73.78260957073743, 40.83899860943923]]}}, {"type": "Feature", "properties": {"segment_id": 1113922, "physicalid": "77200", "street_name": "ROCHELLE ST", "borough": "bronx", "direction": "TW", "total_row_ft": 31.6, "roadbed_ft": 20.9, "median_ft": 0.0, "left_sw_ft": 3.4, "right_sw_ft": 7.3}, "geometry": {"type": "LineString", "coordinates": [[-73.78256892606278, 40.839096958577684], [-73.78253986009211, 40.839013125512906]]}}, {"type": "Feature", "properties": {"segment_id": 1113923, "physicalid": "77200", "street_name": "ROCHELLE ST", "borough": "bronx", "direction": "TW", "total_row_ft": 31.4, "roadbed_ft": 20.8, "median_ft": 0.0, "left_sw_ft": 3.5, "right_sw_ft": 7.2}, "geometry": {"type": "LineString", "coordinates": [[-73.78249907365687, 40.83911106607792], [-73.78247014941638, 40.83902764154438]]}}, {"type": "Feature", "properties": {"segment_id": 1113924, "physicalid": "77200", "street_name": "ROCHELLE ST", "borough": "bronx", "direction": "TW", "total_row_ft": 34.6, "roadbed_ft": 20.8, "median_ft": 0.0, "left_sw_ft": 3.4, "right_sw_ft": 10.4}, "geometry": {"type": "LineString", "coordinates": [[-73.7824292212213, 40.83912517353579], [-73.78239733815711, 40.83903321474579]]}}, {"type": "Feature", "properties": {"segment_id": 1113925, "physicalid": "77200", "street_name": "ROCHELLE ST", "borough": "bronx", "direction": "TW", "total_row_ft": 34.4, "roadbed_ft": 21.0, "median_ft": 0.0, "left_sw_ft": 3.4, "right_sw_ft": 10.0}, "geometry": {"type": "LineString", "coordinates": [[-73.78235936864279, 40.83913928062443], [-73.78232770563433, 40.83904795625532]]}}, {"type": "Feature", "properties": {"segment_id": 1113926, "physicalid": "77200", "street_name": "ROCHELLE ST", "borough": "bronx", "direction": "TW", "total_row_ft": 34.3, "roadbed_ft": 21.3, "median_ft": 0.0, "left_sw_ft": 3.5, "right_sw_ft": 9.5}, "geometry": {"type": "LineString", "coordinates": [[-73.78228967593063, 40.83915384885309], [-73.78225807308068, 40.83906269772277]]}}, {"type": "Feature", "properties": {"segment_id": 1113927, "physicalid": "77200", "street_name": "ROCHELLE ST", "borough": "bronx", "direction": "TW", "total_row_ft": 34.3, "roadbed_ft": 21.6, "median_ft": 0.0, "left_sw_ft": 3.6, "right_sw_ft": 9.1}, "geometry": {"type": "LineString", "coordinates": [[-73.78222001994631, 40.83916852306079], [-73.78218844049002, 40.83907743913039]]}}, {"type": "Feature", "properties": {"segment_id": 1113928, "physicalid": "77200", "street_name": "ROCHELLE ST", "borough": "bronx", "direction": "TW", "total_row_ft": 34.3, "roadbed_ft": 21.9, "median_ft": 0.0, "left_sw_ft": 3.8, "right_sw_ft": 8.6}, "geometry": {"type": "LineString", "coordinates": [[-73.78215036394545, 40.839183197267374], [-73.78211880786745, 40.839092180492884]]}}, {"type": "Feature", "properties": {"segment_id": 1113929, "physicalid": "77200", "street_name": "ROCHELLE ST", "borough": "bronx", "direction": "TW", "total_row_ft": 34.3, "roadbed_ft": 22.2, "median_ft": 0.0, "left_sw_ft": 4.0, "right_sw_ft": 8.1}, "geometry": {"type": "LineString", "coordinates": [[-73.78208070791386, 40.83919787143183], [-73.78204917521401, 40.839106921813325]]}}, {"type": "Feature", "properties": {"segment_id": 1113930, "physicalid": "77200", "street_name": "ROCHELLE ST", "borough": "bronx", "direction": "TW", "total_row_ft": 34.4, "roadbed_ft": 22.3, "median_ft": 0.0, "left_sw_ft": 4.2, "right_sw_ft": 7.8}, "geometry": {"type": "LineString", "coordinates": [[-73.78201105185155, 40.8392125455542], [-73.78197943269977, 40.839121346308325]]}}, {"type": "Feature", "properties": {"segment_id": 1113931, "physicalid": "77200", "street_name": "ROCHELLE ST", "borough": "bronx", "direction": "TW", "total_row_ft": 34.3, "roadbed_ft": 22.5, "median_ft": 0.0, "left_sw_ft": 4.2, "right_sw_ft": 7.5}, "geometry": {"type": "LineString", "coordinates": [[-73.78194113066422, 40.83922645502073], [-73.7819096000886, 40.839135510980135]]}}, {"type": "Feature", "properties": {"segment_id": 1113932, "physicalid": "77200", "street_name": "ROCHELLE ST", "borough": "bronx", "direction": "TW", "total_row_ft": 33.9, "roadbed_ft": 22.6, "median_ft": 0.0, "left_sw_ft": 4.0, "right_sw_ft": 7.3}, "geometry": {"type": "LineString", "coordinates": [[-73.78187098943509, 40.83923972985874], [-73.78183976744766, 40.83914967560965]]}}, {"type": "Feature", "properties": {"segment_id": 1113933, "physicalid": "77200", "street_name": "ROCHELLE ST", "borough": "bronx", "direction": "TW", "total_row_ft": 33.6, "roadbed_ft": 22.8, "median_ft": 0.0, "left_sw_ft": 3.7, "right_sw_ft": 7.1}, "geometry": {"type": "LineString", "coordinates": [[-73.78180084817282, 40.8392530046393], [-73.78176993486768, 40.83916384045839]]}}, {"type": "Feature", "properties": {"segment_id": 1113934, "physicalid": "77200", "street_name": "ROCHELLE ST", "borough": "bronx", "direction": "TW", "total_row_ft": 41.5, "roadbed_ft": 22.9, "median_ft": 0.0, "left_sw_ft": 3.6, "right_sw_ft": 15.0}, "geometry": {"type": "LineString", "coordinates": [[-73.78173081326915, 40.8392665862317], [-73.78166364150647, 40.83907283977927]]}}, {"type": "Feature", "properties": {"segment_id": 1113935, "physicalid": "77200", "street_name": "ROCHELLE ST", "borough": "bronx", "direction": "TW", "total_row_ft": 41.6, "roadbed_ft": 23.1, "median_ft": 0.0, "left_sw_ft": 3.5, "right_sw_ft": 15.0}, "geometry": {"type": "LineString", "coordinates": [[-73.78166084733807, 40.839280366804694], [-73.78159374406705, 40.839086817319014]]}}, {"type": "Feature", "properties": {"segment_id": 1113936, "physicalid": "77200", "street_name": "ROCHELLE ST", "borough": "bronx", "direction": "TW", "total_row_ft": 41.7, "roadbed_ft": 23.1, "median_ft": 0.0, "left_sw_ft": 3.5, "right_sw_ft": 15.0}, "geometry": {"type": "LineString", "coordinates": [[-73.78159088137802, 40.83929414733524], [-73.78152384659825, 40.83910079481637]]}}, {"type": "Feature", "properties": {"segment_id": 1113937, "physicalid": "77201", "street_name": "ROCHELLE ST", "borough": "bronx", "direction": "TW", "total_row_ft": 46.9, "roadbed_ft": 24.8, "median_ft": 0.0, "left_sw_ft": 7.1, "right_sw_ft": 15.0}, "geometry": {"type": "LineString", "coordinates": [[-73.78522343163087, 40.838582342072115], [-73.78515270694592, 40.83837718708919]]}}, {"type": "Feature", "properties": {"segment_id": 1113938, "physicalid": "77201", "street_name": "ROCHELLE ST", "borough": "bronx", "direction": "TW", "total_row_ft": 47.5, "roadbed_ft": 25.0, "median_ft": 0.0, "left_sw_ft": 7.5, "right_sw_ft": 15.0}, "geometry": {"type": "LineString", "coordinates": [[-73.78515379277032, 40.83859706840148], [-73.78508278470377, 40.83839109077312]]}}, {"type": "Feature", "properties": {"segment_id": 1113939, "physicalid": "77201", "street_name": "ROCHELLE ST", "borough": "bronx", "direction": "TW", "total_row_ft": 48.5, "roadbed_ft": 25.6, "median_ft": 0.0, "left_sw_ft": 7.9, "right_sw_ft": 15.0}, "geometry": {"type": "LineString", "coordinates": [[-73.78508414932041, 40.83861178146549], [-73.78501286243241, 40.838404994414624]]}}, {"type": "Feature", "properties": {"segment_id": 1113940, "physicalid": "77201", "street_name": "ROCHELLE ST", "borough": "bronx", "direction": "TW", "total_row_ft": 48.9, "roadbed_ft": 26.2, "median_ft": 0.0, "left_sw_ft": 7.7, "right_sw_ft": 15.0}, "geometry": {"type": "LineString", "coordinates": [[-73.78501384640144, 40.838624581607384], [-73.7849429401318, 40.838418898013714]]}}, {"type": "Feature", "properties": {"segment_id": 1113941, "physicalid": "77201", "street_name": "ROCHELLE ST", "borough": "bronx", "direction": "TW", "total_row_ft": 49.2, "roadbed_ft": 26.8, "median_ft": 0.0, "left_sw_ft": 7.4, "right_sw_ft": 15.0}, "geometry": {"type": "LineString", "coordinates": [[-73.78494354351217, 40.83863738187106], [-73.784873017802, 40.83843280157039]]}}, {"type": "Feature", "properties": {"segment_id": 1113942, "physicalid": "77201", "street_name": "ROCHELLE ST", "borough": "bronx", "direction": "TW", "total_row_ft": 49.2, "roadbed_ft": 27.0, "median_ft": 0.0, "left_sw_ft": 7.2, "right_sw_ft": 15.0}, "geometry": {"type": "LineString", "coordinates": [[-73.78487324057764, 40.83865018203897], [-73.78480309544294, 40.83844670508462]]}}, {"type": "Feature", "properties": {"segment_id": 1113943, "physicalid": "77201", "street_name": "ROCHELLE ST", "borough": "bronx", "direction": "TW", "total_row_ft": 48.7, "roadbed_ft": 26.7, "median_ft": 0.0, "left_sw_ft": 7.0, "right_sw_ft": 15.0}, "geometry": {"type": "LineString", "coordinates": [[-73.78480293751618, 40.83866298187429], [-73.78473317305469, 40.83846060855644]]}}, {"type": "Feature", "properties": {"segment_id": 1113944, "physicalid": "77201", "street_name": "ROCHELLE ST", "borough": "bronx", "direction": "TW", "total_row_ft": 48.0, "roadbed_ft": 25.8, "median_ft": 0.0, "left_sw_ft": 7.2, "right_sw_ft": 15.0}, "geometry": {"type": "LineString", "coordinates": [[-73.78473296161023, 40.838676730760525], [-73.78466325063717, 40.83847451198585]]}}, {"type": "Feature", "properties": {"segment_id": 1113945, "physicalid": "77201", "street_name": "ROCHELLE ST", "borough": "bronx", "direction": "TW", "total_row_ft": 47.3, "roadbed_ft": 24.6, "median_ft": 0.0, "left_sw_ft": 7.7, "right_sw_ft": 15.0}, "geometry": {"type": "LineString", "coordinates": [[-73.78466319224975, 40.83869107883872], [-73.78459332819045, 40.83848841537283]]}}, {"type": "Feature", "properties": {"segment_id": 1113946, "physicalid": "77201", "street_name": "ROCHELLE ST", "borough": "bronx", "direction": "TW", "total_row_ft": 47.4, "roadbed_ft": 24.8, "median_ft": 0.0, "left_sw_ft": 7.6, "right_sw_ft": 15.0}, "geometry": {"type": "LineString", "coordinates": [[-73.7845934227465, 40.83870542654775], [-73.7845234057145, 40.838502318717374]]}}, {"type": "Feature", "properties": {"segment_id": 1113947, "physicalid": "77201", "street_name": "ROCHELLE ST", "borough": "bronx", "direction": "TW", "total_row_ft": 47.6, "roadbed_ft": 25.2, "median_ft": 0.0, "left_sw_ft": 7.4, "right_sw_ft": 15.0}, "geometry": {"type": "LineString", "coordinates": [[-73.78452365732123, 40.83871978613138], [-73.7844534832093, 40.83851622201951]]}}, {"type": "Feature", "properties": {"segment_id": 1113948, "physicalid": "77201", "street_name": "ROCHELLE ST", "borough": "bronx", "direction": "TW", "total_row_ft": 48.0, "roadbed_ft": 25.6, "median_ft": 0.0, "left_sw_ft": 7.4, "right_sw_ft": 15.0}, "geometry": {"type": "LineString", "coordinates": [[-73.78445398510748, 40.838734416152185], [-73.78438356067491, 40.83853012527923]]}}, {"type": "Feature", "properties": {"segment_id": 1113949, "physicalid": "77201", "street_name": "ROCHELLE ST", "borough": "bronx", "direction": "TW", "total_row_ft": 48.4, "roadbed_ft": 26.5, "median_ft": 0.0, "left_sw_ft": 6.9, "right_sw_ft": 15.0}, "geometry": {"type": "LineString", "coordinates": [[-73.78438431272093, 40.838749045718444], [-73.78431363811129, 40.83854402849653]]}}, {"type": "Feature", "properties": {"segment_id": 1113950, "physicalid": "77201", "street_name": "ROCHELLE ST", "borough": "bronx", "direction": "TW", "total_row_ft": 48.9, "roadbed_ft": 27.3, "median_ft": 0.0, "left_sw_ft": 6.7, "right_sw_ft": 15.0}, "geometry": {"type": "LineString", "coordinates": [[-73.7843146403457, 40.83876367536432], [-73.78424371551844, 40.838557931671374]]}}, {"type": "Feature", "properties": {"segment_id": 1113951, "physicalid": "77201", "street_name": "ROCHELLE ST", "borough": "bronx", "direction": "TW", "total_row_ft": 49.2, "roadbed_ft": 27.3, "median_ft": 0.0, "left_sw_ft": 6.9, "right_sw_ft": 15.0}, "geometry": {"type": "LineString", "coordinates": [[-73.78424496787446, 40.83877830477849], [-73.78417379289637, 40.83857183480381]]}}, {"type": "Feature", "properties": {"segment_id": 1113952, "physicalid": "77201", "street_name": "ROCHELLE ST", "borough": "bronx", "direction": "TW", "total_row_ft": 49.1, "roadbed_ft": 26.9, "median_ft": 0.0, "left_sw_ft": 7.2, "right_sw_ft": 15.0}, "geometry": {"type": "LineString", "coordinates": [[-73.78417531904714, 40.838793002827515], [-73.78410387024506, 40.83858573789384]]}}, {"type": "Feature", "properties": {"segment_id": 1113953, "physicalid": "77201", "street_name": "ROCHELLE ST", "borough": "bronx", "direction": "TW", "total_row_ft": 49.2, "roadbed_ft": 26.7, "median_ft": 0.0, "left_sw_ft": 7.5, "right_sw_ft": 15.0}, "geometry": {"type": "LineString", "coordinates": [[-73.78410577908721, 40.83880801673574], [-73.78403394756454, 40.83859964094144]]}}, {"type": "Feature", "properties": {"segment_id": 1113954, "physicalid": "77201", "street_name": "ROCHELLE ST", "borough": "bronx", "direction": "TW", "total_row_ft": 49.2, "roadbed_ft": 26.5, "median_ft": 0.0, "left_sw_ft": 7.7, "right_sw_ft": 15.0}, "geometry": {"type": "LineString", "coordinates": [[-73.78403623910563, 40.8388230306302], [-73.78396402485478, 40.83861354394661]]}}, {"type": "Feature", "properties": {"segment_id": 1113955, "physicalid": "77201", "street_name": "ROCHELLE ST", "borough": "bronx", "direction": "TW", "total_row_ft": 49.4, "roadbed_ft": 26.5, "median_ft": 0.0, "left_sw_ft": 7.9, "right_sw_ft": 15.0}, "geometry": {"type": "LineString", "coordinates": [[-73.78396669904379, 40.83883804434092], [-73.7838941021158, 40.838627446909356]]}}, {"type": "Feature", "properties": {"segment_id": 1113956, "physicalid": "77201", "street_name": "ROCHELLE ST", "borough": "bronx", "direction": "TW", "total_row_ft": 50.0, "roadbed_ft": 26.8, "median_ft": 0.0, "left_sw_ft": 8.1, "right_sw_ft": 15.0}, "geometry": {"type": "LineString", "coordinates": [[-73.78389715885353, 40.838853057728215], [-73.7838241793476, 40.83864134982969]]}}, {"type": "Feature", "properties": {"segment_id": 1113957, "physicalid": "77201", "street_name": "ROCHELLE ST", "borough": "bronx", "direction": "TW", "total_row_ft": 43.8, "roadbed_ft": 27.1, "median_ft": 0.0, "left_sw_ft": 8.3, "right_sw_ft": 8.4}, "geometry": {"type": "LineString", "coordinates": [[-73.78382757753857, 40.838867951865055], [-73.7837875113896, 40.838751722890756]]}}, {"type": "Feature", "properties": {"segment_id": 1113958, "physicalid": "77201", "street_name": "ROCHELLE ST", "borough": "bronx", "direction": "TW", "total_row_ft": 44.0, "roadbed_ft": 27.5, "median_ft": 0.0, "left_sw_ft": 8.1, "right_sw_ft": 8.4}, "geometry": {"type": "LineString", "coordinates": [[-73.7837579194638, 40.838882623375326], [-73.7837176468482, 40.83876579510221]]}}, {"type": "Feature", "properties": {"segment_id": 1113959, "physicalid": "77201", "street_name": "ROCHELLE ST", "borough": "bronx", "direction": "TW", "total_row_ft": 44.2, "roadbed_ft": 28.4, "median_ft": 0.0, "left_sw_ft": 7.7, "right_sw_ft": 8.2}, "geometry": {"type": "LineString", "coordinates": [[-73.78368826138188, 40.838897294911966], [-73.78364782332663, 40.838779986353536]]}}, {"type": "Feature", "properties": {"segment_id": 1113960, "physicalid": "77201", "street_name": "ROCHELLE ST", "borough": "bronx", "direction": "TW", "total_row_ft": 44.4, "roadbed_ft": 29.1, "median_ft": 0.0, "left_sw_ft": 7.3, "right_sw_ft": 8.0}, "geometry": {"type": "LineString", "coordinates": [[-73.78361860330098, 40.83891196649854], [-73.78357800185046, 40.838794183582614]]}}, {"type": "Feature", "properties": {"segment_id": 1113961, "physicalid": "77201", "street_name": "ROCHELLE ST", "borough": "bronx", "direction": "TW", "total_row_ft": 46.5, "roadbed_ft": 29.9, "median_ft": 0.0, "left_sw_ft": 6.9, "right_sw_ft": 9.8}, "geometry": {"type": "LineString", "coordinates": [[-73.78354894523547, 40.83892663817681], [-73.78350638805074, 40.83880318138291]]}}, {"type": "Feature", "properties": {"segment_id": 1113962, "physicalid": "77201", "street_name": "ROCHELLE ST", "borough": "bronx", "direction": "TW", "total_row_ft": 150.0, "roadbed_ft": 120.0, "median_ft": 0.0, "left_sw_ft": 15.0, "right_sw_ft": 15.0}, "geometry": {"type": "LineString", "coordinates": [[-73.783514476726, 40.83904339343055], [-73.78340464212467, 40.83872476646079]]}}, {"type": "Feature", "properties": {"segment_id": 1407360, "physicalid": "95423", "street_name": "BUCKLEY ST", "borough": "bronx", "direction": "TW", "total_row_ft": 47.1, "roadbed_ft": 28.2, "median_ft": 0.0, "left_sw_ft": 9.3, "right_sw_ft": 9.7}, "geometry": {"type": "LineString", "coordinates": [[-73.78594373345321, 40.839682240285335], [-73.78590453964964, 40.83955638646016]]}}, {"type": "Feature", "properties": {"segment_id": 1407361, "physicalid": "95423", "street_name": "BUCKLEY ST", "borough": "bronx", "direction": "TW", "total_row_ft": 46.6, "roadbed_ft": 28.7, "median_ft": 0.0, "left_sw_ft": 8.7, "right_sw_ft": 9.2}, "geometry": {"type": "LineString", "coordinates": [[-73.78587311090459, 40.83969396732488], [-73.78583433413905, 40.839569452212196]]}}, {"type": "Feature", "properties": {"segment_id": 1407362, "physicalid": "95423", "street_name": "BUCKLEY ST", "borough": "bronx", "direction": "TW", "total_row_ft": 46.1, "roadbed_ft": 29.2, "median_ft": 0.0, "left_sw_ft": 8.1, "right_sw_ft": 8.8}, "geometry": {"type": "LineString", "coordinates": [[-73.78580248833109, 40.83970569432114], [-73.78576412860089, 40.83958251792145]]}}, {"type": "Feature", "properties": {"segment_id": 1407363, "physicalid": "95423", "street_name": "BUCKLEY ST", "borough": "bronx", "direction": "TW", "total_row_ft": 45.6, "roadbed_ft": 29.6, "median_ft": 0.0, "left_sw_ft": 7.6, "right_sw_ft": 8.4}, "geometry": {"type": "LineString", "coordinates": [[-73.78573186582037, 40.83971742155569], [-73.78569392295118, 40.8395955833183]]}}, {"type": "Feature", "properties": {"segment_id": 1407364, "physicalid": "95423", "street_name": "BUCKLEY ST", "borough": "bronx", "direction": "TW", "total_row_ft": 45.1, "roadbed_ft": 29.6, "median_ft": 0.0, "left_sw_ft": 7.4, "right_sw_ft": 8.2}, "geometry": {"type": "LineString", "coordinates": [[-73.78566124329011, 40.83972914876416], [-73.78562368724035, 40.839608552231304]]}}, {"type": "Feature", "properties": {"segment_id": 1407365, "physicalid": "95423", "street_name": "BUCKLEY ST", "borough": "bronx", "direction": "TW", "total_row_ft": 45.4, "roadbed_ft": 29.2, "median_ft": 0.0, "left_sw_ft": 7.9, "right_sw_ft": 8.4}, "geometry": {"type": "LineString", "coordinates": [[-73.78559120032698, 40.839742737064824], [-73.78555340252981, 40.83962136384526]]}}, {"type": "Feature", "properties": {"segment_id": 1407366, "physicalid": "95423", "street_name": "BUCKLEY ST", "borough": "bronx", "direction": "TW", "total_row_ft": 45.8, "roadbed_ft": 28.8, "median_ft": 0.0, "left_sw_ft": 8.4, "right_sw_ft": 8.5}, "geometry": {"type": "LineString", "coordinates": [[-73.78552119005123, 40.839756430377996], [-73.78548311778947, 40.839634175407525]]}}, {"type": "Feature", "properties": {"segment_id": 1407367, "physicalid": "95423", "street_name": "BUCKLEY ST", "borough": "bronx", "direction": "TW", "total_row_ft": 46.1, "roadbed_ft": 28.7, "median_ft": 0.0, "left_sw_ft": 9.0, "right_sw_ft": 8.5}, "geometry": {"type": "LineString", "coordinates": [[-73.78545117975634, 40.83977012367974], [-73.78541283296745, 40.83964698675164]]}}, {"type": "Feature", "properties": {"segment_id": 1407368, "physicalid": "95423", "street_name": "BUCKLEY ST", "borough": "bronx", "direction": "TW", "total_row_ft": 46.5, "roadbed_ft": 29.0, "median_ft": 0.0, "left_sw_ft": 9.4, "right_sw_ft": 8.1}, "geometry": {"type": "LineString", "coordinates": [[-73.78538116946453, 40.83978381704146], [-73.78534252704287, 40.83965973037615]]}}, {"type": "Feature", "properties": {"segment_id": 1407369, "physicalid": "95423", "street_name": "BUCKLEY ST", "borough": "bronx", "direction": "TW", "total_row_ft": 46.7, "roadbed_ft": 29.5, "median_ft": 0.0, "left_sw_ft": 9.6, "right_sw_ft": 7.7}, "geometry": {"type": "LineString", "coordinates": [[-73.78531103715473, 40.83979711863434], [-73.78527218368481, 40.83967235383904]]}}, {"type": "Feature", "properties": {"segment_id": 1407370, "physicalid": "95423", "street_name": "BUCKLEY ST", "borough": "bronx", "direction": "TW", "total_row_ft": 46.8, "roadbed_ft": 29.7, "median_ft": 0.0, "left_sw_ft": 9.6, "right_sw_ft": 7.5}, "geometry": {"type": "LineString", "coordinates": [[-73.7852407984242, 40.83981007853984], [-73.78520184144718, 40.839684980942636]]}}, {"type": "Feature", "properties": {"segment_id": 1407371, "physicalid": "95423", "street_name": "BUCKLEY ST", "borough": "bronx", "direction": "TW", "total_row_ft": 47.0, "roadbed_ft": 29.3, "median_ft": 0.0, "left_sw_ft": 9.6, "right_sw_ft": 8.0}, "geometry": {"type": "LineString", "coordinates": [[-73.78517055959138, 40.839823038162], [-73.78513149886089, 40.83969760696951]]}}, {"type": "Feature", "properties": {"segment_id": 1407372, "physicalid": "95423", "street_name": "BUCKLEY ST", "borough": "bronx", "direction": "TW", "total_row_ft": 47.1, "roadbed_ft": 28.9, "median_ft": 0.0, "left_sw_ft": 9.6, "right_sw_ft": 8.5}, "geometry": {"type": "LineString", "coordinates": [[-73.78510032076855, 40.83983599786133], [-73.78506117378915, 40.839710289281875]]}}, {"type": "Feature", "properties": {"segment_id": 1407373, "physicalid": "95423", "street_name": "BUCKLEY ST", "borough": "bronx", "direction": "TW", "total_row_ft": 47.1, "roadbed_ft": 28.6, "median_ft": 0.0, "left_sw_ft": 9.6, "right_sw_ft": 8.9}, "geometry": {"type": "LineString", "coordinates": [[-73.78503008181603, 40.83984895718927], [-73.78499086919577, 40.83972303739778]]}}, {"type": "Feature", "properties": {"segment_id": 1407374, "physicalid": "95423", "street_name": "BUCKLEY ST", "borough": "bronx", "direction": "TW", "total_row_ft": 47.1, "roadbed_ft": 28.7, "median_ft": 0.0, "left_sw_ft": 9.4, "right_sw_ft": 9.0}, "geometry": {"type": "LineString", "coordinates": [[-73.78495977766394, 40.839861707192725], [-73.78492056315693, 40.839735780915646]]}}, {"type": "Feature", "properties": {"segment_id": 1407375, "physicalid": "95423", "street_name": "BUCKLEY ST", "borough": "bronx", "direction": "TW", "total_row_ft": 47.1, "roadbed_ft": 28.8, "median_ft": 0.0, "left_sw_ft": 9.2, "right_sw_ft": 9.1}, "geometry": {"type": "LineString", "coordinates": [[-73.7848894337758, 40.83987432963859], [-73.78485026139623, 40.83974853821526]]}}, {"type": "Feature", "properties": {"segment_id": 1407376, "physicalid": "95423", "street_name": "BUCKLEY ST", "borough": "bronx", "direction": "TW", "total_row_ft": 46.8, "roadbed_ft": 28.8, "median_ft": 0.0, "left_sw_ft": 8.9, "right_sw_ft": 9.1}, "geometry": {"type": "LineString", "coordinates": [[-73.78481908971072, 40.83988695155911], [-73.78478017252326, 40.83976197919313]]}}, {"type": "Feature", "properties": {"segment_id": 1407377, "physicalid": "95423", "street_name": "BUCKLEY ST", "borough": "bronx", "direction": "TW", "total_row_ft": 46.5, "roadbed_ft": 29.0, "median_ft": 0.0, "left_sw_ft": 8.6, "right_sw_ft": 8.9}, "geometry": {"type": "LineString", "coordinates": [[-73.78474874570227, 40.839899573704166], [-73.78471008341305, 40.839775419457524]]}}, {"type": "Feature", "properties": {"segment_id": 1407378, "physicalid": "95423", "street_name": "BUCKLEY ST", "borough": "bronx", "direction": "TW", "total_row_ft": 46.4, "roadbed_ft": 29.3, "median_ft": 0.0, "left_sw_ft": 8.2, "right_sw_ft": 8.9}, "geometry": {"type": "LineString", "coordinates": [[-73.78467840169746, 40.839912195903736], [-73.78463981120775, 40.83978827180312]]}}, {"type": "Feature", "properties": {"segment_id": 1407379, "physicalid": "95423", "street_name": "BUCKLEY ST", "borough": "bronx", "direction": "TW", "total_row_ft": 46.9, "roadbed_ft": 29.3, "median_ft": 0.0, "left_sw_ft": 8.3, "right_sw_ft": 9.3}, "geometry": {"type": "LineString", "coordinates": [[-73.7846081696093, 40.83992517754016], [-73.78456919512553, 40.839800019908964]]}}, {"type": "Feature", "properties": {"segment_id": 1407380, "physicalid": "95423", "street_name": "BUCKLEY ST", "borough": "bronx", "direction": "TW", "total_row_ft": 47.4, "roadbed_ft": 29.3, "median_ft": 0.0, "left_sw_ft": 8.5, "right_sw_ft": 9.6}, "geometry": {"type": "LineString", "coordinates": [[-73.78453801871501, 40.839938419957626], [-73.78449857892033, 40.839811767656684]]}}, {"type": "Feature", "properties": {"segment_id": 1407381, "physicalid": "95423", "street_name": "BUCKLEY ST", "borough": "bronx", "direction": "TW", "total_row_ft": 48.0, "roadbed_ft": 29.3, "median_ft": 0.0, "left_sw_ft": 8.8, "right_sw_ft": 9.9}, "geometry": {"type": "LineString", "coordinates": [[-73.78446786780124, 40.83995166235948], [-73.78442796273126, 40.83982351549309]]}}, {"type": "Feature", "properties": {"segment_id": 1407382, "physicalid": "95423", "street_name": "BUCKLEY ST", "borough": "bronx", "direction": "TW", "total_row_ft": 47.9, "roadbed_ft": 29.4, "median_ft": 0.0, "left_sw_ft": 8.9, "right_sw_ft": 9.5}, "geometry": {"type": "LineString", "coordinates": [[-73.7843977168595, 40.83996490471865], [-73.7843579078812, 40.83983706599992]]}}, {"type": "Feature", "properties": {"segment_id": 1407383, "physicalid": "95423", "street_name": "BUCKLEY ST", "borough": "bronx", "direction": "TW", "total_row_ft": 47.7, "roadbed_ft": 29.7, "median_ft": 0.0, "left_sw_ft": 9.1, "right_sw_ft": 9.0}, "geometry": {"type": "LineString", "coordinates": [[-73.78432756588985, 40.83997814703511], [-73.78428786935288, 40.8398506689702]]}}, {"type": "Feature", "properties": {"segment_id": 1407384, "physicalid": "95423", "street_name": "BUCKLEY ST", "borough": "bronx", "direction": "TW", "total_row_ft": 47.6, "roadbed_ft": 30.1, "median_ft": 0.0, "left_sw_ft": 9.3, "right_sw_ft": 8.3}, "geometry": {"type": "LineString", "coordinates": [[-73.78425741488279, 40.83999138927839], [-73.78421783079591, 40.83986427189794]]}}, {"type": "Feature", "properties": {"segment_id": 1407385, "physicalid": "95423", "street_name": "BUCKLEY ST", "borough": "bronx", "direction": "TW", "total_row_ft": 47.5, "roadbed_ft": 30.7, "median_ft": 0.0, "left_sw_ft": 9.2, "right_sw_ft": 7.6}, "geometry": {"type": "LineString", "coordinates": [[-73.7841872521694, 40.84000459397582], [-73.7841477185968, 40.83987763838488]]}}, {"type": "Feature", "properties": {"segment_id": 1407386, "physicalid": "95423", "street_name": "BUCKLEY ST", "borough": "bronx", "direction": "TW", "total_row_ft": 48.3, "roadbed_ft": 31.4, "median_ft": 0.0, "left_sw_ft": 9.1, "right_sw_ft": 7.8}, "geometry": {"type": "LineString", "coordinates": [[-73.78411707945905, 40.84001776661637], [-73.78407691844832, 40.8398887956711]]}}, {"type": "Feature", "properties": {"segment_id": 1407387, "physicalid": "95423", "street_name": "BUCKLEY ST", "borough": "bronx", "direction": "TW", "total_row_ft": 49.0, "roadbed_ft": 32.0, "median_ft": 0.0, "left_sw_ft": 9.0, "right_sw_ft": 8.1}, "geometry": {"type": "LineString", "coordinates": [[-73.78404690672093, 40.8400309392142], [-73.78400611827607, 40.839899952913825]]}}, {"type": "Feature", "properties": {"segment_id": 1407388, "physicalid": "95423", "street_name": "BUCKLEY ST", "borough": "bronx", "direction": "TW", "total_row_ft": 49.8, "roadbed_ft": 31.1, "median_ft": 0.0, "left_sw_ft": 8.9, "right_sw_ft": 9.8}, "geometry": {"type": "LineString", "coordinates": [[-73.78397673395501, 40.840044111769295], [-73.78393531808008, 40.839911110113064]]}}, {"type": "Feature", "properties": {"segment_id": 1407389, "physicalid": "95423", "street_name": "BUCKLEY ST", "borough": "bronx", "direction": "TW", "total_row_ft": 90.1, "roadbed_ft": 36.0, "median_ft": 0.0, "left_sw_ft": 13.2, "right_sw_ft": 40.8}, "geometry": {"type": "LineString", "coordinates": [[-73.78391148965909, 40.84007311152341], [-73.78383659089495, 40.839832582859565]]}}, {"type": "Feature", "properties": {"segment_id": 1407398, "physicalid": "95425", "street_name": "HORTON ST", "borough": "bronx", "direction": "TW", "total_row_ft": 31.9, "roadbed_ft": 18.9, "median_ft": 0.0, "left_sw_ft": 5.9, "right_sw_ft": 7.1}, "geometry": {"type": "LineString", "coordinates": [[-73.78539941623887, 40.83919724496784], [-73.7853699672766, 40.83911270846858]]}}, {"type": "Feature", "properties": {"segment_id": 1407399, "physicalid": "95425", "street_name": "HORTON ST", "borough": "bronx", "direction": "TW", "total_row_ft": 32.4, "roadbed_ft": 19.5, "median_ft": 0.0, "left_sw_ft": 6.0, "right_sw_ft": 6.9}, "geometry": {"type": "LineString", "coordinates": [[-73.78532986339437, 40.839212212230926], [-73.7852999225957, 40.83912626360264]]}}, {"type": "Feature", "properties": {"segment_id": 1407400, "physicalid": "95425", "street_name": "HORTON ST", "borough": "bronx", "direction": "TW", "total_row_ft": 32.6, "roadbed_ft": 20.2, "median_ft": 0.0, "left_sw_ft": 6.1, "right_sw_ft": 6.3}, "geometry": {"type": "LineString", "coordinates": [[-73.78526031057231, 40.83922717960635], [-73.78523018542985, 40.83914070153851]]}}, {"type": "Feature", "properties": {"segment_id": 1407401, "physicalid": "95425", "street_name": "HORTON ST", "borough": "bronx", "direction": "TW", "total_row_ft": 32.5, "roadbed_ft": 20.1, "median_ft": 0.0, "left_sw_ft": 6.2, "right_sw_ft": 6.2}, "geometry": {"type": "LineString", "coordinates": [[-73.78519075786866, 40.83924214736956], [-73.78516069668358, 40.839155852642236]]}}, {"type": "Feature", "properties": {"segment_id": 1407402, "physicalid": "95425", "street_name": "HORTON ST", "borough": "bronx", "direction": "TW", "total_row_ft": 32.5, "roadbed_ft": 20.0, "median_ft": 0.0, "left_sw_ft": 6.3, "right_sw_ft": 6.1}, "geometry": {"type": "LineString", "coordinates": [[-73.78512120513373, 40.839257115090795], [-73.78509120800805, 40.83917100399805]]}}, {"type": "Feature", "properties": {"segment_id": 1407403, "physicalid": "95425", "street_name": "HORTON ST", "borough": "bronx", "direction": "TW", "total_row_ft": 32.3, "roadbed_ft": 20.0, "median_ft": 0.0, "left_sw_ft": 6.3, "right_sw_ft": 6.0}, "geometry": {"type": "LineString", "coordinates": [[-73.78505158742806, 40.83927189635167], [-73.78502171923442, 40.83918615512118]]}}, {"type": "Feature", "properties": {"segment_id": 1407404, "physicalid": "95425", "street_name": "HORTON ST", "borough": "bronx", "direction": "TW", "total_row_ft": 32.2, "roadbed_ft": 20.0, "median_ft": 0.0, "left_sw_ft": 6.4, "right_sw_ft": 5.8}, "geometry": {"type": "LineString", "coordinates": [[-73.7849819519878, 40.83928662674938], [-73.78495223033633, 40.83920130593601]]}}, {"type": "Feature", "properties": {"segment_id": 1407405, "physicalid": "95425", "street_name": "HORTON ST", "borough": "bronx", "direction": "TW", "total_row_ft": 32.0, "roadbed_ft": 20.0, "median_ft": 0.0, "left_sw_ft": 6.5, "right_sw_ft": 5.5}, "geometry": {"type": "LineString", "coordinates": [[-73.78491231648547, 40.839301357015266], [-73.78488274139742, 40.839216456682635]]}}, {"type": "Feature", "properties": {"segment_id": 1407406, "physicalid": "95425", "street_name": "HORTON ST", "borough": "bronx", "direction": "TW", "total_row_ft": 32.3, "roadbed_ft": 19.8, "median_ft": 0.0, "left_sw_ft": 6.7, "right_sw_ft": 5.8}, "geometry": {"type": "LineString", "coordinates": [[-73.78484268097695, 40.839316087309925], [-73.78481284788147, 40.83923044606571]]}}, {"type": "Feature", "properties": {"segment_id": 1407407, "physicalid": "95425", "street_name": "HORTON ST", "borough": "bronx", "direction": "TW", "total_row_ft": 32.5, "roadbed_ft": 19.6, "median_ft": 0.0, "left_sw_ft": 6.7, "right_sw_ft": 6.3}, "geometry": {"type": "LineString", "coordinates": [[-73.78477287087588, 40.839330316451], [-73.78474281897641, 40.839244046830494]]}}, {"type": "Feature", "properties": {"segment_id": 1407408, "physicalid": "95425", "street_name": "HORTON ST", "borough": "bronx", "direction": "TW", "total_row_ft": 32.7, "roadbed_ft": 19.2, "median_ft": 0.0, "left_sw_ft": 6.6, "right_sw_ft": 6.9}, "geometry": {"type": "LineString", "coordinates": [[-73.78470305574452, 40.839344531195025], [-73.78467279002832, 40.83925764751139]]}}, {"type": "Feature", "properties": {"segment_id": 1407409, "physicalid": "95425", "street_name": "HORTON ST", "borough": "bronx", "direction": "TW", "total_row_ft": 33.0, "roadbed_ft": 18.8, "median_ft": 0.0, "left_sw_ft": 6.6, "right_sw_ft": 7.6}, "geometry": {"type": "LineString", "coordinates": [[-73.78463324053685, 40.839358745763384], [-73.78460276098949, 40.83927124797136]]}}, {"type": "Feature", "properties": {"segment_id": 1407410, "physicalid": "95425", "street_name": "HORTON ST", "borough": "bronx", "direction": "TW", "total_row_ft": 33.4, "roadbed_ft": 19.0, "median_ft": 0.0, "left_sw_ft": 6.6, "right_sw_ft": 7.8}, "geometry": {"type": "LineString", "coordinates": [[-73.78456342529127, 40.8393729602663], [-73.78453255871929, 40.83928435117277]]}}, {"type": "Feature", "properties": {"segment_id": 1407411, "physicalid": "95425", "street_name": "HORTON ST", "borough": "bronx", "direction": "TW", "total_row_ft": 34.0, "roadbed_ft": 19.8, "median_ft": 0.0, "left_sw_ft": 6.4, "right_sw_ft": 7.8}, "geometry": {"type": "LineString", "coordinates": [[-73.78449361349995, 40.83938718472874], [-73.7844621445899, 40.8392968462209]]}}, {"type": "Feature", "properties": {"segment_id": 1407412, "physicalid": "95425", "street_name": "HORTON ST", "borough": "bronx", "direction": "TW", "total_row_ft": 35.0, "roadbed_ft": 20.6, "median_ft": 0.0, "left_sw_ft": 6.6, "right_sw_ft": 7.9}, "geometry": {"type": "LineString", "coordinates": [[-73.78442411555716, 40.83940231020808], [-73.78439173032513, 40.83930934091329]]}}, {"type": "Feature", "properties": {"segment_id": 1407413, "physicalid": "95425", "street_name": "HORTON ST", "borough": "bronx", "direction": "TW", "total_row_ft": 36.0, "roadbed_ft": 21.3, "median_ft": 0.0, "left_sw_ft": 6.8, "right_sw_ft": 7.9}, "geometry": {"type": "LineString", "coordinates": [[-73.78435461763256, 40.83941743578842], [-73.78432131602729, 40.83932183554369]]}}, {"type": "Feature", "properties": {"segment_id": 1407414, "physicalid": "95425", "street_name": "HORTON ST", "borough": "bronx", "direction": "TW", "total_row_ft": 37.0, "roadbed_ft": 21.8, "median_ft": 0.0, "left_sw_ft": 7.0, "right_sw_ft": 8.2}, "geometry": {"type": "LineString", "coordinates": [[-73.78428511968387, 40.839432561348396], [-73.78425087865978, 40.83933426397968]]}}, {"type": "Feature", "properties": {"segment_id": 1407415, "physicalid": "95425", "street_name": "HORTON ST", "borough": "bronx", "direction": "TW", "total_row_ft": 38.6, "roadbed_ft": 21.8, "median_ft": 0.0, "left_sw_ft": 7.3, "right_sw_ft": 9.5}, "geometry": {"type": "LineString", "coordinates": [[-73.78421562170381, 40.839447686867125], [-73.78417996209986, 40.839345316800966]]}}, {"type": "Feature", "properties": {"segment_id": 1407416, "physicalid": "95425", "street_name": "HORTON ST", "borough": "bronx", "direction": "TW", "total_row_ft": 40.1, "roadbed_ft": 21.8, "median_ft": 0.0, "left_sw_ft": 7.5, "right_sw_ft": 10.8}, "geometry": {"type": "LineString", "coordinates": [[-73.78414610238312, 40.839462751170856], [-73.78410904551637, 40.8393563695786]]}}, {"type": "Feature", "properties": {"segment_id": 1407417, "physicalid": "95425", "street_name": "HORTON ST", "borough": "bronx", "direction": "TW", "total_row_ft": 41.2, "roadbed_ft": 21.9, "median_ft": 0.0, "left_sw_ft": 7.2, "right_sw_ft": 12.1}, "geometry": {"type": "LineString", "coordinates": [[-73.78407621233089, 40.8394767512381], [-73.78403812899953, 40.839367422571584]]}}, {"type": "Feature", "properties": {"segment_id": 1407418, "physicalid": "95425", "street_name": "HORTON ST", "borough": "bronx", "direction": "TW", "total_row_ft": 41.7, "roadbed_ft": 22.6, "median_ft": 0.0, "left_sw_ft": 6.9, "right_sw_ft": 12.1}, "geometry": {"type": "LineString", "coordinates": [[-73.78400632224925, 40.83949075126293], [-73.78396780207532, 40.839380168184384]]}}, {"type": "Feature", "properties": {"segment_id": 1407419, "physicalid": "95425", "street_name": "HORTON ST", "borough": "bronx", "direction": "TW", "total_row_ft": 40.4, "roadbed_ft": 23.4, "median_ft": 0.0, "left_sw_ft": 6.7, "right_sw_ft": 10.4}, "geometry": {"type": "LineString", "coordinates": [[-73.78393643219697, 40.839504751414154], [-73.78389905820272, 40.83939745845138]]}}, {"type": "Feature", "properties": {"segment_id": 1407420, "physicalid": "95425", "street_name": "HORTON ST", "borough": "bronx", "direction": "TW", "total_row_ft": 32.4, "roadbed_ft": 24.0, "median_ft": 0.0, "left_sw_ft": 6.5, "right_sw_ft": 1.9}, "geometry": {"type": "LineString", "coordinates": [[-73.78386654215225, 40.83951875162914], [-73.78383656068875, 40.839432680853434]]}}, {"type": "Feature", "properties": {"segment_id": 1407421, "physicalid": "95425", "street_name": "HORTON ST", "borough": "bronx", "direction": "TW", "total_row_ft": 32.6, "roadbed_ft": 24.5, "median_ft": 0.0, "left_sw_ft": 6.6, "right_sw_ft": 1.5}, "geometry": {"type": "LineString", "coordinates": [[-73.78379665207811, 40.83953275180175], [-73.78376656375819, 40.83944637400185]]}}, {"type": "Feature", "properties": {"segment_id": 1407422, "physicalid": "95425", "street_name": "HORTON ST", "borough": "bronx", "direction": "TW", "total_row_ft": 120.0, "roadbed_ft": 25.1, "median_ft": 0.0, "left_sw_ft": 46.5, "right_sw_ft": 48.4}, "geometry": {"type": "LineString", "coordinates": [[-73.78376385309511, 40.839653233429964], [-73.7836529399066, 40.83933482186835]]}}, {"type": "Feature", "properties": {"segment_id": 1472826, "physicalid": "99494", "street_name": "HORTON ST", "borough": "bronx", "direction": "TW", "total_row_ft": 150.0, "roadbed_ft": 120.0, "median_ft": 0.0, "left_sw_ft": 15.0, "right_sw_ft": 15.0}, "geometry": {"type": "LineString", "coordinates": [[-73.7836865738375, 40.83989770735972], [-73.78358515019737, 40.839577475934824]]}}, {"type": "Feature", "properties": {"segment_id": 1472827, "physicalid": "99494", "street_name": "HORTON ST", "borough": "bronx", "direction": "TW", "total_row_ft": 120.0, "roadbed_ft": 20.3, "median_ft": 0.0, "left_sw_ft": 50.3, "right_sw_ft": 49.4}, "geometry": {"type": "LineString", "coordinates": [[-73.7836162975388, 40.839910545234545], [-73.78351487421736, 40.839590313748566]]}}, {"type": "Feature", "properties": {"segment_id": 1472828, "physicalid": "99494", "street_name": "HORTON ST", "borough": "bronx", "direction": "TW", "total_row_ft": 41.2, "roadbed_ft": 19.7, "median_ft": 0.0, "left_sw_ft": 7.1, "right_sw_ft": 14.4}, "geometry": {"type": "LineString", "coordinates": [[-73.78350882922524, 40.839805953983586], [-73.78347404751185, 40.83969613465438]]}}, {"type": "Feature", "properties": {"segment_id": 1472829, "physicalid": "99494", "street_name": "HORTON ST", "borough": "bronx", "direction": "TW", "total_row_ft": 40.5, "roadbed_ft": 19.2, "median_ft": 0.0, "left_sw_ft": 7.2, "right_sw_ft": 14.2}, "geometry": {"type": "LineString", "coordinates": [[-73.78343804158204, 40.8398171770375], [-73.78340377388525, 40.839708980294304]]}}, {"type": "Feature", "properties": {"segment_id": 1472830, "physicalid": "99494", "street_name": "HORTON ST", "borough": "bronx", "direction": "TW", "total_row_ft": 39.9, "roadbed_ft": 18.9, "median_ft": 0.0, "left_sw_ft": 7.3, "right_sw_ft": 13.7}, "geometry": {"type": "LineString", "coordinates": [[-73.78336725391496, 40.839828400047935], [-73.78333353551628, 40.839721937299956]]}}, {"type": "Feature", "properties": {"segment_id": 1472831, "physicalid": "99494", "street_name": "HORTON ST", "borough": "bronx", "direction": "TW", "total_row_ft": 33.7, "roadbed_ft": 19.1, "median_ft": 0.0, "left_sw_ft": 7.0, "right_sw_ft": 7.7}, "geometry": {"type": "LineString", "coordinates": [[-73.78329646621793, 40.83983962299579], [-73.7832679420416, 40.839749560246226]]}}, {"type": "Feature", "properties": {"segment_id": 1472832, "physicalid": "99494", "street_name": "HORTON ST", "borough": "bronx", "direction": "TW", "total_row_ft": 33.4, "roadbed_ft": 19.3, "median_ft": 0.0, "left_sw_ft": 6.6, "right_sw_ft": 7.6}, "geometry": {"type": "LineString", "coordinates": [[-73.78322567849509, 40.83985084589408], [-73.78319743016388, 40.8397616538023]]}}, {"type": "Feature", "properties": {"segment_id": 1472833, "physicalid": "99494", "street_name": "HORTON ST", "borough": "bronx", "direction": "TW", "total_row_ft": 33.5, "roadbed_ft": 19.5, "median_ft": 0.0, "left_sw_ft": 6.7, "right_sw_ft": 7.4}, "geometry": {"type": "LineString", "coordinates": [[-73.78315526780167, 40.83986325927022], [-73.783126918256, 40.839773747300974]]}}, {"type": "Feature", "properties": {"segment_id": 1472834, "physicalid": "99494", "street_name": "HORTON ST", "borough": "bronx", "direction": "TW", "total_row_ft": 33.8, "roadbed_ft": 19.4, "median_ft": 0.0, "left_sw_ft": 6.9, "right_sw_ft": 7.5}, "geometry": {"type": "LineString", "coordinates": [[-73.78308501911943, 40.83987618422767], [-73.78305643218846, 40.83978592242715]]}}, {"type": "Feature", "properties": {"segment_id": 1472835, "physicalid": "99494", "street_name": "HORTON ST", "borough": "bronx", "direction": "TW", "total_row_ft": 33.9, "roadbed_ft": 19.4, "median_ft": 0.0, "left_sw_ft": 7.1, "right_sw_ft": 7.4}, "geometry": {"type": "LineString", "coordinates": [[-73.78301477045844, 40.83988910929567], [-73.78298613166585, 40.83979868344329]]}}, {"type": "Feature", "properties": {"segment_id": 1472836, "physicalid": "99494", "street_name": "HORTON ST", "borough": "bronx", "direction": "TW", "total_row_ft": 33.9, "roadbed_ft": 19.6, "median_ft": 0.0, "left_sw_ft": 7.1, "right_sw_ft": 7.3}, "geometry": {"type": "LineString", "coordinates": [[-73.78294452179311, 40.83990203439337], [-73.78291583111627, 40.83981144441655]]}}, {"type": "Feature", "properties": {"segment_id": 1472837, "physicalid": "99494", "street_name": "HORTON ST", "borough": "bronx", "direction": "TW", "total_row_ft": 34.0, "roadbed_ft": 19.7, "median_ft": 0.0, "left_sw_ft": 7.1, "right_sw_ft": 7.2}, "geometry": {"type": "LineString", "coordinates": [[-73.78287427310049, 40.839914959448244], [-73.78284553053973, 40.839824205346964]]}}, {"type": "Feature", "properties": {"segment_id": 1472838, "physicalid": "99494", "street_name": "HORTON ST", "borough": "bronx", "direction": "TW", "total_row_ft": 34.0, "roadbed_ft": 19.9, "median_ft": 0.0, "left_sw_ft": 7.1, "right_sw_ft": 7.0}, "geometry": {"type": "LineString", "coordinates": [[-73.78280402439606, 40.83992788450917], [-73.78277525512883, 40.839837045780065]]}}, {"type": "Feature", "properties": {"segment_id": 1472839, "physicalid": "99494", "street_name": "HORTON ST", "borough": "bronx", "direction": "TW", "total_row_ft": 33.7, "roadbed_ft": 19.9, "median_ft": 0.0, "left_sw_ft": 6.9, "right_sw_ft": 6.8}, "geometry": {"type": "LineString", "coordinates": [[-73.78273349974488, 40.83993993831219], [-73.78270501689818, 40.839850003652835]]}}, {"type": "Feature", "properties": {"segment_id": 1472840, "physicalid": "99494", "street_name": "HORTON ST", "borough": "bronx", "direction": "TW", "total_row_ft": 33.3, "roadbed_ft": 19.8, "median_ft": 0.0, "left_sw_ft": 6.8, "right_sw_ft": 6.6}, "geometry": {"type": "LineString", "coordinates": [[-73.78266288533283, 40.83995170873201], [-73.78263477865018, 40.8398629615145]]}}, {"type": "Feature", "properties": {"segment_id": 1472841, "physicalid": "99494", "street_name": "HORTON ST", "borough": "bronx", "direction": "TW", "total_row_ft": 32.8, "roadbed_ft": 19.7, "median_ft": 0.0, "left_sw_ft": 6.7, "right_sw_ft": 6.4}, "geometry": {"type": "LineString", "coordinates": [[-73.78259227089578, 40.83996347910856], [-73.78256454037482, 40.839875919333345]]}}, {"type": "Feature", "properties": {"segment_id": 1472842, "physicalid": "99494", "street_name": "HORTON ST", "borough": "bronx", "direction": "TW", "total_row_ft": 40.6, "roadbed_ft": 19.4, "median_ft": 0.0, "left_sw_ft": 15.0, "right_sw_ft": 6.2}, "geometry": {"type": "LineString", "coordinates": [[-73.78256214980345, 40.84010310821572], [-73.78249430207211, 40.83988887710941]]}}, {"type": "Feature", "properties": {"segment_id": 1472853, "physicalid": "99495", "street_name": "BELDEN ST", "borough": "bronx", "direction": "TW", "total_row_ft": 150.0, "roadbed_ft": 120.0, "median_ft": 0.0, "left_sw_ft": 15.0, "right_sw_ft": 15.0}, "geometry": {"type": "LineString", "coordinates": [[-73.78312668597597, 40.838402539701846], [-73.78301858779852, 40.83808357056404]]}}, {"type": "Feature", "properties": {"segment_id": 1472854, "physicalid": "99495", "street_name": "BELDEN ST", "borough": "bronx", "direction": "TW", "total_row_ft": 115.7, "roadbed_ft": 15.4, "median_ft": 0.0, "left_sw_ft": 48.2, "right_sw_ft": 52.1}, "geometry": {"type": "LineString", "coordinates": [[-73.78305282820098, 40.83840483266639], [-73.78294859041955, 40.83809725352761]]}}, {"type": "Feature", "properties": {"segment_id": 1472855, "physicalid": "99495", "street_name": "BELDEN ST", "borough": "bronx", "direction": "TW", "total_row_ft": 39.1, "roadbed_ft": 15.6, "median_ft": 0.0, "left_sw_ft": 8.5, "right_sw_ft": 15.0}, "geometry": {"type": "LineString", "coordinates": [[-73.78294743621561, 40.838314076167], [-73.78287859301179, 40.838110936448665]]}}, {"type": "Feature", "properties": {"segment_id": 1472856, "physicalid": "99495", "street_name": "BELDEN ST", "borough": "bronx", "direction": "TW", "total_row_ft": 39.6, "roadbed_ft": 15.9, "median_ft": 0.0, "left_sw_ft": 8.7, "right_sw_ft": 15.0}, "geometry": {"type": "LineString", "coordinates": [[-73.78287792055785, 40.838329181288856], [-73.78280859557525, 40.83812461932719]]}}, {"type": "Feature", "properties": {"segment_id": 1472857, "physicalid": "99495", "street_name": "BELDEN ST", "borough": "bronx", "direction": "TW", "total_row_ft": 40.0, "roadbed_ft": 16.2, "median_ft": 0.0, "left_sw_ft": 8.8, "right_sw_ft": 15.0}, "geometry": {"type": "LineString", "coordinates": [[-73.78280840486927, 40.838344286370926], [-73.7827385981099, 40.83813830216322]]}}, {"type": "Feature", "properties": {"segment_id": 1472858, "physicalid": "99495", "street_name": "BELDEN ST", "borough": "bronx", "direction": "TW", "total_row_ft": 40.5, "roadbed_ft": 16.5, "median_ft": 0.0, "left_sw_ft": 9.0, "right_sw_ft": 15.0}, "geometry": {"type": "LineString", "coordinates": [[-73.78273888914912, 40.83835939141107], [-73.78266860061576, 40.83815198495674]]}}, {"type": "Feature", "properties": {"segment_id": 1472859, "physicalid": "99495", "street_name": "BELDEN ST", "borough": "bronx", "direction": "TW", "total_row_ft": 46.5, "roadbed_ft": 16.5, "median_ft": 0.0, "left_sw_ft": 15.0, "right_sw_ft": 15.0}, "geometry": {"type": "LineString", "coordinates": [[-73.78270669939006, 40.83848463723468], [-73.78259860309284, 40.83816566770772]]}}, {"type": "Feature", "properties": {"segment_id": 1472860, "physicalid": "99495", "street_name": "BELDEN ST", "borough": "bronx", "direction": "TW", "total_row_ft": 46.3, "roadbed_ft": 16.3, "median_ft": 0.0, "left_sw_ft": 15.0, "right_sw_ft": 15.0}, "geometry": {"type": "LineString", "coordinates": [[-73.78263670152496, 40.838498320008036], [-73.78252860554112, 40.83817935041622]]}}, {"type": "Feature", "properties": {"segment_id": 1472861, "physicalid": "99495", "street_name": "BELDEN ST", "borough": "bronx", "direction": "TW", "total_row_ft": 46.1, "roadbed_ft": 16.1, "median_ft": 0.0, "left_sw_ft": 15.0, "right_sw_ft": 15.0}, "geometry": {"type": "LineString", "coordinates": [[-73.78256670363106, 40.83851200273884], [-73.7824586079606, 40.838193033082206]]}}, {"type": "Feature", "properties": {"segment_id": 1472862, "physicalid": "99495", "street_name": "BELDEN ST", "borough": "bronx", "direction": "TW", "total_row_ft": 45.9, "roadbed_ft": 15.9, "median_ft": 0.0, "left_sw_ft": 15.0, "right_sw_ft": 15.0}, "geometry": {"type": "LineString", "coordinates": [[-73.78249670570841, 40.83852568542717], [-73.78238861035128, 40.83820671570564]]}}, {"type": "Feature", "properties": {"segment_id": 1472863, "physicalid": "99495", "street_name": "BELDEN ST", "borough": "bronx", "direction": "TW", "total_row_ft": 45.6, "roadbed_ft": 15.6, "median_ft": 0.0, "left_sw_ft": 15.0, "right_sw_ft": 15.0}, "geometry": {"type": "LineString", "coordinates": [[-73.78242670775691, 40.83853936807298], [-73.7823186127132, 40.83822039828661]]}}, {"type": "Feature", "properties": {"segment_id": 1472864, "physicalid": "99495", "street_name": "BELDEN ST", "borough": "bronx", "direction": "TW", "total_row_ft": 45.5, "roadbed_ft": 15.5, "median_ft": 0.0, "left_sw_ft": 15.0, "right_sw_ft": 15.0}, "geometry": {"type": "LineString", "coordinates": [[-73.78235670977665, 40.838553050676275], [-73.7822486150463, 40.83823408082503]]}}, {"type": "Feature", "properties": {"segment_id": 1472865, "physicalid": "99495", "street_name": "BELDEN ST", "borough": "bronx", "direction": "TW", "total_row_ft": 45.3, "roadbed_ft": 15.3, "median_ft": 0.0, "left_sw_ft": 15.0, "right_sw_ft": 15.0}, "geometry": {"type": "LineString", "coordinates": [[-73.7822867117676, 40.83856673323705], [-73.7821786173506, 40.83824776332098]]}}, {"type": "Feature", "properties": {"segment_id": 1472866, "physicalid": "99495", "street_name": "BELDEN ST", "borough": "bronx", "direction": "TW", "total_row_ft": 45.2, "roadbed_ft": 15.2, "median_ft": 0.0, "left_sw_ft": 15.0, "right_sw_ft": 15.0}, "geometry": {"type": "LineString", "coordinates": [[-73.78221671372974, 40.83858041575535], [-73.78210861962614, 40.83826144577438]]}}, {"type": "Feature", "properties": {"segment_id": 1472867, "physicalid": "99495", "street_name": "BELDEN ST", "borough": "bronx", "direction": "TW", "total_row_ft": 34.6, "roadbed_ft": 15.8, "median_ft": 0.0, "left_sw_ft": 3.8, "right_sw_ft": 15.0}, "geometry": {"type": "LineString", "coordinates": [[-73.7821067510319, 40.838476168420314], [-73.78203862187287, 40.838275128185266]]}}, {"type": "Feature", "properties": {"segment_id": 1472868, "physicalid": "99495", "street_name": "BELDEN ST", "borough": "bronx", "direction": "TW", "total_row_ft": 34.2, "roadbed_ft": 16.4, "median_ft": 0.0, "left_sw_ft": 2.8, "right_sw_ft": 15.0}, "geometry": {"type": "LineString", "coordinates": [[-73.78203696444955, 40.83849047463508], [-73.7819686240908, 40.83828881055365]]}}, {"type": "Feature", "properties": {"segment_id": 1472869, "physicalid": "99495", "street_name": "BELDEN ST", "borough": "bronx", "direction": "TW", "total_row_ft": 34.0, "roadbed_ft": 16.7, "median_ft": 0.0, "left_sw_ft": 2.3, "right_sw_ft": 15.0}, "geometry": {"type": "LineString", "coordinates": [[-73.78196717783717, 40.83850478080756], [-73.78189862627995, 40.83830249287953]]}}, {"type": "Feature", "properties": {"segment_id": 1472870, "physicalid": "99495", "street_name": "BELDEN ST", "borough": "bronx", "direction": "TW", "total_row_ft": 33.9, "roadbed_ft": 16.7, "median_ft": 0.0, "left_sw_ft": 2.2, "right_sw_ft": 15.0}, "geometry": {"type": "LineString", "coordinates": [[-73.78189739119478, 40.83851908693781], [-73.78182862844031, 40.838316175162895]]}}, {"type": "Feature", "properties": {"segment_id": 1472871, "physicalid": "99495", "street_name": "BELDEN ST", "borough": "bronx", "direction": "TW", "total_row_ft": 30.0, "roadbed_ft": 0.0, "median_ft": 0.0, "left_sw_ft": 15.0, "right_sw_ft": 15.0}, "geometry": {"type": "LineString", "coordinates": [[-73.7818667231086, 40.83864882770898], [-73.78175863057189, 40.83832985740374]]}}]}