{"type": "FeatureCollection", "features": [{"type": "Feature", "properties": {"segment_id": 908130, "physicalid": "63458", "street_name": "UNNAMED ST", "borough": "bronx", "direction": "TW", "total_row_ft": 41.7, "roadbed_ft": 11.7, "median_ft": 0.0, "left_sw_ft": 15.0, "right_sw_ft": 15.0}, "geometry": {"type": "LineString", "coordinates": [[-73.76995593883113, 40.85000660586312], [-73.77037537487628, 40.84992269113676]]}}, {"type": "Feature", "properties": {"segment_id": 908131, "physicalid": "63458", "street_name": "UNNAMED ST", "borough": "bronx", "direction": "TW", "total_row_ft": 41.6, "roadbed_ft": 11.6, "median_ft": 0.0, "left_sw_ft": 15.0, "right_sw_ft": 15.0}, "geometry": {"type": "LineString", "coordinates": [[-73.76993752069995, 40.8499535232693], [-73.77035695643362, 40.849869608609154]]}}, {"type": "Feature", "properties": {"segment_id": 908132, "physicalid": "63458", "street_name": "UNNAMED ST", "borough": "bronx", "direction": "TW", "total_row_ft": 43.0, "roadbed_ft": 13.0, "median_ft": 0.0, "left_sw_ft": 15.0, "right_sw_ft": 15.0}, "geometry": {"type": "LineString", "coordinates": [[-73.76991910259817, 40.849900440672094], [-73.77033853802034, 40.849816526078115]]}}, {"type": "Feature", "properties": {"segment_id": 908133, "physicalid": "63458", "street_name": "UNNAMED ST", "borough": "bronx", "direction": "TW", "total_row_ft": 54.2, "roadbed_ft": 24.2, "median_ft": 0.0, "left_sw_ft": 15.0, "right_sw_ft": 15.0}, "geometry": {"type": "LineString", "coordinates": [[-73.7699006845258, 40.84984735807141], [-73.77032011963647, 40.849763443543644]]}}, {"type": "Feature", "properties": {"segment_id": 908134, "physicalid": "63458", "street_name": "UNNAMED ST", "borough": "bronx", "direction": "TW", "total_row_ft": 30.0, "roadbed_ft": 0.0, "median_ft": 0.0, "left_sw_ft": 15.0, "right_sw_ft": 15.0}, "geometry": {"type": "LineString", "coordinates": [[-73.76988226648281, 40.84979427546734], [-73.770301701282, 40.84971036100574]]}}, {"type": "Feature", "properties": {"segment_id": 908135, "physicalid": "63458", "street_name": "UNNAMED ST", "borough": "bronx", "direction": "TW", "total_row_ft": 30.0, "roadbed_ft": 0.0, "median_ft": 0.0, "left_sw_ft": 15.0, "right_sw_ft": 15.0}, "geometry": {"type": "LineString", "coordinates": [[-73.76986384846923, 40.849741192859824], [-73.7702832829569, 40.84965727846437]]}}, {"type": "Feature", "properties": {"segment_id": 908136, "physicalid": "63459", "street_name": "UNNAMED ST", "borough": "bronx", "direction": "TW", "total_row_ft": 30.0, "roadbed_ft": 0.0, "median_ft": 0.0, "left_sw_ft": 15.0, "right_sw_ft": 15.0}, "geometry": {"type": "LineString", "coordinates": [[-73.76982394993018, 40.849619701490575], [-73.77024722506789, 40.84954776363171]]}}, {"type": "Feature", "properties": {"segment_id": 908137, "physicalid": "63459", "street_name": "UNNAMED ST", "borough": "bronx", "direction": "TW", "total_row_ft": 30.0, "roadbed_ft": 0.0, "median_ft": 0.0, "left_sw_ft": 15.0, "right_sw_ft": 15.0}, "geometry": {"type": "LineString", "coordinates": [[-73.76980816067707, 40.84956613272738], [-73.77023143549096, 40.84949419492571]]}}, {"type": "Feature", "properties": {"segment_id": 908138, "physicalid": "63459", "street_name": "UNNAMED ST", "borough": "bronx", "direction": "TW", "total_row_ft": 30.0, "roadbed_ft": 0.0, "median_ft": 0.0, "left_sw_ft": 15.0, "right_sw_ft": 15.0}, "geometry": {"type": "LineString", "coordinates": [[-73.7697923714494, 40.849512563961504], [-73.77021564593947, 40.8494406262171]]}}, {"type": "Feature", "properties": {"segment_id": 908178, "physicalid": "63462", "street_name": "UNNAMED ST", "borough": "bronx", "direction": "TW", "total_row_ft": 41.8, "roadbed_ft": 11.8, "median_ft": 0.0, "left_sw_ft": 15.0, "right_sw_ft": 15.0}, "geometry": {"type": "LineString", "coordinates": [[-73.77000049481066, 40.84879913198402], [-73.77010934165656, 40.8491179570972]]}}, {"type": "Feature", "properties": {"segment_id": 908179, "physicalid": "63462", "street_name": "UNNAMED ST", "borough": "bronx", "direction": "TW", "total_row_ft": 40.9, "roadbed_ft": 10.9, "median_ft": 0.0, "left_sw_ft": 15.0, "right_sw_ft": 15.0}, "geometry": {"type": "LineString", "coordinates": [[-73.7700859043379, 40.84878514607438], [-73.77016522321111, 40.849108956555725]]}}, {"type": "Feature", "properties": {"segment_id": 908180, "physicalid": "63462", "street_name": "UNNAMED ST", "borough": "bronx", "direction": "TW", "total_row_ft": 40.5, "roadbed_ft": 10.5, "median_ft": 0.0, "left_sw_ft": 15.0, "right_sw_ft": 15.0}, "geometry": {"type": "LineString", "coordinates": [[-73.77015697567617, 40.84877510756426], [-73.77023629488343, 40.84909891799732]]}}, {"type": "Feature", "properties": {"segment_id": 908181, "physicalid": "63462", "street_name": "UNNAMED ST", "borough": "bronx", "direction": "TW", "total_row_ft": 40.5, "roadbed_ft": 10.5, "median_ft": 0.0, "left_sw_ft": 15.0, "right_sw_ft": 15.0}, "geometry": {"type": "LineString", "coordinates": [[-73.77022804699301, 40.848765069010355], [-73.77030736653427, 40.849088879395104]]}}, {"type": "Feature", "properties": {"segment_id": 908182, "physicalid": "63462", "street_name": "UNNAMED ST", "borough": "bronx", "direction": "TW", "total_row_ft": 40.4, "roadbed_ft": 10.4, "median_ft": 0.0, "left_sw_ft": 15.0, "right_sw_ft": 15.0}, "geometry": {"type": "LineString", "coordinates": [[-73.7703144596606, 40.84875506761664], [-73.7703637867138, 40.849082295377315]]}}, {"type": "Feature", "properties": {"segment_id": 908183, "physicalid": "63462", "street_name": "UNNAMED ST", "borough": "bronx", "direction": "TW", "total_row_ft": 40.4, "roadbed_ft": 10.4, "median_ft": 0.0, "left_sw_ft": 15.0, "right_sw_ft": 15.0}, "geometry": {"type": "LineString", "coordinates": [[-73.7703862810058, 40.84874882482728], [-73.7704356084077, 40.84907605255759]]}}, {"type": "Feature", "properties": {"segment_id": 908184, "physicalid": "63462", "street_name": "UNNAMED ST", "borough": "bronx", "direction": "TW", "total_row_ft": 40.5, "roadbed_ft": 10.5, "median_ft": 0.0, "left_sw_ft": 15.0, "right_sw_ft": 15.0}, "geometry": {"type": "LineString", "coordinates": [[-73.77045810233753, 40.84874258199323], [-73.77050743008812, 40.849069809693184]]}}, {"type": "Feature", "properties": {"segment_id": 908185, "physicalid": "63462", "street_name": "UNNAMED ST", "borough": "bronx", "direction": "TW", "total_row_ft": 40.6, "roadbed_ft": 10.6, "median_ft": 0.0, "left_sw_ft": 15.0, "right_sw_ft": 15.0}, "geometry": {"type": "LineString", "coordinates": [[-73.77054516010534, 40.84873659857907], [-73.77056425883433, 40.84906564368781]]}}, {"type": "Feature", "properties": {"segment_id": 908186, "physicalid": "63462", "street_name": "UNNAMED ST", "borough": "bronx", "direction": "TW", "total_row_ft": 41.7, "roadbed_ft": 11.7, "median_ft": 0.0, "left_sw_ft": 15.0, "right_sw_ft": 15.0}, "geometry": {"type": "LineString", "coordinates": [[-73.77061738031176, 40.84873418144582], [-73.7706364793973, 40.849063226542754]]}}, {"type": "Feature", "properties": {"segment_id": 908187, "physicalid": "63462", "street_name": "UNNAMED ST", "borough": "bronx", "direction": "TW", "total_row_ft": 45.0, "roadbed_ft": 15.0, "median_ft": 0.0, "left_sw_ft": 15.0, "right_sw_ft": 15.0}, "geometry": {"type": "LineString", "coordinates": [[-73.77068960051292, 40.848731764267356], [-73.77070869995502, 40.849060809352466]]}}, {"type": "Feature", "properties": {"segment_id": 908188, "physicalid": "63462", "street_name": "UNNAMED ST", "borough": "bronx", "direction": "TW", "total_row_ft": 46.4, "roadbed_ft": 16.4, "median_ft": 0.0, "left_sw_ft": 15.0, "right_sw_ft": 15.0}, "geometry": {"type": "LineString", "coordinates": [[-73.77077694312479, 40.848729833046775], [-73.77076581233774, 40.849059089135956]]}}, {"type": "Feature", "properties": {"segment_id": 908189, "physicalid": "63462", "street_name": "UNNAMED ST", "borough": "bronx", "direction": "TW", "total_row_ft": 49.6, "roadbed_ft": 19.6, "median_ft": 0.0, "left_sw_ft": 15.0, "right_sw_ft": 15.0}, "geometry": {"type": "LineString", "coordinates": [[-73.77084920963456, 40.84873124172242], [-73.77083807920502, 40.84906049781848]]}}, {"type": "Feature", "properties": {"segment_id": 908190, "physicalid": "63462", "street_name": "UNNAMED ST", "borough": "bronx", "direction": "TW", "total_row_ft": 80.4, "roadbed_ft": 50.4, "median_ft": 0.0, "left_sw_ft": 15.0, "right_sw_ft": 15.0}, "geometry": {"type": "LineString", "coordinates": [[-73.77092147614741, 40.848732650352765], [-73.77091034607534, 40.84906190645571]]}}, {"type": "Feature", "properties": {"segment_id": 908191, "physicalid": "63462", "street_name": "UNNAMED ST", "borough": "bronx", "direction": "TW", "total_row_ft": 95.5, "roadbed_ft": 65.5, "median_ft": 0.0, "left_sw_ft": 15.0, "right_sw_ft": 15.0}, "geometry": {"type": "LineString", "coordinates": [[-73.77120249552594, 40.84891766875921], [-73.77077139985644, 40.8488813345352]]}}, {"type": "Feature", "properties": {"segment_id": 908192, "physicalid": "63462", "street_name": "UNNAMED ST", "borough": "bronx", "direction": "TW", "total_row_ft": 55.5, "roadbed_ft": 25.5, "median_ft": 0.0, "left_sw_ft": 15.0, "right_sw_ft": 15.0}, "geometry": {"type": "LineString", "coordinates": [[-73.7711945208857, 40.848972227823005], [-73.77076342486697, 40.84893589356952]]}}, {"type": "Feature", "properties": {"segment_id": 908193, "physicalid": "63462", "street_name": "UNNAMED ST", "borough": "bronx", "direction": "TW", "total_row_ft": 46.6, "roadbed_ft": 16.6, "median_ft": 0.0, "left_sw_ft": 15.0, "right_sw_ft": 15.0}, "geometry": {"type": "LineString", "coordinates": [[-73.7711865462324, 40.84902678688572], [-73.77075544986442, 40.84899045260278]]}}, {"type": "Feature", "properties": {"segment_id": 908194, "physicalid": "63462", "street_name": "UNNAMED ST", "borough": "bronx", "direction": "TW", "total_row_ft": 48.0, "roadbed_ft": 18.0, "median_ft": 0.0, "left_sw_ft": 15.0, "right_sw_ft": 15.0}, "geometry": {"type": "LineString", "coordinates": [[-73.77117331049658, 40.84909378567513], [-73.77074727989311, 40.84903194698922]]}}, {"type": "Feature", "properties": {"segment_id": 908195, "physicalid": "63462", "street_name": "UNNAMED ST", "borough": "bronx", "direction": "TW", "total_row_ft": 49.5, "roadbed_ft": 19.5, "median_ft": 0.0, "left_sw_ft": 15.0, "right_sw_ft": 15.0}, "geometry": {"type": "LineString", "coordinates": [[-73.7711597379693, 40.849147703584634], [-73.77073370703312, 40.84908586484918]]}}, {"type": "Feature", "properties": {"segment_id": 908196, "physicalid": "63462", "street_name": "UNNAMED ST", "borough": "bronx", "direction": "TW", "total_row_ft": 51.1, "roadbed_ft": 21.1, "median_ft": 0.0, "left_sw_ft": 15.0, "right_sw_ft": 15.0}, "geometry": {"type": "LineString", "coordinates": [[-73.77114616541999, 40.8492016214921], [-73.77072013415112, 40.849139782707006]]}}, {"type": "Feature", "properties": {"segment_id": 908197, "physicalid": "63462", "street_name": "UNNAMED ST", "borough": "bronx", "direction": "TW", "total_row_ft": 51.6, "roadbed_ft": 21.6, "median_ft": 0.0, "left_sw_ft": 15.0, "right_sw_ft": 15.0}, "geometry": {"type": "LineString", "coordinates": [[-73.77112348607596, 40.8492672295463], [-73.77070517165505, 40.84918015927255]]}}, {"type": "Feature", "properties": {"segment_id": 908198, "physicalid": "63462", "street_name": "UNNAMED ST", "borough": "bronx", "direction": "TW", "total_row_ft": 51.9, "roadbed_ft": 21.9, "median_ft": 0.0, "left_sw_ft": 15.0, "right_sw_ft": 15.0}, "geometry": {"type": "LineString", "coordinates": [[-73.77110437552267, 40.849320170784885], [-73.77068606079384, 40.849233100442646]]}}, {"type": "Feature", "properties": {"segment_id": 908199, "physicalid": "63462", "street_name": "UNNAMED ST", "borough": "bronx", "direction": "TW", "total_row_ft": 52.5, "roadbed_ft": 22.5, "median_ft": 0.0, "left_sw_ft": 15.0, "right_sw_ft": 15.0}, "geometry": {"type": "LineString", "coordinates": [[-73.77107792707211, 40.84938492527367], [-73.77066991031387, 40.84927317511389]]}}, {"type": "Feature", "properties": {"segment_id": 908200, "physicalid": "63462", "street_name": "UNNAMED ST", "borough": "bronx", "direction": "TW", "total_row_ft": 53.1, "roadbed_ft": 23.1, "median_ft": 0.0, "left_sw_ft": 15.0, "right_sw_ft": 15.0}, "geometry": {"type": "LineString", "coordinates": [[-73.77105339957401, 40.849436563181385], [-73.77064538254027, 40.849324812935805]]}}, {"type": "Feature", "properties": {"segment_id": 908201, "physicalid": "63462", "street_name": "UNNAMED ST", "borough": "bronx", "direction": "TW", "total_row_ft": 52.7, "roadbed_ft": 22.7, "median_ft": 0.0, "left_sw_ft": 15.0, "right_sw_ft": 15.0}, "geometry": {"type": "LineString", "coordinates": [[-73.77102887203785, 40.84948820108337], [-73.77062085472853, 40.8493764507521]]}}, {"type": "Feature", "properties": {"segment_id": 908202, "physicalid": "63462", "street_name": "UNNAMED ST", "borough": "bronx", "direction": "TW", "total_row_ft": 49.7, "roadbed_ft": 19.7, "median_ft": 0.0, "left_sw_ft": 15.0, "right_sw_ft": 15.0}, "geometry": {"type": "LineString", "coordinates": [[-73.77099341863949, 40.84955040085876], [-73.77059817834044, 40.849414731599836]]}}, {"type": "Feature", "properties": {"segment_id": 908203, "physicalid": "63463", "street_name": "UNNAMED ST", "borough": "bronx", "direction": "TW", "total_row_ft": 79.8, "roadbed_ft": 49.8, "median_ft": 0.0, "left_sw_ft": 15.0, "right_sw_ft": 15.0}, "geometry": {"type": "LineString", "coordinates": [[-73.77068632568621, 40.849729323296636], [-73.77069778901173, 40.84940007382257]]}}, {"type": "Feature", "properties": {"segment_id": 908204, "physicalid": "63463", "street_name": "UNNAMED ST", "borough": "bronx", "direction": "TW", "total_row_ft": 47.2, "roadbed_ft": 17.2, "median_ft": 0.0, "left_sw_ft": 15.0, "right_sw_ft": 15.0}, "geometry": {"type": "LineString", "coordinates": [[-73.7706140595374, 40.84972787249776], [-73.7706255232204, 40.84939862303081]]}}, {"type": "Feature", "properties": {"segment_id": 908205, "physicalid": "63463", "street_name": "UNNAMED ST", "borough": "bronx", "direction": "TW", "total_row_ft": 45.4, "roadbed_ft": 15.4, "median_ft": 0.0, "left_sw_ft": 15.0, "right_sw_ft": 15.0}, "geometry": {"type": "LineString", "coordinates": [[-73.77056141025429, 40.84972768601735], [-73.77053371678063, 40.84939899350072]]}}, {"type": "Feature", "properties": {"segment_id": 908206, "physicalid": "63463", "street_name": "UNNAMED ST", "borough": "bronx", "direction": "TW", "total_row_ft": 44.4, "roadbed_ft": 14.4, "median_ft": 0.0, "left_sw_ft": 15.0, "right_sw_ft": 15.0}, "geometry": {"type": "LineString", "coordinates": [[-73.77048926634772, 40.84973119082711], [-73.77046157322908, 40.84940249829337]]}}, {"type": "Feature", "properties": {"segment_id": 908207, "physicalid": "63463", "street_name": "UNNAMED ST", "borough": "bronx", "direction": "TW", "total_row_ft": 42.3, "roadbed_ft": 12.3, "median_ft": 0.0, "left_sw_ft": 15.0, "right_sw_ft": 15.0}, "geometry": {"type": "LineString", "coordinates": [[-73.77041712243354, 40.849734695591756], [-73.77038942966995, 40.849406003040905]]}}, {"type": "Feature", "properties": {"segment_id": 908208, "physicalid": "63463", "street_name": "UNNAMED ST", "borough": "bronx", "direction": "TW", "total_row_ft": 41.4, "roadbed_ft": 11.4, "median_ft": 0.0, "left_sw_ft": 15.0, "right_sw_ft": 15.0}, "geometry": {"type": "LineString", "coordinates": [[-73.770365081968, 40.8497408356251], [-73.770298410764, 40.8494153852597]]}}, {"type": "Feature", "properties": {"segment_id": 908209, "physicalid": "63463", "street_name": "UNNAMED ST", "borough": "bronx", "direction": "TW", "total_row_ft": 40.3, "roadbed_ft": 10.3, "median_ft": 0.0, "left_sw_ft": 15.0, "right_sw_ft": 15.0}, "geometry": {"type": "LineString", "coordinates": [[-73.77029364965708, 40.849749273379174], [-73.77022697879413, 40.849423822972966]]}}, {"type": "Feature", "properties": {"segment_id": 908210, "physicalid": "63463", "street_name": "UNNAMED ST", "borough": "bronx", "direction": "TW", "total_row_ft": 39.5, "roadbed_ft": 9.5, "median_ft": 0.0, "left_sw_ft": 15.0, "right_sw_ft": 15.0}, "geometry": {"type": "LineString", "coordinates": [[-73.7702419387128, 40.84975677785889], [-73.77013689667713, 40.849437217524084]]}}, {"type": "Feature", "properties": {"segment_id": 908211, "physicalid": "63463", "street_name": "UNNAMED ST", "borough": "bronx", "direction": "TW", "total_row_ft": 37.4, "roadbed_ft": 7.4, "median_ft": 0.0, "left_sw_ft": 15.0, "right_sw_ft": 15.0}, "geometry": {"type": "LineString", "coordinates": [[-73.77017179917459, 40.84977007174622], [-73.77006675745487, 40.84945051134827]]}}, {"type": "Feature", "properties": {"segment_id": 908212, "physicalid": "63464", "street_name": "UNNAMED ST", "borough": "bronx", "direction": "TW", "total_row_ft": 55.3, "roadbed_ft": 25.3, "median_ft": 0.0, "left_sw_ft": 15.0, "right_sw_ft": 15.0}, "geometry": {"type": "LineString", "coordinates": [[-73.77094221612418, 40.84964747845367], [-73.77052272500357, 40.849563729152926]]}}, {"type": "Feature", "properties": {"segment_id": 908213, "physicalid": "63464", "street_name": "UNNAMED ST", "borough": "bronx", "direction": "TW", "total_row_ft": 67.3, "roadbed_ft": 37.3, "median_ft": 0.0, "left_sw_ft": 15.0, "right_sw_ft": 15.0}, "geometry": {"type": "LineString", "coordinates": [[-73.77093478068869, 40.84967235075109], [-73.77050240224185, 40.84964619832614]]}}, {"type": "Feature", "properties": {"segment_id": 908214, "physicalid": "63464", "street_name": "UNNAMED ST", "borough": "bronx", "direction": "TW", "total_row_ft": 102.9, "roadbed_ft": 72.9, "median_ft": 0.0, "left_sw_ft": 15.0, "right_sw_ft": 15.0}, "geometry": {"type": "LineString", "coordinates": [[-73.77092904073574, 40.849727071525706], [-73.77049666193544, 40.84970091907948]]}}, {"type": "Feature", "properties": {"segment_id": 908215, "physicalid": "63464", "street_name": "UNNAMED ST", "borough": "bronx", "direction": "TW", "total_row_ft": 45.3, "roadbed_ft": 21.4, "median_ft": 0.0, "left_sw_ft": 15.0, "right_sw_ft": 8.9}, "geometry": {"type": "LineString", "coordinates": [[-73.77093505801709, 40.84975226476844], [-73.77064918118757, 40.84977393605835]]}}, {"type": "Feature", "properties": {"segment_id": 908216, "physicalid": "63464", "street_name": "UNNAMED ST", "borough": "bronx", "direction": "TW", "total_row_ft": 39.6, "roadbed_ft": 17.1, "median_ft": 0.0, "left_sw_ft": 15.0, "right_sw_ft": 7.5}, "geometry": {"type": "LineString", "coordinates": [[-73.77094163784611, 40.84977723794904], [-73.7706775259792, 40.84983428082544]]}}, {"type": "Feature", "properties": {"segment_id": 908217, "physicalid": "63464", "street_name": "UNNAMED ST", "borough": "bronx", "direction": "TW", "total_row_ft": 36.9, "roadbed_ft": 14.3, "median_ft": 0.0, "left_sw_ft": 15.0, "right_sw_ft": 7.6}, "geometry": {"type": "LineString", "coordinates": [[-73.77095132652772, 40.849806125003056], [-73.77070464050105, 40.849891941068364]]}}, {"type": "Feature", "properties": {"segment_id": 908218, "physicalid": "63464", "street_name": "UNNAMED ST", "borough": "bronx", "direction": "TW", "total_row_ft": 36.6, "roadbed_ft": 13.5, "median_ft": 0.0, "left_sw_ft": 15.0, "right_sw_ft": 8.1}, "geometry": {"type": "LineString", "coordinates": [[-73.77098143602615, 40.84985603114641], [-73.77072905091104, 40.84994382979009]]}}, {"type": "Feature", "properties": {"segment_id": 908219, "physicalid": "63464", "street_name": "UNNAMED ST", "borough": "bronx", "direction": "TW", "total_row_ft": 38.7, "roadbed_ft": 14.8, "median_ft": 0.0, "left_sw_ft": 15.0, "right_sw_ft": 8.8}, "geometry": {"type": "LineString", "coordinates": [[-73.77101154556975, 40.84990593728147], [-73.77075346135913, 40.849995718506186]]}}]}