{"type": "FeatureCollection", "features": [{"type": "Feature", "properties": {"segment_id": 908107, "physicalid": "63456", "street_name": "UNNAMED ST", "borough": "bronx", "direction": "TW", "total_row_ft": 43.7, "roadbed_ft": 13.7, "median_ft": 0.0, "left_sw_ft": 15.0, "right_sw_ft": 15.0}, "geometry": {"type": "LineString", "coordinates": [[-73.76901560303763, 40.84997720695642], [-73.76944819518312, 40.849953157834626]]}}, {"type": "Feature", "properties": {"segment_id": 908108, "physicalid": "63456", "street_name": "UNNAMED ST", "borough": "bronx", "direction": "TW", "total_row_ft": 44.4, "roadbed_ft": 14.4, "median_ft": 0.0, "left_sw_ft": 15.0, "right_sw_ft": 15.0}, "geometry": {"type": "LineString", "coordinates": [[-73.76901396237162, 40.849909879351934], [-73.76944771039372, 40.849910764892314]]}}, {"type": "Feature", "properties": {"segment_id": 908109, "physicalid": "63456", "street_name": "UNNAMED ST", "borough": "bronx", "direction": "TW", "total_row_ft": 44.8, "roadbed_ft": 14.8, "median_ft": 0.0, "left_sw_ft": 15.0, "right_sw_ft": 15.0}, "geometry": {"type": "LineString", "coordinates": [[-73.76901415691603, 40.84985498546712], [-73.76944790458018, 40.84985587100677]]}}, {"type": "Feature", "properties": {"segment_id": 908139, "physicalid": "63459", "street_name": "UNNAMED ST", "borough": "bronx", "direction": "TW", "total_row_ft": 30.0, "roadbed_ft": 0.0, "median_ft": 0.0, "left_sw_ft": 15.0, "right_sw_ft": 15.0}, "geometry": {"type": "LineString", "coordinates": [[-73.76977658224715, 40.849458995192975], [-73.77019985641343, 40.84938705750582]]}}, {"type": "Feature", "properties": {"segment_id": 908140, "physicalid": "63459", "street_name": "UNNAMED ST", "borough": "bronx", "direction": "TW", "total_row_ft": 30.0, "roadbed_ft": 0.0, "median_ft": 0.0, "left_sw_ft": 15.0, "right_sw_ft": 15.0}, "geometry": {"type": "LineString", "coordinates": [[-73.76976079307033, 40.84940542642175], [-73.7701840669128, 40.849333488791885]]}}, {"type": "Feature", "properties": {"segment_id": 908141, "physicalid": "63459", "street_name": "UNNAMED ST", "borough": "bronx", "direction": "TW", "total_row_ft": 30.0, "roadbed_ft": 0.0, "median_ft": 0.0, "left_sw_ft": 15.0, "right_sw_ft": 15.0}, "geometry": {"type": "LineString", "coordinates": [[-73.76974500391894, 40.84935185764788], [-73.77016827743762, 40.849279920075276]]}}, {"type": "Feature", "properties": {"segment_id": 908142, "physicalid": "63459", "street_name": "UNNAMED ST", "borough": "bronx", "direction": "TW", "total_row_ft": 30.0, "roadbed_ft": 0.0, "median_ft": 0.0, "left_sw_ft": 15.0, "right_sw_ft": 15.0}, "geometry": {"type": "LineString", "coordinates": [[-73.76972921479299, 40.84929828887139], [-73.77015248798786, 40.849226351356016]]}}, {"type": "Feature", "properties": {"segment_id": 908143, "physicalid": "63459", "street_name": "UNNAMED ST", "borough": "bronx", "direction": "TW", "total_row_ft": 30.0, "roadbed_ft": 0.0, "median_ft": 0.0, "left_sw_ft": 15.0, "right_sw_ft": 15.0}, "geometry": {"type": "LineString", "coordinates": [[-73.76971342569244, 40.84924472009216], [-73.77013669856353, 40.84917278263415]]}}, {"type": "Feature", "properties": {"segment_id": 908144, "physicalid": "63459", "street_name": "UNNAMED ST", "borough": "bronx", "direction": "TW", "total_row_ft": 30.0, "roadbed_ft": 0.0, "median_ft": 0.0, "left_sw_ft": 15.0, "right_sw_ft": 15.0}, "geometry": {"type": "LineString", "coordinates": [[-73.76969763661737, 40.84919115131031], [-73.77012090916465, 40.849119213909574]]}}, {"type": "Feature", "properties": {"segment_id": 908145, "physicalid": "63459", "street_name": "UNNAMED ST", "borough": "bronx", "direction": "TW", "total_row_ft": 30.0, "roadbed_ft": 0.0, "median_ft": 0.0, "left_sw_ft": 15.0, "right_sw_ft": 15.0}, "geometry": {"type": "LineString", "coordinates": [[-73.7696818475677, 40.849137582525806], [-73.77010511979118, 40.84906564518232]]}}, {"type": "Feature", "properties": {"segment_id": 908146, "physicalid": "63459", "street_name": "UNNAMED ST", "borough": "bronx", "direction": "TW", "total_row_ft": 30.0, "roadbed_ft": 0.0, "median_ft": 0.0, "left_sw_ft": 15.0, "right_sw_ft": 15.0}, "geometry": {"type": "LineString", "coordinates": [[-73.76966605854346, 40.84908401373864], [-73.77008933044314, 40.84901207645242]]}}, {"type": "Feature", "properties": {"segment_id": 908147, "physicalid": "63460", "street_name": "UNNAMED ST", "borough": "bronx", "direction": "TW", "total_row_ft": 30.0, "roadbed_ft": 0.0, "median_ft": 0.0, "left_sw_ft": 15.0, "right_sw_ft": 15.0}, "geometry": {"type": "LineString", "coordinates": [[-73.77005079639886, 40.84979364063652], [-73.76993927197235, 40.849475349363274]]}}, {"type": "Feature", "properties": {"segment_id": 908148, "physicalid": "63460", "street_name": "UNNAMED ST", "borough": "bronx", "direction": "TW", "total_row_ft": 30.0, "roadbed_ft": 0.0, "median_ft": 0.0, "left_sw_ft": 15.0, "right_sw_ft": 15.0}, "geometry": {"type": "LineString", "coordinates": [[-73.76998093536528, 40.849807754914174], [-73.76986941124942, 40.84948946357414]]}}, {"type": "Feature", "properties": {"segment_id": 908149, "physicalid": "63460", "street_name": "UNNAMED ST", "borough": "bronx", "direction": "TW", "total_row_ft": 30.0, "roadbed_ft": 0.0, "median_ft": 0.0, "left_sw_ft": 15.0, "right_sw_ft": 15.0}, "geometry": {"type": "LineString", "coordinates": [[-73.76991107430206, 40.84982186914946], [-73.76979955049681, 40.849503577742695]]}}, {"type": "Feature", "properties": {"segment_id": 908150, "physicalid": "63460", "street_name": "UNNAMED ST", "borough": "bronx", "direction": "TW", "total_row_ft": 30.0, "roadbed_ft": 0.0, "median_ft": 0.0, "left_sw_ft": 15.0, "right_sw_ft": 15.0}, "geometry": {"type": "LineString", "coordinates": [[-73.76984121320919, 40.84983598334244], [-73.76972968971455, 40.84951769186888]]}}, {"type": "Feature", "properties": {"segment_id": 908151, "physicalid": "63460", "street_name": "UNNAMED ST", "borough": "bronx", "direction": "TW", "total_row_ft": 30.0, "roadbed_ft": 0.0, "median_ft": 0.0, "left_sw_ft": 15.0, "right_sw_ft": 15.0}, "geometry": {"type": "LineString", "coordinates": [[-73.76977135208665, 40.84985009749304], [-73.76965982890268, 40.84953180595273]]}}, {"type": "Feature", "properties": {"segment_id": 908152, "physicalid": "63460", "street_name": "UNNAMED ST", "borough": "bronx", "direction": "TW", "total_row_ft": 30.0, "roadbed_ft": 0.0, "median_ft": 0.0, "left_sw_ft": 15.0, "right_sw_ft": 15.0}, "geometry": {"type": "LineString", "coordinates": [[-73.76970149093448, 40.84986421160131], [-73.76958996806115, 40.84954591999424]]}}, {"type": "Feature", "properties": {"segment_id": 908153, "physicalid": "63460", "street_name": "UNNAMED ST", "borough": "bronx", "direction": "TW", "total_row_ft": 30.0, "roadbed_ft": 0.0, "median_ft": 0.0, "left_sw_ft": 15.0, "right_sw_ft": 15.0}, "geometry": {"type": "LineString", "coordinates": [[-73.76963162975268, 40.849878325667234], [-73.76952010718995, 40.84956003399341]]}}, {"type": "Feature", "properties": {"segment_id": 908154, "physicalid": "63460", "street_name": "UNNAMED ST", "borough": "bronx", "direction": "TW", "total_row_ft": 30.0, "roadbed_ft": 0.0, "median_ft": 0.0, "left_sw_ft": 15.0, "right_sw_ft": 15.0}, "geometry": {"type": "LineString", "coordinates": [[-73.76956176854121, 40.84989243969082], [-73.76945024628913, 40.84957414795023]]}}, {"type": "Feature", "properties": {"segment_id": 908155, "physicalid": "63460", "street_name": "UNNAMED ST", "borough": "bronx", "direction": "TW", "total_row_ft": 30.0, "roadbed_ft": 0.0, "median_ft": 0.0, "left_sw_ft": 15.0, "right_sw_ft": 15.0}, "geometry": {"type": "LineString", "coordinates": [[-73.7694919073001, 40.84990655367206], [-73.76938038535864, 40.84958826186473]]}}, {"type": "Feature", "properties": {"segment_id": 908156, "physicalid": "63460", "street_name": "UNNAMED ST", "borough": "bronx", "direction": "TW", "total_row_ft": 30.0, "roadbed_ft": 0.0, "median_ft": 0.0, "left_sw_ft": 15.0, "right_sw_ft": 15.0}, "geometry": {"type": "LineString", "coordinates": [[-73.76942204602933, 40.84992066761097], [-73.76931052439852, 40.84960237573687]]}}, {"type": "Feature", "properties": {"segment_id": 908157, "physicalid": "63460", "street_name": "UNNAMED ST", "borough": "bronx", "direction": "TW", "total_row_ft": 64.8, "roadbed_ft": 34.8, "median_ft": 0.0, "left_sw_ft": 15.0, "right_sw_ft": 15.0}, "geometry": {"type": "LineString", "coordinates": [[-73.76935218472893, 40.8499347815075], [-73.76924066340874, 40.84961648956667]]}}, {"type": "Feature", "properties": {"segment_id": 908158, "physicalid": "63461", "street_name": "UNNAMED ST", "borough": "bronx", "direction": "TW", "total_row_ft": 45.0, "roadbed_ft": 15.0, "median_ft": 0.0, "left_sw_ft": 15.0, "right_sw_ft": 15.0}, "geometry": {"type": "LineString", "coordinates": [[-73.7690358165542, 40.84970640633241], [-73.76945478401326, 40.84979165626613]]}}, {"type": "Feature", "properties": {"segment_id": 908159, "physicalid": "63461", "street_name": "UNNAMED ST", "borough": "bronx", "direction": "TW", "total_row_ft": 45.7, "roadbed_ft": 15.7, "median_ft": 0.0, "left_sw_ft": 15.0, "right_sw_ft": 15.0}, "geometry": {"type": "LineString", "coordinates": [[-73.76905452799691, 40.84965338293424], [-73.76947349514603, 40.84973863280073]]}}, {"type": "Feature", "properties": {"segment_id": 908160, "physicalid": "63461", "street_name": "UNNAMED ST", "borough": "bronx", "direction": "TW", "total_row_ft": 46.4, "roadbed_ft": 16.4, "median_ft": 0.0, "left_sw_ft": 15.0, "right_sw_ft": 15.0}, "geometry": {"type": "LineString", "coordinates": [[-73.76907323940983, 40.84960035953252], [-73.76949220624894, 40.84968560933184]]}}, {"type": "Feature", "properties": {"segment_id": 908161, "physicalid": "63461", "street_name": "UNNAMED ST", "borough": "bronx", "direction": "TW", "total_row_ft": 47.0, "roadbed_ft": 17.0, "median_ft": 0.0, "left_sw_ft": 15.0, "right_sw_ft": 15.0}, "geometry": {"type": "LineString", "coordinates": [[-73.76909195079293, 40.84954733612726], [-73.76951091732202, 40.84963258585946]]}}, {"type": "Feature", "properties": {"segment_id": 908162, "physicalid": "63461", "street_name": "UNNAMED ST", "borough": "bronx", "direction": "TW", "total_row_ft": 47.5, "roadbed_ft": 17.5, "median_ft": 0.0, "left_sw_ft": 15.0, "right_sw_ft": 15.0}, "geometry": {"type": "LineString", "coordinates": [[-73.76911066214616, 40.84949431271852], [-73.76952962836528, 40.849579562383504]]}}, {"type": "Feature", "properties": {"segment_id": 908163, "physicalid": "63461", "street_name": "UNNAMED ST", "borough": "bronx", "direction": "TW", "total_row_ft": 48.1, "roadbed_ft": 18.1, "median_ft": 0.0, "left_sw_ft": 15.0, "right_sw_ft": 15.0}, "geometry": {"type": "LineString", "coordinates": [[-73.76912937346961, 40.84944128930619], [-73.76954833937869, 40.84952653890407]]}}, {"type": "Feature", "properties": {"segment_id": 908164, "physicalid": "63461", "street_name": "UNNAMED ST", "borough": "bronx", "direction": "TW", "total_row_ft": 48.6, "roadbed_ft": 18.6, "median_ft": 0.0, "left_sw_ft": 15.0, "right_sw_ft": 15.0}, "geometry": {"type": "LineString", "coordinates": [[-73.76914808476317, 40.849388265890425], [-73.7695670503623, 40.84947351542104]]}}, {"type": "Feature", "properties": {"segment_id": 908165, "physicalid": "63461", "street_name": "UNNAMED ST", "borough": "bronx", "direction": "TW", "total_row_ft": 48.9, "roadbed_ft": 18.9, "median_ft": 0.0, "left_sw_ft": 15.0, "right_sw_ft": 15.0}, "geometry": {"type": "LineString", "coordinates": [[-73.76916679602694, 40.84933524247108], [-73.76958576131607, 40.849420491934545]]}}, {"type": "Feature", "properties": {"segment_id": 908166, "physicalid": "63461", "street_name": "UNNAMED ST", "borough": "bronx", "direction": "TW", "total_row_ft": 48.8, "roadbed_ft": 18.8, "median_ft": 0.0, "left_sw_ft": 15.0, "right_sw_ft": 15.0}, "geometry": {"type": "LineString", "coordinates": [[-73.76918550726087, 40.84928221904818], [-73.76960447223999, 40.84936746844455]]}}, {"type": "Feature", "properties": {"segment_id": 908167, "physicalid": "63461", "street_name": "UNNAMED ST", "borough": "bronx", "direction": "TW", "total_row_ft": 48.7, "roadbed_ft": 18.7, "median_ft": 0.0, "left_sw_ft": 15.0, "right_sw_ft": 15.0}, "geometry": {"type": "LineString", "coordinates": [[-73.76920421846496, 40.84922919562184], [-73.7696231831341, 40.84931444495093]]}}, {"type": "Feature", "properties": {"segment_id": 908168, "physicalid": "63461", "street_name": "UNNAMED ST", "borough": "bronx", "direction": "TW", "total_row_ft": 48.3, "roadbed_ft": 18.3, "median_ft": 0.0, "left_sw_ft": 15.0, "right_sw_ft": 15.0}, "geometry": {"type": "LineString", "coordinates": [[-73.76922292963923, 40.84917617219188], [-73.76964189399835, 40.84926142145391]]}}, {"type": "Feature", "properties": {"segment_id": 908169, "physicalid": "63461", "street_name": "UNNAMED ST", "borough": "bronx", "direction": "TW", "total_row_ft": 47.4, "roadbed_ft": 17.4, "median_ft": 0.0, "left_sw_ft": 15.0, "right_sw_ft": 15.0}, "geometry": {"type": "LineString", "coordinates": [[-73.76924164078366, 40.849123148758494], [-73.76966060483281, 40.84920839795328]]}}, {"type": "Feature", "properties": {"segment_id": 908170, "physicalid": "63461", "street_name": "UNNAMED ST", "borough": "bronx", "direction": "TW", "total_row_ft": 48.1, "roadbed_ft": 18.1, "median_ft": 0.0, "left_sw_ft": 15.0, "right_sw_ft": 15.0}, "geometry": {"type": "LineString", "coordinates": [[-73.76926035189828, 40.84907012532148], [-73.76967931563742, 40.84915537444918]]}}, {"type": "Feature", "properties": {"segment_id": 908171, "physicalid": "63461", "street_name": "UNNAMED ST", "borough": "bronx", "direction": "TW", "total_row_ft": 56.2, "roadbed_ft": 26.2, "median_ft": 0.0, "left_sw_ft": 15.0, "right_sw_ft": 15.0}, "geometry": {"type": "LineString", "coordinates": [[-73.76927906298305, 40.84901710188107], [-73.7696980264122, 40.84910235094149]]}}, {"type": "Feature", "properties": {"segment_id": 908172, "physicalid": "63461", "street_name": "UNNAMED ST", "borough": "bronx", "direction": "TW", "total_row_ft": 81.8, "roadbed_ft": 51.8, "median_ft": 0.0, "left_sw_ft": 15.0, "right_sw_ft": 15.0}, "geometry": {"type": "LineString", "coordinates": [[-73.76950733387183, 40.8488735069176], [-73.76957707361248, 40.84919858622682]]}}, {"type": "Feature", "properties": {"segment_id": 908173, "physicalid": "63461", "street_name": "UNNAMED ST", "borough": "bronx", "direction": "TW", "total_row_ft": 55.2, "roadbed_ft": 25.2, "median_ft": 0.0, "left_sw_ft": 15.0, "right_sw_ft": 15.0}, "geometry": {"type": "LineString", "coordinates": [[-73.76957868379378, 40.848864680741265], [-73.76964842387389, 40.84918976000785]]}}, {"type": "Feature", "properties": {"segment_id": 908174, "physicalid": "63461", "street_name": "UNNAMED ST", "borough": "bronx", "direction": "TW", "total_row_ft": 42.3, "roadbed_ft": 12.3, "median_ft": 0.0, "left_sw_ft": 15.0, "right_sw_ft": 15.0}, "geometry": {"type": "LineString", "coordinates": [[-73.76965003369682, 40.84885585452081], [-73.76971977411637, 40.84918093374473]]}}, {"type": "Feature", "properties": {"segment_id": 908175, "physicalid": "63461", "street_name": "UNNAMED ST", "borough": "bronx", "direction": "TW", "total_row_ft": 43.7, "roadbed_ft": 13.7, "median_ft": 0.0, "left_sw_ft": 15.0, "right_sw_ft": 15.0}, "geometry": {"type": "LineString", "coordinates": [[-73.76972138358092, 40.84884702825621], [-73.7697911243399, 40.84917210743749]]}}, {"type": "Feature", "properties": {"segment_id": 908176, "physicalid": "63462", "street_name": "UNNAMED ST", "borough": "bronx", "direction": "TW", "total_row_ft": 44.1, "roadbed_ft": 14.1, "median_ft": 0.0, "left_sw_ft": 15.0, "right_sw_ft": 15.0}, "geometry": {"type": "LineString", "coordinates": [[-73.76986054043527, 40.84882668291145], [-73.76996938665548, 40.849145508155146]]}}, {"type": "Feature", "properties": {"segment_id": 908177, "physicalid": "63462", "street_name": "UNNAMED ST", "borough": "bronx", "direction": "TW", "total_row_ft": 43.0, "roadbed_ft": 13.0, "median_ft": 0.0, "left_sw_ft": 15.0, "right_sw_ft": 15.0}, "geometry": {"type": "LineString", "coordinates": [[-73.76993051763748, 40.848812907468975], [-73.7700393641705, 40.849131732647415]]}}]}