{"type": "FeatureCollection", "features": [{"type": "Feature", "properties": {"segment_id": 907892, "physicalid": "63449", "street_name": "UNNAMED ST", "borough": "bronx", "direction": "TW", "total_row_ft": 42.8, "roadbed_ft": 12.8, "median_ft": 0.0, "left_sw_ft": 15.0, "right_sw_ft": 15.0}, "geometry": {"type": "LineString", "coordinates": [[-73.76979364758546, 40.857610034336346], [-73.77016209934317, 40.857436191427475]]}}, {"type": "Feature", "properties": {"segment_id": 907893, "physicalid": "63449", "street_name": "UNNAMED ST", "borough": "bronx", "direction": "TW", "total_row_ft": 42.9, "roadbed_ft": 12.9, "median_ft": 0.0, "left_sw_ft": 15.0, "right_sw_ft": 15.0}, "geometry": {"type": "LineString", "coordinates": [[-73.7697554868181, 40.85756340948848], [-73.77012393841724, 40.857389566700064]]}}, {"type": "Feature", "properties": {"segment_id": 907894, "physicalid": "63449", "street_name": "UNNAMED ST", "borough": "bronx", "direction": "TW", "total_row_ft": 43.0, "roadbed_ft": 13.0, "median_ft": 0.0, "left_sw_ft": 15.0, "right_sw_ft": 15.0}, "geometry": {"type": "LineString", "coordinates": [[-73.76971732610423, 40.85751678462761], [-73.77008577754482, 40.85734294195963]]}}, {"type": "Feature", "properties": {"segment_id": 907895, "physicalid": "63449", "street_name": "UNNAMED ST", "borough": "bronx", "direction": "TW", "total_row_ft": 43.2, "roadbed_ft": 13.2, "median_ft": 0.0, "left_sw_ft": 15.0, "right_sw_ft": 15.0}, "geometry": {"type": "LineString", "coordinates": [[-73.76967479049252, 40.85746082006289], [-73.77005613854232, 40.857303827160706]]}}, {"type": "Feature", "properties": {"segment_id": 907896, "physicalid": "63449", "street_name": "UNNAMED ST", "borough": "bronx", "direction": "TW", "total_row_ft": 43.3, "roadbed_ft": 13.3, "median_ft": 0.0, "left_sw_ft": 15.0, "right_sw_ft": 15.0}, "geometry": {"type": "LineString", "coordinates": [[-73.76964032862033, 40.857412563188596], [-73.77002167647477, 40.85725557039902]]}}, {"type": "Feature", "properties": {"segment_id": 907897, "physicalid": "63449", "street_name": "UNNAMED ST", "borough": "bronx", "direction": "TW", "total_row_ft": 43.5, "roadbed_ft": 13.5, "median_ft": 0.0, "left_sw_ft": 15.0, "right_sw_ft": 15.0}, "geometry": {"type": "LineString", "coordinates": [[-73.76960586679813, 40.85736430630362], [-73.76998721445723, 40.85720731362659]]}}, {"type": "Feature", "properties": {"segment_id": 907898, "physicalid": "63449", "street_name": "UNNAMED ST", "borough": "bronx", "direction": "TW", "total_row_ft": 43.6, "roadbed_ft": 13.6, "median_ft": 0.0, "left_sw_ft": 15.0, "right_sw_ft": 15.0}, "geometry": {"type": "LineString", "coordinates": [[-73.76957140502596, 40.85731604940793], [-73.76995275248971, 40.85715905684347]]}}, {"type": "Feature", "properties": {"segment_id": 907899, "physicalid": "63449", "street_name": "UNNAMED ST", "borough": "bronx", "direction": "TW", "total_row_ft": 43.6, "roadbed_ft": 13.6, "median_ft": 0.0, "left_sw_ft": 15.0, "right_sw_ft": 15.0}, "geometry": {"type": "LineString", "coordinates": [[-73.7695369433038, 40.85726779250158], [-73.76991829057218, 40.85711080004964]]}}, {"type": "Feature", "properties": {"segment_id": 907900, "physicalid": "63449", "street_name": "UNNAMED ST", "borough": "bronx", "direction": "TW", "total_row_ft": 44.5, "roadbed_ft": 14.5, "median_ft": 0.0, "left_sw_ft": 15.0, "right_sw_ft": 15.0}, "geometry": {"type": "LineString", "coordinates": [[-73.76949841019396, 40.85721015107613], [-73.76989134896196, 40.85707060691754]]}}, {"type": "Feature", "properties": {"segment_id": 907901, "physicalid": "63449", "street_name": "UNNAMED ST", "borough": "bronx", "direction": "TW", "total_row_ft": 44.7, "roadbed_ft": 14.7, "median_ft": 0.0, "left_sw_ft": 15.0, "right_sw_ft": 15.0}, "geometry": {"type": "LineString", "coordinates": [[-73.76946777867687, 40.85716042730386], [-73.76986071721535, 40.85702088324835]]}}, {"type": "Feature", "properties": {"segment_id": 907902, "physicalid": "63449", "street_name": "UNNAMED ST", "borough": "bronx", "direction": "TW", "total_row_ft": 44.5, "roadbed_ft": 14.5, "median_ft": 0.0, "left_sw_ft": 15.0, "right_sw_ft": 15.0}, "geometry": {"type": "LineString", "coordinates": [[-73.76943714720555, 40.857110703523], [-73.76983008551454, 40.85697115957063]]}}, {"type": "Feature", "properties": {"segment_id": 907903, "physicalid": "63449", "street_name": "UNNAMED ST", "borough": "bronx", "direction": "TW", "total_row_ft": 43.8, "roadbed_ft": 13.8, "median_ft": 0.0, "left_sw_ft": 15.0, "right_sw_ft": 15.0}, "geometry": {"type": "LineString", "coordinates": [[-73.76940651578003, 40.857060979733596], [-73.76979945385953, 40.8569214358843]]}}, {"type": "Feature", "properties": {"segment_id": 907904, "physicalid": "63449", "street_name": "UNNAMED ST", "borough": "bronx", "direction": "TW", "total_row_ft": 42.7, "roadbed_ft": 12.7, "median_ft": 0.0, "left_sw_ft": 15.0, "right_sw_ft": 15.0}, "geometry": {"type": "LineString", "coordinates": [[-73.76937588440033, 40.8570112559356], [-73.76976882225031, 40.85687171218943]]}}, {"type": "Feature", "properties": {"segment_id": 907905, "physicalid": "63449", "street_name": "UNNAMED ST", "borough": "bronx", "direction": "TW", "total_row_ft": 42.4, "roadbed_ft": 12.4, "median_ft": 0.0, "left_sw_ft": 15.0, "right_sw_ft": 15.0}, "geometry": {"type": "LineString", "coordinates": [[-73.76934145126461, 40.85695213682465], [-73.7697445957143, 40.85683052981247]]}}, {"type": "Feature", "properties": {"segment_id": 907906, "physicalid": "63449", "street_name": "UNNAMED ST", "borough": "bronx", "direction": "TW", "total_row_ft": 42.2, "roadbed_ft": 12.2, "median_ft": 0.0, "left_sw_ft": 15.0, "right_sw_ft": 15.0}, "geometry": {"type": "LineString", "coordinates": [[-73.76931475728536, 40.85690112140623], [-73.76971790147464, 40.85677951448625]]}}, {"type": "Feature", "properties": {"segment_id": 907907, "physicalid": "63449", "street_name": "UNNAMED ST", "borough": "bronx", "direction": "TW", "total_row_ft": 42.1, "roadbed_ft": 12.1, "median_ft": 0.0, "left_sw_ft": 15.0, "right_sw_ft": 15.0}, "geometry": {"type": "LineString", "coordinates": [[-73.76928806334706, 40.8568501059812], [-73.76969120727591, 40.856728499153384]]}}, {"type": "Feature", "properties": {"segment_id": 907908, "physicalid": "63449", "street_name": "UNNAMED ST", "borough": "bronx", "direction": "TW", "total_row_ft": 41.5, "roadbed_ft": 11.5, "median_ft": 0.0, "left_sw_ft": 15.0, "right_sw_ft": 15.0}, "geometry": {"type": "LineString", "coordinates": [[-73.76926136944971, 40.85679909054952], [-73.76966451311813, 40.85667748381392]]}}, {"type": "Feature", "properties": {"segment_id": 907909, "physicalid": "63449", "street_name": "UNNAMED ST", "borough": "bronx", "direction": "TW", "total_row_ft": 41.4, "roadbed_ft": 11.4, "median_ft": 0.0, "left_sw_ft": 15.0, "right_sw_ft": 15.0}, "geometry": {"type": "LineString", "coordinates": [[-73.7692346755933, 40.85674807511121], [-73.7696378190013, 40.856626468467766]]}}, {"type": "Feature", "properties": {"segment_id": 907910, "physicalid": "63449", "street_name": "UNNAMED ST", "borough": "bronx", "direction": "TW", "total_row_ft": 41.8, "roadbed_ft": 11.8, "median_ft": 0.0, "left_sw_ft": 15.0, "right_sw_ft": 15.0}, "geometry": {"type": "LineString", "coordinates": [[-73.76920443665534, 40.8566876363708], [-73.7696163730664, 40.85658440663811]]}}, {"type": "Feature", "properties": {"segment_id": 907911, "physicalid": "63449", "street_name": "UNNAMED ST", "borough": "bronx", "direction": "TW", "total_row_ft": 42.9, "roadbed_ft": 12.9, "median_ft": 0.0, "left_sw_ft": 15.0, "right_sw_ft": 15.0}, "geometry": {"type": "LineString", "coordinates": [[-73.769181776798, 40.85663550819], [-73.76959371292142, 40.85653227853733]]}}, {"type": "Feature", "properties": {"segment_id": 907912, "physicalid": "63449", "street_name": "UNNAMED ST", "borough": "bronx", "direction": "TW", "total_row_ft": 44.4, "roadbed_ft": 14.4, "median_ft": 0.0, "left_sw_ft": 15.0, "right_sw_ft": 15.0}, "geometry": {"type": "LineString", "coordinates": [[-73.76915911697623, 40.856583380004324], [-73.76957105281195, 40.85648015043163]]}}, {"type": "Feature", "properties": {"segment_id": 907913, "physicalid": "63449", "street_name": "UNNAMED ST", "borough": "bronx", "direction": "TW", "total_row_ft": 45.9, "roadbed_ft": 15.9, "median_ft": 0.0, "left_sw_ft": 15.0, "right_sw_ft": 15.0}, "geometry": {"type": "LineString", "coordinates": [[-73.76913645718999, 40.85653125181374], [-73.76954839273799, 40.85642802232094]]}}, {"type": "Feature", "properties": {"segment_id": 907914, "physicalid": "63449", "street_name": "UNNAMED ST", "borough": "bronx", "direction": "TW", "total_row_ft": 46.3, "roadbed_ft": 16.3, "median_ft": 0.0, "left_sw_ft": 15.0, "right_sw_ft": 15.0}, "geometry": {"type": "LineString", "coordinates": [[-73.76911379743923, 40.856479123618215], [-73.76952573269955, 40.85637589420537]]}}, {"type": "Feature", "properties": {"segment_id": 907915, "physicalid": "63449", "street_name": "UNNAMED ST", "borough": "bronx", "direction": "TW", "total_row_ft": 46.0, "roadbed_ft": 16.0, "median_ft": 0.0, "left_sw_ft": 15.0, "right_sw_ft": 15.0}, "geometry": {"type": "LineString", "coordinates": [[-73.76908789128153, 40.856417566004964], [-73.76950714398319, 40.85633300914364]]}}, {"type": "Feature", "properties": {"segment_id": 907916, "physicalid": "63449", "street_name": "UNNAMED ST", "borough": "bronx", "direction": "TW", "total_row_ft": 45.7, "roadbed_ft": 15.7, "median_ft": 0.0, "left_sw_ft": 15.0, "right_sw_ft": 15.0}, "geometry": {"type": "LineString", "coordinates": [[-73.76906933039935, 40.856364511787476], [-73.76948858279017, 40.85627995499281]]}}, {"type": "Feature", "properties": {"segment_id": 907917, "physicalid": "63449", "street_name": "UNNAMED ST", "borough": "bronx", "direction": "TW", "total_row_ft": 45.4, "roadbed_ft": 15.4, "median_ft": 0.0, "left_sw_ft": 15.0, "right_sw_ft": 15.0}, "geometry": {"type": "LineString", "coordinates": [[-73.76905076954677, 40.856311457566534], [-73.76947002162676, 40.85622690083851]]}}, {"type": "Feature", "properties": {"segment_id": 907918, "physicalid": "63449", "street_name": "UNNAMED ST", "borough": "bronx", "direction": "TW", "total_row_ft": 45.2, "roadbed_ft": 15.2, "median_ft": 0.0, "left_sw_ft": 15.0, "right_sw_ft": 15.0}, "geometry": {"type": "LineString", "coordinates": [[-73.76903220872383, 40.8562584033421], [-73.76945146049296, 40.856173846680676]]}}, {"type": "Feature", "properties": {"segment_id": 907919, "physicalid": "63449", "street_name": "UNNAMED ST", "borough": "bronx", "direction": "TW", "total_row_ft": 45.2, "roadbed_ft": 15.2, "median_ft": 0.0, "left_sw_ft": 15.0, "right_sw_ft": 15.0}, "geometry": {"type": "LineString", "coordinates": [[-73.76901364793046, 40.856205349114134], [-73.76943289938879, 40.85612079251945]]}}, {"type": "Feature", "properties": {"segment_id": 907920, "physicalid": "63449", "street_name": "UNNAMED ST", "borough": "bronx", "direction": "TW", "total_row_ft": 45.2, "roadbed_ft": 15.2, "median_ft": 0.0, "left_sw_ft": 15.0, "right_sw_ft": 15.0}, "geometry": {"type": "LineString", "coordinates": [[-73.76899220428643, 40.85614283956734], [-73.76941728769913, 40.85607718183791]]}}, {"type": "Feature", "properties": {"segment_id": 907921, "physicalid": "63449", "street_name": "UNNAMED ST", "borough": "bronx", "direction": "TW", "total_row_ft": 45.3, "roadbed_ft": 15.3, "median_ft": 0.0, "left_sw_ft": 15.0, "right_sw_ft": 15.0}, "geometry": {"type": "LineString", "coordinates": [[-73.76897779201167, 40.85608904729526], [-73.76940287509478, 40.856023389618265]]}}, {"type": "Feature", "properties": {"segment_id": 907922, "physicalid": "63449", "street_name": "UNNAMED ST", "borough": "bronx", "direction": "TW", "total_row_ft": 45.0, "roadbed_ft": 15.0, "median_ft": 0.0, "left_sw_ft": 15.0, "right_sw_ft": 15.0}, "geometry": {"type": "LineString", "coordinates": [[-73.7689633797602, 40.856035255020835], [-73.76938846251375, 40.85596959739635]]}}, {"type": "Feature", "properties": {"segment_id": 907923, "physicalid": "63449", "street_name": "UNNAMED ST", "borough": "bronx", "direction": "TW", "total_row_ft": 44.7, "roadbed_ft": 14.7, "median_ft": 0.0, "left_sw_ft": 15.0, "right_sw_ft": 15.0}, "geometry": {"type": "LineString", "coordinates": [[-73.76894896753205, 40.85598146274411], [-73.76937404995603, 40.85591580517211]]}}, {"type": "Feature", "properties": {"segment_id": 907924, "physicalid": "63449", "street_name": "UNNAMED ST", "borough": "bronx", "direction": "TW", "total_row_ft": 44.5, "roadbed_ft": 14.5, "median_ft": 0.0, "left_sw_ft": 15.0, "right_sw_ft": 15.0}, "geometry": {"type": "LineString", "coordinates": [[-73.76893455532722, 40.8559276704651], [-73.76935963742162, 40.85586201294554]]}}, {"type": "Feature", "properties": {"segment_id": 907925, "physicalid": "63449", "street_name": "UNNAMED ST", "borough": "bronx", "direction": "TW", "total_row_ft": 44.2, "roadbed_ft": 14.2, "median_ft": 0.0, "left_sw_ft": 15.0, "right_sw_ft": 15.0}, "geometry": {"type": "LineString", "coordinates": [[-73.76892014314569, 40.855873878183765], [-73.76934522491052, 40.85580822071671]]}}, {"type": "Feature", "properties": {"segment_id": 907926, "physicalid": "63449", "street_name": "UNNAMED ST", "borough": "bronx", "direction": "TW", "total_row_ft": 44.2, "roadbed_ft": 14.2, "median_ft": 0.0, "left_sw_ft": 15.0, "right_sw_ft": 15.0}, "geometry": {"type": "LineString", "coordinates": [[-73.76890749319008, 40.855810073060354], [-73.7693369052805, 40.85576340879117]]}}, {"type": "Feature", "properties": {"segment_id": 907927, "physicalid": "63449", "street_name": "UNNAMED ST", "borough": "bronx", "direction": "TW", "total_row_ft": 67.6, "roadbed_ft": 37.6, "median_ft": 0.0, "left_sw_ft": 15.0, "right_sw_ft": 15.0}, "geometry": {"type": "LineString", "coordinates": [[-73.76889725020162, 40.855755732755725], [-73.76932666194838, 40.855709068524206]]}}, {"type": "Feature", "properties": {"segment_id": 907928, "physicalid": "63449", "street_name": "UNNAMED ST", "borough": "bronx", "direction": "TW", "total_row_ft": 46.6, "roadbed_ft": 16.6, "median_ft": 0.0, "left_sw_ft": 15.0, "right_sw_ft": 15.0}, "geometry": {"type": "LineString", "coordinates": [[-73.7688870072299, 40.855701392449646], [-73.76931641863301, 40.85565472825581]]}}, {"type": "Feature", "properties": {"segment_id": 907929, "physicalid": "63449", "street_name": "UNNAMED ST", "borough": "bronx", "direction": "TW", "total_row_ft": 72.3, "roadbed_ft": 42.3, "median_ft": 0.0, "left_sw_ft": 15.0, "right_sw_ft": 15.0}, "geometry": {"type": "LineString", "coordinates": [[-73.7688767642749, 40.85564705214216], [-73.76930617533436, 40.855600387986]]}}, {"type": "Feature", "properties": {"segment_id": 907930, "physicalid": "63449", "street_name": "UNNAMED ST", "borough": "bronx", "direction": "TW", "total_row_ft": 66.7, "roadbed_ft": 36.7, "median_ft": 0.0, "left_sw_ft": 15.0, "right_sw_ft": 15.0}, "geometry": {"type": "LineString", "coordinates": [[-73.76886652133666, 40.855592711833225], [-73.76929593205247, 40.85554604771476]]}}, {"type": "Feature", "properties": {"segment_id": 907931, "physicalid": "63449", "street_name": "UNNAMED ST", "borough": "bronx", "direction": "TW", "total_row_ft": 48.8, "roadbed_ft": 18.8, "median_ft": 0.0, "left_sw_ft": 15.0, "right_sw_ft": 15.0}, "geometry": {"type": "LineString", "coordinates": [[-73.7688542055541, 40.85555240278433], [-73.76927713345995, 40.855479171213574]]}}, {"type": "Feature", "properties": {"segment_id": 907932, "physicalid": "63449", "street_name": "UNNAMED ST", "borough": "bronx", "direction": "TW", "total_row_ft": 48.0, "roadbed_ft": 18.0, "median_ft": 0.0, "left_sw_ft": 15.0, "right_sw_ft": 15.0}, "geometry": {"type": "LineString", "coordinates": [[-73.76883813089741, 40.855498882794315], [-73.76926105848062, 40.85542565128182]]}}, {"type": "Feature", "properties": {"segment_id": 907933, "physicalid": "63449", "street_name": "UNNAMED ST", "borough": "bronx", "direction": "TW", "total_row_ft": 47.0, "roadbed_ft": 17.0, "median_ft": 0.0, "left_sw_ft": 15.0, "right_sw_ft": 15.0}, "geometry": {"type": "LineString", "coordinates": [[-73.76882205626657, 40.855445362801575], [-73.76924498352716, 40.855372131347316]]}}, {"type": "Feature", "properties": {"segment_id": 907934, "physicalid": "63449", "street_name": "UNNAMED ST", "borough": "bronx", "direction": "TW", "total_row_ft": 46.2, "roadbed_ft": 16.2, "median_ft": 0.0, "left_sw_ft": 15.0, "right_sw_ft": 15.0}, "geometry": {"type": "LineString", "coordinates": [[-73.7688059816616, 40.855391842806085], [-73.76922890859957, 40.85531861141006]]}}, {"type": "Feature", "properties": {"segment_id": 907935, "physicalid": "63449", "street_name": "UNNAMED ST", "borough": "bronx", "direction": "TW", "total_row_ft": 45.6, "roadbed_ft": 15.6, "median_ft": 0.0, "left_sw_ft": 15.0, "right_sw_ft": 15.0}, "geometry": {"type": "LineString", "coordinates": [[-73.76878990708252, 40.8553383228079], [-73.76921283369784, 40.85526509147003]]}}, {"type": "Feature", "properties": {"segment_id": 907936, "physicalid": "63449", "street_name": "UNNAMED ST", "borough": "bronx", "direction": "TW", "total_row_ft": 45.0, "roadbed_ft": 15.0, "median_ft": 0.0, "left_sw_ft": 15.0, "right_sw_ft": 15.0}, "geometry": {"type": "LineString", "coordinates": [[-73.76877383252928, 40.855284802806885], [-73.769196758822, 40.85521157152734]]}}, {"type": "Feature", "properties": {"segment_id": 907937, "physicalid": "63449", "street_name": "UNNAMED ST", "borough": "bronx", "direction": "TW", "total_row_ft": 44.9, "roadbed_ft": 14.9, "median_ft": 0.0, "left_sw_ft": 15.0, "right_sw_ft": 15.0}, "geometry": {"type": "LineString", "coordinates": [[-73.76875775800191, 40.85523128280316], [-73.76918068397202, 40.855158051581874]]}}, {"type": "Feature", "properties": {"segment_id": 907938, "physicalid": "63449", "street_name": "UNNAMED ST", "borough": "bronx", "direction": "TW", "total_row_ft": 44.9, "roadbed_ft": 14.9, "median_ft": 0.0, "left_sw_ft": 15.0, "right_sw_ft": 15.0}, "geometry": {"type": "LineString", "coordinates": [[-73.76874168350044, 40.855177762796714], [-73.76916460914792, 40.85510453163365]]}}, {"type": "Feature", "properties": {"segment_id": 907939, "physicalid": "63449", "street_name": "UNNAMED ST", "borough": "bronx", "direction": "TW", "total_row_ft": 44.9, "roadbed_ft": 14.9, "median_ft": 0.0, "left_sw_ft": 15.0, "right_sw_ft": 15.0}, "geometry": {"type": "LineString", "coordinates": [[-73.76872560902481, 40.85512424278751], [-73.76914853434968, 40.855051011682676]]}}, {"type": "Feature", "properties": {"segment_id": 907940, "physicalid": "63449", "street_name": "UNNAMED ST", "borough": "bronx", "direction": "TW", "total_row_ft": 44.8, "roadbed_ft": 14.8, "median_ft": 0.0, "left_sw_ft": 15.0, "right_sw_ft": 15.0}, "geometry": {"type": "LineString", "coordinates": [[-73.76870953457508, 40.85507072277562], [-73.76913245957729, 40.85499749172894]]}}, {"type": "Feature", "properties": {"segment_id": 907941, "physicalid": "63449", "street_name": "UNNAMED ST", "borough": "bronx", "direction": "TW", "total_row_ft": 44.7, "roadbed_ft": 14.7, "median_ft": 0.0, "left_sw_ft": 15.0, "right_sw_ft": 15.0}, "geometry": {"type": "LineString", "coordinates": [[-73.76869346015118, 40.85501720276088], [-73.76911638483081, 40.854943971772535]]}}, {"type": "Feature", "properties": {"segment_id": 907942, "physicalid": "63449", "street_name": "UNNAMED ST", "borough": "bronx", "direction": "TW", "total_row_ft": 44.6, "roadbed_ft": 14.6, "median_ft": 0.0, "left_sw_ft": 15.0, "right_sw_ft": 15.0}, "geometry": {"type": "LineString", "coordinates": [[-73.76867738575318, 40.85496368274346], [-73.76910031011019, 40.854890451813354]]}}, {"type": "Feature", "properties": {"segment_id": 907943, "physicalid": "63449", "street_name": "UNNAMED ST", "borough": "bronx", "direction": "TW", "total_row_ft": 44.5, "roadbed_ft": 14.5, "median_ft": 0.0, "left_sw_ft": 15.0, "right_sw_ft": 15.0}, "geometry": {"type": "LineString", "coordinates": [[-73.76866131138104, 40.85491016272328], [-73.76908423541543, 40.85483693185141]]}}, {"type": "Feature", "properties": {"segment_id": 907944, "physicalid": "63449", "street_name": "UNNAMED ST", "borough": "bronx", "direction": "TW", "total_row_ft": 46.1, "roadbed_ft": 16.1, "median_ft": 0.0, "left_sw_ft": 15.0, "right_sw_ft": 15.0}, "geometry": {"type": "LineString", "coordinates": [[-73.76864523703478, 40.85485664270036], [-73.76906816074654, 40.85478341188674]]}}, {"type": "Feature", "properties": {"segment_id": 907945, "physicalid": "63449", "street_name": "UNNAMED ST", "borough": "bronx", "direction": "TW", "total_row_ft": 58.6, "roadbed_ft": 28.6, "median_ft": 0.0, "left_sw_ft": 15.0, "right_sw_ft": 15.0}, "geometry": {"type": "LineString", "coordinates": [[-73.76862916271438, 40.85480312267477], [-73.7690520861035, 40.85472989191929]]}}, {"type": "Feature", "properties": {"segment_id": 907946, "physicalid": "63449", "street_name": "UNNAMED ST", "borough": "bronx", "direction": "TW", "total_row_ft": 97.0, "roadbed_ft": 67.0, "median_ft": 0.0, "left_sw_ft": 15.0, "right_sw_ft": 15.0}, "geometry": {"type": "LineString", "coordinates": [[-73.76861308841983, 40.85474960264632], [-73.76903601148636, 40.85467637194918]]}}, {"type": "Feature", "properties": {"segment_id": 907947, "physicalid": "63449", "street_name": "UNNAMED ST", "borough": "bronx", "direction": "TW", "total_row_ft": 63.9, "roadbed_ft": 33.9, "median_ft": 0.0, "left_sw_ft": 15.0, "right_sw_ft": 15.0}, "geometry": {"type": "LineString", "coordinates": [[-73.76859785394673, 40.85468696751713], [-73.76902533055035, 40.85463102019606]]}}, {"type": "Feature", "properties": {"segment_id": 907948, "physicalid": "63449", "street_name": "UNNAMED ST", "borough": "bronx", "direction": "TW", "total_row_ft": 43.7, "roadbed_ft": 13.7, "median_ft": 0.0, "left_sw_ft": 15.0, "right_sw_ft": 15.0}, "geometry": {"type": "LineString", "coordinates": [[-73.76858557346559, 40.85463287120838], [-73.76901304973185, 40.85457692393228]]}}, {"type": "Feature", "properties": {"segment_id": 907949, "physicalid": "63449", "street_name": "UNNAMED ST", "borough": "bronx", "direction": "TW", "total_row_ft": 45.0, "roadbed_ft": 15.0, "median_ft": 0.0, "left_sw_ft": 15.0, "right_sw_ft": 15.0}, "geometry": {"type": "LineString", "coordinates": [[-73.76857329300441, 40.85457877489782], [-73.76900076893332, 40.85452282766668]]}}, {"type": "Feature", "properties": {"segment_id": 907950, "physicalid": "63449", "street_name": "UNNAMED ST", "borough": "bronx", "direction": "TW", "total_row_ft": 35.9, "roadbed_ft": 16.6, "median_ft": 0.0, "left_sw_ft": 15.0, "right_sw_ft": 4.3}, "geometry": {"type": "LineString", "coordinates": [[-73.76856101256321, 40.85452467858542], [-73.76880646209793, 40.85449255482592]]}}, {"type": "Feature", "properties": {"segment_id": 907951, "physicalid": "63449", "street_name": "UNNAMED ST", "borough": "bronx", "direction": "TW", "total_row_ft": 37.5, "roadbed_ft": 18.2, "median_ft": 0.0, "left_sw_ft": 15.0, "right_sw_ft": 4.3}, "geometry": {"type": "LineString", "coordinates": [[-73.76854873214198, 40.8544705822712], [-73.7687928531069, 40.85443863239323]]}}, {"type": "Feature", "properties": {"segment_id": 907952, "physicalid": "63449", "street_name": "UNNAMED ST", "borough": "bronx", "direction": "TW", "total_row_ft": 37.6, "roadbed_ft": 18.2, "median_ft": 0.0, "left_sw_ft": 15.0, "right_sw_ft": 4.3}, "geometry": {"type": "LineString", "coordinates": [[-73.76853645174074, 40.854416485955184], [-73.76877924335145, 40.85438471006135]]}}, {"type": "Feature", "properties": {"segment_id": 907953, "physicalid": "63449", "street_name": "UNNAMED ST", "borough": "bronx", "direction": "TW", "total_row_ft": 36.5, "roadbed_ft": 17.1, "median_ft": 0.0, "left_sw_ft": 15.0, "right_sw_ft": 4.3}, "geometry": {"type": "LineString", "coordinates": [[-73.76852417135947, 40.85436238963736], [-73.76876627146811, 40.85433070424662]]}}, {"type": "Feature", "properties": {"segment_id": 907954, "physicalid": "63449", "street_name": "UNNAMED ST", "borough": "bronx", "direction": "TW", "total_row_ft": 35.7, "roadbed_ft": 16.4, "median_ft": 0.0, "left_sw_ft": 15.0, "right_sw_ft": 4.4}, "geometry": {"type": "LineString", "coordinates": [[-73.76851189099818, 40.85430829331763], [-73.76875930717334, 40.854275912169335]]}}, {"type": "Feature", "properties": {"segment_id": 907955, "physicalid": "63449", "street_name": "UNNAMED ST", "borough": "bronx", "direction": "TW", "total_row_ft": 36.9, "roadbed_ft": 17.3, "median_ft": 0.0, "left_sw_ft": 15.0, "right_sw_ft": 4.5}, "geometry": {"type": "LineString", "coordinates": [[-73.76849961065686, 40.85425419699615], [-73.76876374002475, 40.85421962845139]]}}, {"type": "Feature", "properties": {"segment_id": 907956, "physicalid": "63449", "street_name": "UNNAMED ST", "borough": "bronx", "direction": "TW", "total_row_ft": 38.6, "roadbed_ft": 19.1, "median_ft": 0.0, "left_sw_ft": 15.0, "right_sw_ft": 4.5}, "geometry": {"type": "LineString", "coordinates": [[-73.7685309172527, 40.85409080250867], [-73.76876881006967, 40.854197305891525]]}}, {"type": "Feature", "properties": {"segment_id": 907957, "physicalid": "63449", "street_name": "UNNAMED ST", "borough": "bronx", "direction": "TW", "total_row_ft": 38.7, "roadbed_ft": 19.3, "median_ft": 0.0, "left_sw_ft": 15.0, "right_sw_ft": 4.4}, "geometry": {"type": "LineString", "coordinates": [[-73.7685676369651, 40.85404351612976], [-73.76878972111325, 40.85414294205552]]}}, {"type": "Feature", "properties": {"segment_id": 907958, "physicalid": "63449", "street_name": "UNNAMED ST", "borough": "bronx", "direction": "TW", "total_row_ft": 38.6, "roadbed_ft": 19.3, "median_ft": 0.0, "left_sw_ft": 15.0, "right_sw_ft": 4.3}, "geometry": {"type": "LineString", "coordinates": [[-73.7686043566253, 40.853996229738755], [-73.768820727715, 40.854093097943704]]}}, {"type": "Feature", "properties": {"segment_id": 907959, "physicalid": "63449", "street_name": "UNNAMED ST", "borough": "bronx", "direction": "TW", "total_row_ft": 38.7, "roadbed_ft": 19.4, "median_ft": 0.0, "left_sw_ft": 15.0, "right_sw_ft": 4.3}, "geometry": {"type": "LineString", "coordinates": [[-73.7686410762333, 40.853948943335666], [-73.76885925413174, 40.8540466204132]]}}, {"type": "Feature", "properties": {"segment_id": 907960, "physicalid": "63449", "street_name": "UNNAMED ST", "borough": "bronx", "direction": "TW", "total_row_ft": 38.9, "roadbed_ft": 19.5, "median_ft": 0.0, "left_sw_ft": 15.0, "right_sw_ft": 4.3}, "geometry": {"type": "LineString", "coordinates": [[-73.76867779578907, 40.85390165692049], [-73.76889789047202, 40.85400019210557]]}}, {"type": "Feature", "properties": {"segment_id": 907961, "physicalid": "63449", "street_name": "UNNAMED ST", "borough": "bronx", "direction": "TW", "total_row_ft": 38.8, "roadbed_ft": 19.5, "median_ft": 0.0, "left_sw_ft": 15.0, "right_sw_ft": 4.3}, "geometry": {"type": "LineString", "coordinates": [[-73.76871451529264, 40.85385437049327], [-73.7689359801746, 40.85395351908301]]}}, {"type": "Feature", "properties": {"segment_id": 907962, "physicalid": "63449", "street_name": "UNNAMED ST", "borough": "bronx", "direction": "TW", "total_row_ft": 38.8, "roadbed_ft": 19.5, "median_ft": 0.0, "left_sw_ft": 15.0, "right_sw_ft": 4.3}, "geometry": {"type": "LineString", "coordinates": [[-73.76875123474397, 40.853807084053955], [-73.768974071565, 40.85390684682704]]}}, {"type": "Feature", "properties": {"segment_id": 907963, "physicalid": "63449", "street_name": "UNNAMED ST", "borough": "bronx", "direction": "TW", "total_row_ft": 38.7, "roadbed_ft": 19.3, "median_ft": 0.0, "left_sw_ft": 15.0, "right_sw_ft": 4.3}, "geometry": {"type": "LineString", "coordinates": [[-73.76878795414311, 40.853759797602564], [-73.76901216353735, 40.85386017484258]]}}, {"type": "Feature", "properties": {"segment_id": 907964, "physicalid": "63449", "street_name": "UNNAMED ST", "borough": "bronx", "direction": "TW", "total_row_ft": 38.4, "roadbed_ft": 19.1, "median_ft": 0.0, "left_sw_ft": 15.0, "right_sw_ft": 4.3}, "geometry": {"type": "LineString", "coordinates": [[-73.76882467349004, 40.853712511139086], [-73.76905025198006, 40.85381350128891]]}}, {"type": "Feature", "properties": {"segment_id": 907965, "physicalid": "63449", "street_name": "UNNAMED ST", "borough": "bronx", "direction": "TW", "total_row_ft": 38.2, "roadbed_ft": 18.9, "median_ft": 0.0, "left_sw_ft": 15.0, "right_sw_ft": 4.3}, "geometry": {"type": "LineString", "coordinates": [[-73.76886139278477, 40.85366522466353], [-73.76908849842421, 40.85376689848225]]}}, {"type": "Feature", "properties": {"segment_id": 907966, "physicalid": "63449", "street_name": "UNNAMED ST", "borough": "bronx", "direction": "TW", "total_row_ft": 38.0, "roadbed_ft": 18.7, "median_ft": 0.0, "left_sw_ft": 15.0, "right_sw_ft": 4.3}, "geometry": {"type": "LineString", "coordinates": [[-73.76889811202727, 40.853617938175894], [-73.76912680970669, 40.85372032471409]]}}, {"type": "Feature", "properties": {"segment_id": 907967, "physicalid": "63449", "street_name": "UNNAMED ST", "borough": "bronx", "direction": "TW", "total_row_ft": 37.9, "roadbed_ft": 18.6, "median_ft": 0.0, "left_sw_ft": 15.0, "right_sw_ft": 4.3}, "geometry": {"type": "LineString", "coordinates": [[-73.76893483121758, 40.853570651676165], [-73.76916512165495, 40.853673751254966]]}}, {"type": "Feature", "properties": {"segment_id": 907968, "physicalid": "63449", "street_name": "UNNAMED ST", "borough": "bronx", "direction": "TW", "total_row_ft": 37.7, "roadbed_ft": 18.4, "median_ft": 0.0, "left_sw_ft": 15.0, "right_sw_ft": 4.3}, "geometry": {"type": "LineString", "coordinates": [[-73.76897155035567, 40.85352336516438], [-73.76920342887513, 40.85362717569001]]}}, {"type": "Feature", "properties": {"segment_id": 907969, "physicalid": "63449", "street_name": "UNNAMED ST", "borough": "bronx", "direction": "TW", "total_row_ft": 37.8, "roadbed_ft": 18.5, "median_ft": 0.0, "left_sw_ft": 15.0, "right_sw_ft": 4.3}, "geometry": {"type": "LineString", "coordinates": [[-73.76900826944156, 40.85347607864052], [-73.76924174010689, 40.853580601931924]]}}, {"type": "Feature", "properties": {"segment_id": 907970, "physicalid": "63449", "street_name": "UNNAMED ST", "borough": "bronx", "direction": "TW", "total_row_ft": 38.0, "roadbed_ft": 18.6, "median_ft": 0.0, "left_sw_ft": 15.0, "right_sw_ft": 4.3}, "geometry": {"type": "LineString", "coordinates": [[-73.76904498847523, 40.85342879210457], [-73.76928004849931, 40.853534026913614]]}}, {"type": "Feature", "properties": {"segment_id": 907971, "physicalid": "63449", "street_name": "UNNAMED ST", "borough": "bronx", "direction": "TW", "total_row_ft": 38.0, "roadbed_ft": 18.7, "median_ft": 0.0, "left_sw_ft": 15.0, "right_sw_ft": 4.3}, "geometry": {"type": "LineString", "coordinates": [[-73.76908170745669, 40.85338150555654], [-73.76931823202159, 40.853487396002926]]}}, {"type": "Feature", "properties": {"segment_id": 907972, "physicalid": "63449", "street_name": "UNNAMED ST", "borough": "bronx", "direction": "TW", "total_row_ft": 38.1, "roadbed_ft": 18.8, "median_ft": 0.0, "left_sw_ft": 15.0, "right_sw_ft": 4.3}, "geometry": {"type": "LineString", "coordinates": [[-73.76911842638594, 40.853334218996444], [-73.76935629358442, 40.853440710502994]]}}, {"type": "Feature", "properties": {"segment_id": 907973, "physicalid": "63449", "street_name": "UNNAMED ST", "borough": "bronx", "direction": "TW", "total_row_ft": 38.1, "roadbed_ft": 18.8, "median_ft": 0.0, "left_sw_ft": 15.0, "right_sw_ft": 4.3}, "geometry": {"type": "LineString", "coordinates": [[-73.76915514526297, 40.85328693242426], [-73.76939435930777, 40.85339402687667]]}}, {"type": "Feature", "properties": {"segment_id": 907974, "physicalid": "63449", "street_name": "UNNAMED ST", "borough": "bronx", "direction": "TW", "total_row_ft": 38.5, "roadbed_ft": 19.2, "median_ft": 0.0, "left_sw_ft": 15.0, "right_sw_ft": 4.3}, "geometry": {"type": "LineString", "coordinates": [[-73.76919186408782, 40.85323964584], [-73.7694335536043, 40.853347848513486]]}}, {"type": "Feature", "properties": {"segment_id": 907975, "physicalid": "63449", "street_name": "UNNAMED ST", "borough": "bronx", "direction": "TW", "total_row_ft": 38.8, "roadbed_ft": 19.5, "median_ft": 0.0, "left_sw_ft": 15.0, "right_sw_ft": 4.3}, "geometry": {"type": "LineString", "coordinates": [[-73.76922858286042, 40.853192359243664], [-73.76947264279445, 40.85330162310583]]}}, {"type": "Feature", "properties": {"segment_id": 907976, "physicalid": "63449", "street_name": "UNNAMED ST", "borough": "bronx", "direction": "TW", "total_row_ft": 38.5, "roadbed_ft": 19.2, "median_ft": 0.0, "left_sw_ft": 15.0, "right_sw_ft": 4.3}, "geometry": {"type": "LineString", "coordinates": [[-73.76926530158084, 40.85314507263523], [-73.76951008252861, 40.853254659262554]]}}, {"type": "Feature", "properties": {"segment_id": 907977, "physicalid": "63449", "street_name": "UNNAMED ST", "borough": "bronx", "direction": "TW", "total_row_ft": 39.0, "roadbed_ft": 19.7, "median_ft": 0.0, "left_sw_ft": 15.0, "right_sw_ft": 4.3}, "geometry": {"type": "LineString", "coordinates": [[-73.76930202024904, 40.85309778601475], [-73.76954565645667, 40.853206860126335]]}}, {"type": "Feature", "properties": {"segment_id": 907978, "physicalid": "63449", "street_name": "UNNAMED ST", "borough": "bronx", "direction": "TW", "total_row_ft": 39.5, "roadbed_ft": 20.1, "median_ft": 0.0, "left_sw_ft": 15.0, "right_sw_ft": 4.3}, "geometry": {"type": "LineString", "coordinates": [[-73.76933873886505, 40.853050499382164], [-73.76957935836491, 40.853158222915816]]}}, {"type": "Feature", "properties": {"segment_id": 907979, "physicalid": "63449", "street_name": "UNNAMED ST", "borough": "bronx", "direction": "TW", "total_row_ft": 39.8, "roadbed_ft": 20.4, "median_ft": 0.0, "left_sw_ft": 15.0, "right_sw_ft": 4.3}, "geometry": {"type": "LineString", "coordinates": [[-73.76937545742882, 40.8530032127375], [-73.7696111770423, 40.85310874261231]]}}, {"type": "Feature", "properties": {"segment_id": 907980, "physicalid": "63449", "street_name": "UNNAMED ST", "borough": "bronx", "direction": "TW", "total_row_ft": 40.0, "roadbed_ft": 20.6, "median_ft": 0.0, "left_sw_ft": 15.0, "right_sw_ft": 4.4}, "geometry": {"type": "LineString", "coordinates": [[-73.76938848383536, 40.852995590827625], [-73.76964630824254, 40.85304926194996]]}}, {"type": "Feature", "properties": {"segment_id": 907981, "physicalid": "63449", "street_name": "UNNAMED ST", "borough": "bronx", "direction": "TW", "total_row_ft": 39.8, "roadbed_ft": 20.5, "median_ft": 0.0, "left_sw_ft": 15.0, "right_sw_ft": 4.3}, "geometry": {"type": "LineString", "coordinates": [[-73.76940759875491, 40.852942650311995], [-73.76967386165951, 40.85299807805624]]}}, {"type": "Feature", "properties": {"segment_id": 907982, "physicalid": "63449", "street_name": "UNNAMED ST", "borough": "bronx", "direction": "TW", "total_row_ft": 39.7, "roadbed_ft": 20.4, "median_ft": 0.0, "left_sw_ft": 15.0, "right_sw_ft": 4.3}, "geometry": {"type": "LineString", "coordinates": [[-73.76942671364405, 40.85288970979268], [-73.76969956057327, 40.85294650811647]]}}, {"type": "Feature", "properties": {"segment_id": 907983, "physicalid": "63449", "street_name": "UNNAMED ST", "borough": "bronx", "direction": "TW", "total_row_ft": 39.8, "roadbed_ft": 20.4, "median_ft": 0.0, "left_sw_ft": 15.0, "right_sw_ft": 4.3}, "geometry": {"type": "LineString", "coordinates": [[-73.76944582850275, 40.85283676926973], [-73.76972388398855, 40.852894651844345]]}}, {"type": "Feature", "properties": {"segment_id": 907984, "physicalid": "63449", "street_name": "UNNAMED ST", "borough": "bronx", "direction": "TW", "total_row_ft": 40.2, "roadbed_ft": 20.8, "median_ft": 0.0, "left_sw_ft": 15.0, "right_sw_ft": 4.3}, "geometry": {"type": "LineString", "coordinates": [[-73.76946494333103, 40.85278382874311], [-73.7697467128535, 40.852842484457405]]}}, {"type": "Feature", "properties": {"segment_id": 907985, "physicalid": "63449", "street_name": "UNNAMED ST", "borough": "bronx", "direction": "TW", "total_row_ft": 40.4, "roadbed_ft": 21.1, "median_ft": 0.0, "left_sw_ft": 15.0, "right_sw_ft": 4.3}, "geometry": {"type": "LineString", "coordinates": [[-73.76948405812887, 40.85273088821283], [-73.76976747959165, 40.85278988780478]]}}, {"type": "Feature", "properties": {"segment_id": 907986, "physicalid": "63449", "street_name": "UNNAMED ST", "borough": "bronx", "direction": "TW", "total_row_ft": 40.3, "roadbed_ft": 21.0, "median_ft": 0.0, "left_sw_ft": 15.0, "right_sw_ft": 4.3}, "geometry": {"type": "LineString", "coordinates": [[-73.7695031728963, 40.852677947678885], [-73.76978673608767, 40.852736976771176]]}}, {"type": "Feature", "properties": {"segment_id": 907987, "physicalid": "63449", "street_name": "UNNAMED ST", "borough": "bronx", "direction": "TW", "total_row_ft": 39.7, "roadbed_ft": 20.4, "median_ft": 0.0, "left_sw_ft": 15.0, "right_sw_ft": 4.3}, "geometry": {"type": "LineString", "coordinates": [[-73.7695222876333, 40.85262500714128], [-73.76980449931514, 40.85268375489004]]}}, {"type": "Feature", "properties": {"segment_id": 907988, "physicalid": "63449", "street_name": "UNNAMED ST", "borough": "bronx", "direction": "TW", "total_row_ft": 39.0, "roadbed_ft": 19.6, "median_ft": 0.0, "left_sw_ft": 15.0, "right_sw_ft": 4.3}, "geometry": {"type": "LineString", "coordinates": [[-73.76954140233984, 40.85257206660007], [-73.76982119247339, 40.8526303102577]]}}, {"type": "Feature", "properties": {"segment_id": 907989, "physicalid": "63449", "street_name": "UNNAMED ST", "borough": "bronx", "direction": "TW", "total_row_ft": 38.5, "roadbed_ft": 19.1, "median_ft": 0.0, "left_sw_ft": 15.0, "right_sw_ft": 4.3}, "geometry": {"type": "LineString", "coordinates": [[-73.76956051701598, 40.85251912605516], [-73.76983810414251, 40.852576911114944]]}}, {"type": "Feature", "properties": {"segment_id": 907990, "physicalid": "63449", "street_name": "UNNAMED ST", "borough": "bronx", "direction": "TW", "total_row_ft": 38.0, "roadbed_ft": 18.6, "median_ft": 0.0, "left_sw_ft": 15.0, "right_sw_ft": 4.3}, "geometry": {"type": "LineString", "coordinates": [[-73.76957963166168, 40.852466185506614], [-73.76985501578446, 40.852523511969224]]}}, {"type": "Feature", "properties": {"segment_id": 907991, "physicalid": "63449", "street_name": "UNNAMED ST", "borough": "bronx", "direction": "TW", "total_row_ft": 37.7, "roadbed_ft": 18.4, "median_ft": 0.0, "left_sw_ft": 15.0, "right_sw_ft": 4.3}, "geometry": {"type": "LineString", "coordinates": [[-73.76959874627697, 40.852413244954384], [-73.76987192739927, 40.852470112820534]]}}, {"type": "Feature", "properties": {"segment_id": 907992, "physicalid": "63449", "street_name": "UNNAMED ST", "borough": "bronx", "direction": "TW", "total_row_ft": 37.5, "roadbed_ft": 18.2, "median_ft": 0.0, "left_sw_ft": 15.0, "right_sw_ft": 4.3}, "geometry": {"type": "LineString", "coordinates": [[-73.76961786086183, 40.852360304398516], [-73.76988883898692, 40.852416713668866]]}}, {"type": "Feature", "properties": {"segment_id": 907993, "physicalid": "63449", "street_name": "UNNAMED ST", "borough": "bronx", "direction": "TW", "total_row_ft": 37.2, "roadbed_ft": 17.8, "median_ft": 0.0, "left_sw_ft": 15.0, "right_sw_ft": 4.3}, "geometry": {"type": "LineString", "coordinates": [[-73.76963697541623, 40.852307363838996], [-73.76990575054742, 40.852363314514214]]}}, {"type": "Feature", "properties": {"segment_id": 907994, "physicalid": "63449", "street_name": "UNNAMED ST", "borough": "bronx", "direction": "TW", "total_row_ft": 36.8, "roadbed_ft": 17.4, "median_ft": 0.0, "left_sw_ft": 15.0, "right_sw_ft": 4.3}, "geometry": {"type": "LineString", "coordinates": [[-73.76965608994023, 40.85225442327582], [-73.76992266208075, 40.8523099153566]]}}, {"type": "Feature", "properties": {"segment_id": 907995, "physicalid": "63449", "street_name": "UNNAMED ST", "borough": "bronx", "direction": "TW", "total_row_ft": 36.2, "roadbed_ft": 16.9, "median_ft": 0.0, "left_sw_ft": 15.0, "right_sw_ft": 4.3}, "geometry": {"type": "LineString", "coordinates": [[-73.7696752044338, 40.85220148270896], [-73.76993914319927, 40.852256426603134]]}}, {"type": "Feature", "properties": {"segment_id": 907996, "physicalid": "63449", "street_name": "UNNAMED ST", "borough": "bronx", "direction": "TW", "total_row_ft": 35.2, "roadbed_ft": 15.9, "median_ft": 0.0, "left_sw_ft": 15.0, "right_sw_ft": 4.3}, "geometry": {"type": "LineString", "coordinates": [[-73.76969431889694, 40.85214854213849], [-73.76995394619615, 40.852202588521465]]}}, {"type": "Feature", "properties": {"segment_id": 907997, "physicalid": "63449", "street_name": "UNNAMED ST", "borough": "bronx", "direction": "TW", "total_row_ft": 34.1, "roadbed_ft": 14.8, "median_ft": 0.0, "left_sw_ft": 15.0, "right_sw_ft": 4.3}, "geometry": {"type": "LineString", "coordinates": [[-73.76971343332966, 40.852095601564294], [-73.76996867690477, 40.8521487353943]]}}, {"type": "Feature", "properties": {"segment_id": 907998, "physicalid": "63450", "street_name": "UNNAMED ST", "borough": "bronx", "direction": "TW", "total_row_ft": 71.2, "roadbed_ft": 24.4, "median_ft": 0.0, "left_sw_ft": 15.0, "right_sw_ft": 31.9}, "geometry": {"type": "LineString", "coordinates": [[-73.76972901670786, 40.852063036966335], [-73.77014551424419, 40.851971035840975]]}}, {"type": "Feature", "properties": {"segment_id": 907999, "physicalid": "63450", "street_name": "UNNAMED ST", "borough": "bronx", "direction": "TW", "total_row_ft": 46.4, "roadbed_ft": 16.4, "median_ft": 0.0, "left_sw_ft": 15.0, "right_sw_ft": 15.0}, "geometry": {"type": "LineString", "coordinates": [[-73.76970882307293, 40.85201032790337], [-73.77012532030714, 40.851918326850054]]}}, {"type": "Feature", "properties": {"segment_id": 908000, "physicalid": "63450", "street_name": "UNNAMED ST", "borough": "bronx", "direction": "TW", "total_row_ft": 41.8, "roadbed_ft": 16.5, "median_ft": 0.0, "left_sw_ft": 15.0, "right_sw_ft": 10.3}, "geometry": {"type": "LineString", "coordinates": [[-73.76968862947002, 40.85195761883635], [-73.76996860912206, 40.85189577367019]]}}, {"type": "Feature", "properties": {"segment_id": 908001, "physicalid": "63450", "street_name": "UNNAMED ST", "borough": "bronx", "direction": "TW", "total_row_ft": 41.5, "roadbed_ft": 16.4, "median_ft": 0.0, "left_sw_ft": 15.0, "right_sw_ft": 10.1}, "geometry": {"type": "LineString", "coordinates": [[-73.76966843589909, 40.85190490976534], [-73.76994685034742, 40.85184341034538]]}}, {"type": "Feature", "properties": {"segment_id": 908002, "physicalid": "63450", "street_name": "UNNAMED ST", "borough": "bronx", "direction": "TW", "total_row_ft": 41.4, "roadbed_ft": 16.5, "median_ft": 0.0, "left_sw_ft": 15.0, "right_sw_ft": 9.9}, "geometry": {"type": "LineString", "coordinates": [[-73.76964824236019, 40.85185220069032], [-73.76992539542024, 40.85179097990578]]}}, {"type": "Feature", "properties": {"segment_id": 908003, "physicalid": "63450", "street_name": "UNNAMED ST", "borough": "bronx", "direction": "TW", "total_row_ft": 41.3, "roadbed_ft": 16.5, "median_ft": 0.0, "left_sw_ft": 15.0, "right_sw_ft": 9.8}, "geometry": {"type": "LineString", "coordinates": [[-73.76962804885328, 40.851799491611274], [-73.7699039405269, 40.85173854946168]]}}, {"type": "Feature", "properties": {"segment_id": 908004, "physicalid": "63450", "street_name": "UNNAMED ST", "borough": "bronx", "direction": "TW", "total_row_ft": 41.1, "roadbed_ft": 16.6, "median_ft": 0.0, "left_sw_ft": 15.0, "right_sw_ft": 9.6}, "geometry": {"type": "LineString", "coordinates": [[-73.76960785537838, 40.851746782528195], [-73.76988248566738, 40.85168611901314]]}}, {"type": "Feature", "properties": {"segment_id": 908005, "physicalid": "63450", "street_name": "UNNAMED ST", "borough": "bronx", "direction": "TW", "total_row_ft": 41.0, "roadbed_ft": 16.6, "median_ft": 0.0, "left_sw_ft": 15.0, "right_sw_ft": 9.4}, "geometry": {"type": "LineString", "coordinates": [[-73.76958766193549, 40.851694073441095], [-73.76986103084168, 40.8516336885601]]}}, {"type": "Feature", "properties": {"segment_id": 908006, "physicalid": "63450", "street_name": "UNNAMED ST", "borough": "bronx", "direction": "TW", "total_row_ft": 40.9, "roadbed_ft": 16.6, "median_ft": 0.0, "left_sw_ft": 15.0, "right_sw_ft": 9.2}, "geometry": {"type": "LineString", "coordinates": [[-73.7695674685246, 40.851641364349994], [-73.7698395760498, 40.85158125810262]]}}, {"type": "Feature", "properties": {"segment_id": 908007, "physicalid": "63450", "street_name": "UNNAMED ST", "borough": "bronx", "direction": "TW", "total_row_ft": 41.0, "roadbed_ft": 16.9, "median_ft": 0.0, "left_sw_ft": 15.0, "right_sw_ft": 9.1}, "geometry": {"type": "LineString", "coordinates": [[-73.7695472751457, 40.85158865525486], [-73.76981812129175, 40.85152882764065]]}}, {"type": "Feature", "properties": {"segment_id": 908008, "physicalid": "63450", "street_name": "UNNAMED ST", "borough": "bronx", "direction": "TW", "total_row_ft": 41.4, "roadbed_ft": 17.3, "median_ft": 0.0, "left_sw_ft": 15.0, "right_sw_ft": 9.1}, "geometry": {"type": "LineString", "coordinates": [[-73.76952708179881, 40.851535946155714], [-73.76979666656752, 40.85147639717421]]}}, {"type": "Feature", "properties": {"segment_id": 908009, "physicalid": "63450", "street_name": "UNNAMED ST", "borough": "bronx", "direction": "TW", "total_row_ft": 41.8, "roadbed_ft": 17.7, "median_ft": 0.0, "left_sw_ft": 15.0, "right_sw_ft": 9.1}, "geometry": {"type": "LineString", "coordinates": [[-73.76950688848395, 40.851483237052555], [-73.76977521187712, 40.851423966703315]]}}, {"type": "Feature", "properties": {"segment_id": 908079, "physicalid": "63454", "street_name": "UNNAMED ST", "borough": "bronx", "direction": "TW", "total_row_ft": 42.1, "roadbed_ft": 19.0, "median_ft": 0.0, "left_sw_ft": 15.0, "right_sw_ft": 8.2}, "geometry": {"type": "LineString", "coordinates": [[-73.77000102064923, 40.8514663854124], [-73.76991452979617, 40.85126377397114]]}}, {"type": "Feature", "properties": {"segment_id": 908080, "physicalid": "63454", "street_name": "UNNAMED ST", "borough": "bronx", "direction": "TW", "total_row_ft": 41.3, "roadbed_ft": 18.0, "median_ft": 0.0, "left_sw_ft": 15.0, "right_sw_ft": 8.3}, "geometry": {"type": "LineString", "coordinates": [[-73.76993224992259, 40.8514833118458], [-73.76984620785073, 40.85128175122462]]}}, {"type": "Feature", "properties": {"segment_id": 908081, "physicalid": "63454", "street_name": "UNNAMED ST", "borough": "bronx", "direction": "TW", "total_row_ft": 40.5, "roadbed_ft": 17.1, "median_ft": 0.0, "left_sw_ft": 15.0, "right_sw_ft": 8.4}, "geometry": {"type": "LineString", "coordinates": [[-73.76986347916093, 40.85150023823814], [-73.76977788586835, 40.85129972843759]]}}, {"type": "Feature", "properties": {"segment_id": 908082, "physicalid": "63455", "street_name": "UNNAMED ST", "borough": "bronx", "direction": "TW", "total_row_ft": 86.1, "roadbed_ft": 17.8, "median_ft": 0.0, "left_sw_ft": 15.0, "right_sw_ft": 53.3}, "geometry": {"type": "LineString", "coordinates": [[-73.76946599056333, 40.85137675076563], [-73.76988226338591, 40.85128417624511]]}}, {"type": "Feature", "properties": {"segment_id": 908083, "physicalid": "63455", "street_name": "UNNAMED ST", "borough": "bronx", "direction": "TW", "total_row_ft": 44.5, "roadbed_ft": 17.8, "median_ft": 0.0, "left_sw_ft": 15.0, "right_sw_ft": 11.7}, "geometry": {"type": "LineString", "coordinates": [[-73.76944567128287, 40.851324069590554], [-73.76971515301335, 40.85126414000714]]}}, {"type": "Feature", "properties": {"segment_id": 908084, "physicalid": "63455", "street_name": "UNNAMED ST", "borough": "bronx", "direction": "TW", "total_row_ft": 45.3, "roadbed_ft": 17.8, "median_ft": 0.0, "left_sw_ft": 15.0, "right_sw_ft": 12.4}, "geometry": {"type": "LineString", "coordinates": [[-73.76942535203457, 40.85127138841137], [-73.76969465675784, 40.8512114981961]]}}, {"type": "Feature", "properties": {"segment_id": 908085, "physicalid": "63455", "street_name": "UNNAMED ST", "borough": "bronx", "direction": "TW", "total_row_ft": 46.0, "roadbed_ft": 17.8, "median_ft": 0.0, "left_sw_ft": 15.0, "right_sw_ft": 13.2}, "geometry": {"type": "LineString", "coordinates": [[-73.76940503281847, 40.85121870722817], [-73.76967416053476, 40.85115885638092]]}}, {"type": "Feature", "properties": {"segment_id": 908086, "physicalid": "63455", "street_name": "UNNAMED ST", "borough": "bronx", "direction": "TW", "total_row_ft": 46.7, "roadbed_ft": 17.8, "median_ft": 0.0, "left_sw_ft": 15.0, "right_sw_ft": 13.9}, "geometry": {"type": "LineString", "coordinates": [[-73.76938471363457, 40.85116602604088], [-73.76965366434413, 40.85110621456165]]}}, {"type": "Feature", "properties": {"segment_id": 908087, "physicalid": "63455", "street_name": "UNNAMED ST", "borough": "bronx", "direction": "TW", "total_row_ft": 47.4, "roadbed_ft": 18.5, "median_ft": 0.0, "left_sw_ft": 15.0, "right_sw_ft": 13.8}, "geometry": {"type": "LineString", "coordinates": [[-73.76936439448286, 40.85111334484958], [-73.76963316818593, 40.85105357273821]]}}, {"type": "Feature", "properties": {"segment_id": 908088, "physicalid": "63455", "street_name": "UNNAMED ST", "borough": "bronx", "direction": "TW", "total_row_ft": 48.1, "roadbed_ft": 19.3, "median_ft": 0.0, "left_sw_ft": 15.0, "right_sw_ft": 13.8}, "geometry": {"type": "LineString", "coordinates": [[-73.76934407536329, 40.85106066365415], [-73.76961267206018, 40.85100093091069]]}}, {"type": "Feature", "properties": {"segment_id": 908089, "physicalid": "63455", "street_name": "UNNAMED ST", "borough": "bronx", "direction": "TW", "total_row_ft": 48.8, "roadbed_ft": 20.1, "median_ft": 0.0, "left_sw_ft": 15.0, "right_sw_ft": 13.7}, "geometry": {"type": "LineString", "coordinates": [[-73.76932375627595, 40.851007982454696], [-73.76959217596688, 40.850948289079]]}}, {"type": "Feature", "properties": {"segment_id": 908090, "physicalid": "63455", "street_name": "UNNAMED ST", "borough": "bronx", "direction": "TW", "total_row_ft": 49.4, "roadbed_ft": 20.8, "median_ft": 0.0, "left_sw_ft": 15.0, "right_sw_ft": 13.6}, "geometry": {"type": "LineString", "coordinates": [[-73.76930343722078, 40.85095530125119], [-73.76957167990601, 40.8508956472432]]}}, {"type": "Feature", "properties": {"segment_id": 908091, "physicalid": "63455", "street_name": "UNNAMED ST", "borough": "bronx", "direction": "TW", "total_row_ft": 50.0, "roadbed_ft": 21.5, "median_ft": 0.0, "left_sw_ft": 15.0, "right_sw_ft": 13.5}, "geometry": {"type": "LineString", "coordinates": [[-73.76928311819783, 40.850902620043655], [-73.76955118387758, 40.8508430054033]]}}, {"type": "Feature", "properties": {"segment_id": 908092, "physicalid": "63455", "street_name": "UNNAMED ST", "borough": "bronx", "direction": "TW", "total_row_ft": 50.5, "roadbed_ft": 22.1, "median_ft": 0.0, "left_sw_ft": 15.0, "right_sw_ft": 13.5}, "geometry": {"type": "LineString", "coordinates": [[-73.76926279920703, 40.850849938831985], [-73.7695306878816, 40.850790363559234]]}}, {"type": "Feature", "properties": {"segment_id": 908093, "physicalid": "63455", "street_name": "UNNAMED ST", "borough": "bronx", "direction": "TW", "total_row_ft": 51.0, "roadbed_ft": 22.6, "median_ft": 0.0, "left_sw_ft": 15.0, "right_sw_ft": 13.4}, "geometry": {"type": "LineString", "coordinates": [[-73.76924248024841, 40.85079725761624], [-73.76951019191807, 40.850737721711084]]}}, {"type": "Feature", "properties": {"segment_id": 908094, "physicalid": "63455", "street_name": "UNNAMED ST", "borough": "bronx", "direction": "TW", "total_row_ft": 51.2, "roadbed_ft": 22.9, "median_ft": 0.0, "left_sw_ft": 15.0, "right_sw_ft": 13.3}, "geometry": {"type": "LineString", "coordinates": [[-73.76922216132199, 40.85074457639648], [-73.76948969598698, 40.85068507985879]]}}, {"type": "Feature", "properties": {"segment_id": 908095, "physicalid": "63455", "street_name": "UNNAMED ST", "borough": "bronx", "direction": "TW", "total_row_ft": 53.1, "roadbed_ft": 23.1, "median_ft": 0.0, "left_sw_ft": 15.0, "right_sw_ft": 15.0}, "geometry": {"type": "LineString", "coordinates": [[-73.76920184242776, 40.850691895172666], [-73.76961811133197, 40.850599321594245]]}}, {"type": "Feature", "properties": {"segment_id": 908096, "physicalid": "63456", "street_name": "UNNAMED ST", "borough": "bronx", "direction": "TW", "total_row_ft": 53.4, "roadbed_ft": 23.4, "median_ft": 0.0, "left_sw_ft": 15.0, "right_sw_ft": 15.0}, "geometry": {"type": "LineString", "coordinates": [[-73.76916781275835, 40.85060592366791], [-73.76958208714954, 40.85050832889522]]}}, {"type": "Feature", "properties": {"segment_id": 908097, "physicalid": "63456", "street_name": "UNNAMED ST", "borough": "bronx", "direction": "TW", "total_row_ft": 46.4, "roadbed_ft": 16.4, "median_ft": 0.0, "left_sw_ft": 15.0, "right_sw_ft": 15.0}, "geometry": {"type": "LineString", "coordinates": [[-73.76914639181788, 40.850553494784364], [-73.769560665914, 40.85045590008781]]}}, {"type": "Feature", "properties": {"segment_id": 908098, "physicalid": "63456", "street_name": "UNNAMED ST", "borough": "bronx", "direction": "TW", "total_row_ft": 46.5, "roadbed_ft": 16.5, "median_ft": 0.0, "left_sw_ft": 15.0, "right_sw_ft": 15.0}, "geometry": {"type": "LineString", "coordinates": [[-73.76912497091121, 40.85050106589645], [-73.76953924471219, 40.85040347127586]]}}, {"type": "Feature", "properties": {"segment_id": 908099, "physicalid": "63456", "street_name": "UNNAMED ST", "borough": "bronx", "direction": "TW", "total_row_ft": 46.4, "roadbed_ft": 16.4, "median_ft": 0.0, "left_sw_ft": 15.0, "right_sw_ft": 15.0}, "geometry": {"type": "LineString", "coordinates": [[-73.76910332965672, 40.850435770106564], [-73.76952613957201, 40.85036225450635]]}}, {"type": "Feature", "properties": {"segment_id": 908100, "physicalid": "63456", "street_name": "UNNAMED ST", "borough": "bronx", "direction": "TW", "total_row_ft": 46.1, "roadbed_ft": 16.1, "median_ft": 0.0, "left_sw_ft": 15.0, "right_sw_ft": 15.0}, "geometry": {"type": "LineString", "coordinates": [[-73.76908719390927, 40.85038226088365], [-73.76951000350226, 40.85030874534188]]}}, {"type": "Feature", "properties": {"segment_id": 908101, "physicalid": "63456", "street_name": "UNNAMED ST", "borough": "bronx", "direction": "TW", "total_row_ft": 45.7, "roadbed_ft": 15.7, "median_ft": 0.0, "left_sw_ft": 15.0, "right_sw_ft": 15.0}, "geometry": {"type": "LineString", "coordinates": [[-73.76907105818779, 40.850328751657976], [-73.76949386745846, 40.85025523617458]]}}, {"type": "Feature", "properties": {"segment_id": 908102, "physicalid": "63456", "street_name": "UNNAMED ST", "borough": "bronx", "direction": "TW", "total_row_ft": 45.2, "roadbed_ft": 15.2, "median_ft": 0.0, "left_sw_ft": 15.0, "right_sw_ft": 15.0}, "geometry": {"type": "LineString", "coordinates": [[-73.76905600683486, 40.85026234639609], [-73.76948494812446, 40.85021342983453]]}}, {"type": "Feature", "properties": {"segment_id": 908103, "physicalid": "63456", "street_name": "UNNAMED ST", "borough": "bronx", "direction": "TW", "total_row_ft": 44.6, "roadbed_ft": 14.6, "median_ft": 0.0, "left_sw_ft": 15.0, "right_sw_ft": 15.0}, "geometry": {"type": "LineString", "coordinates": [[-73.76904527035659, 40.85020806108717], [-73.769474211304, 40.85015914456505]]}}, {"type": "Feature", "properties": {"segment_id": 908104, "physicalid": "63456", "street_name": "UNNAMED ST", "borough": "bronx", "direction": "TW", "total_row_ft": 43.8, "roadbed_ft": 13.8, "median_ft": 0.0, "left_sw_ft": 15.0, "right_sw_ft": 15.0}, "geometry": {"type": "LineString", "coordinates": [[-73.76903453389582, 40.85015377577674], [-73.76946347450107, 40.85010485929406]]}}, {"type": "Feature", "properties": {"segment_id": 908105, "physicalid": "63456", "street_name": "UNNAMED ST", "borough": "bronx", "direction": "TW", "total_row_ft": 43.1, "roadbed_ft": 13.1, "median_ft": 0.0, "left_sw_ft": 15.0, "right_sw_ft": 15.0}, "geometry": {"type": "LineString", "coordinates": [[-73.76902615970323, 40.85008670208419], [-73.76945875255701, 40.850062652923285]]}}, {"type": "Feature", "properties": {"segment_id": 908106, "physicalid": "63456", "street_name": "UNNAMED ST", "borough": "bronx", "direction": "TW", "total_row_ft": 43.0, "roadbed_ft": 13.0, "median_ft": 0.0, "left_sw_ft": 15.0, "right_sw_ft": 15.0}, "geometry": {"type": "LineString", "coordinates": [[-73.76902088136609, 40.85003195452067], [-73.76945347386572, 40.85000790537934]]}}, {"type": "Feature", "properties": {"segment_id": 908114, "physicalid": "63457", "street_name": "UNNAMED ST", "borough": "bronx", "direction": "TW", "total_row_ft": 41.3, "roadbed_ft": 11.3, "median_ft": 0.0, "left_sw_ft": 15.0, "right_sw_ft": 15.0}, "geometry": {"type": "LineString", "coordinates": [[-73.77004228277748, 40.850649185004734], [-73.76994286237436, 40.85032858917285]]}}, {"type": "Feature", "properties": {"segment_id": 908115, "physicalid": "63457", "street_name": "UNNAMED ST", "borough": "bronx", "direction": "TW", "total_row_ft": 41.4, "roadbed_ft": 11.4, "median_ft": 0.0, "left_sw_ft": 15.0, "right_sw_ft": 15.0}, "geometry": {"type": "LineString", "coordinates": [[-73.76997191500512, 40.85066176725884], [-73.76987249492232, 40.850341171367]]}}, {"type": "Feature", "properties": {"segment_id": 908116, "physicalid": "63457", "street_name": "UNNAMED ST", "borough": "bronx", "direction": "TW", "total_row_ft": 41.4, "roadbed_ft": 11.4, "median_ft": 0.0, "left_sw_ft": 15.0, "right_sw_ft": 15.0}, "geometry": {"type": "LineString", "coordinates": [[-73.7699015472061, 40.85067434946999], [-73.76980212744368, 40.85035375351822]]}}, {"type": "Feature", "properties": {"segment_id": 908117, "physicalid": "63457", "street_name": "UNNAMED ST", "borough": "bronx", "direction": "TW", "total_row_ft": 41.5, "roadbed_ft": 11.5, "median_ft": 0.0, "left_sw_ft": 15.0, "right_sw_ft": 15.0}, "geometry": {"type": "LineString", "coordinates": [[-73.76983117938049, 40.85068693163821], [-73.76973175993841, 40.850366335626475]]}}, {"type": "Feature", "properties": {"segment_id": 908118, "physicalid": "63457", "street_name": "UNNAMED ST", "borough": "bronx", "direction": "TW", "total_row_ft": 42.0, "roadbed_ft": 12.0, "median_ft": 0.0, "left_sw_ft": 15.0, "right_sw_ft": 15.0}, "geometry": {"type": "LineString", "coordinates": [[-73.76976081152824, 40.85069951376345], [-73.76966139240652, 40.85037891769178]]}}, {"type": "Feature", "properties": {"segment_id": 908119, "physicalid": "63457", "street_name": "UNNAMED ST", "borough": "bronx", "direction": "TW", "total_row_ft": 42.5, "roadbed_ft": 12.5, "median_ft": 0.0, "left_sw_ft": 15.0, "right_sw_ft": 15.0}, "geometry": {"type": "LineString", "coordinates": [[-73.76969044364937, 40.85071209584575], [-73.769591024848, 40.85039149971416]]}}, {"type": "Feature", "properties": {"segment_id": 908120, "physicalid": "63457", "street_name": "UNNAMED ST", "borough": "bronx", "direction": "TW", "total_row_ft": 43.1, "roadbed_ft": 13.1, "median_ft": 0.0, "left_sw_ft": 15.0, "right_sw_ft": 15.0}, "geometry": {"type": "LineString", "coordinates": [[-73.76962007574387, 40.85072467788512], [-73.76952065726289, 40.850404081693576]]}}, {"type": "Feature", "properties": {"segment_id": 908121, "physicalid": "63457", "street_name": "UNNAMED ST", "borough": "bronx", "direction": "TW", "total_row_ft": 43.2, "roadbed_ft": 13.2, "median_ft": 0.0, "left_sw_ft": 15.0, "right_sw_ft": 15.0}, "geometry": {"type": "LineString", "coordinates": [[-73.76954970781175, 40.85073725988152], [-73.76945028965112, 40.85041666363003]]}}]}