{"type": "FeatureCollection", "features": [{"type": "Feature", "properties": {"segment_id": 907880, "physicalid": "63449", "street_name": "UNNAMED ST", "borough": "bronx", "direction": "TW", "total_row_ft": 46.9, "roadbed_ft": 16.9, "median_ft": 0.0, "left_sw_ft": 15.0, "right_sw_ft": 15.0}, "geometry": {"type": "LineString", "coordinates": [[-73.770313938984, 40.858160358665224], [-73.77065301787489, 40.857954925756864]]}}, {"type": "Feature", "properties": {"segment_id": 907881, "physicalid": "63449", "street_name": "UNNAMED ST", "borough": "bronx", "direction": "TW", "total_row_ft": 46.7, "roadbed_ft": 16.7, "median_ft": 0.0, "left_sw_ft": 15.0, "right_sw_ft": 15.0}, "geometry": {"type": "LineString", "coordinates": [[-73.77026884337994, 40.85811745107245], [-73.77060792219137, 40.85791201829512]]}}, {"type": "Feature", "properties": {"segment_id": 907882, "physicalid": "63449", "street_name": "UNNAMED ST", "borough": "bronx", "direction": "TW", "total_row_ft": 46.5, "roadbed_ft": 16.5, "median_ft": 0.0, "left_sw_ft": 15.0, "right_sw_ft": 15.0}, "geometry": {"type": "LineString", "coordinates": [[-73.77022374783407, 40.85807454346178], [-73.77056282656604, 40.85786911081541]]}}, {"type": "Feature", "properties": {"segment_id": 907883, "physicalid": "63449", "street_name": "UNNAMED ST", "borough": "bronx", "direction": "TW", "total_row_ft": 46.2, "roadbed_ft": 16.2, "median_ft": 0.0, "left_sw_ft": 15.0, "right_sw_ft": 15.0}, "geometry": {"type": "LineString", "coordinates": [[-73.77017865234637, 40.85803163583312], [-73.77051773099889, 40.85782620331776]]}}, {"type": "Feature", "properties": {"segment_id": 907884, "physicalid": "63449", "street_name": "UNNAMED ST", "borough": "bronx", "direction": "TW", "total_row_ft": 46.0, "roadbed_ft": 16.0, "median_ft": 0.0, "left_sw_ft": 15.0, "right_sw_ft": 15.0}, "geometry": {"type": "LineString", "coordinates": [[-73.77013355691685, 40.85798872818651], [-73.77047263548994, 40.85778329580215]]}}, {"type": "Feature", "properties": {"segment_id": 907885, "physicalid": "63449", "street_name": "UNNAMED ST", "borough": "bronx", "direction": "TW", "total_row_ft": 45.7, "roadbed_ft": 15.7, "median_ft": 0.0, "left_sw_ft": 15.0, "right_sw_ft": 15.0}, "geometry": {"type": "LineString", "coordinates": [[-73.77008327047955, 40.857936725655506], [-73.77043759823056, 40.85774670739422]]}}, {"type": "Feature", "properties": {"segment_id": 907886, "physicalid": "63449", "street_name": "UNNAMED ST", "borough": "bronx", "direction": "TW", "total_row_ft": 45.5, "roadbed_ft": 15.5, "median_ft": 0.0, "left_sw_ft": 15.0, "right_sw_ft": 15.0}, "geometry": {"type": "LineString", "coordinates": [[-73.77004155878299, 40.85789188830681], [-73.77039588641429, 40.85770187017211]]}}, {"type": "Feature", "properties": {"segment_id": 907887, "physicalid": "63449", "street_name": "UNNAMED ST", "borough": "bronx", "direction": "TW", "total_row_ft": 45.0, "roadbed_ft": 15.0, "median_ft": 0.0, "left_sw_ft": 15.0, "right_sw_ft": 15.0}, "geometry": {"type": "LineString", "coordinates": [[-73.76999984714266, 40.85784705094266], [-73.77035417465427, 40.85765703293458]]}}, {"type": "Feature", "properties": {"segment_id": 907888, "physicalid": "63449", "street_name": "UNNAMED ST", "borough": "bronx", "direction": "TW", "total_row_ft": 44.5, "roadbed_ft": 14.5, "median_ft": 0.0, "left_sw_ft": 15.0, "right_sw_ft": 15.0}, "geometry": {"type": "LineString", "coordinates": [[-73.7699581355586, 40.857802213563104], [-73.77031246295046, 40.85761219568158]]}}, {"type": "Feature", "properties": {"segment_id": 907889, "physicalid": "63449", "street_name": "UNNAMED ST", "borough": "bronx", "direction": "TW", "total_row_ft": 44.1, "roadbed_ft": 14.1, "median_ft": 0.0, "left_sw_ft": 15.0, "right_sw_ft": 15.0}, "geometry": {"type": "LineString", "coordinates": [[-73.76991642403075, 40.857757376168095], [-73.77027075130295, 40.8575673584132]]}}, {"type": "Feature", "properties": {"segment_id": 907890, "physicalid": "63449", "street_name": "UNNAMED ST", "borough": "bronx", "direction": "TW", "total_row_ft": 43.6, "roadbed_ft": 13.6, "median_ft": 0.0, "left_sw_ft": 15.0, "right_sw_ft": 15.0}, "geometry": {"type": "LineString", "coordinates": [[-73.76986996928072, 40.85770328399303], [-73.77023842135554, 40.8575294408433]]}}, {"type": "Feature", "properties": {"segment_id": 907891, "physicalid": "63449", "street_name": "UNNAMED ST", "borough": "bronx", "direction": "TW", "total_row_ft": 43.1, "roadbed_ft": 13.1, "median_ft": 0.0, "left_sw_ft": 15.0, "right_sw_ft": 15.0}, "geometry": {"type": "LineString", "coordinates": [[-73.76983180840634, 40.8576566591712], [-73.7702002603226, 40.857482816141896]]}}, {"type": "Feature", "properties": {"segment_id": 908010, "physicalid": "63451", "street_name": "UNNAMED ST", "borough": "bronx", "direction": "TW", "total_row_ft": 106.7, "roadbed_ft": 86.0, "median_ft": 0.0, "left_sw_ft": 5.7, "right_sw_ft": 15.0}, "geometry": {"type": "LineString", "coordinates": [[-73.77189076353812, 40.85179304582593], [-73.77182777597632, 40.85154595619392]]}}, {"type": "Feature", "properties": {"segment_id": 908011, "physicalid": "63451", "street_name": "UNNAMED ST", "borough": "bronx", "direction": "TW", "total_row_ft": 54.7, "roadbed_ft": 38.9, "median_ft": 0.0, "left_sw_ft": 6.4, "right_sw_ft": 9.4}, "geometry": {"type": "LineString", "coordinates": [[-73.77181352741125, 40.85177892121722], [-73.77177594512784, 40.85163149172584]]}}, {"type": "Feature", "properties": {"segment_id": 908012, "physicalid": "63451", "street_name": "UNNAMED ST", "borough": "bronx", "direction": "TW", "total_row_ft": 51.3, "roadbed_ft": 35.8, "median_ft": 0.0, "left_sw_ft": 6.4, "right_sw_ft": 9.1}, "geometry": {"type": "LineString", "coordinates": [[-73.77174146354704, 40.8517850864633], [-73.7717062455643, 40.851646931181634]]}}, {"type": "Feature", "properties": {"segment_id": 908013, "physicalid": "63451", "street_name": "UNNAMED ST", "borough": "bronx", "direction": "TW", "total_row_ft": 58.1, "roadbed_ft": 34.5, "median_ft": 0.0, "left_sw_ft": 15.0, "right_sw_ft": 8.7}, "geometry": {"type": "LineString", "coordinates": [[-73.7716972779095, 40.85190061420413], [-73.77163659438969, 40.851662560546416]]}}, {"type": "Feature", "properties": {"segment_id": 908014, "physicalid": "63451", "street_name": "UNNAMED ST", "borough": "bronx", "direction": "TW", "total_row_ft": 55.9, "roadbed_ft": 32.8, "median_ft": 0.0, "left_sw_ft": 15.0, "right_sw_ft": 8.2}, "geometry": {"type": "LineString", "coordinates": [[-73.77162630153185, 40.85191104600959], [-73.7715669989403, 40.851678408602126]]}}, {"type": "Feature", "properties": {"segment_id": 908015, "physicalid": "63451", "street_name": "UNNAMED ST", "borough": "bronx", "direction": "TW", "total_row_ft": 45.6, "roadbed_ft": 23.0, "median_ft": 0.0, "left_sw_ft": 15.0, "right_sw_ft": 7.7}, "geometry": {"type": "LineString", "coordinates": [[-73.77155532513197, 40.85192147777139], [-73.77149740345774, 40.85169425661581]]}}, {"type": "Feature", "properties": {"segment_id": 908016, "physicalid": "63451", "street_name": "UNNAMED ST", "borough": "bronx", "direction": "TW", "total_row_ft": 44.5, "roadbed_ft": 21.9, "median_ft": 0.0, "left_sw_ft": 15.0, "right_sw_ft": 7.6}, "geometry": {"type": "LineString", "coordinates": [[-73.7714843487098, 40.85193190948948], [-73.77142747410265, 40.85170879495781]]}}, {"type": "Feature", "properties": {"segment_id": 908017, "physicalid": "63451", "street_name": "UNNAMED ST", "borough": "bronx", "direction": "TW", "total_row_ft": 57.0, "roadbed_ft": 34.3, "median_ft": 0.0, "left_sw_ft": 15.0, "right_sw_ft": 7.7}, "geometry": {"type": "LineString", "coordinates": [[-73.77141337226539, 40.85194234116389], [-73.77135735021129, 40.85172257022138]]}}, {"type": "Feature", "properties": {"segment_id": 908018, "physicalid": "63451", "street_name": "UNNAMED ST", "borough": "bronx", "direction": "TW", "total_row_ft": 95.2, "roadbed_ft": 72.4, "median_ft": 0.0, "left_sw_ft": 15.0, "right_sw_ft": 7.8}, "geometry": {"type": "LineString", "coordinates": [[-73.7713423957987, 40.85195277279459], [-73.77128729615524, 40.85173661951784]]}}, {"type": "Feature", "properties": {"segment_id": 908019, "physicalid": "63451", "street_name": "UNNAMED ST", "borough": "bronx", "direction": "TW", "total_row_ft": 45.7, "roadbed_ft": 23.1, "median_ft": 0.0, "left_sw_ft": 15.0, "right_sw_ft": 7.6}, "geometry": {"type": "LineString", "coordinates": [[-73.77127141930974, 40.85196320438165], [-73.77121742106782, 40.851751370978285]]}}, {"type": "Feature", "properties": {"segment_id": 908020, "physicalid": "63451", "street_name": "UNNAMED ST", "borough": "bronx", "direction": "TW", "total_row_ft": 45.7, "roadbed_ft": 23.4, "median_ft": 0.0, "left_sw_ft": 15.0, "right_sw_ft": 7.4}, "geometry": {"type": "LineString", "coordinates": [[-73.77121530457667, 40.851972997014414], [-73.77114345870903, 40.851766985256994]]}}, {"type": "Feature", "properties": {"segment_id": 908021, "physicalid": "63451", "street_name": "UNNAMED ST", "borough": "bronx", "direction": "TW", "total_row_ft": 45.5, "roadbed_ft": 23.3, "median_ft": 0.0, "left_sw_ft": 15.0, "right_sw_ft": 7.2}, "geometry": {"type": "LineString", "coordinates": [[-73.77114541953837, 40.85198704916584], [-73.7710738016779, 40.851781690582925]]}}, {"type": "Feature", "properties": {"segment_id": 908022, "physicalid": "63451", "street_name": "UNNAMED ST", "borough": "bronx", "direction": "TW", "total_row_ft": 45.1, "roadbed_ft": 23.0, "median_ft": 0.0, "left_sw_ft": 15.0, "right_sw_ft": 7.1}, "geometry": {"type": "LineString", "coordinates": [[-73.77107553447054, 40.852001101274915], [-73.77100414461596, 40.85179639586676]]}}, {"type": "Feature", "properties": {"segment_id": 908023, "physicalid": "63451", "street_name": "UNNAMED ST", "borough": "bronx", "direction": "TW", "total_row_ft": 84.4, "roadbed_ft": 62.4, "median_ft": 0.0, "left_sw_ft": 15.0, "right_sw_ft": 7.0}, "geometry": {"type": "LineString", "coordinates": [[-73.77100564937322, 40.852015153341604], [-73.7709344875232, 40.8518111011085]]}}, {"type": "Feature", "properties": {"segment_id": 908024, "physicalid": "63451", "street_name": "UNNAMED ST", "borough": "bronx", "direction": "TW", "total_row_ft": 44.4, "roadbed_ft": 22.2, "median_ft": 0.0, "left_sw_ft": 15.0, "right_sw_ft": 7.2}, "geometry": {"type": "LineString", "coordinates": [[-73.77093576424636, 40.85202920536592], [-73.77086461595441, 40.85182519139573]]}}, {"type": "Feature", "properties": {"segment_id": 908025, "physicalid": "63451", "street_name": "UNNAMED ST", "borough": "bronx", "direction": "TW", "total_row_ft": 44.5, "roadbed_ft": 22.1, "median_ft": 0.0, "left_sw_ft": 15.0, "right_sw_ft": 7.4}, "geometry": {"type": "LineString", "coordinates": [[-73.77086587908995, 40.85204325734787], [-73.77079470949921, 40.851839181689954]]}}, {"type": "Feature", "properties": {"segment_id": 908026, "physicalid": "63451", "street_name": "UNNAMED ST", "borough": "bronx", "direction": "TW", "total_row_ft": 44.7, "roadbed_ft": 22.1, "median_ft": 0.0, "left_sw_ft": 15.0, "right_sw_ft": 7.6}, "geometry": {"type": "LineString", "coordinates": [[-73.770795993904, 40.85205730928746], [-73.7707248030146, 40.851853171941805]]}}, {"type": "Feature", "properties": {"segment_id": 908027, "physicalid": "63451", "street_name": "UNNAMED ST", "borough": "bronx", "direction": "TW", "total_row_ft": 44.8, "roadbed_ft": 22.2, "median_ft": 0.0, "left_sw_ft": 15.0, "right_sw_ft": 7.7}, "geometry": {"type": "LineString", "coordinates": [[-73.77072610868856, 40.852071361184656], [-73.77065489650059, 40.85186716215124]]}}, {"type": "Feature", "properties": {"segment_id": 908028, "physicalid": "63451", "street_name": "UNNAMED ST", "borough": "bronx", "direction": "TW", "total_row_ft": 45.0, "roadbed_ft": 22.5, "median_ft": 0.0, "left_sw_ft": 15.0, "right_sw_ft": 7.5}, "geometry": {"type": "LineString", "coordinates": [[-73.77065622344358, 40.852085413039504], [-73.77058498995716, 40.85188115231829]]}}, {"type": "Feature", "properties": {"segment_id": 908029, "physicalid": "63451", "street_name": "UNNAMED ST", "borough": "bronx", "direction": "TW", "total_row_ft": 45.1, "roadbed_ft": 22.8, "median_ft": 0.0, "left_sw_ft": 15.0, "right_sw_ft": 7.4}, "geometry": {"type": "LineString", "coordinates": [[-73.77058633816907, 40.85209946485199], [-73.77051508338432, 40.851895142442935]]}}, {"type": "Feature", "properties": {"segment_id": 908030, "physicalid": "63451", "street_name": "UNNAMED ST", "borough": "bronx", "direction": "TW", "total_row_ft": 44.9, "roadbed_ft": 22.6, "median_ft": 0.0, "left_sw_ft": 15.0, "right_sw_ft": 7.2}, "geometry": {"type": "LineString", "coordinates": [[-73.77051645286502, 40.85211351662208], [-73.77044517678209, 40.8519091325252]]}}, {"type": "Feature", "properties": {"segment_id": 908031, "physicalid": "63451", "street_name": "UNNAMED ST", "borough": "bronx", "direction": "TW", "total_row_ft": 44.6, "roadbed_ft": 22.5, "median_ft": 0.0, "left_sw_ft": 15.0, "right_sw_ft": 7.1}, "geometry": {"type": "LineString", "coordinates": [[-73.77044656753147, 40.85212756834982], [-73.77037527015045, 40.851923122565054]]}}, {"type": "Feature", "properties": {"segment_id": 908032, "physicalid": "63451", "street_name": "UNNAMED ST", "borough": "bronx", "direction": "TW", "total_row_ft": 44.3, "roadbed_ft": 22.3, "median_ft": 0.0, "left_sw_ft": 15.0, "right_sw_ft": 7.1}, "geometry": {"type": "LineString", "coordinates": [[-73.77037668216838, 40.852141620035184], [-73.77030529266189, 40.85193690946282]]}}, {"type": "Feature", "properties": {"segment_id": 908033, "physicalid": "63451", "street_name": "UNNAMED ST", "borough": "bronx", "direction": "TW", "total_row_ft": 44.4, "roadbed_ft": 22.2, "median_ft": 0.0, "left_sw_ft": 15.0, "right_sw_ft": 7.2}, "geometry": {"type": "LineString", "coordinates": [[-73.77030679677574, 40.85215567167817], [-73.7702350690207, 40.85194999055027]]}}, {"type": "Feature", "properties": {"segment_id": 908034, "physicalid": "63451", "street_name": "UNNAMED ST", "borough": "bronx", "direction": "TW", "total_row_ft": 44.4, "roadbed_ft": 22.1, "median_ft": 0.0, "left_sw_ft": 15.0, "right_sw_ft": 7.4}, "geometry": {"type": "LineString", "coordinates": [[-73.77023691135358, 40.852169723278784], [-73.7701648453519, 40.851963071594916]]}}, {"type": "Feature", "properties": {"segment_id": 908035, "physicalid": "63451", "street_name": "UNNAMED ST", "borough": "bronx", "direction": "TW", "total_row_ft": 44.5, "roadbed_ft": 22.0, "median_ft": 0.0, "left_sw_ft": 15.0, "right_sw_ft": 7.5}, "geometry": {"type": "LineString", "coordinates": [[-73.77016702590193, 40.852183774837044], [-73.77009462165546, 40.85197615259679]]}}, {"type": "Feature", "properties": {"segment_id": 908036, "physicalid": "63451", "street_name": "UNNAMED ST", "borough": "bronx", "direction": "TW", "total_row_ft": 51.9, "roadbed_ft": 21.9, "median_ft": 0.0, "left_sw_ft": 15.0, "right_sw_ft": 15.0}, "geometry": {"type": "LineString", "coordinates": [[-73.7700971404207, 40.85219782635293], [-73.76998610818272, 40.851879435202136]]}}, {"type": "Feature", "properties": {"segment_id": 908037, "physicalid": "63452", "street_name": "UNNAMED ST", "borough": "bronx", "direction": "TW", "total_row_ft": 54.1, "roadbed_ft": 41.1, "median_ft": 0.0, "left_sw_ft": 7.3, "right_sw_ft": 5.7}, "geometry": {"type": "LineString", "coordinates": [[-73.77202001264179, 40.85170305158693], [-73.77185250896765, 40.85177989860916]]}}, {"type": "Feature", "properties": {"segment_id": 908038, "physicalid": "63452", "street_name": "UNNAMED ST", "borough": "bronx", "direction": "TW", "total_row_ft": 40.6, "roadbed_ft": 29.0, "median_ft": 0.0, "left_sw_ft": 6.9, "right_sw_ft": 4.7}, "geometry": {"type": "LineString", "coordinates": [[-73.77205215291168, 40.85175244204964], [-73.77192655969527, 40.851810061514556]]}}, {"type": "Feature", "properties": {"segment_id": 908039, "physicalid": "63452", "street_name": "UNNAMED ST", "borough": "bronx", "direction": "TW", "total_row_ft": 35.1, "roadbed_ft": 24.2, "median_ft": 0.0, "left_sw_ft": 6.9, "right_sw_ft": 4.0}, "geometry": {"type": "LineString", "coordinates": [[-73.77208527185178, 40.85179254448616], [-73.77198657132904, 40.851853057611464]]}}, {"type": "Feature", "properties": {"segment_id": 908040, "physicalid": "63452", "street_name": "UNNAMED ST", "borough": "bronx", "direction": "TW", "total_row_ft": 34.6, "roadbed_ft": 23.6, "median_ft": 0.0, "left_sw_ft": 7.0, "right_sw_ft": 4.0}, "geometry": {"type": "LineString", "coordinates": [[-73.77212948319992, 40.85183599280378], [-73.77203212548893, 40.851895682676954]]}}, {"type": "Feature", "properties": {"segment_id": 908041, "physicalid": "63452", "street_name": "UNNAMED ST", "borough": "bronx", "direction": "TW", "total_row_ft": 33.7, "roadbed_ft": 23.2, "median_ft": 0.0, "left_sw_ft": 6.7, "right_sw_ft": 3.8}, "geometry": {"type": "LineString", "coordinates": [[-73.77217112481375, 40.85187187419239], [-73.77208761286049, 40.851939268464385]]}}, {"type": "Feature", "properties": {"segment_id": 908042, "physicalid": "63452", "street_name": "UNNAMED ST", "borough": "bronx", "direction": "TW", "total_row_ft": 34.1, "roadbed_ft": 22.6, "median_ft": 0.0, "left_sw_ft": 6.9, "right_sw_ft": 4.5}, "geometry": {"type": "LineString", "coordinates": [[-73.77222392191734, 40.85190937334115], [-73.77213957123449, 40.851977444511554]]}}, {"type": "Feature", "properties": {"segment_id": 908043, "physicalid": "63452", "street_name": "UNNAMED ST", "borough": "bronx", "direction": "TW", "total_row_ft": 93.0, "roadbed_ft": 71.2, "median_ft": 0.0, "left_sw_ft": 6.8, "right_sw_ft": 15.0}, "geometry": {"type": "LineString", "coordinates": [[-73.77227276863525, 40.85193988264224], [-73.7721091310831, 40.852114214731586]]}}, {"type": "Feature", "properties": {"segment_id": 908044, "physicalid": "63453", "street_name": "UNNAMED ST", "borough": "bronx", "direction": "TW", "total_row_ft": 40.0, "roadbed_ft": 18.7, "median_ft": 0.0, "left_sw_ft": 6.2, "right_sw_ft": 15.0}, "geometry": {"type": "LineString", "coordinates": [[-73.77150555296134, 40.85095914780073], [-73.77125935209433, 40.851051317361865]]}}, {"type": "Feature", "properties": {"segment_id": 908045, "physicalid": "63453", "street_name": "UNNAMED ST", "borough": "bronx", "direction": "TW", "total_row_ft": 39.3, "roadbed_ft": 17.9, "median_ft": 0.0, "left_sw_ft": 6.3, "right_sw_ft": 15.0}, "geometry": {"type": "LineString", "coordinates": [[-73.77153835610528, 40.85100807049501], [-73.77129131996296, 40.85110055277312]]}}, {"type": "Feature", "properties": {"segment_id": 908046, "physicalid": "63453", "street_name": "UNNAMED ST", "borough": "bronx", "direction": "TW", "total_row_ft": 39.6, "roadbed_ft": 18.1, "median_ft": 0.0, "left_sw_ft": 6.5, "right_sw_ft": 15.0}, "geometry": {"type": "LineString", "coordinates": [[-73.77157100151963, 40.85105705224667], [-73.77132328787891, 40.85114978817509]]}}, {"type": "Feature", "properties": {"segment_id": 908047, "physicalid": "63453", "street_name": "UNNAMED ST", "borough": "bronx", "direction": "TW", "total_row_ft": 39.9, "roadbed_ft": 18.3, "median_ft": 0.0, "left_sw_ft": 6.6, "right_sw_ft": 15.0}, "geometry": {"type": "LineString", "coordinates": [[-73.77160364698209, 40.85110603398868], [-73.77135525584217, 40.851199023567744]]}}, {"type": "Feature", "properties": {"segment_id": 908048, "physicalid": "63453", "street_name": "UNNAMED ST", "borough": "bronx", "direction": "TW", "total_row_ft": 40.1, "roadbed_ft": 18.4, "median_ft": 0.0, "left_sw_ft": 6.7, "right_sw_ft": 15.0}, "geometry": {"type": "LineString", "coordinates": [[-73.77163629249262, 40.85115501572103], [-73.77138722385277, 40.85124825895113]]}}, {"type": "Feature", "properties": {"segment_id": 908049, "physicalid": "63453", "street_name": "UNNAMED ST", "borough": "bronx", "direction": "TW", "total_row_ft": 40.4, "roadbed_ft": 18.6, "median_ft": 0.0, "left_sw_ft": 6.8, "right_sw_ft": 15.0}, "geometry": {"type": "LineString", "coordinates": [[-73.7716689380512, 40.85120399744373], [-73.77141919191071, 40.85129749432524]]}}, {"type": "Feature", "properties": {"segment_id": 908050, "physicalid": "63453", "street_name": "UNNAMED ST", "borough": "bronx", "direction": "TW", "total_row_ft": 40.7, "roadbed_ft": 18.7, "median_ft": 0.0, "left_sw_ft": 7.0, "right_sw_ft": 15.0}, "geometry": {"type": "LineString", "coordinates": [[-73.77170173694806, 40.85125292176963], [-73.77145116001596, 40.851346729690086]]}}, {"type": "Feature", "properties": {"segment_id": 908051, "physicalid": "63453", "street_name": "UNNAMED ST", "borough": "bronx", "direction": "TW", "total_row_ft": 41.1, "roadbed_ft": 18.9, "median_ft": 0.0, "left_sw_ft": 7.3, "right_sw_ft": 15.0}, "geometry": {"type": "LineString", "coordinates": [[-73.7717348307866, 40.85130173568669], [-73.77148312816855, 40.851395965045654]]}}, {"type": "Feature", "properties": {"segment_id": 908052, "physicalid": "63453", "street_name": "UNNAMED ST", "borough": "bronx", "direction": "TW", "total_row_ft": 41.5, "roadbed_ft": 19.3, "median_ft": 0.0, "left_sw_ft": 7.2, "right_sw_ft": 15.0}, "geometry": {"type": "LineString", "coordinates": [[-73.77176792467372, 40.85135054959383], [-73.77151509636846, 40.851445200391886]]}}, {"type": "Feature", "properties": {"segment_id": 908053, "physicalid": "63453", "street_name": "UNNAMED ST", "borough": "bronx", "direction": "TW", "total_row_ft": 41.7, "roadbed_ft": 19.9, "median_ft": 0.0, "left_sw_ft": 6.9, "right_sw_ft": 15.0}, "geometry": {"type": "LineString", "coordinates": [[-73.77180059370892, 40.85139952256092], [-73.77154706461567, 40.85149443572889]]}}, {"type": "Feature", "properties": {"segment_id": 908054, "physicalid": "63453", "street_name": "UNNAMED ST", "borough": "bronx", "direction": "TW", "total_row_ft": 41.9, "roadbed_ft": 20.4, "median_ft": 0.0, "left_sw_ft": 6.5, "right_sw_ft": 15.0}, "geometry": {"type": "LineString", "coordinates": [[-73.77183303587547, 40.85144858046905], [-73.77157903291027, 40.85154367105663]]}}, {"type": "Feature", "properties": {"segment_id": 908055, "physicalid": "63453", "street_name": "UNNAMED ST", "borough": "bronx", "direction": "TW", "total_row_ft": 42.1, "roadbed_ft": 21.0, "median_ft": 0.0, "left_sw_ft": 6.1, "right_sw_ft": 15.0}, "geometry": {"type": "LineString", "coordinates": [[-73.77186547808991, 40.851497638367654], [-73.77161100125214, 40.85159290637502]]}}, {"type": "Feature", "properties": {"segment_id": 908056, "physicalid": "63453", "street_name": "UNNAMED ST", "borough": "bronx", "direction": "TW", "total_row_ft": 42.3, "roadbed_ft": 21.5, "median_ft": 0.0, "left_sw_ft": 5.8, "right_sw_ft": 15.0}, "geometry": {"type": "LineString", "coordinates": [[-73.77189792035219, 40.85154669625671], [-73.77164296964135, 40.851642141684174]]}}, {"type": "Feature", "properties": {"segment_id": 908057, "physicalid": "63453", "street_name": "UNNAMED ST", "borough": "bronx", "direction": "TW", "total_row_ft": 56.8, "roadbed_ft": 23.6, "median_ft": 0.0, "left_sw_ft": 5.1, "right_sw_ft": 28.1}, "geometry": {"type": "LineString", "coordinates": [[-73.77193438246812, 40.851594249241934], [-73.77174831566498, 40.85166390683335]]}}, {"type": "Feature", "properties": {"segment_id": 908058, "physicalid": "63454", "street_name": "UNNAMED ST", "borough": "bronx", "direction": "TW", "total_row_ft": 45.2, "roadbed_ft": 21.9, "median_ft": 0.0, "left_sw_ft": 15.0, "right_sw_ft": 8.3}, "geometry": {"type": "LineString", "coordinates": [[-73.77144519782347, 40.85111092082933], [-73.77135535840938, 40.85090047579204]]}}, {"type": "Feature", "properties": {"segment_id": 908059, "physicalid": "63454", "street_name": "UNNAMED ST", "borough": "bronx", "direction": "TW", "total_row_ft": 44.4, "roadbed_ft": 20.2, "median_ft": 0.0, "left_sw_ft": 15.0, "right_sw_ft": 9.2}, "geometry": {"type": "LineString", "coordinates": [[-73.77137642783185, 40.851127848124705], [-73.77128660104857, 40.85091743216564]]}}, {"type": "Feature", "properties": {"segment_id": 908060, "physicalid": "63454", "street_name": "UNNAMED ST", "borough": "bronx", "direction": "TW", "total_row_ft": 44.1, "roadbed_ft": 20.6, "median_ft": 0.0, "left_sw_ft": 15.0, "right_sw_ft": 8.4}, "geometry": {"type": "LineString", "coordinates": [[-73.77130765780524, 40.85114477537901], [-73.7712178436527, 40.850934388498196]]}}, {"type": "Feature", "properties": {"segment_id": 908061, "physicalid": "63454", "street_name": "UNNAMED ST", "borough": "bronx", "direction": "TW", "total_row_ft": 42.9, "roadbed_ft": 20.2, "median_ft": 0.0, "left_sw_ft": 15.0, "right_sw_ft": 7.7}, "geometry": {"type": "LineString", "coordinates": [[-73.77123888774362, 40.8511617025923], [-73.77114908622178, 40.85095134478974]]}}, {"type": "Feature", "properties": {"segment_id": 908062, "physicalid": "63454", "street_name": "UNNAMED ST", "borough": "bronx", "direction": "TW", "total_row_ft": 41.6, "roadbed_ft": 19.8, "median_ft": 0.0, "left_sw_ft": 15.0, "right_sw_ft": 6.9}, "geometry": {"type": "LineString", "coordinates": [[-73.77117011764702, 40.85117862976451], [-73.7710803287558, 40.85096830104025]]}}, {"type": "Feature", "properties": {"segment_id": 908063, "physicalid": "63454", "street_name": "UNNAMED ST", "borough": "bronx", "direction": "TW", "total_row_ft": 40.4, "roadbed_ft": 18.8, "median_ft": 0.0, "left_sw_ft": 15.0, "right_sw_ft": 6.6}, "geometry": {"type": "LineString", "coordinates": [[-73.77110134751538, 40.85119555689571], [-73.77101157125476, 40.85098525724971]]}}, {"type": "Feature", "properties": {"segment_id": 908064, "physicalid": "63454", "street_name": "UNNAMED ST", "borough": "bronx", "direction": "TW", "total_row_ft": 39.3, "roadbed_ft": 17.4, "median_ft": 0.0, "left_sw_ft": 15.0, "right_sw_ft": 6.9}, "geometry": {"type": "LineString", "coordinates": [[-73.77103257734876, 40.85121248398585], [-73.77094281371868, 40.85100221341817]]}}, {"type": "Feature", "properties": {"segment_id": 908065, "physicalid": "63454", "street_name": "UNNAMED ST", "borough": "bronx", "direction": "TW", "total_row_ft": 38.2, "roadbed_ft": 16.1, "median_ft": 0.0, "left_sw_ft": 15.0, "right_sw_ft": 7.2}, "geometry": {"type": "LineString", "coordinates": [[-73.77096380714714, 40.851229411034936], [-73.77087405614753, 40.85101916954558]]}}, {"type": "Feature", "properties": {"segment_id": 908066, "physicalid": "63454", "street_name": "UNNAMED ST", "borough": "bronx", "direction": "TW", "total_row_ft": 38.7, "roadbed_ft": 16.2, "median_ft": 0.0, "left_sw_ft": 15.0, "right_sw_ft": 7.5}, "geometry": {"type": "LineString", "coordinates": [[-73.7708950369105, 40.85124633804297], [-73.77080529854132, 40.851036125631936]]}}, {"type": "Feature", "properties": {"segment_id": 908067, "physicalid": "63454", "street_name": "UNNAMED ST", "borough": "bronx", "direction": "TW", "total_row_ft": 39.8, "roadbed_ft": 16.8, "median_ft": 0.0, "left_sw_ft": 15.0, "right_sw_ft": 8.0}, "geometry": {"type": "LineString", "coordinates": [[-73.77082626663889, 40.85126326500998], [-73.77073654090006, 40.85105308167731]]}}, {"type": "Feature", "properties": {"segment_id": 908068, "physicalid": "63454", "street_name": "UNNAMED ST", "borough": "bronx", "direction": "TW", "total_row_ft": 41.0, "roadbed_ft": 17.4, "median_ft": 0.0, "left_sw_ft": 15.0, "right_sw_ft": 8.6}, "geometry": {"type": "LineString", "coordinates": [[-73.77075749633225, 40.85128019193592], [-73.77066778322374, 40.85107003768162]]}}, {"type": "Feature", "properties": {"segment_id": 908069, "physicalid": "63454", "street_name": "UNNAMED ST", "borough": "bronx", "direction": "TW", "total_row_ft": 41.7, "roadbed_ft": 17.6, "median_ft": 0.0, "left_sw_ft": 15.0, "right_sw_ft": 9.1}, "geometry": {"type": "LineString", "coordinates": [[-73.77068872599064, 40.851297118820845], [-73.77059902551238, 40.851086993644905]]}}, {"type": "Feature", "properties": {"segment_id": 908070, "physicalid": "63454", "street_name": "UNNAMED ST", "borough": "bronx", "direction": "TW", "total_row_ft": 41.9, "roadbed_ft": 17.3, "median_ft": 0.0, "left_sw_ft": 15.0, "right_sw_ft": 9.7}, "geometry": {"type": "LineString", "coordinates": [[-73.770619955614, 40.851314045664694], [-73.77053026776595, 40.85110394956716]]}}, {"type": "Feature", "properties": {"segment_id": 908071, "physicalid": "63454", "street_name": "UNNAMED ST", "borough": "bronx", "direction": "TW", "total_row_ft": 42.1, "roadbed_ft": 17.1, "median_ft": 0.0, "left_sw_ft": 15.0, "right_sw_ft": 10.0}, "geometry": {"type": "LineString", "coordinates": [[-73.77055118520236, 40.851330972467515], [-73.77046150998447, 40.851120905448404]]}}, {"type": "Feature", "properties": {"segment_id": 908072, "physicalid": "63454", "street_name": "UNNAMED ST", "borough": "bronx", "direction": "TW", "total_row_ft": 42.2, "roadbed_ft": 17.0, "median_ft": 0.0, "left_sw_ft": 15.0, "right_sw_ft": 10.2}, "geometry": {"type": "LineString", "coordinates": [[-73.77048241475573, 40.85134789922928], [-73.7703927823802, 40.851137932062194]]}}, {"type": "Feature", "properties": {"segment_id": 908073, "physicalid": "63454", "street_name": "UNNAMED ST", "borough": "bronx", "direction": "TW", "total_row_ft": 42.2, "roadbed_ft": 17.1, "median_ft": 0.0, "left_sw_ft": 15.0, "right_sw_ft": 10.1}, "geometry": {"type": "LineString", "coordinates": [[-73.77041364427409, 40.85136482595001], [-73.77032446069329, 40.85115590959929]]}}, {"type": "Feature", "properties": {"segment_id": 908074, "physicalid": "63454", "street_name": "UNNAMED ST", "borough": "bronx", "direction": "TW", "total_row_ft": 42.3, "roadbed_ft": 17.3, "median_ft": 0.0, "left_sw_ft": 15.0, "right_sw_ft": 10.0}, "geometry": {"type": "LineString", "coordinates": [[-73.77034487375745, 40.85138175262968], [-73.77025613896943, 40.85117388709592]]}}, {"type": "Feature", "properties": {"segment_id": 908075, "physicalid": "63454", "street_name": "UNNAMED ST", "borough": "bronx", "direction": "TW", "total_row_ft": 42.4, "roadbed_ft": 17.9, "median_ft": 0.0, "left_sw_ft": 15.0, "right_sw_ft": 9.6}, "geometry": {"type": "LineString", "coordinates": [[-73.77027610320582, 40.85139867926832], [-73.77018781720864, 40.851191864551986]]}}, {"type": "Feature", "properties": {"segment_id": 908076, "physicalid": "63454", "street_name": "UNNAMED ST", "borough": "bronx", "direction": "TW", "total_row_ft": 42.6, "roadbed_ft": 18.5, "median_ft": 0.0, "left_sw_ft": 15.0, "right_sw_ft": 9.1}, "geometry": {"type": "LineString", "coordinates": [[-73.77020733261918, 40.8514156058659], [-73.77011949541091, 40.851209841967545]]}}, {"type": "Feature", "properties": {"segment_id": 908077, "physicalid": "63454", "street_name": "UNNAMED ST", "borough": "bronx", "direction": "TW", "total_row_ft": 42.7, "roadbed_ft": 19.2, "median_ft": 0.0, "left_sw_ft": 15.0, "right_sw_ft": 8.5}, "geometry": {"type": "LineString", "coordinates": [[-73.77013856199753, 40.85143253242245], [-73.77005117357626, 40.851227819342604]]}}, {"type": "Feature", "properties": {"segment_id": 908078, "physicalid": "63454", "street_name": "UNNAMED ST", "borough": "bronx", "direction": "TW", "total_row_ft": 42.8, "roadbed_ft": 19.8, "median_ft": 0.0, "left_sw_ft": 15.0, "right_sw_ft": 8.0}, "geometry": {"type": "LineString", "coordinates": [[-73.77006979134089, 40.85144945893796], [-73.76998285170468, 40.85124579667712]]}}, {"type": "Feature", "properties": {"segment_id": 908110, "physicalid": "63457", "street_name": "UNNAMED ST", "borough": "bronx", "direction": "TW", "total_row_ft": 42.3, "roadbed_ft": 12.3, "median_ft": 0.0, "left_sw_ft": 15.0, "right_sw_ft": 15.0}, "geometry": {"type": "LineString", "coordinates": [[-73.7703237536008, 40.85059885555877], [-73.77022433191627, 40.850278259966665]]}}, {"type": "Feature", "properties": {"segment_id": 908111, "physicalid": "63457", "street_name": "UNNAMED ST", "borough": "bronx", "direction": "TW", "total_row_ft": 42.5, "roadbed_ft": 12.5, "median_ft": 0.0, "left_sw_ft": 15.0, "right_sw_ft": 15.0}, "geometry": {"type": "LineString", "coordinates": [[-73.77025338593491, 40.850611437984696], [-73.77015396457072, 40.850290842332626]]}}, {"type": "Feature", "properties": {"segment_id": 908112, "physicalid": "63457", "street_name": "UNNAMED ST", "borough": "bronx", "direction": "TW", "total_row_ft": 41.2, "roadbed_ft": 11.2, "median_ft": 0.0, "left_sw_ft": 15.0, "right_sw_ft": 15.0}, "geometry": {"type": "LineString", "coordinates": [[-73.77018301824239, 40.85062402036766], [-73.77008359719855, 40.85030342465565]]}}, {"type": "Feature", "properties": {"segment_id": 908113, "physicalid": "63457", "street_name": "UNNAMED ST", "borough": "bronx", "direction": "TW", "total_row_ft": 41.1, "roadbed_ft": 11.1, "median_ft": 0.0, "left_sw_ft": 15.0, "right_sw_ft": 15.0}, "geometry": {"type": "LineString", "coordinates": [[-73.77011265052326, 40.85063660270767], [-73.77001322979977, 40.85031600693571]]}}, {"type": "Feature", "properties": {"segment_id": 908122, "physicalid": "63458", "street_name": "UNNAMED ST", "borough": "bronx", "direction": "TW", "total_row_ft": 30.0, "roadbed_ft": 0.0, "median_ft": 0.0, "left_sw_ft": 15.0, "right_sw_ft": 15.0}, "geometry": {"type": "LineString", "coordinates": [[-73.77010328493886, 40.85043126649001], [-73.77052272347593, 40.85034735123411]]}}, {"type": "Feature", "properties": {"segment_id": 908123, "physicalid": "63458", "street_name": "UNNAMED ST", "borough": "bronx", "direction": "TW", "total_row_ft": 30.0, "roadbed_ft": 0.0, "median_ft": 0.0, "left_sw_ft": 15.0, "right_sw_ft": 15.0}, "geometry": {"type": "LineString", "coordinates": [[-73.7700848665725, 40.850378183923645], [-73.7705043047981, 40.85029426873393]]}}, {"type": "Feature", "properties": {"segment_id": 908124, "physicalid": "63458", "street_name": "UNNAMED ST", "borough": "bronx", "direction": "TW", "total_row_ft": 30.0, "roadbed_ft": 0.0, "median_ft": 0.0, "left_sw_ft": 15.0, "right_sw_ft": 15.0}, "geometry": {"type": "LineString", "coordinates": [[-73.77006644823555, 40.85032510135391], [-73.77048588614961, 40.85024118623032]]}}, {"type": "Feature", "properties": {"segment_id": 908125, "physicalid": "63458", "street_name": "UNNAMED ST", "borough": "bronx", "direction": "TW", "total_row_ft": 30.0, "roadbed_ft": 0.0, "median_ft": 0.0, "left_sw_ft": 15.0, "right_sw_ft": 15.0}, "geometry": {"type": "LineString", "coordinates": [[-73.77004802992799, 40.850272018780686], [-73.77046746753057, 40.8501881037233]]}}, {"type": "Feature", "properties": {"segment_id": 908126, "physicalid": "63458", "street_name": "UNNAMED ST", "borough": "bronx", "direction": "TW", "total_row_ft": 44.2, "roadbed_ft": 14.2, "median_ft": 0.0, "left_sw_ft": 15.0, "right_sw_ft": 15.0}, "geometry": {"type": "LineString", "coordinates": [[-73.77002961164983, 40.85021893620405], [-73.7704490489409, 40.85013502121284]]}}, {"type": "Feature", "properties": {"segment_id": 908127, "physicalid": "63458", "street_name": "UNNAMED ST", "borough": "bronx", "direction": "TW", "total_row_ft": 43.1, "roadbed_ft": 13.1, "median_ft": 0.0, "left_sw_ft": 15.0, "right_sw_ft": 15.0}, "geometry": {"type": "LineString", "coordinates": [[-73.77001119340106, 40.850165853623984], [-73.77043063038066, 40.850081938698956]]}}, {"type": "Feature", "properties": {"segment_id": 908128, "physicalid": "63458", "street_name": "UNNAMED ST", "borough": "bronx", "direction": "TW", "total_row_ft": 42.3, "roadbed_ft": 12.3, "median_ft": 0.0, "left_sw_ft": 15.0, "right_sw_ft": 15.0}, "geometry": {"type": "LineString", "coordinates": [[-73.76999277518168, 40.850112771040415], [-73.7704122118498, 40.850028856181666]]}}, {"type": "Feature", "properties": {"segment_id": 908129, "physicalid": "63458", "street_name": "UNNAMED ST", "borough": "bronx", "direction": "TW", "total_row_ft": 41.8, "roadbed_ft": 11.8, "median_ft": 0.0, "left_sw_ft": 15.0, "right_sw_ft": 15.0}, "geometry": {"type": "LineString", "coordinates": [[-73.76997435699171, 40.850059688453484], [-73.77039379334835, 40.84997577366094]]}}, {"type": "Feature", "properties": {"segment_id": 908220, "physicalid": "63464", "street_name": "UNNAMED ST", "borough": "bronx", "direction": "TW", "total_row_ft": 39.7, "roadbed_ft": 16.2, "median_ft": 0.0, "left_sw_ft": 15.0, "right_sw_ft": 8.5}, "geometry": {"type": "LineString", "coordinates": [[-73.77104165515854, 40.84995584340823], [-73.77078238780098, 40.85004603623253]]}}, {"type": "Feature", "properties": {"segment_id": 908221, "physicalid": "63464", "street_name": "UNNAMED ST", "borough": "bronx", "direction": "TW", "total_row_ft": 40.2, "roadbed_ft": 17.4, "median_ft": 0.0, "left_sw_ft": 15.0, "right_sw_ft": 7.8}, "geometry": {"type": "LineString", "coordinates": [[-73.77107176479251, 40.85000574952672], [-73.77081279061288, 40.850095840375396]]}}, {"type": "Feature", "properties": {"segment_id": 908222, "physicalid": "63464", "street_name": "UNNAMED ST", "borough": "bronx", "direction": "TW", "total_row_ft": 40.7, "roadbed_ft": 17.4, "median_ft": 0.0, "left_sw_ft": 15.0, "right_sw_ft": 8.3}, "geometry": {"type": "LineString", "coordinates": [[-73.77110187447164, 40.8500556556369], [-73.77084319347031, 40.8501456445098]]}}, {"type": "Feature", "properties": {"segment_id": 908223, "physicalid": "63464", "street_name": "UNNAMED ST", "borough": "bronx", "direction": "TW", "total_row_ft": 41.1, "roadbed_ft": 17.2, "median_ft": 0.0, "left_sw_ft": 15.0, "right_sw_ft": 8.8}, "geometry": {"type": "LineString", "coordinates": [[-73.77113198419599, 40.850105561738786], [-73.77087359637326, 40.85019544863578]]}}, {"type": "Feature", "properties": {"segment_id": 908224, "physicalid": "63464", "street_name": "UNNAMED ST", "borough": "bronx", "direction": "TW", "total_row_ft": 41.4, "roadbed_ft": 17.8, "median_ft": 0.0, "left_sw_ft": 15.0, "right_sw_ft": 8.6}, "geometry": {"type": "LineString", "coordinates": [[-73.7711620939655, 40.85015546783239], [-73.77090399932173, 40.8502452527533]]}}, {"type": "Feature", "properties": {"segment_id": 908225, "physicalid": "63465", "street_name": "UNNAMED ST", "borough": "bronx", "direction": "TW", "total_row_ft": 38.7, "roadbed_ft": 17.6, "median_ft": 0.0, "left_sw_ft": 6.1, "right_sw_ft": 15.0}, "geometry": {"type": "LineString", "coordinates": [[-73.77108609299498, 40.85032511645164], [-73.77084431242062, 40.85041626297957]]}}, {"type": "Feature", "properties": {"segment_id": 908226, "physicalid": "63465", "street_name": "UNNAMED ST", "borough": "bronx", "direction": "TW", "total_row_ft": 39.3, "roadbed_ft": 17.8, "median_ft": 0.0, "left_sw_ft": 6.5, "right_sw_ft": 15.0}, "geometry": {"type": "LineString", "coordinates": [[-73.77111896512379, 40.85037401108173], [-73.77087645886793, 40.85046543119437]]}}, {"type": "Feature", "properties": {"segment_id": 908227, "physicalid": "63465", "street_name": "UNNAMED ST", "borough": "bronx", "direction": "TW", "total_row_ft": 40.3, "roadbed_ft": 18.5, "median_ft": 0.0, "left_sw_ft": 6.7, "right_sw_ft": 15.0}, "geometry": {"type": "LineString", "coordinates": [[-73.77115183730096, 40.850422905702054], [-73.77090860536278, 40.850514599399766]]}}, {"type": "Feature", "properties": {"segment_id": 908228, "physicalid": "63465", "street_name": "UNNAMED ST", "borough": "bronx", "direction": "TW", "total_row_ft": 40.4, "roadbed_ft": 18.5, "median_ft": 0.0, "left_sw_ft": 6.9, "right_sw_ft": 15.0}, "geometry": {"type": "LineString", "coordinates": [[-73.77118457461273, 40.850471851172635], [-73.77094075190516, 40.85056376759577]]}}, {"type": "Feature", "properties": {"segment_id": 908229, "physicalid": "63465", "street_name": "UNNAMED ST", "borough": "bronx", "direction": "TW", "total_row_ft": 40.3, "roadbed_ft": 18.5, "median_ft": 0.0, "left_sw_ft": 6.7, "right_sw_ft": 15.0}, "geometry": {"type": "LineString", "coordinates": [[-73.77121646294881, 40.85052111670041], [-73.77097289849507, 40.85061293578246]]}}, {"type": "Feature", "properties": {"segment_id": 908230, "physicalid": "63465", "street_name": "UNNAMED ST", "borough": "bronx", "direction": "TW", "total_row_ft": 40.1, "roadbed_ft": 18.5, "median_ft": 0.0, "left_sw_ft": 6.6, "right_sw_ft": 15.0}, "geometry": {"type": "LineString", "coordinates": [[-73.77124835133216, 40.85057038221896], [-73.77100504513248, 40.850662103959735]]}}, {"type": "Feature", "properties": {"segment_id": 908231, "physicalid": "63465", "street_name": "UNNAMED ST", "borough": "bronx", "direction": "TW", "total_row_ft": 40.0, "roadbed_ft": 18.5, "median_ft": 0.0, "left_sw_ft": 6.5, "right_sw_ft": 15.0}, "geometry": {"type": "LineString", "coordinates": [[-73.77128023976275, 40.85061964772822], [-73.77103719181744, 40.850711272127626]]}}, {"type": "Feature", "properties": {"segment_id": 908232, "physicalid": "63465", "street_name": "UNNAMED ST", "borough": "bronx", "direction": "TW", "total_row_ft": 39.9, "roadbed_ft": 18.5, "median_ft": 0.0, "left_sw_ft": 6.4, "right_sw_ft": 15.0}, "geometry": {"type": "LineString", "coordinates": [[-73.77131212824057, 40.8506689132283], [-73.7710693385499, 40.85076044028614]]}}, {"type": "Feature", "properties": {"segment_id": 908233, "physicalid": "63465", "street_name": "UNNAMED ST", "borough": "bronx", "direction": "TW", "total_row_ft": 39.7, "roadbed_ft": 18.5, "median_ft": 0.0, "left_sw_ft": 6.2, "right_sw_ft": 15.0}, "geometry": {"type": "LineString", "coordinates": [[-73.77134401676564, 40.85071817871913], [-73.7711014853299, 40.850809608435206]]}}, {"type": "Feature", "properties": {"segment_id": 908234, "physicalid": "63465", "street_name": "UNNAMED ST", "borough": "bronx", "direction": "TW", "total_row_ft": 39.8, "roadbed_ft": 18.7, "median_ft": 0.0, "left_sw_ft": 6.2, "right_sw_ft": 15.0}, "geometry": {"type": "LineString", "coordinates": [[-73.77137667618334, 40.85076715360545], [-73.77113363215742, 40.85085877657495]]}}, {"type": "Feature", "properties": {"segment_id": 908235, "physicalid": "63465", "street_name": "UNNAMED ST", "borough": "bronx", "direction": "TW", "total_row_ft": 40.0, "roadbed_ft": 18.8, "median_ft": 0.0, "left_sw_ft": 6.2, "right_sw_ft": 15.0}, "geometry": {"type": "LineString", "coordinates": [[-73.77140950723992, 40.850816063795385], [-73.77116577903246, 40.85090794470535]]}}, {"type": "Feature", "properties": {"segment_id": 908236, "physicalid": "63465", "street_name": "UNNAMED ST", "borough": "bronx", "direction": "TW", "total_row_ft": 67.3, "roadbed_ft": 18.9, "median_ft": 0.0, "left_sw_ft": 6.2, "right_sw_ft": 42.2}, "geometry": {"type": "LineString", "coordinates": [[-73.7714423383448, 40.85086497397556], [-73.77119792595504, 40.850957112826336]]}}, {"type": "Feature", "properties": {"segment_id": 908237, "physicalid": "63466", "street_name": "UNNAMED ST", "borough": "bronx", "direction": "TW", "total_row_ft": 37.5, "roadbed_ft": 16.2, "median_ft": 0.0, "left_sw_ft": 15.0, "right_sw_ft": 6.3}, "geometry": {"type": "LineString", "coordinates": [[-73.77101139599291, 40.85047589146486], [-73.77094264778383, 40.85025422202511]]}}, {"type": "Feature", "properties": {"segment_id": 908238, "physicalid": "63466", "street_name": "UNNAMED ST", "borough": "bronx", "direction": "TW", "total_row_ft": 40.9, "roadbed_ft": 10.9, "median_ft": 0.0, "left_sw_ft": 15.0, "right_sw_ft": 15.0}, "geometry": {"type": "LineString", "coordinates": [[-73.77094102873073, 40.85048847477329], [-73.77084160057902, 40.850167880360964]]}}, {"type": "Feature", "properties": {"segment_id": 908239, "physicalid": "63466", "street_name": "UNNAMED ST", "borough": "bronx", "direction": "TW", "total_row_ft": 42.2, "roadbed_ft": 12.2, "median_ft": 0.0, "left_sw_ft": 15.0, "right_sw_ft": 15.0}, "geometry": {"type": "LineString", "coordinates": [[-73.7708706614419, 40.85050105803879], [-73.77077123361056, 40.850180463566495]]}}, {"type": "Feature", "properties": {"segment_id": 908240, "physicalid": "63466", "street_name": "UNNAMED ST", "borough": "bronx", "direction": "TW", "total_row_ft": 43.1, "roadbed_ft": 13.1, "median_ft": 0.0, "left_sw_ft": 15.0, "right_sw_ft": 15.0}, "geometry": {"type": "LineString", "coordinates": [[-73.77080029412645, 40.85051364126134], [-73.77070086661547, 40.850193046729096]]}}, {"type": "Feature", "properties": {"segment_id": 908241, "physicalid": "63466", "street_name": "UNNAMED ST", "borough": "bronx", "direction": "TW", "total_row_ft": 43.7, "roadbed_ft": 13.7, "median_ft": 0.0, "left_sw_ft": 15.0, "right_sw_ft": 15.0}, "geometry": {"type": "LineString", "coordinates": [[-73.77072992678438, 40.85052622444092], [-73.77063049959375, 40.85020562984873]]}}, {"type": "Feature", "properties": {"segment_id": 908242, "physicalid": "63466", "street_name": "UNNAMED ST", "borough": "bronx", "direction": "TW", "total_row_ft": 42.8, "roadbed_ft": 12.8, "median_ft": 0.0, "left_sw_ft": 15.0, "right_sw_ft": 15.0}, "geometry": {"type": "LineString", "coordinates": [[-73.7706595594157, 40.85053880757758], [-73.7705601325454, 40.85021821292545]]}}, {"type": "Feature", "properties": {"segment_id": 908243, "physicalid": "63466", "street_name": "UNNAMED ST", "borough": "bronx", "direction": "TW", "total_row_ft": 42.0, "roadbed_ft": 12.0, "median_ft": 0.0, "left_sw_ft": 15.0, "right_sw_ft": 15.0}, "geometry": {"type": "LineString", "coordinates": [[-73.7705891920204, 40.85055139067125], [-73.77048976547042, 40.85023079595919]]}}, {"type": "Feature", "properties": {"segment_id": 908244, "physicalid": "63466", "street_name": "UNNAMED ST", "borough": "bronx", "direction": "TW", "total_row_ft": 41.6, "roadbed_ft": 11.6, "median_ft": 0.0, "left_sw_ft": 15.0, "right_sw_ft": 15.0}, "geometry": {"type": "LineString", "coordinates": [[-73.77051882459844, 40.850563973722004], [-73.77041939836886, 40.850243378949976]]}}, {"type": "Feature", "properties": {"segment_id": 908245, "physicalid": "63466", "street_name": "UNNAMED ST", "borough": "bronx", "direction": "TW", "total_row_ft": 41.2, "roadbed_ft": 11.2, "median_ft": 0.0, "left_sw_ft": 15.0, "right_sw_ft": 15.0}, "geometry": {"type": "LineString", "coordinates": [[-73.77044845714988, 40.85057655672979], [-73.77034903124064, 40.85025596189782]]}}]}