{"type": "FeatureCollection", "features": [{"type": "Feature", "properties": {"segment_id": 775751, "physicalid": "54565", "street_name": "BOSTON RD", "borough": "bronx", "direction": "TF", "total_row_ft": 97.9, "roadbed_ft": 72.6, "median_ft": 4.4, "left_sw_ft": 15.0, "right_sw_ft": 6.0}, "geometry": {"type": "LineString", "coordinates": [[-73.82006449253605, 40.89011054488737], [-73.81988282772346, 40.88992941571149]]}}, {"type": "Feature", "properties": {"segment_id": 775752, "physicalid": "54565", "street_name": "BOSTON RD", "borough": "bronx", "direction": "TF", "total_row_ft": 96.0, "roadbed_ft": 76.9, "median_ft": 0.0, "left_sw_ft": 15.0, "right_sw_ft": 4.1}, "geometry": {"type": "LineString", "coordinates": [[-73.82000268129462, 40.89013955203295], [-73.81982526832512, 40.88996266199743]]}}, {"type": "Feature", "properties": {"segment_id": 775753, "physicalid": "54566", "street_name": "BOSTON RD", "borough": "bronx", "direction": "TF", "total_row_ft": 95.3, "roadbed_ft": 76.8, "median_ft": 0.0, "left_sw_ft": 15.0, "right_sw_ft": 3.5}, "geometry": {"type": "LineString", "coordinates": [[-73.81989974098767, 40.89019667762539], [-73.8197234365405, 40.890021577623784]]}}, {"type": "Feature", "properties": {"segment_id": 775754, "physicalid": "54566", "street_name": "BOSTON RD", "borough": "bronx", "direction": "TF", "total_row_ft": 95.3, "roadbed_ft": 76.7, "median_ft": 0.0, "left_sw_ft": 15.0, "right_sw_ft": 3.6}, "geometry": {"type": "LineString", "coordinates": [[-73.81984232012972, 40.890230065762175], [-73.81966596527074, 40.89005490024859]]}}, {"type": "Feature", "properties": {"segment_id": 775755, "physicalid": "54566", "street_name": "BOSTON RD", "borough": "bronx", "direction": "TF", "total_row_ft": 95.3, "roadbed_ft": 76.7, "median_ft": 0.0, "left_sw_ft": 15.0, "right_sw_ft": 3.7}, "geometry": {"type": "LineString", "coordinates": [[-73.81978490166782, 40.89026345244348], [-73.81960848639116, 40.89008822677056]]}}, {"type": "Feature", "properties": {"segment_id": 775756, "physicalid": "54566", "street_name": "BOSTON RD", "borough": "bronx", "direction": "TF", "total_row_ft": 95.5, "roadbed_ft": 71.1, "median_ft": 5.4, "left_sw_ft": 15.0, "right_sw_ft": 4.0}, "geometry": {"type": "LineString", "coordinates": [[-73.81972785527033, 40.89029720870788], [-73.81955100745402, 40.89012155326365]]}}, {"type": "Feature", "properties": {"segment_id": 775757, "physicalid": "54566", "street_name": "BOSTON RD", "borough": "bronx", "direction": "TF", "total_row_ft": 96.0, "roadbed_ft": 71.2, "median_ft": 5.3, "left_sw_ft": 15.0, "right_sw_ft": 4.5}, "geometry": {"type": "LineString", "coordinates": [[-73.81967139916277, 40.89033155130986], [-73.8194935284592, 40.890154879727916]]}}, {"type": "Feature", "properties": {"segment_id": 775928, "physicalid": "54584", "street_name": "BOSTON RD", "borough": "bronx", "direction": "FT", "total_row_ft": 150.0, "roadbed_ft": 120.0, "median_ft": 0.0, "left_sw_ft": 15.0, "right_sw_ft": 15.0}, "geometry": {"type": "LineString", "coordinates": [[-73.81987796161701, 40.89019219526592], [-73.819639656374, 40.889916923452844]]}}, {"type": "Feature", "properties": {"segment_id": 775929, "physicalid": "54584", "street_name": "BOSTON RD", "borough": "bronx", "direction": "FT", "total_row_ft": 113.3, "roadbed_ft": 76.8, "median_ft": 0.0, "left_sw_ft": 15.0, "right_sw_ft": 21.5}, "geometry": {"type": "LineString", "coordinates": [[-73.81983379182083, 40.89021769220174], [-73.81961620425889, 40.89000438115525]]}}, {"type": "Feature", "properties": {"segment_id": 775930, "physicalid": "54584", "street_name": "BOSTON RD", "borough": "bronx", "direction": "FT", "total_row_ft": 112.8, "roadbed_ft": 76.7, "median_ft": 0.0, "left_sw_ft": 15.0, "right_sw_ft": 21.1}, "geometry": {"type": "LineString", "coordinates": [[-73.81977659170177, 40.89025129393502], [-73.8195601737058, 40.89003912929473]]}}, {"type": "Feature", "properties": {"segment_id": 775931, "physicalid": "54584", "street_name": "BOSTON RD", "borough": "bronx", "direction": "FT", "total_row_ft": 112.2, "roadbed_ft": 71.1, "median_ft": 5.4, "left_sw_ft": 15.0, "right_sw_ft": 20.7}, "geometry": {"type": "LineString", "coordinates": [[-73.81971939152488, 40.89028489563977], [-73.81950414309414, 40.890073877406806]]}}, {"type": "Feature", "properties": {"segment_id": 775932, "physicalid": "54584", "street_name": "BOSTON RD", "borough": "bronx", "direction": "FT", "total_row_ft": 111.7, "roadbed_ft": 71.1, "median_ft": 5.3, "left_sw_ft": 15.0, "right_sw_ft": 20.2}, "geometry": {"type": "LineString", "coordinates": [[-73.81966219129013, 40.89031849731596], [-73.81944811219343, 40.8901086252655]]}}, {"type": "Feature", "properties": {"segment_id": 775933, "physicalid": "54584", "street_name": "BOSTON RD", "borough": "bronx", "direction": "FT", "total_row_ft": 111.2, "roadbed_ft": 71.2, "median_ft": 5.2, "left_sw_ft": 15.0, "right_sw_ft": 19.8}, "geometry": {"type": "LineString", "coordinates": [[-73.81960499099759, 40.8903520989636], [-73.81939208113268, 40.89014337299731]]}}, {"type": "Feature", "properties": {"segment_id": 1331356, "physicalid": "90878", "street_name": "ROPES AVE", "borough": "bronx", "direction": "TW", "total_row_ft": 150.0, "roadbed_ft": 120.0, "median_ft": 0.0, "left_sw_ft": 15.0, "right_sw_ft": 15.0}, "geometry": {"type": "LineString", "coordinates": [[-73.8200085487513, 40.889962999989486], [-73.81966655764599, 40.89016578983187]]}}]}