{"type": "FeatureCollection", "features": [{"type": "Feature", "properties": {"segment_id": 1653013, "physicalid": "165111", "street_name": "PARK LN", "borough": "bronx", "direction": "TW", "total_row_ft": 7.2, "roadbed_ft": 0.0, "median_ft": 0.0, "left_sw_ft": 4.9, "right_sw_ft": 2.4}, "geometry": {"type": "LineString", "coordinates": [[-73.79746382435003, 40.88388700962961], [-73.79743772386631, 40.8838862920949]]}}, {"type": "Feature", "properties": {"segment_id": 1653014, "physicalid": "165111", "street_name": "PARK LN", "borough": "bronx", "direction": "TW", "total_row_ft": 7.2, "roadbed_ft": 0.0, "median_ft": 0.0, "left_sw_ft": 4.2, "right_sw_ft": 3.1}, "geometry": {"type": "LineString", "coordinates": [[-73.7974587448863, 40.883941799739105], [-73.79743257848874, 40.883941080391786]]}}, {"type": "Feature", "properties": {"segment_id": 1653015, "physicalid": "165111", "street_name": "PARK LN", "borough": "bronx", "direction": "TW", "total_row_ft": 7.2, "roadbed_ft": 0.0, "median_ft": 0.0, "left_sw_ft": 3.4, "right_sw_ft": 3.8}, "geometry": {"type": "LineString", "coordinates": [[-73.79745344760258, 40.883996583859926], [-73.79742734694824, 40.883995866319395]]}}, {"type": "Feature", "properties": {"segment_id": 1653016, "physicalid": "165111", "street_name": "PARK LN", "borough": "bronx", "direction": "TW", "total_row_ft": 8.2, "roadbed_ft": 0.0, "median_ft": 0.0, "left_sw_ft": 3.3, "right_sw_ft": 5.0}, "geometry": {"type": "LineString", "coordinates": [[-73.79745026358647, 40.88405142607642], [-73.79742051790062, 40.88405060832868]]}}, {"type": "Feature", "properties": {"segment_id": 1653017, "physicalid": "165111", "street_name": "PARK LN", "borough": "bronx", "direction": "TW", "total_row_ft": 43.6, "roadbed_ft": 13.6, "median_ft": 0.0, "left_sw_ft": 15.0, "right_sw_ft": 15.0}, "geometry": {"type": "LineString", "coordinates": [[-73.79762182372818, 40.88416532644062], [-73.79721958795642, 40.88404168862987]]}}, {"type": "Feature", "properties": {"segment_id": 1653018, "physicalid": "165111", "street_name": "PARK LN", "borough": "bronx", "direction": "TW", "total_row_ft": 43.5, "roadbed_ft": 13.5, "median_ft": 0.0, "left_sw_ft": 15.0, "right_sw_ft": 15.0}, "geometry": {"type": "LineString", "coordinates": [[-73.7975946726807, 40.88421620579022], [-73.7971924366516, 40.88409256788602]]}}, {"type": "Feature", "properties": {"segment_id": 1653019, "physicalid": "165111", "street_name": "PARK LN", "borough": "bronx", "direction": "TW", "total_row_ft": 43.5, "roadbed_ft": 13.5, "median_ft": 0.0, "left_sw_ft": 15.0, "right_sw_ft": 15.0}, "geometry": {"type": "LineString", "coordinates": [[-73.7975809880956, 40.88424635701176], [-73.7971600578945, 40.88416621489342]]}}, {"type": "Feature", "properties": {"segment_id": 1653020, "physicalid": "165111", "street_name": "PARK LN", "borough": "bronx", "direction": "TW", "total_row_ft": 44.0, "roadbed_ft": 14.0, "median_ft": 0.0, "left_sw_ft": 15.0, "right_sw_ft": 15.0}, "geometry": {"type": "LineString", "coordinates": [[-73.79756338881337, 40.884299600946626], [-73.79714245829635, 40.88421945876486]]}}, {"type": "Feature", "properties": {"segment_id": 1653021, "physicalid": "165111", "street_name": "PARK LN", "borough": "bronx", "direction": "TW", "total_row_ft": 47.3, "roadbed_ft": 17.3, "median_ft": 0.0, "left_sw_ft": 15.0, "right_sw_ft": 15.0}, "geometry": {"type": "LineString", "coordinates": [[-73.79755333113353, 40.884330512998865], [-73.79712179666022, 40.88429563891155]]}}, {"type": "Feature", "properties": {"segment_id": 1653022, "physicalid": "165111", "street_name": "PARK LN", "borough": "bronx", "direction": "TW", "total_row_ft": 50.7, "roadbed_ft": 20.7, "median_ft": 0.0, "left_sw_ft": 15.0, "right_sw_ft": 15.0}, "geometry": {"type": "LineString", "coordinates": [[-73.79754567284597, 40.88438509817402], [-73.79711413802238, 40.88435022405841]]}}, {"type": "Feature", "properties": {"segment_id": 1653023, "physicalid": "165111", "street_name": "PARK LN", "borough": "bronx", "direction": "TW", "total_row_ft": 53.8, "roadbed_ft": 23.8, "median_ft": 0.0, "left_sw_ft": 15.0, "right_sw_ft": 15.0}, "geometry": {"type": "LineString", "coordinates": [[-73.79753930982663, 40.88441683352239], [-73.79710557001039, 40.88442766975115]]}}, {"type": "Feature", "properties": {"segment_id": 1653024, "physicalid": "165111", "street_name": "PARK LN", "borough": "bronx", "direction": "TW", "total_row_ft": 49.3, "roadbed_ft": 24.8, "median_ft": 0.0, "left_sw_ft": 9.5, "right_sw_ft": 15.0}, "geometry": {"type": "LineString", "coordinates": [[-73.79739476827446, 40.88447536830032], [-73.79710794950657, 40.88448253378132]]}}, {"type": "Feature", "properties": {"segment_id": 1660018, "physicalid": "166632", "street_name": "ROOSEVELT AVE", "borough": "bronx", "direction": "TW", "total_row_ft": 50.9, "roadbed_ft": 20.9, "median_ft": 0.0, "left_sw_ft": 15.0, "right_sw_ft": 15.0}, "geometry": {"type": "LineString", "coordinates": [[-73.79549650274875, 40.883858640732946], [-73.79553819844865, 40.883530801972476]]}}, {"type": "Feature", "properties": {"segment_id": 1660019, "physicalid": "166632", "street_name": "ROOSEVELT AVE", "borough": "bronx", "direction": "TW", "total_row_ft": 51.1, "roadbed_ft": 21.1, "median_ft": 0.0, "left_sw_ft": 15.0, "right_sw_ft": 15.0}, "geometry": {"type": "LineString", "coordinates": [[-73.79544751615927, 40.88385793988688], [-73.79544276804305, 40.883528597093004]]}}, {"type": "Feature", "properties": {"segment_id": 1660020, "physicalid": "166632", "street_name": "ROOSEVELT AVE", "borough": "bronx", "direction": "TW", "total_row_ft": 52.4, "roadbed_ft": 22.4, "median_ft": 0.0, "left_sw_ft": 15.0, "right_sw_ft": 15.0}, "geometry": {"type": "LineString", "coordinates": [[-73.79539866210904, 40.88386063574104], [-73.7953475246557, 40.88353356789339]]}}, {"type": "Feature", "properties": {"segment_id": 1660021, "physicalid": "166632", "street_name": "ROOSEVELT AVE", "borough": "bronx", "direction": "TW", "total_row_ft": 53.2, "roadbed_ft": 23.2, "median_ft": 0.0, "left_sw_ft": 15.0, "right_sw_ft": 15.0}, "geometry": {"type": "LineString", "coordinates": [[-73.79535033652311, 40.88386670543642], [-73.79525339648167, 40.88354566541204]]}}, {"type": "Feature", "properties": {"segment_id": 1660022, "physicalid": "166632", "street_name": "ROOSEVELT AVE", "borough": "bronx", "direction": "TW", "total_row_ft": 53.5, "roadbed_ft": 23.5, "median_ft": 0.0, "left_sw_ft": 15.0, "right_sw_ft": 15.0}, "geometry": {"type": "LineString", "coordinates": [[-73.7953029313443, 40.883876100721096], [-73.79516130100467, 40.88356477223357]]}}, {"type": "Feature", "properties": {"segment_id": 1660023, "physicalid": "166632", "street_name": "ROOSEVELT AVE", "borough": "bronx", "direction": "TW", "total_row_ft": 52.8, "roadbed_ft": 22.8, "median_ft": 0.0, "left_sw_ft": 15.0, "right_sw_ft": 15.0}, "geometry": {"type": "LineString", "coordinates": [[-73.79525683167915, 40.8838887483213], [-73.79507213654081, 40.88359070349976]]}}, {"type": "Feature", "properties": {"segment_id": 1660024, "physicalid": "166632", "street_name": "ROOSEVELT AVE", "borough": "bronx", "direction": "TW", "total_row_ft": 51.7, "roadbed_ft": 21.7, "median_ft": 0.0, "left_sw_ft": 15.0, "right_sw_ft": 15.0}, "geometry": {"type": "LineString", "coordinates": [[-73.79521241401781, 40.883904550142226], [-73.79498677295314, 40.883623208912525]]}}, {"type": "Feature", "properties": {"segment_id": 1660025, "physicalid": "166632", "street_name": "ROOSEVELT AVE", "borough": "bronx", "direction": "TW", "total_row_ft": 51.5, "roadbed_ft": 21.5, "median_ft": 0.0, "left_sw_ft": 15.0, "right_sw_ft": 15.0}, "geometry": {"type": "LineString", "coordinates": [[-73.79517004256172, 40.88392338422119], [-73.79490604457222, 40.88366197477041]]}}, {"type": "Feature", "properties": {"segment_id": 1660026, "physicalid": "166632", "street_name": "ROOSEVELT AVE", "borough": "bronx", "direction": "TW", "total_row_ft": 51.8, "roadbed_ft": 21.8, "median_ft": 0.0, "left_sw_ft": 15.0, "right_sw_ft": 15.0}, "geometry": {"type": "LineString", "coordinates": [[-73.79511263662492, 40.88395677786588], [-73.79484863872858, 40.88369536828538]]}}, {"type": "Feature", "properties": {"segment_id": 1660027, "physicalid": "166632", "street_name": "ROOSEVELT AVE", "borough": "bronx", "direction": "TW", "total_row_ft": 51.0, "roadbed_ft": 21.0, "median_ft": 0.0, "left_sw_ft": 15.0, "right_sw_ft": 15.0}, "geometry": {"type": "LineString", "coordinates": [[-73.79507769717632, 40.88398296749896], [-73.79477837139439, 40.88374448918254]]}}, {"type": "Feature", "properties": {"segment_id": 1660028, "physicalid": "166633", "street_name": "ROOSEVELT AVE", "borough": "bronx", "direction": "TW", "total_row_ft": 55.4, "roadbed_ft": 25.4, "median_ft": 0.0, "left_sw_ft": 15.0, "right_sw_ft": 15.0}, "geometry": {"type": "LineString", "coordinates": [[-73.79605942154411, 40.88427281168969], [-73.79648925037421, 40.884227399755495]]}}, {"type": "Feature", "properties": {"segment_id": 1660029, "physicalid": "166633", "street_name": "ROOSEVELT AVE", "borough": "bronx", "direction": "TW", "total_row_ft": 54.9, "roadbed_ft": 24.9, "median_ft": 0.0, "left_sw_ft": 15.0, "right_sw_ft": 15.0}, "geometry": {"type": "LineString", "coordinates": [[-73.79604897579311, 40.88423397467491], [-73.79647145469501, 40.88415867285233]]}}, {"type": "Feature", "properties": {"segment_id": 1660030, "physicalid": "166633", "street_name": "ROOSEVELT AVE", "borough": "bronx", "direction": "TW", "total_row_ft": 53.5, "roadbed_ft": 23.5, "median_ft": 0.0, "left_sw_ft": 15.0, "right_sw_ft": 15.0}, "geometry": {"type": "LineString", "coordinates": [[-73.79603461371032, 40.884195870740044], [-73.79644614213385, 40.88409132080941]]}}, {"type": "Feature", "properties": {"segment_id": 1660031, "physicalid": "166633", "street_name": "ROOSEVELT AVE", "borough": "bronx", "direction": "TW", "total_row_ft": 54.0, "roadbed_ft": 24.0, "median_ft": 0.0, "left_sw_ft": 15.0, "right_sw_ft": 15.0}, "geometry": {"type": "LineString", "coordinates": [[-73.79601641796853, 40.88415871849257], [-73.79641348870331, 40.88402581149906]]}}, {"type": "Feature", "properties": {"segment_id": 1660032, "physicalid": "166633", "street_name": "ROOSEVELT AVE", "borough": "bronx", "direction": "TW", "total_row_ft": 54.9, "roadbed_ft": 24.9, "median_ft": 0.0, "left_sw_ft": 15.0, "right_sw_ft": 15.0}, "geometry": {"type": "LineString", "coordinates": [[-73.79599449118544, 40.884122731661925], [-73.79637372024973, 40.883962600321006]]}}, {"type": "Feature", "properties": {"segment_id": 1660033, "physicalid": "166633", "street_name": "ROOSEVELT AVE", "borough": "bronx", "direction": "TW", "total_row_ft": 55.4, "roadbed_ft": 25.4, "median_ft": 0.0, "left_sw_ft": 15.0, "right_sw_ft": 15.0}, "geometry": {"type": "LineString", "coordinates": [[-73.79596895549639, 40.88408811815551], [-73.79632711097481, 40.883902127198084]]}}, {"type": "Feature", "properties": {"segment_id": 1660034, "physicalid": "166633", "street_name": "ROOSEVELT AVE", "borough": "bronx", "direction": "TW", "total_row_ft": 55.5, "roadbed_ft": 25.5, "median_ft": 0.0, "left_sw_ft": 15.0, "right_sw_ft": 15.0}, "geometry": {"type": "LineString", "coordinates": [[-73.79593995206476, 40.88405507912813], [-73.79627398165036, 40.88384481366941]]}}, {"type": "Feature", "properties": {"segment_id": 1660035, "physicalid": "166633", "street_name": "ROOSEVELT AVE", "borough": "bronx", "direction": "TW", "total_row_ft": 55.5, "roadbed_ft": 25.5, "median_ft": 0.0, "left_sw_ft": 15.0, "right_sw_ft": 15.0}, "geometry": {"type": "LineString", "coordinates": [[-73.79589377744364, 40.88401282713352], [-73.79622780696297, 40.88380256180681]]}}, {"type": "Feature", "properties": {"segment_id": 1660036, "physicalid": "166633", "street_name": "ROOSEVELT AVE", "borough": "bronx", "direction": "TW", "total_row_ft": 55.0, "roadbed_ft": 25.0, "median_ft": 0.0, "left_sw_ft": 15.0, "right_sw_ft": 15.0}, "geometry": {"type": "LineString", "coordinates": [[-73.79585652865082, 40.88398496776436], [-73.79616358582429, 40.88375222005692]]}}, {"type": "Feature", "properties": {"segment_id": 1660037, "physicalid": "166633", "street_name": "ROOSEVELT AVE", "borough": "bronx", "direction": "TW", "total_row_ft": 54.4, "roadbed_ft": 24.4, "median_ft": 0.0, "left_sw_ft": 15.0, "right_sw_ft": 15.0}, "geometry": {"type": "LineString", "coordinates": [[-73.79581658491108, 40.883959392351876], [-73.79609405282281, 40.88370614574082]]}}, {"type": "Feature", "properties": {"segment_id": 1660038, "physicalid": "166633", "street_name": "ROOSEVELT AVE", "borough": "bronx", "direction": "TW", "total_row_ft": 54.1, "roadbed_ft": 24.1, "median_ft": 0.0, "left_sw_ft": 15.0, "right_sw_ft": 15.0}, "geometry": {"type": "LineString", "coordinates": [[-73.79577417921678, 40.88393624442572], [-73.79601969323623, 40.88366465718706]]}}, {"type": "Feature", "properties": {"segment_id": 1660039, "physicalid": "166633", "street_name": "ROOSEVELT AVE", "borough": "bronx", "direction": "TW", "total_row_ft": 52.5, "roadbed_ft": 22.5, "median_ft": 0.0, "left_sw_ft": 15.0, "right_sw_ft": 15.0}, "geometry": {"type": "LineString", "coordinates": [[-73.79572955701876, 40.883915654709575], [-73.79594102483743, 40.88362804142131]]}}, {"type": "Feature", "properties": {"segment_id": 1660040, "physicalid": "166633", "street_name": "ROOSEVELT AVE", "borough": "bronx", "direction": "TW", "total_row_ft": 50.0, "roadbed_ft": 20.0, "median_ft": 0.0, "left_sw_ft": 15.0, "right_sw_ft": 15.0}, "geometry": {"type": "LineString", "coordinates": [[-73.79568297506378, 40.88389774052334], [-73.79585859452585, 40.88359655234064]]}}, {"type": "Feature", "properties": {"segment_id": 1660041, "physicalid": "166633", "street_name": "ROOSEVELT AVE", "borough": "bronx", "direction": "TW", "total_row_ft": 48.7, "roadbed_ft": 18.7, "median_ft": 0.0, "left_sw_ft": 15.0, "right_sw_ft": 15.0}, "geometry": {"type": "LineString", "coordinates": [[-73.79563470026112, 40.883882605279815], [-73.79577297471786, 40.88357040904464]]}}, {"type": "Feature", "properties": {"segment_id": 1660042, "physicalid": "166633", "street_name": "ROOSEVELT AVE", "borough": "bronx", "direction": "TW", "total_row_ft": 48.7, "roadbed_ft": 18.7, "median_ft": 0.0, "left_sw_ft": 15.0, "right_sw_ft": 15.0}, "geometry": {"type": "LineString", "coordinates": [[-73.79558500851431, 40.8838703380224], [-73.79568475957946, 40.88354979438909]]}}, {"type": "Feature", "properties": {"segment_id": 1681799, "physicalid": "171031", "street_name": "BEECH TREE LN", "borough": "bronx", "direction": "TW", "total_row_ft": 46.7, "roadbed_ft": 26.4, "median_ft": 0.0, "left_sw_ft": 12.3, "right_sw_ft": 7.9}, "geometry": {"type": "LineString", "coordinates": [[-73.79918396768957, 40.88455534234797], [-73.79934303458033, 40.88459821863818]]}}, {"type": "Feature", "properties": {"segment_id": 1681800, "physicalid": "171031", "street_name": "BEECH TREE LN", "borough": "bronx", "direction": "TW", "total_row_ft": 47.7, "roadbed_ft": 22.9, "median_ft": 0.0, "left_sw_ft": 16.2, "right_sw_ft": 8.6}, "geometry": {"type": "LineString", "coordinates": [[-73.79920484685826, 40.88450271716969], [-73.79936735283859, 40.88454652046133]]}}, {"type": "Feature", "properties": {"segment_id": 1681801, "physicalid": "171031", "street_name": "BEECH TREE LN", "borough": "bronx", "direction": "TW", "total_row_ft": 47.4, "roadbed_ft": 23.0, "median_ft": 0.0, "left_sw_ft": 15.1, "right_sw_ft": 9.4}, "geometry": {"type": "LineString", "coordinates": [[-73.79923012539186, 40.88445127784337], [-73.79939167105901, 40.88449482227883]]}}, {"type": "Feature", "properties": {"segment_id": 1681802, "physicalid": "171031", "street_name": "BEECH TREE LN", "borough": "bronx", "direction": "TW", "total_row_ft": 45.8, "roadbed_ft": 23.0, "median_ft": 0.0, "left_sw_ft": 12.6, "right_sw_ft": 10.1}, "geometry": {"type": "LineString", "coordinates": [[-73.79925995034492, 40.884401064007044], [-73.79941598924161, 40.88444312409075]]}}, {"type": "Feature", "properties": {"segment_id": 1681803, "physicalid": "171032", "street_name": "BEECH TREE LN", "borough": "bronx", "direction": "TW", "total_row_ft": 111.0, "roadbed_ft": 29.2, "median_ft": 0.0, "left_sw_ft": 33.9, "right_sw_ft": 47.9}, "geometry": {"type": "LineString", "coordinates": [[-73.7991425675385, 40.88473749644486], [-73.79926655311534, 40.88444778728908]]}}, {"type": "Feature", "properties": {"segment_id": 1681804, "physicalid": "171032", "street_name": "BEECH TREE LN", "borough": "bronx", "direction": "TW", "total_row_ft": 56.0, "roadbed_ft": 26.0, "median_ft": 0.0, "left_sw_ft": 15.0, "right_sw_ft": 15.0}, "geometry": {"type": "LineString", "coordinates": [[-73.79906369963713, 40.88474408294915], [-73.79919776160587, 40.88443082980779]]}}, {"type": "Feature", "properties": {"segment_id": 1681805, "physicalid": "171032", "street_name": "BEECH TREE LN", "borough": "bronx", "direction": "TW", "total_row_ft": 55.6, "roadbed_ft": 25.6, "median_ft": 0.0, "left_sw_ft": 15.0, "right_sw_ft": 15.0}, "geometry": {"type": "LineString", "coordinates": [[-73.7989949078728, 40.88472712534787], [-73.79912897013145, 40.884413872285414]]}}, {"type": "Feature", "properties": {"segment_id": 1681806, "physicalid": "171032", "street_name": "BEECH TREE LN", "borough": "bronx", "direction": "TW", "total_row_ft": 55.1, "roadbed_ft": 25.1, "median_ft": 0.0, "left_sw_ft": 15.0, "right_sw_ft": 15.0}, "geometry": {"type": "LineString", "coordinates": [[-73.79892611614356, 40.88471016770554], [-73.79906017869216, 40.884396914722025]]}}, {"type": "Feature", "properties": {"segment_id": 1681807, "physicalid": "171032", "street_name": "BEECH TREE LN", "borough": "bronx", "direction": "TW", "total_row_ft": 54.7, "roadbed_ft": 24.7, "median_ft": 0.0, "left_sw_ft": 15.0, "right_sw_ft": 15.0}, "geometry": {"type": "LineString", "coordinates": [[-73.7988573244494, 40.884693210022164], [-73.79899138728796, 40.88437995711755]]}}, {"type": "Feature", "properties": {"segment_id": 1681808, "physicalid": "171032", "street_name": "BEECH TREE LN", "borough": "bronx", "direction": "TW", "total_row_ft": 54.3, "roadbed_ft": 24.3, "median_ft": 0.0, "left_sw_ft": 15.0, "right_sw_ft": 15.0}, "geometry": {"type": "LineString", "coordinates": [[-73.79878853279034, 40.88467625229773], [-73.79892259591884, 40.88436299947205]]}}, {"type": "Feature", "properties": {"segment_id": 1681809, "physicalid": "171032", "street_name": "BEECH TREE LN", "borough": "bronx", "direction": "TW", "total_row_ft": 55.1, "roadbed_ft": 25.1, "median_ft": 0.0, "left_sw_ft": 15.0, "right_sw_ft": 15.0}, "geometry": {"type": "LineString", "coordinates": [[-73.79871974116637, 40.88465929453224], [-73.79885380458484, 40.884346041785484]]}}, {"type": "Feature", "properties": {"segment_id": 1681810, "physicalid": "171032", "street_name": "BEECH TREE LN", "borough": "bronx", "direction": "TW", "total_row_ft": 84.3, "roadbed_ft": 54.3, "median_ft": 0.0, "left_sw_ft": 15.0, "right_sw_ft": 15.0}, "geometry": {"type": "LineString", "coordinates": [[-73.79865094957749, 40.88464233672568], [-73.79878501328591, 40.88432908405785]]}}, {"type": "Feature", "properties": {"segment_id": 1681811, "physicalid": "171032", "street_name": "BEECH TREE LN", "borough": "bronx", "direction": "TW", "total_row_ft": 91.3, "roadbed_ft": 61.3, "median_ft": 0.0, "left_sw_ft": 15.0, "right_sw_ft": 15.0}, "geometry": {"type": "LineString", "coordinates": [[-73.79858215802373, 40.884625378878084], [-73.79871622202207, 40.88431212628917]]}}, {"type": "Feature", "properties": {"segment_id": 1681812, "physicalid": "171033", "street_name": "BEECH TREE LN", "borough": "bronx", "direction": "TW", "total_row_ft": 63.7, "roadbed_ft": 27.5, "median_ft": 0.0, "left_sw_ft": 13.7, "right_sw_ft": 22.6}, "geometry": {"type": "LineString", "coordinates": [[-73.79919067226719, 40.88505121278608], [-73.79941152571769, 40.88500143648636]]}}, {"type": "Feature", "properties": {"segment_id": 1681813, "physicalid": "171033", "street_name": "BEECH TREE LN", "borough": "bronx", "direction": "TW", "total_row_ft": 48.2, "roadbed_ft": 24.5, "median_ft": 0.0, "left_sw_ft": 12.4, "right_sw_ft": 11.3}, "geometry": {"type": "LineString", "coordinates": [[-73.79917115699995, 40.88499834799452], [-73.79933812444101, 40.88496071665508]]}}, {"type": "Feature", "properties": {"segment_id": 1681814, "physicalid": "171033", "street_name": "BEECH TREE LN", "borough": "bronx", "direction": "TW", "total_row_ft": 44.1, "roadbed_ft": 22.7, "median_ft": 0.0, "left_sw_ft": 11.1, "right_sw_ft": 10.2}, "geometry": {"type": "LineString", "coordinates": [[-73.79915384883971, 40.88493409582911], [-73.79931168806215, 40.884916751108385]]}}, {"type": "Feature", "properties": {"segment_id": 1681815, "physicalid": "171033", "street_name": "BEECH TREE LN", "borough": "bronx", "direction": "TW", "total_row_ft": 44.1, "roadbed_ft": 21.5, "median_ft": 0.0, "left_sw_ft": 10.3, "right_sw_ft": 12.4}, "geometry": {"type": "LineString", "coordinates": [[-73.79914447538454, 40.884879659690974], [-73.79930236575257, 40.88486230934862]]}}, {"type": "Feature", "properties": {"segment_id": 1681816, "physicalid": "171033", "street_name": "BEECH TREE LN", "borough": "bronx", "direction": "TW", "total_row_ft": 44.5, "roadbed_ft": 21.2, "median_ft": 0.0, "left_sw_ft": 9.5, "right_sw_ft": 13.8}, "geometry": {"type": "LineString", "coordinates": [[-73.79913960163337, 40.884814387538015], [-73.7993005046384, 40.88481478191641]]}}, {"type": "Feature", "properties": {"segment_id": 1681817, "physicalid": "171033", "street_name": "BEECH TREE LN", "borough": "bronx", "direction": "TW", "total_row_ft": 44.1, "roadbed_ft": 21.6, "median_ft": 0.0, "left_sw_ft": 9.0, "right_sw_ft": 13.6}, "geometry": {"type": "LineString", "coordinates": [[-73.7991407717806, 40.88475949638017], [-73.7993003424659, 40.88475988749265]]}}, {"type": "Feature", "properties": {"segment_id": 1681818, "physicalid": "171033", "street_name": "BEECH TREE LN", "borough": "bronx", "direction": "TW", "total_row_ft": 43.8, "roadbed_ft": 24.7, "median_ft": 0.0, "left_sw_ft": 8.3, "right_sw_ft": 10.8}, "geometry": {"type": "LineString", "coordinates": [[-73.79914886705421, 40.884698436306174], [-73.79930644868706, 40.88471032706162]]}}, {"type": "Feature", "properties": {"segment_id": 1743331, "physicalid": "188729", "street_name": "SHORE RD", "borough": "bronx", "direction": "TW", "total_row_ft": 57.3, "roadbed_ft": 27.3, "median_ft": 0.0, "left_sw_ft": 15.0, "right_sw_ft": 15.0}, "geometry": {"type": "LineString", "coordinates": [[-73.79596586143245, 40.8799833177742], [-73.79553580978255, 40.880027343704654]]}}, {"type": "Feature", "properties": {"segment_id": 1743332, "physicalid": "188729", "street_name": "SHORE RD", "borough": "bronx", "direction": "TW", "total_row_ft": 57.1, "roadbed_ft": 27.1, "median_ft": 0.0, "left_sw_ft": 15.0, "right_sw_ft": 15.0}, "geometry": {"type": "LineString", "coordinates": [[-73.79597552920823, 40.8800377189215], [-73.79554547721285, 40.88008174488753]]}}, {"type": "Feature", "properties": {"segment_id": 1743333, "physicalid": "188729", "street_name": "SHORE RD", "borough": "bronx", "direction": "TW", "total_row_ft": 42.9, "roadbed_ft": 26.7, "median_ft": 0.0, "left_sw_ft": 1.1, "right_sw_ft": 15.0}, "geometry": {"type": "LineString", "coordinates": [[-73.79598519699984, 40.88009212006741], [-73.79555514465898, 40.8801361460691]]}}, {"type": "Feature", "properties": {"segment_id": 1743334, "physicalid": "188729", "street_name": "SHORE RD", "borough": "bronx", "direction": "TW", "total_row_ft": 48.1, "roadbed_ft": 26.2, "median_ft": 0.0, "left_sw_ft": 6.9, "right_sw_ft": 15.0}, "geometry": {"type": "LineString", "coordinates": [[-73.7959853554809, 40.88014749473386], [-73.79556481212092, 40.88019054724924]]}}, {"type": "Feature", "properties": {"segment_id": 1743335, "physicalid": "188729", "street_name": "SHORE RD", "borough": "bronx", "direction": "TW", "total_row_ft": 49.1, "roadbed_ft": 25.7, "median_ft": 0.0, "left_sw_ft": 8.4, "right_sw_ft": 15.0}, "geometry": {"type": "LineString", "coordinates": [[-73.79596412280338, 40.88020093182949], [-73.79557650954317, 40.88024980284928]]}}, {"type": "Feature", "properties": {"segment_id": 1743336, "physicalid": "188729", "street_name": "SHORE RD", "borough": "bronx", "direction": "TW", "total_row_ft": 48.1, "roadbed_ft": 25.5, "median_ft": 0.0, "left_sw_ft": 7.6, "right_sw_ft": 15.0}, "geometry": {"type": "LineString", "coordinates": [[-73.79594592830725, 40.88026308349924], [-73.79558664777097, 40.88029785873776]]}}, {"type": "Feature", "properties": {"segment_id": 1743337, "physicalid": "188729", "street_name": "SHORE RD", "borough": "bronx", "direction": "TW", "total_row_ft": 48.0, "roadbed_ft": 25.6, "median_ft": 0.0, "left_sw_ft": 7.4, "right_sw_ft": 15.0}, "geometry": {"type": "LineString", "coordinates": [[-73.79594638983689, 40.880318377193326], [-73.79559579682126, 40.880352311541714]]}}, {"type": "Feature", "properties": {"segment_id": 1743338, "physicalid": "188729", "street_name": "SHORE RD", "borough": "bronx", "direction": "TW", "total_row_ft": 48.4, "roadbed_ft": 26.0, "median_ft": 0.0, "left_sw_ft": 7.4, "right_sw_ft": 15.0}, "geometry": {"type": "LineString", "coordinates": [[-73.79595814610516, 40.880377424979066], [-73.79560096078218, 40.880399581232986]]}}, {"type": "Feature", "properties": {"segment_id": 1743339, "physicalid": "188729", "street_name": "SHORE RD", "borough": "bronx", "direction": "TW", "total_row_ft": 48.8, "roadbed_ft": 26.4, "median_ft": 0.0, "left_sw_ft": 7.5, "right_sw_ft": 15.0}, "geometry": {"type": "LineString", "coordinates": [[-73.79597145199278, 40.88043765207551], [-73.79560578681476, 40.8804456261711]]}}, {"type": "Feature", "properties": {"segment_id": 1743340, "physicalid": "188729", "street_name": "SHORE RD", "borough": "bronx", "direction": "TW", "total_row_ft": 49.1, "roadbed_ft": 26.6, "median_ft": 0.0, "left_sw_ft": 7.5, "right_sw_ft": 15.0}, "geometry": {"type": "LineString", "coordinates": [[-73.79598478398317, 40.88049227776213], [-73.79560786382551, 40.88050049731441]]}}, {"type": "Feature", "properties": {"segment_id": 1743341, "physicalid": "188729", "street_name": "SHORE RD", "borough": "bronx", "direction": "TW", "total_row_ft": 49.6, "roadbed_ft": 27.0, "median_ft": 0.0, "left_sw_ft": 7.6, "right_sw_ft": 15.0}, "geometry": {"type": "LineString", "coordinates": [[-73.79600045130395, 40.88055383940331], [-73.79560870007221, 40.88054667279068]]}}, {"type": "Feature", "properties": {"segment_id": 1743342, "physicalid": "188729", "street_name": "SHORE RD", "borough": "bronx", "direction": "TW", "total_row_ft": 49.8, "roadbed_ft": 27.2, "median_ft": 0.0, "left_sw_ft": 7.7, "right_sw_ft": 15.0}, "geometry": {"type": "LineString", "coordinates": [[-73.79601227815424, 40.88060896546298], [-73.79560695717907, 40.88060155063223]]}}, {"type": "Feature", "properties": {"segment_id": 1743343, "physicalid": "188729", "street_name": "SHORE RD", "borough": "bronx", "direction": "TW", "total_row_ft": 49.9, "roadbed_ft": 27.0, "median_ft": 0.0, "left_sw_ft": 7.9, "right_sw_ft": 15.0}, "geometry": {"type": "LineString", "coordinates": [[-73.79602573144807, 40.88067234694655], [-73.79560380109929, 40.88064766532213]]}}, {"type": "Feature", "properties": {"segment_id": 1743344, "physicalid": "188729", "street_name": "SHORE RD", "borough": "bronx", "direction": "TW", "total_row_ft": 48.0, "roadbed_ft": 26.8, "median_ft": 0.0, "left_sw_ft": 6.3, "right_sw_ft": 15.0}, "geometry": {"type": "LineString", "coordinates": [[-73.7960309105551, 40.88072770646682], [-73.79559824314609, 40.88070239677789]]}}, {"type": "Feature", "properties": {"segment_id": 1743345, "physicalid": "188729", "street_name": "SHORE RD", "borough": "bronx", "direction": "TW", "total_row_ft": 41.9, "roadbed_ft": 26.4, "median_ft": 0.0, "left_sw_ft": 0.5, "right_sw_ft": 15.0}, "geometry": {"type": "LineString", "coordinates": [[-73.79602141134497, 40.88079087217573], [-73.79559110768518, 40.88074825960522]]}}, {"type": "Feature", "properties": {"segment_id": 1743346, "physicalid": "188729", "street_name": "SHORE RD", "borough": "bronx", "direction": "TW", "total_row_ft": 56.0, "roadbed_ft": 26.0, "median_ft": 0.0, "left_sw_ft": 15.0, "right_sw_ft": 15.0}, "geometry": {"type": "LineString", "coordinates": [[-73.79601205416428, 40.880845304603774], [-73.79558175015819, 40.880802691998866]]}}, {"type": "Feature", "properties": {"segment_id": 1743347, "physicalid": "188729", "street_name": "SHORE RD", "borough": "bronx", "direction": "TW", "total_row_ft": 55.6, "roadbed_ft": 25.6, "median_ft": 0.0, "left_sw_ft": 15.0, "right_sw_ft": 15.0}, "geometry": {"type": "LineString", "coordinates": [[-73.79599740358756, 40.88090790947586], [-73.7955706637, 40.880848112843054]]}}, {"type": "Feature", "properties": {"segment_id": 1743348, "physicalid": "188729", "street_name": "SHORE RD", "borough": "bronx", "direction": "TW", "total_row_ft": 55.0, "roadbed_ft": 25.0, "median_ft": 0.0, "left_sw_ft": 15.0, "right_sw_ft": 15.0}, "geometry": {"type": "LineString", "coordinates": [[-73.79596627359653, 40.880999441054726], [-73.79557102609151, 40.88086347115695]]}}, {"type": "Feature", "properties": {"segment_id": 1743349, "physicalid": "188729", "street_name": "SHORE RD", "borough": "bronx", "direction": "TW", "total_row_ft": 54.3, "roadbed_ft": 24.3, "median_ft": 0.0, "left_sw_ft": 15.0, "right_sw_ft": 15.0}, "geometry": {"type": "LineString", "coordinates": [[-73.79593641582335, 40.88104943886741], [-73.79554116808217, 40.88091346886863]]}}, {"type": "Feature", "properties": {"segment_id": 1743350, "physicalid": "188729", "street_name": "SHORE RD", "borough": "bronx", "direction": "TW", "total_row_ft": 53.9, "roadbed_ft": 23.9, "median_ft": 0.0, "left_sw_ft": 15.0, "right_sw_ft": 15.0}, "geometry": {"type": "LineString", "coordinates": [[-73.7959065580053, 40.881099436671875], [-73.7955113100279, 40.88096346657216]]}}, {"type": "Feature", "properties": {"segment_id": 1743351, "physicalid": "188729", "street_name": "SHORE RD", "borough": "bronx", "direction": "TW", "total_row_ft": 54.3, "roadbed_ft": 24.3, "median_ft": 0.0, "left_sw_ft": 15.0, "right_sw_ft": 15.0}, "geometry": {"type": "LineString", "coordinates": [[-73.7958767001423, 40.88114943446822], [-73.79548145192878, 40.88101346426743]]}}, {"type": "Feature", "properties": {"segment_id": 1743352, "physicalid": "188729", "street_name": "SHORE RD", "borough": "bronx", "direction": "TW", "total_row_ft": 55.3, "roadbed_ft": 25.3, "median_ft": 0.0, "left_sw_ft": 15.0, "right_sw_ft": 15.0}, "geometry": {"type": "LineString", "coordinates": [[-73.79584684223443, 40.88119943225633], [-73.79545159378469, 40.8810634619546]]}}, {"type": "Feature", "properties": {"segment_id": 1743353, "physicalid": "188729", "street_name": "SHORE RD", "borough": "bronx", "direction": "TW", "total_row_ft": 56.6, "roadbed_ft": 26.6, "median_ft": 0.0, "left_sw_ft": 15.0, "right_sw_ft": 15.0}, "geometry": {"type": "LineString", "coordinates": [[-73.79581698428164, 40.88124943003629], [-73.79542173559572, 40.88111345963353]]}}, {"type": "Feature", "properties": {"segment_id": 1743354, "physicalid": "188729", "street_name": "SHORE RD", "borough": "bronx", "direction": "TW", "total_row_ft": 57.9, "roadbed_ft": 27.9, "median_ft": 0.0, "left_sw_ft": 15.0, "right_sw_ft": 15.0}, "geometry": {"type": "LineString", "coordinates": [[-73.79578712628391, 40.88129942780808], [-73.79539187736185, 40.881163457304275]]}}, {"type": "Feature", "properties": {"segment_id": 1743355, "physicalid": "188729", "street_name": "SHORE RD", "borough": "bronx", "direction": "TW", "total_row_ft": 58.2, "roadbed_ft": 28.2, "median_ft": 0.0, "left_sw_ft": 15.0, "right_sw_ft": 15.0}, "geometry": {"type": "LineString", "coordinates": [[-73.7957572682413, 40.88134942557164], [-73.79536201908306, 40.8812134549669]]}}, {"type": "Feature", "properties": {"segment_id": 1743356, "physicalid": "188729", "street_name": "SHORE RD", "borough": "bronx", "direction": "TW", "total_row_ft": 58.4, "roadbed_ft": 28.4, "median_ft": 0.0, "left_sw_ft": 15.0, "right_sw_ft": 15.0}, "geometry": {"type": "LineString", "coordinates": [[-73.79572741015377, 40.881399423327075], [-73.79533216075939, 40.881263452621276]]}}, {"type": "Feature", "properties": {"segment_id": 1743357, "physicalid": "188729", "street_name": "SHORE RD", "borough": "bronx", "direction": "TW", "total_row_ft": 58.6, "roadbed_ft": 28.6, "median_ft": 0.0, "left_sw_ft": 15.0, "right_sw_ft": 15.0}, "geometry": {"type": "LineString", "coordinates": [[-73.79569755202134, 40.881449421074294], [-73.7953023023908, 40.88131345026749]]}}, {"type": "Feature", "properties": {"segment_id": 1743358, "physicalid": "188729", "street_name": "SHORE RD", "borough": "bronx", "direction": "TW", "total_row_ft": 58.8, "roadbed_ft": 28.8, "median_ft": 0.0, "left_sw_ft": 15.0, "right_sw_ft": 15.0}, "geometry": {"type": "LineString", "coordinates": [[-73.79566769384402, 40.88149941881331], [-73.79527244397727, 40.88136344790554]]}}, {"type": "Feature", "properties": {"segment_id": 1743359, "physicalid": "188729", "street_name": "SHORE RD", "borough": "bronx", "direction": "TW", "total_row_ft": 58.8, "roadbed_ft": 28.8, "median_ft": 0.0, "left_sw_ft": 15.0, "right_sw_ft": 15.0}, "geometry": {"type": "LineString", "coordinates": [[-73.79563783562176, 40.8815494165442], [-73.79524258551886, 40.881413445535365]]}}, {"type": "Feature", "properties": {"segment_id": 1743360, "physicalid": "188729", "street_name": "SHORE RD", "borough": "bronx", "direction": "TW", "total_row_ft": 58.3, "roadbed_ft": 28.3, "median_ft": 0.0, "left_sw_ft": 15.0, "right_sw_ft": 15.0}, "geometry": {"type": "LineString", "coordinates": [[-73.7956079773546, 40.88159941426689], [-73.79521272701554, 40.881463443157045]]}}, {"type": "Feature", "properties": {"segment_id": 1743361, "physicalid": "188729", "street_name": "SHORE RD", "borough": "bronx", "direction": "TW", "total_row_ft": 57.8, "roadbed_ft": 27.8, "median_ft": 0.0, "left_sw_ft": 15.0, "right_sw_ft": 15.0}, "geometry": {"type": "LineString", "coordinates": [[-73.79557811904256, 40.88164941198134], [-73.79518286846728, 40.88151344077055]]}}, {"type": "Feature", "properties": {"segment_id": 1743362, "physicalid": "188729", "street_name": "SHORE RD", "borough": "bronx", "direction": "TW", "total_row_ft": 57.3, "roadbed_ft": 27.3, "median_ft": 0.0, "left_sw_ft": 15.0, "right_sw_ft": 15.0}, "geometry": {"type": "LineString", "coordinates": [[-73.79554826068556, 40.88169940968769], [-73.79515300987417, 40.88156343837583]]}}, {"type": "Feature", "properties": {"segment_id": 1743363, "physicalid": "188729", "street_name": "SHORE RD", "borough": "bronx", "direction": "TW", "total_row_ft": 56.8, "roadbed_ft": 26.8, "median_ft": 0.0, "left_sw_ft": 15.0, "right_sw_ft": 15.0}, "geometry": {"type": "LineString", "coordinates": [[-73.79551840228372, 40.88174940738577], [-73.7951231512361, 40.88161343597299]]}}, {"type": "Feature", "properties": {"segment_id": 1743364, "physicalid": "188729", "street_name": "SHORE RD", "borough": "bronx", "direction": "TW", "total_row_ft": 56.3, "roadbed_ft": 26.3, "median_ft": 0.0, "left_sw_ft": 15.0, "right_sw_ft": 15.0}, "geometry": {"type": "LineString", "coordinates": [[-73.79548854383691, 40.88179940507575], [-73.79509329255315, 40.88166343356188]]}}, {"type": "Feature", "properties": {"segment_id": 1743365, "physicalid": "188729", "street_name": "SHORE RD", "borough": "bronx", "direction": "TW", "total_row_ft": 55.8, "roadbed_ft": 25.8, "median_ft": 0.0, "left_sw_ft": 15.0, "right_sw_ft": 15.0}, "geometry": {"type": "LineString", "coordinates": [[-73.79545868534522, 40.881849402757496], [-73.79506343382529, 40.881713431142614]]}}, {"type": "Feature", "properties": {"segment_id": 1743366, "physicalid": "188729", "street_name": "SHORE RD", "borough": "bronx", "direction": "TW", "total_row_ft": 55.3, "roadbed_ft": 25.3, "median_ft": 0.0, "left_sw_ft": 15.0, "right_sw_ft": 15.0}, "geometry": {"type": "LineString", "coordinates": [[-73.79542882680863, 40.88189940043104], [-73.79503357505249, 40.88176342871524]]}}, {"type": "Feature", "properties": {"segment_id": 1743367, "physicalid": "188729", "street_name": "SHORE RD", "borough": "bronx", "direction": "TW", "total_row_ft": 54.9, "roadbed_ft": 24.9, "median_ft": 0.0, "left_sw_ft": 15.0, "right_sw_ft": 15.0}, "geometry": {"type": "LineString", "coordinates": [[-73.7953989682271, 40.88194939809646], [-73.79500371623482, 40.881813426279585]]}}, {"type": "Feature", "properties": {"segment_id": 1743368, "physicalid": "188729", "street_name": "SHORE RD", "borough": "bronx", "direction": "TW", "total_row_ft": 54.8, "roadbed_ft": 24.8, "median_ft": 0.0, "left_sw_ft": 15.0, "right_sw_ft": 15.0}, "geometry": {"type": "LineString", "coordinates": [[-73.79536910960068, 40.88199939575367], [-73.79497385737223, 40.88186342383577]]}}, {"type": "Feature", "properties": {"segment_id": 1743369, "physicalid": "188729", "street_name": "SHORE RD", "borough": "bronx", "direction": "TW", "total_row_ft": 54.7, "roadbed_ft": 24.7, "median_ft": 0.0, "left_sw_ft": 15.0, "right_sw_ft": 15.0}, "geometry": {"type": "LineString", "coordinates": [[-73.79533925092936, 40.88204939340266], [-73.7949439984647, 40.881913421383835]]}}, {"type": "Feature", "properties": {"segment_id": 1743370, "physicalid": "188729", "street_name": "SHORE RD", "borough": "bronx", "direction": "TW", "total_row_ft": 54.6, "roadbed_ft": 24.6, "median_ft": 0.0, "left_sw_ft": 15.0, "right_sw_ft": 15.0}, "geometry": {"type": "LineString", "coordinates": [[-73.7953093922131, 40.882099391043546], [-73.79491413951231, 40.88196341892362]]}}, {"type": "Feature", "properties": {"segment_id": 1743371, "physicalid": "188729", "street_name": "SHORE RD", "borough": "bronx", "direction": "TW", "total_row_ft": 54.6, "roadbed_ft": 24.6, "median_ft": 0.0, "left_sw_ft": 15.0, "right_sw_ft": 15.0}, "geometry": {"type": "LineString", "coordinates": [[-73.79527953345197, 40.88214938867616], [-73.79488428051496, 40.88201341645531]]}}, {"type": "Feature", "properties": {"segment_id": 1743372, "physicalid": "188729", "street_name": "SHORE RD", "borough": "bronx", "direction": "TW", "total_row_ft": 54.4, "roadbed_ft": 24.4, "median_ft": 0.0, "left_sw_ft": 15.0, "right_sw_ft": 15.0}, "geometry": {"type": "LineString", "coordinates": [[-73.7952496746459, 40.88219938630066], [-73.79485442147275, 40.88206341397875]]}}, {"type": "Feature", "properties": {"segment_id": 1743373, "physicalid": "188729", "street_name": "SHORE RD", "borough": "bronx", "direction": "TW", "total_row_ft": 54.3, "roadbed_ft": 24.3, "median_ft": 0.0, "left_sw_ft": 15.0, "right_sw_ft": 15.0}, "geometry": {"type": "LineString", "coordinates": [[-73.79521981579492, 40.88224938391695], [-73.79482456238561, 40.882113411494025]]}}, {"type": "Feature", "properties": {"segment_id": 1743374, "physicalid": "188729", "street_name": "SHORE RD", "borough": "bronx", "direction": "TW", "total_row_ft": 54.1, "roadbed_ft": 24.1, "median_ft": 0.0, "left_sw_ft": 15.0, "right_sw_ft": 15.0}, "geometry": {"type": "LineString", "coordinates": [[-73.79518995689908, 40.88229938152501], [-73.79479470325354, 40.882163409001166]]}}, {"type": "Feature", "properties": {"segment_id": 1743375, "physicalid": "188729", "street_name": "SHORE RD", "borough": "bronx", "direction": "TW", "total_row_ft": 54.0, "roadbed_ft": 24.0, "median_ft": 0.0, "left_sw_ft": 15.0, "right_sw_ft": 15.0}, "geometry": {"type": "LineString", "coordinates": [[-73.79516009795826, 40.88234937912496], [-73.7947648440766, 40.882213406500036]]}}, {"type": "Feature", "properties": {"segment_id": 1743376, "physicalid": "188729", "street_name": "SHORE RD", "borough": "bronx", "direction": "TW", "total_row_ft": 53.8, "roadbed_ft": 23.8, "median_ft": 0.0, "left_sw_ft": 15.0, "right_sw_ft": 15.0}, "geometry": {"type": "LineString", "coordinates": [[-73.79513023897258, 40.88239937671671], [-73.79473498485473, 40.88226340399077]]}}, {"type": "Feature", "properties": {"segment_id": 1743377, "physicalid": "188729", "street_name": "SHORE RD", "borough": "bronx", "direction": "TW", "total_row_ft": 53.7, "roadbed_ft": 23.7, "median_ft": 0.0, "left_sw_ft": 15.0, "right_sw_ft": 15.0}, "geometry": {"type": "LineString", "coordinates": [[-73.79510037994199, 40.88244937430023], [-73.79470512558792, 40.88231340147335]]}}, {"type": "Feature", "properties": {"segment_id": 1743378, "physicalid": "188729", "street_name": "SHORE RD", "borough": "bronx", "direction": "TW", "total_row_ft": 53.7, "roadbed_ft": 23.7, "median_ft": 0.0, "left_sw_ft": 15.0, "right_sw_ft": 15.0}, "geometry": {"type": "LineString", "coordinates": [[-73.79507052086643, 40.88249937187563], [-73.79467526627626, 40.882363398947675]]}}, {"type": "Feature", "properties": {"segment_id": 1743379, "physicalid": "188729", "street_name": "SHORE RD", "borough": "bronx", "direction": "TW", "total_row_ft": 53.7, "roadbed_ft": 23.7, "median_ft": 0.0, "left_sw_ft": 15.0, "right_sw_ft": 15.0}, "geometry": {"type": "LineString", "coordinates": [[-73.79504066174604, 40.88254936944279], [-73.79464540691963, 40.88241339641389]]}}, {"type": "Feature", "properties": {"segment_id": 1743380, "physicalid": "188729", "street_name": "SHORE RD", "borough": "bronx", "direction": "TW", "total_row_ft": 53.4, "roadbed_ft": 23.4, "median_ft": 0.0, "left_sw_ft": 15.0, "right_sw_ft": 15.0}, "geometry": {"type": "LineString", "coordinates": [[-73.7950108025807, 40.882599367001795], [-73.79461554751812, 40.88246339387188]]}}, {"type": "Feature", "properties": {"segment_id": 1743381, "physicalid": "188729", "street_name": "SHORE RD", "borough": "bronx", "direction": "TW", "total_row_ft": 53.4, "roadbed_ft": 23.4, "median_ft": 0.0, "left_sw_ft": 15.0, "right_sw_ft": 15.0}, "geometry": {"type": "LineString", "coordinates": [[-73.79498094337043, 40.882649364552634], [-73.79458568807172, 40.882513391321666]]}}, {"type": "Feature", "properties": {"segment_id": 1743382, "physicalid": "188729", "street_name": "SHORE RD", "borough": "bronx", "direction": "TW", "total_row_ft": 53.5, "roadbed_ft": 23.5, "median_ft": 0.0, "left_sw_ft": 15.0, "right_sw_ft": 15.0}, "geometry": {"type": "LineString", "coordinates": [[-73.79495108411528, 40.882699362095224], [-73.79455582858037, 40.882563388763295]]}}, {"type": "Feature", "properties": {"segment_id": 1743383, "physicalid": "188729", "street_name": "SHORE RD", "borough": "bronx", "direction": "TW", "total_row_ft": 53.5, "roadbed_ft": 23.5, "median_ft": 0.0, "left_sw_ft": 15.0, "right_sw_ft": 15.0}, "geometry": {"type": "LineString", "coordinates": [[-73.79492122481521, 40.8827493596297], [-73.79452596904414, 40.88261338619672]]}}, {"type": "Feature", "properties": {"segment_id": 1743384, "physicalid": "188729", "street_name": "SHORE RD", "borough": "bronx", "direction": "TW", "total_row_ft": 53.6, "roadbed_ft": 23.6, "median_ft": 0.0, "left_sw_ft": 15.0, "right_sw_ft": 15.0}, "geometry": {"type": "LineString", "coordinates": [[-73.79489136547022, 40.882799357155946], [-73.79449610946298, 40.88266338362198]]}}, {"type": "Feature", "properties": {"segment_id": 1743385, "physicalid": "188729", "street_name": "SHORE RD", "borough": "bronx", "direction": "TW", "total_row_ft": 53.6, "roadbed_ft": 23.6, "median_ft": 0.0, "left_sw_ft": 15.0, "right_sw_ft": 15.0}, "geometry": {"type": "LineString", "coordinates": [[-73.79486150608035, 40.882849354674], [-73.7944662498369, 40.882713381039096]]}}, {"type": "Feature", "properties": {"segment_id": 1743386, "physicalid": "188729", "street_name": "SHORE RD", "borough": "bronx", "direction": "TW", "total_row_ft": 53.6, "roadbed_ft": 23.6, "median_ft": 0.0, "left_sw_ft": 15.0, "right_sw_ft": 15.0}, "geometry": {"type": "LineString", "coordinates": [[-73.79483164664553, 40.88289935218394], [-73.79443639016594, 40.88276337844792]]}}, {"type": "Feature", "properties": {"segment_id": 1743387, "physicalid": "188729", "street_name": "SHORE RD", "borough": "bronx", "direction": "TW", "total_row_ft": 53.5, "roadbed_ft": 23.5, "median_ft": 0.0, "left_sw_ft": 15.0, "right_sw_ft": 15.0}, "geometry": {"type": "LineString", "coordinates": [[-73.79480178716582, 40.88294934968566], [-73.79440653045006, 40.882813375848635]]}}, {"type": "Feature", "properties": {"segment_id": 1743388, "physicalid": "188729", "street_name": "SHORE RD", "borough": "bronx", "direction": "TW", "total_row_ft": 53.3, "roadbed_ft": 23.3, "median_ft": 0.0, "left_sw_ft": 15.0, "right_sw_ft": 15.0}, "geometry": {"type": "LineString", "coordinates": [[-73.79477192764122, 40.88299934717914], [-73.79437667068925, 40.88286337324117]]}}, {"type": "Feature", "properties": {"segment_id": 1743389, "physicalid": "188729", "street_name": "SHORE RD", "borough": "bronx", "direction": "TW", "total_row_ft": 53.0, "roadbed_ft": 23.0, "median_ft": 0.0, "left_sw_ft": 15.0, "right_sw_ft": 15.0}, "geometry": {"type": "LineString", "coordinates": [[-73.79474206807168, 40.88304934466452], [-73.79434681088355, 40.88291337062548]]}}, {"type": "Feature", "properties": {"segment_id": 1743390, "physicalid": "188729", "street_name": "SHORE RD", "borough": "bronx", "direction": "TW", "total_row_ft": 52.6, "roadbed_ft": 22.6, "median_ft": 0.0, "left_sw_ft": 15.0, "right_sw_ft": 15.0}, "geometry": {"type": "LineString", "coordinates": [[-73.79471220845726, 40.883099342141634], [-73.79431695103291, 40.882963368001654]]}}, {"type": "Feature", "properties": {"segment_id": 1743391, "physicalid": "188729", "street_name": "SHORE RD", "borough": "bronx", "direction": "TW", "total_row_ft": 52.3, "roadbed_ft": 22.3, "median_ft": 0.0, "left_sw_ft": 15.0, "right_sw_ft": 15.0}, "geometry": {"type": "LineString", "coordinates": [[-73.79467580815361, 40.88315758695813], [-73.79429164877567, 40.88300438229248]]}}, {"type": "Feature", "properties": {"segment_id": 1743392, "physicalid": "188729", "street_name": "SHORE RD", "borough": "bronx", "direction": "TW", "total_row_ft": 52.4, "roadbed_ft": 22.4, "median_ft": 0.0, "left_sw_ft": 15.0, "right_sw_ft": 15.0}, "geometry": {"type": "LineString", "coordinates": [[-73.79464216464787, 40.88320618056543], [-73.79425800506668, 40.883052975789205]]}}, {"type": "Feature", "properties": {"segment_id": 1743393, "physicalid": "188729", "street_name": "SHORE RD", "borough": "bronx", "direction": "TW", "total_row_ft": 52.9, "roadbed_ft": 22.9, "median_ft": 0.0, "left_sw_ft": 15.0, "right_sw_ft": 15.0}, "geometry": {"type": "LineString", "coordinates": [[-73.79460852109297, 40.88325477416253], [-73.79422436130851, 40.88310156927568]]}}, {"type": "Feature", "properties": {"segment_id": 1743394, "physicalid": "188729", "street_name": "SHORE RD", "borough": "bronx", "direction": "TW", "total_row_ft": 53.3, "roadbed_ft": 23.3, "median_ft": 0.0, "left_sw_ft": 15.0, "right_sw_ft": 15.0}, "geometry": {"type": "LineString", "coordinates": [[-73.79457487748886, 40.883303367749384], [-73.79419071750115, 40.88315016275193]]}}, {"type": "Feature", "properties": {"segment_id": 1743395, "physicalid": "188729", "street_name": "SHORE RD", "borough": "bronx", "direction": "TW", "total_row_ft": 53.7, "roadbed_ft": 23.7, "median_ft": 0.0, "left_sw_ft": 15.0, "right_sw_ft": 15.0}, "geometry": {"type": "LineString", "coordinates": [[-73.79454123383557, 40.883351961326], [-73.7941570736446, 40.883198756217915]]}}, {"type": "Feature", "properties": {"segment_id": 1743396, "physicalid": "188729", "street_name": "SHORE RD", "borough": "bronx", "direction": "TW", "total_row_ft": 53.7, "roadbed_ft": 23.7, "median_ft": 0.0, "left_sw_ft": 15.0, "right_sw_ft": 15.0}, "geometry": {"type": "LineString", "coordinates": [[-73.79450759013312, 40.88340055489234], [-73.79412342973887, 40.883247349673674]]}}, {"type": "Feature", "properties": {"segment_id": 1743397, "physicalid": "188729", "street_name": "SHORE RD", "borough": "bronx", "direction": "TW", "total_row_ft": 60.4, "roadbed_ft": 30.4, "median_ft": 0.0, "left_sw_ft": 15.0, "right_sw_ft": 15.0}, "geometry": {"type": "LineString", "coordinates": [[-73.79447394638147, 40.883449148448456], [-73.79408978578397, 40.88329594311918]]}}, {"type": "Feature", "properties": {"segment_id": 1743398, "physicalid": "188729", "street_name": "SHORE RD", "borough": "bronx", "direction": "TW", "total_row_ft": 54.0, "roadbed_ft": 24.0, "median_ft": 0.0, "left_sw_ft": 15.0, "right_sw_ft": 15.0}, "geometry": {"type": "LineString", "coordinates": [[-73.79444030258065, 40.88349774199431], [-73.79405614177986, 40.88334453655448]]}}, {"type": "Feature", "properties": {"segment_id": 1743399, "physicalid": "188729", "street_name": "SHORE RD", "borough": "bronx", "direction": "TW", "total_row_ft": 54.4, "roadbed_ft": 24.4, "median_ft": 0.0, "left_sw_ft": 15.0, "right_sw_ft": 15.0}, "geometry": {"type": "LineString", "coordinates": [[-73.79440665873065, 40.88354633552996], [-73.7940224977266, 40.88339312997952]]}}, {"type": "Feature", "properties": {"segment_id": 1743400, "physicalid": "188729", "street_name": "SHORE RD", "borough": "bronx", "direction": "TW", "total_row_ft": 54.8, "roadbed_ft": 24.8, "median_ft": 0.0, "left_sw_ft": 15.0, "right_sw_ft": 15.0}, "geometry": {"type": "LineString", "coordinates": [[-73.79437301483145, 40.88359492905537], [-73.79398885362414, 40.8834417233943]]}}, {"type": "Feature", "properties": {"segment_id": 1743401, "physicalid": "188729", "street_name": "SHORE RD", "borough": "bronx", "direction": "TW", "total_row_ft": 55.2, "roadbed_ft": 25.2, "median_ft": 0.0, "left_sw_ft": 15.0, "right_sw_ft": 15.0}, "geometry": {"type": "LineString", "coordinates": [[-73.7943393708831, 40.8836435225705], [-73.7939552094725, 40.883490316798834]]}}, {"type": "Feature", "properties": {"segment_id": 1743402, "physicalid": "188729", "street_name": "SHORE RD", "borough": "bronx", "direction": "TW", "total_row_ft": 47.0, "roadbed_ft": 25.4, "median_ft": 0.0, "left_sw_ft": 6.6, "right_sw_ft": 15.0}, "geometry": {"type": "LineString", "coordinates": [[-73.79417166304671, 40.88363865086401], [-73.7939215652717, 40.8835389101931]]}}]}