{"type": "FeatureCollection", "features": [{"type": "Feature", "properties": {"segment_id": 1743428, "physicalid": "188747", "street_name": "SHORE RD", "borough": "bronx", "direction": "TW", "total_row_ft": 50.1, "roadbed_ft": 26.9, "median_ft": 0.0, "left_sw_ft": 8.2, "right_sw_ft": 15.0}, "geometry": {"type": "LineString", "coordinates": [[-73.81013483477189, 40.87158929098104], [-73.80980291105078, 40.87145339914189]]}}, {"type": "Feature", "properties": {"segment_id": 1743429, "physicalid": "188747", "street_name": "SHORE RD", "borough": "bronx", "direction": "TW", "total_row_ft": 49.4, "roadbed_ft": 26.1, "median_ft": 0.0, "left_sw_ft": 8.2, "right_sw_ft": 15.0}, "geometry": {"type": "LineString", "coordinates": [[-73.81010002216352, 40.87163740730271], [-73.80976858318155, 40.87150171389047]]}}, {"type": "Feature", "properties": {"segment_id": 1743430, "physicalid": "188747", "street_name": "SHORE RD", "borough": "bronx", "direction": "TW", "total_row_ft": 48.7, "roadbed_ft": 25.5, "median_ft": 0.0, "left_sw_ft": 8.2, "right_sw_ft": 15.0}, "geometry": {"type": "LineString", "coordinates": [[-73.8100652098183, 40.871685523741824], [-73.80973425526243, 40.87155002862843]]}}, {"type": "Feature", "properties": {"segment_id": 1743431, "physicalid": "188747", "street_name": "SHORE RD", "borough": "bronx", "direction": "TW", "total_row_ft": 48.1, "roadbed_ft": 24.9, "median_ft": 0.0, "left_sw_ft": 8.2, "right_sw_ft": 15.0}, "geometry": {"type": "LineString", "coordinates": [[-73.81003039742274, 40.87173364017], [-73.80969992729342, 40.87159834335574]]}}, {"type": "Feature", "properties": {"segment_id": 1743432, "physicalid": "188747", "street_name": "SHORE RD", "borough": "bronx", "direction": "TW", "total_row_ft": 47.6, "roadbed_ft": 24.4, "median_ft": 0.0, "left_sw_ft": 8.2, "right_sw_ft": 15.0}, "geometry": {"type": "LineString", "coordinates": [[-73.80999584616004, 40.87178186351701], [-73.80966559927454, 40.87164665807241]]}}, {"type": "Feature", "properties": {"segment_id": 1743433, "physicalid": "188747", "street_name": "SHORE RD", "borough": "bronx", "direction": "TW", "total_row_ft": 47.6, "roadbed_ft": 24.4, "median_ft": 0.0, "left_sw_ft": 8.2, "right_sw_ft": 15.0}, "geometry": {"type": "LineString", "coordinates": [[-73.80996147429485, 40.87183016031997], [-73.80963127120576, 40.871694972778464]]}}, {"type": "Feature", "properties": {"segment_id": 1743434, "physicalid": "188747", "street_name": "SHORE RD", "borough": "bronx", "direction": "TW", "total_row_ft": 47.9, "roadbed_ft": 24.8, "median_ft": 0.0, "left_sw_ft": 8.2, "right_sw_ft": 15.0}, "geometry": {"type": "LineString", "coordinates": [[-73.80992710237972, 40.87187845711229], [-73.80959694308712, 40.87174328747388]]}}, {"type": "Feature", "properties": {"segment_id": 1743435, "physicalid": "188747", "street_name": "SHORE RD", "borough": "bronx", "direction": "TW", "total_row_ft": 48.3, "roadbed_ft": 25.1, "median_ft": 0.0, "left_sw_ft": 8.2, "right_sw_ft": 15.0}, "geometry": {"type": "LineString", "coordinates": [[-73.80989273041466, 40.871926753893945], [-73.80956261491858, 40.87179160215866]]}}, {"type": "Feature", "properties": {"segment_id": 1743436, "physicalid": "188747", "street_name": "SHORE RD", "borough": "bronx", "direction": "TW", "total_row_ft": 48.7, "roadbed_ft": 25.5, "median_ft": 0.0, "left_sw_ft": 8.2, "right_sw_ft": 15.0}, "geometry": {"type": "LineString", "coordinates": [[-73.80985835839968, 40.871975050664936], [-73.80952828670014, 40.87183991683281]]}}, {"type": "Feature", "properties": {"segment_id": 1743437, "physicalid": "188747", "street_name": "SHORE RD", "borough": "bronx", "direction": "TW", "total_row_ft": 49.1, "roadbed_ft": 25.9, "median_ft": 0.0, "left_sw_ft": 8.2, "right_sw_ft": 15.0}, "geometry": {"type": "LineString", "coordinates": [[-73.80982398633476, 40.87202334742527], [-73.80949395843183, 40.871888231496314]]}}, {"type": "Feature", "properties": {"segment_id": 1743438, "physicalid": "188747", "street_name": "SHORE RD", "borough": "bronx", "direction": "TW", "total_row_ft": 49.5, "roadbed_ft": 26.3, "median_ft": 0.0, "left_sw_ft": 8.2, "right_sw_ft": 15.0}, "geometry": {"type": "LineString", "coordinates": [[-73.80978961421991, 40.87207164417494], [-73.80945963011364, 40.87193654614919]]}}, {"type": "Feature", "properties": {"segment_id": 1743439, "physicalid": "188747", "street_name": "SHORE RD", "borough": "bronx", "direction": "TW", "total_row_ft": 49.8, "roadbed_ft": 26.6, "median_ft": 0.0, "left_sw_ft": 8.2, "right_sw_ft": 15.0}, "geometry": {"type": "LineString", "coordinates": [[-73.80975524205513, 40.87211994091397], [-73.80942530174555, 40.87198486079146]]}}, {"type": "Feature", "properties": {"segment_id": 1743440, "physicalid": "188747", "street_name": "SHORE RD", "borough": "bronx", "direction": "TW", "total_row_ft": 50.2, "roadbed_ft": 27.0, "median_ft": 0.0, "left_sw_ft": 8.2, "right_sw_ft": 15.0}, "geometry": {"type": "LineString", "coordinates": [[-73.80972086984042, 40.87216823764231], [-73.80939097332758, 40.87203317542307]]}}, {"type": "Feature", "properties": {"segment_id": 1743441, "physicalid": "188747", "street_name": "SHORE RD", "borough": "bronx", "direction": "TW", "total_row_ft": 50.5, "roadbed_ft": 27.3, "median_ft": 0.0, "left_sw_ft": 8.2, "right_sw_ft": 15.0}, "geometry": {"type": "LineString", "coordinates": [[-73.8096864975758, 40.872216534360014], [-73.80935664485972, 40.872081490044046]]}}, {"type": "Feature", "properties": {"segment_id": 1743442, "physicalid": "188747", "street_name": "SHORE RD", "borough": "bronx", "direction": "TW", "total_row_ft": 50.7, "roadbed_ft": 27.5, "median_ft": 0.0, "left_sw_ft": 8.2, "right_sw_ft": 15.0}, "geometry": {"type": "LineString", "coordinates": [[-73.80965212526121, 40.872264831067056], [-73.80932231634196, 40.872129804654385]]}}, {"type": "Feature", "properties": {"segment_id": 1743443, "physicalid": "188747", "street_name": "SHORE RD", "borough": "bronx", "direction": "TW", "total_row_ft": 50.8, "roadbed_ft": 27.6, "median_ft": 0.0, "left_sw_ft": 8.2, "right_sw_ft": 15.0}, "geometry": {"type": "LineString", "coordinates": [[-73.80961775289671, 40.87231312776344], [-73.80928798777434, 40.872178119254094]]}}, {"type": "Feature", "properties": {"segment_id": 1743444, "physicalid": "188747", "street_name": "SHORE RD", "borough": "bronx", "direction": "TW", "total_row_ft": 50.8, "roadbed_ft": 27.6, "median_ft": 0.0, "left_sw_ft": 8.2, "right_sw_ft": 15.0}, "geometry": {"type": "LineString", "coordinates": [[-73.80958338048228, 40.872361424449124], [-73.80925365915681, 40.87222643384322]]}}, {"type": "Feature", "properties": {"segment_id": 1743445, "physicalid": "188747", "street_name": "SHORE RD", "borough": "bronx", "direction": "TW", "total_row_ft": 50.9, "roadbed_ft": 27.7, "median_ft": 0.0, "left_sw_ft": 8.2, "right_sw_ft": 15.0}, "geometry": {"type": "LineString", "coordinates": [[-73.80954872579399, 40.87240960558002], [-73.8092193304894, 40.87227474842165]]}}, {"type": "Feature", "properties": {"segment_id": 1743446, "physicalid": "188747", "street_name": "SHORE RD", "borough": "bronx", "direction": "TW", "total_row_ft": 51.0, "roadbed_ft": 27.8, "median_ft": 0.0, "left_sw_ft": 8.2, "right_sw_ft": 15.0}, "geometry": {"type": "LineString", "coordinates": [[-73.80951406541386, 40.87245778439038], [-73.80918500177211, 40.87232306298947]]}}, {"type": "Feature", "properties": {"segment_id": 1743447, "physicalid": "188747", "street_name": "SHORE RD", "borough": "bronx", "direction": "TW", "total_row_ft": 51.1, "roadbed_ft": 27.9, "median_ft": 0.0, "left_sw_ft": 8.2, "right_sw_ft": 15.0}, "geometry": {"type": "LineString", "coordinates": [[-73.80947940498352, 40.87250596318994], [-73.80915067300495, 40.87237137754663]]}}, {"type": "Feature", "properties": {"segment_id": 1743448, "physicalid": "188747", "street_name": "SHORE RD", "borough": "bronx", "direction": "TW", "total_row_ft": 51.3, "roadbed_ft": 28.1, "median_ft": 0.0, "left_sw_ft": 8.2, "right_sw_ft": 15.0}, "geometry": {"type": "LineString", "coordinates": [[-73.80944474450294, 40.87255414197865], [-73.80911634418788, 40.87241969209317]]}}, {"type": "Feature", "properties": {"segment_id": 1743449, "physicalid": "188747", "street_name": "SHORE RD", "borough": "bronx", "direction": "TW", "total_row_ft": 51.5, "roadbed_ft": 28.3, "median_ft": 0.0, "left_sw_ft": 8.2, "right_sw_ft": 15.0}, "geometry": {"type": "LineString", "coordinates": [[-73.80941008397217, 40.87260232075651], [-73.80908201532094, 40.87246800662908]]}}, {"type": "Feature", "properties": {"segment_id": 1743450, "physicalid": "188747", "street_name": "SHORE RD", "borough": "bronx", "direction": "TW", "total_row_ft": 51.4, "roadbed_ft": 28.2, "median_ft": 0.0, "left_sw_ft": 8.2, "right_sw_ft": 15.0}, "geometry": {"type": "LineString", "coordinates": [[-73.80937542339113, 40.87265049952355], [-73.8090476864041, 40.87251632115436]]}}, {"type": "Feature", "properties": {"segment_id": 1743451, "physicalid": "188747", "street_name": "SHORE RD", "borough": "bronx", "direction": "TW", "total_row_ft": 51.2, "roadbed_ft": 28.0, "median_ft": 0.0, "left_sw_ft": 8.2, "right_sw_ft": 15.0}, "geometry": {"type": "LineString", "coordinates": [[-73.80934068352114, 40.87269864583893], [-73.80901335743737, 40.872564635668994]]}}, {"type": "Feature", "properties": {"segment_id": 1743452, "physicalid": "188747", "street_name": "SHORE RD", "borough": "bronx", "direction": "TW", "total_row_ft": 50.9, "roadbed_ft": 27.7, "median_ft": 0.0, "left_sw_ft": 8.2, "right_sw_ft": 15.0}, "geometry": {"type": "LineString", "coordinates": [[-73.80930526950279, 40.87274651616319], [-73.80897902842077, 40.87261295017299]]}}, {"type": "Feature", "properties": {"segment_id": 1743453, "physicalid": "188747", "street_name": "SHORE RD", "borough": "bronx", "direction": "TW", "total_row_ft": 50.6, "roadbed_ft": 27.4, "median_ft": 0.0, "left_sw_ft": 8.2, "right_sw_ft": 15.0}, "geometry": {"type": "LineString", "coordinates": [[-73.80926881248772, 40.872793959487176], [-73.80894469935426, 40.87266126466638]]}}, {"type": "Feature", "properties": {"segment_id": 1743454, "physicalid": "188747", "street_name": "SHORE RD", "borough": "bronx", "direction": "TW", "total_row_ft": 50.2, "roadbed_ft": 27.0, "median_ft": 0.0, "left_sw_ft": 8.2, "right_sw_ft": 15.0}, "geometry": {"type": "LineString", "coordinates": [[-73.80923131259289, 40.87284097585844], [-73.80891037023787, 40.87270957914911]]}}, {"type": "Feature", "properties": {"segment_id": 1743455, "physicalid": "188747", "street_name": "SHORE RD", "borough": "bronx", "direction": "TW", "total_row_ft": 50.8, "roadbed_ft": 27.5, "median_ft": 0.0, "left_sw_ft": 8.3, "right_sw_ft": 15.0}, "geometry": {"type": "LineString", "coordinates": [[-73.80917341926445, 40.87291059448654], [-73.8089006615745, 40.87272194705687]]}}, {"type": "Feature", "properties": {"segment_id": 1743456, "physicalid": "188747", "street_name": "SHORE RD", "borough": "bronx", "direction": "TW", "total_row_ft": 50.7, "roadbed_ft": 27.5, "median_ft": 0.0, "left_sw_ft": 8.2, "right_sw_ft": 15.0}, "geometry": {"type": "LineString", "coordinates": [[-73.8091311519264, 40.87295562395951], [-73.80885195609864, 40.87276252364422]]}}, {"type": "Feature", "properties": {"segment_id": 1743457, "physicalid": "188747", "street_name": "SHORE RD", "borough": "bronx", "direction": "TW", "total_row_ft": 50.5, "roadbed_ft": 27.3, "median_ft": 0.0, "left_sw_ft": 8.2, "right_sw_ft": 15.0}, "geometry": {"type": "LineString", "coordinates": [[-73.80907521125394, 40.8730004189037], [-73.80881117803092, 40.87279603943463]]}}, {"type": "Feature", "properties": {"segment_id": 1743458, "physicalid": "188747", "street_name": "SHORE RD", "borough": "bronx", "direction": "TW", "total_row_ft": 50.3, "roadbed_ft": 27.1, "median_ft": 0.0, "left_sw_ft": 8.2, "right_sw_ft": 15.0}, "geometry": {"type": "LineString", "coordinates": [[-73.80902248564429, 40.87303800773505], [-73.80875954494434, 40.87283447382755]]}}, {"type": "Feature", "properties": {"segment_id": 1743459, "physicalid": "188747", "street_name": "SHORE RD", "borough": "bronx", "direction": "TW", "total_row_ft": 49.7, "roadbed_ft": 26.5, "median_ft": 0.0, "left_sw_ft": 8.2, "right_sw_ft": 15.0}, "geometry": {"type": "LineString", "coordinates": [[-73.8089676777392, 40.873073984756786], [-73.80870791179807, 40.87287290819708]]}}, {"type": "Feature", "properties": {"segment_id": 1743460, "physicalid": "188747", "street_name": "SHORE RD", "borough": "bronx", "direction": "TW", "total_row_ft": 49.5, "roadbed_ft": 26.3, "median_ft": 0.0, "left_sw_ft": 8.2, "right_sw_ft": 15.0}, "geometry": {"type": "LineString", "coordinates": [[-73.80890595430495, 40.87311377642072], [-73.80866258961589, 40.87290288954468]]}}, {"type": "Feature", "properties": {"segment_id": 1743461, "physicalid": "188747", "street_name": "SHORE RD", "borough": "bronx", "direction": "TW", "total_row_ft": 50.1, "roadbed_ft": 26.9, "median_ft": 0.0, "left_sw_ft": 8.2, "right_sw_ft": 15.0}, "geometry": {"type": "LineString", "coordinates": [[-73.80884926695222, 40.87314796297353], [-73.80860819210356, 40.87293906019586]]}}, {"type": "Feature", "properties": {"segment_id": 1743462, "physicalid": "188747", "street_name": "SHORE RD", "borough": "bronx", "direction": "TW", "total_row_ft": 50.3, "roadbed_ft": 27.1, "median_ft": 0.0, "left_sw_ft": 8.2, "right_sw_ft": 15.0}, "geometry": {"type": "LineString", "coordinates": [[-73.80878448608195, 40.87318446643957], [-73.80856131933984, 40.872967608877886]]}}, {"type": "Feature", "properties": {"segment_id": 1743463, "physicalid": "188747", "street_name": "SHORE RD", "borough": "bronx", "direction": "TW", "total_row_ft": 51.4, "roadbed_ft": 28.2, "median_ft": 0.0, "left_sw_ft": 8.2, "right_sw_ft": 15.0}, "geometry": {"type": "LineString", "coordinates": [[-73.80872497431952, 40.8732158086212], [-73.80850432944804, 40.87300140144635]]}}, {"type": "Feature", "properties": {"segment_id": 1743464, "physicalid": "188747", "street_name": "SHORE RD", "borough": "bronx", "direction": "TW", "total_row_ft": 53.1, "roadbed_ft": 29.9, "median_ft": 0.0, "left_sw_ft": 8.2, "right_sw_ft": 15.0}, "geometry": {"type": "LineString", "coordinates": [[-73.80865756835107, 40.87324887203178], [-73.80845597308179, 40.873028478211644]]}}, {"type": "Feature", "properties": {"segment_id": 1743465, "physicalid": "188747", "street_name": "SHORE RD", "borough": "bronx", "direction": "TW", "total_row_ft": 47.7, "roadbed_ft": 29.3, "median_ft": 0.0, "left_sw_ft": 3.5, "right_sw_ft": 15.0}, "geometry": {"type": "LineString", "coordinates": [[-73.80859557784724, 40.87327735011057], [-73.80839657099503, 40.87305978585191]]}}, {"type": "Feature", "properties": {"segment_id": 1743466, "physicalid": "188747", "street_name": "SHORE RD", "borough": "bronx", "direction": "TW", "total_row_ft": 58.8, "roadbed_ft": 28.8, "median_ft": 0.0, "left_sw_ft": 15.0, "right_sw_ft": 15.0}, "geometry": {"type": "LineString", "coordinates": [[-73.80857384258965, 40.8733660268755], [-73.80834679920153, 40.873085352470646]]}}, {"type": "Feature", "properties": {"segment_id": 1743467, "physicalid": "188747", "street_name": "SHORE RD", "borough": "bronx", "direction": "TW", "total_row_ft": 48.8, "roadbed_ft": 28.7, "median_ft": 0.0, "left_sw_ft": 5.2, "right_sw_ft": 15.0}, "geometry": {"type": "LineString", "coordinates": [[-73.80851221592536, 40.87339475067733], [-73.80828517269929, 40.87311407615271]]}}, {"type": "Feature", "properties": {"segment_id": 1743468, "physicalid": "188747", "street_name": "SHORE RD", "borough": "bronx", "direction": "TW", "total_row_ft": 53.7, "roadbed_ft": 29.0, "median_ft": 0.0, "left_sw_ft": 9.7, "right_sw_ft": 15.0}, "geometry": {"type": "LineString", "coordinates": [[-73.80838623812271, 40.87335237708748], [-73.80823405425666, 40.87313809569283]]}}, {"type": "Feature", "properties": {"segment_id": 1743469, "physicalid": "188747", "street_name": "SHORE RD", "borough": "bronx", "direction": "TW", "total_row_ft": 53.4, "roadbed_ft": 28.7, "median_ft": 0.0, "left_sw_ft": 9.7, "right_sw_ft": 15.0}, "geometry": {"type": "LineString", "coordinates": [[-73.80832342890142, 40.87337961866574], [-73.8081703982223, 40.87316414463705]]}}, {"type": "Feature", "properties": {"segment_id": 1743470, "physicalid": "188747", "street_name": "SHORE RD", "borough": "bronx", "direction": "TW", "total_row_ft": 53.4, "roadbed_ft": 28.6, "median_ft": 0.0, "left_sw_ft": 9.8, "right_sw_ft": 15.0}, "geometry": {"type": "LineString", "coordinates": [[-73.80826330512912, 40.87341064150478], [-73.80810674213804, 40.873190193546044]]}}, {"type": "Feature", "properties": {"segment_id": 1743471, "physicalid": "188747", "street_name": "SHORE RD", "borough": "bronx", "direction": "TW", "total_row_ft": 53.8, "roadbed_ft": 29.0, "median_ft": 0.0, "left_sw_ft": 9.8, "right_sw_ft": 15.0}, "geometry": {"type": "LineString", "coordinates": [[-73.8081980577275, 40.873445636802124], [-73.80805251928699, 40.87320987288147]]}}, {"type": "Feature", "properties": {"segment_id": 1743472, "physicalid": "188747", "street_name": "SHORE RD", "borough": "bronx", "direction": "TW", "total_row_ft": 54.0, "roadbed_ft": 29.3, "median_ft": 0.0, "left_sw_ft": 9.7, "right_sw_ft": 15.0}, "geometry": {"type": "LineString", "coordinates": [[-73.80813669892481, 40.873475612112514], [-73.80798703494, 40.873233164688294]]}}, {"type": "Feature", "properties": {"segment_id": 1743473, "physicalid": "188747", "street_name": "SHORE RD", "borough": "bronx", "direction": "TW", "total_row_ft": 54.5, "roadbed_ft": 29.8, "median_ft": 0.0, "left_sw_ft": 9.7, "right_sw_ft": 15.0}, "geometry": {"type": "LineString", "coordinates": [[-73.80806689443497, 40.8735064142103], [-73.80793181443809, 40.8732511522778]]}}, {"type": "Feature", "properties": {"segment_id": 1743474, "physicalid": "188747", "street_name": "SHORE RD", "borough": "bronx", "direction": "TW", "total_row_ft": 54.3, "roadbed_ft": 29.6, "median_ft": 0.0, "left_sw_ft": 9.7, "right_sw_ft": 15.0}, "geometry": {"type": "LineString", "coordinates": [[-73.80800254831873, 40.87353209029411], [-73.8078647088761, 40.87327161333761]]}}, {"type": "Feature", "properties": {"segment_id": 1743475, "physicalid": "188747", "street_name": "SHORE RD", "borough": "bronx", "direction": "TW", "total_row_ft": 54.1, "roadbed_ft": 29.4, "median_ft": 0.0, "left_sw_ft": 9.7, "right_sw_ft": 15.0}, "geometry": {"type": "LineString", "coordinates": [[-73.80792918433956, 40.87355895799997], [-73.80780856864163, 40.873287884209816]]}}, {"type": "Feature", "properties": {"segment_id": 1743476, "physicalid": "188747", "street_name": "SHORE RD", "borough": "bronx", "direction": "TW", "total_row_ft": 53.7, "roadbed_ft": 29.0, "median_ft": 0.0, "left_sw_ft": 9.7, "right_sw_ft": 15.0}, "geometry": {"type": "LineString", "coordinates": [[-73.80786258347729, 40.87358082520811], [-73.8077400540394, 40.87330544982803]]}}, {"type": "Feature", "properties": {"segment_id": 1743477, "physicalid": "188747", "street_name": "SHORE RD", "borough": "bronx", "direction": "TW", "total_row_ft": 53.8, "roadbed_ft": 29.0, "median_ft": 0.0, "left_sw_ft": 9.7, "right_sw_ft": 15.0}, "geometry": {"type": "LineString", "coordinates": [[-73.80777801207363, 40.87360528345923], [-73.80769350931054, 40.87331769717076]]}}, {"type": "Feature", "properties": {"segment_id": 1743478, "physicalid": "188747", "street_name": "SHORE RD", "borough": "bronx", "direction": "TW", "total_row_ft": 53.6, "roadbed_ft": 28.9, "median_ft": 0.0, "left_sw_ft": 9.7, "right_sw_ft": 15.0}, "geometry": {"type": "LineString", "coordinates": [[-73.8077090140384, 40.873622627536], [-73.8076229265854, 40.87332964707583]]}}, {"type": "Feature", "properties": {"segment_id": 1743479, "physicalid": "188747", "street_name": "SHORE RD", "borough": "bronx", "direction": "TW", "total_row_ft": 53.8, "roadbed_ft": 29.1, "median_ft": 0.0, "left_sw_ft": 9.7, "right_sw_ft": 15.0}, "geometry": {"type": "LineString", "coordinates": [[-73.80763939577321, 40.87363786087447], [-73.80755234383487, 40.87334159693772]]}}, {"type": "Feature", "properties": {"segment_id": 1743480, "physicalid": "188747", "street_name": "SHORE RD", "borough": "bronx", "direction": "TW", "total_row_ft": 53.3, "roadbed_ft": 29.3, "median_ft": 0.0, "left_sw_ft": 9.0, "right_sw_ft": 15.0}, "geometry": {"type": "LineString", "coordinates": [[-73.80756916196692, 40.873650999410145], [-73.80748176105901, 40.8733535467564]]}}, {"type": "Feature", "properties": {"segment_id": 1743481, "physicalid": "188747", "street_name": "SHORE RD", "borough": "bronx", "direction": "TW", "total_row_ft": 52.8, "roadbed_ft": 29.5, "median_ft": 0.0, "left_sw_ft": 8.3, "right_sw_ft": 15.0}, "geometry": {"type": "LineString", "coordinates": [[-73.80750418193489, 40.873663312234825], [-73.80740527960566, 40.87336721141766]]}}, {"type": "Feature", "properties": {"segment_id": 1743482, "physicalid": "188747", "street_name": "SHORE RD", "borough": "bronx", "direction": "TW", "total_row_ft": 52.8, "roadbed_ft": 29.4, "median_ft": 0.0, "left_sw_ft": 8.3, "right_sw_ft": 15.0}, "geometry": {"type": "LineString", "coordinates": [[-73.80743424962893, 40.87367730352217], [-73.80733518048672, 40.87338070235535]]}}, {"type": "Feature", "properties": {"segment_id": 1743483, "physicalid": "188747", "street_name": "SHORE RD", "borough": "bronx", "direction": "TW", "total_row_ft": 53.0, "roadbed_ft": 29.4, "median_ft": 0.0, "left_sw_ft": 8.6, "right_sw_ft": 15.0}, "geometry": {"type": "LineString", "coordinates": [[-73.80736431729352, 40.87369129476714], [-73.8072650813393, 40.8733941932504]]}}, {"type": "Feature", "properties": {"segment_id": 1743484, "physicalid": "188747", "street_name": "SHORE RD", "borough": "bronx", "direction": "TW", "total_row_ft": 53.0, "roadbed_ft": 29.4, "median_ft": 0.0, "left_sw_ft": 8.6, "right_sw_ft": 15.0}, "geometry": {"type": "LineString", "coordinates": [[-73.80729411669759, 40.87370448291653], [-73.80719498216344, 40.873407684102844]]}}, {"type": "Feature", "properties": {"segment_id": 1743485, "physicalid": "188747", "street_name": "SHORE RD", "borough": "bronx", "direction": "TW", "total_row_ft": 53.0, "roadbed_ft": 29.2, "median_ft": 0.0, "left_sw_ft": 8.8, "right_sw_ft": 15.0}, "geometry": {"type": "LineString", "coordinates": [[-73.80722910652682, 40.87371668612231], [-73.80711920892331, 40.87342346131632]]}}, {"type": "Feature", "properties": {"segment_id": 1743486, "physicalid": "188747", "street_name": "SHORE RD", "borough": "bronx", "direction": "TW", "total_row_ft": 52.9, "roadbed_ft": 29.2, "median_ft": 0.0, "left_sw_ft": 8.7, "right_sw_ft": 15.0}, "geometry": {"type": "LineString", "coordinates": [[-73.80715851650007, 40.87372895176596], [-73.80704965178474, 40.87343848205234]]}}, {"type": "Feature", "properties": {"segment_id": 1743487, "physicalid": "188747", "street_name": "SHORE RD", "borough": "bronx", "direction": "TW", "total_row_ft": 51.8, "roadbed_ft": 28.3, "median_ft": 0.0, "left_sw_ft": 8.5, "right_sw_ft": 15.0}, "geometry": {"type": "LineString", "coordinates": [[-73.80708788223525, 40.87374109940137], [-73.80698009461477, 40.873453502746415]]}}, {"type": "Feature", "properties": {"segment_id": 1743488, "physicalid": "188747", "street_name": "SHORE RD", "borough": "bronx", "direction": "TW", "total_row_ft": 51.5, "roadbed_ft": 27.8, "median_ft": 0.0, "left_sw_ft": 8.7, "right_sw_ft": 15.0}, "geometry": {"type": "LineString", "coordinates": [[-73.80701823044384, 40.87375468222823], [-73.80691002802678, 40.873468633909205]]}}, {"type": "Feature", "properties": {"segment_id": 1743489, "physicalid": "188747", "street_name": "SHORE RD", "borough": "bronx", "direction": "TW", "total_row_ft": 52.0, "roadbed_ft": 27.4, "median_ft": 0.0, "left_sw_ft": 9.6, "right_sw_ft": 15.0}, "geometry": {"type": "LineString", "coordinates": [[-73.80695301597434, 40.87376855522737], [-73.80683556917054, 40.87348639314895]]}}, {"type": "Feature", "properties": {"segment_id": 1743490, "physicalid": "188747", "street_name": "SHORE RD", "borough": "bronx", "direction": "TW", "total_row_ft": 52.3, "roadbed_ft": 27.2, "median_ft": 0.0, "left_sw_ft": 10.2, "right_sw_ft": 15.0}, "geometry": {"type": "LineString", "coordinates": [[-73.80688395915831, 40.87378485471549], [-73.80676661193567, 40.87350293117486]]}}, {"type": "Feature", "properties": {"segment_id": 1743491, "physicalid": "188747", "street_name": "SHORE RD", "borough": "bronx", "direction": "TW", "total_row_ft": 51.7, "roadbed_ft": 27.2, "median_ft": 0.0, "left_sw_ft": 9.5, "right_sw_ft": 15.0}, "geometry": {"type": "LineString", "coordinates": [[-73.80681581988769, 40.87380335861723], [-73.8066976546665, 40.873519469159525]]}}, {"type": "Feature", "properties": {"segment_id": 1743492, "physicalid": "188747", "street_name": "SHORE RD", "borough": "bronx", "direction": "TW", "total_row_ft": 51.6, "roadbed_ft": 26.9, "median_ft": 0.0, "left_sw_ft": 9.7, "right_sw_ft": 15.0}, "geometry": {"type": "LineString", "coordinates": [[-73.80675255365925, 40.87382064753966], [-73.806622929821, 40.8735379053093]]}}, {"type": "Feature", "properties": {"segment_id": 1743493, "physicalid": "188747", "street_name": "SHORE RD", "borough": "bronx", "direction": "TW", "total_row_ft": 51.7, "roadbed_ft": 27.0, "median_ft": 0.0, "left_sw_ft": 9.7, "right_sw_ft": 15.0}, "geometry": {"type": "LineString", "coordinates": [[-73.80668466228401, 40.87383958078426], [-73.80655462995136, 40.87355594689415]]}}, {"type": "Feature", "properties": {"segment_id": 1743494, "physicalid": "188747", "street_name": "SHORE RD", "borough": "bronx", "direction": "TW", "total_row_ft": 52.0, "roadbed_ft": 27.3, "median_ft": 0.0, "left_sw_ft": 9.6, "right_sw_ft": 15.0}, "geometry": {"type": "LineString", "coordinates": [[-73.80661717554372, 40.8738593966837], [-73.80648633004463, 40.87357398843851]]}}, {"type": "Feature", "properties": {"segment_id": 1743495, "physicalid": "188747", "street_name": "SHORE RD", "borough": "bronx", "direction": "TW", "total_row_ft": 52.3, "roadbed_ft": 27.8, "median_ft": 0.0, "left_sw_ft": 9.5, "right_sw_ft": 15.0}, "geometry": {"type": "LineString", "coordinates": [[-73.80654996256054, 40.873879809765754], [-73.80641803010084, 40.87359202994242]]}}, {"type": "Feature", "properties": {"segment_id": 1743496, "physicalid": "188747", "street_name": "SHORE RD", "borough": "bronx", "direction": "TW", "total_row_ft": 53.7, "roadbed_ft": 29.3, "median_ft": 0.0, "left_sw_ft": 9.4, "right_sw_ft": 15.0}, "geometry": {"type": "LineString", "coordinates": [[-73.80648748821274, 40.873898145362006], [-73.80634424398704, 40.873612526214295]]}}, {"type": "Feature", "properties": {"segment_id": 1743497, "physicalid": "188747", "street_name": "SHORE RD", "borough": "bronx", "direction": "TW", "total_row_ft": 54.7, "roadbed_ft": 30.5, "median_ft": 0.0, "left_sw_ft": 9.2, "right_sw_ft": 15.0}, "geometry": {"type": "LineString", "coordinates": [[-73.80641971430522, 40.873917300669476], [-73.80627665832573, 40.87363205629302]]}}, {"type": "Feature", "properties": {"segment_id": 1743498, "physicalid": "188747", "street_name": "SHORE RD", "borough": "bronx", "direction": "TW", "total_row_ft": 58.1, "roadbed_ft": 34.1, "median_ft": 0.0, "left_sw_ft": 9.0, "right_sw_ft": 15.0}, "geometry": {"type": "LineString", "coordinates": [[-73.8063516085504, 40.87393579433462], [-73.80620907262475, 40.87365158633209]]}}, {"type": "Feature", "properties": {"segment_id": 1743499, "physicalid": "188747", "street_name": "SHORE RD", "borough": "bronx", "direction": "TW", "total_row_ft": 108.1, "roadbed_ft": 58.4, "median_ft": 0.0, "left_sw_ft": 34.6, "right_sw_ft": 15.0}, "geometry": {"type": "LineString", "coordinates": [[-73.80628319818146, 40.87395368065446], [-73.80614148688406, 40.873671116331494]]}}, {"type": "Feature", "properties": {"segment_id": 1743500, "physicalid": "188747", "street_name": "SHORE RD", "borough": "bronx", "direction": "TW", "total_row_ft": 70.1, "roadbed_ft": 45.6, "median_ft": 0.0, "left_sw_ft": 9.6, "right_sw_ft": 15.0}, "geometry": {"type": "LineString", "coordinates": [[-73.80624258387044, 40.87396340606515], [-73.80604522540551, 40.87370987321549]]}}, {"type": "Feature", "properties": {"segment_id": 1743501, "physicalid": "188747", "street_name": "SHORE RD", "borough": "bronx", "direction": "TW", "total_row_ft": 55.9, "roadbed_ft": 31.7, "median_ft": 0.0, "left_sw_ft": 9.1, "right_sw_ft": 15.0}, "geometry": {"type": "LineString", "coordinates": [[-73.80617128002784, 40.87397971457049], [-73.80598296458182, 40.873737798325806]]}}, {"type": "Feature", "properties": {"segment_id": 1743502, "physicalid": "188747", "street_name": "SHORE RD", "borough": "bronx", "direction": "TW", "total_row_ft": 56.0, "roadbed_ft": 31.2, "median_ft": 0.0, "left_sw_ft": 9.8, "right_sw_ft": 15.0}, "geometry": {"type": "LineString", "coordinates": [[-73.8061017891724, 40.87399835209353], [-73.80592070370581, 40.87376572340237]]}}, {"type": "Feature", "properties": {"segment_id": 1743503, "physicalid": "188747", "street_name": "SHORE RD", "borough": "bronx", "direction": "TW", "total_row_ft": 54.0, "roadbed_ft": 30.1, "median_ft": 0.0, "left_sw_ft": 8.9, "right_sw_ft": 15.0}, "geometry": {"type": "LineString", "coordinates": [[-73.80603530742681, 40.87402085522163], [-73.80585844277755, 40.8737936484452]]}}, {"type": "Feature", "properties": {"segment_id": 1743504, "physicalid": "188747", "street_name": "SHORE RD", "borough": "bronx", "direction": "TW", "total_row_ft": 52.3, "roadbed_ft": 28.9, "median_ft": 0.0, "left_sw_ft": 8.4, "right_sw_ft": 15.0}, "geometry": {"type": "LineString", "coordinates": [[-73.80597040251057, 40.874045384016206], [-73.80579618179699, 40.8738215734543]]}}, {"type": "Feature", "properties": {"segment_id": 1743505, "physicalid": "188747", "street_name": "SHORE RD", "borough": "bronx", "direction": "TW", "total_row_ft": 51.4, "roadbed_ft": 27.2, "median_ft": 0.0, "left_sw_ft": 9.2, "right_sw_ft": 15.0}, "geometry": {"type": "LineString", "coordinates": [[-73.80590799769733, 40.874073124554435], [-73.80573392076411, 40.87384949842966]]}}, {"type": "Feature", "properties": {"segment_id": 1743506, "physicalid": "188747", "street_name": "SHORE RD", "borough": "bronx", "direction": "TW", "total_row_ft": 51.4, "roadbed_ft": 27.2, "median_ft": 0.0, "left_sw_ft": 9.2, "right_sw_ft": 15.0}, "geometry": {"type": "LineString", "coordinates": [[-73.80584498763704, 40.87410008760346], [-73.80567165967894, 40.873877423371326]]}}, {"type": "Feature", "properties": {"segment_id": 1743507, "physicalid": "188747", "street_name": "SHORE RD", "borough": "bronx", "direction": "TW", "total_row_ft": 50.9, "roadbed_ft": 27.1, "median_ft": 0.0, "left_sw_ft": 8.7, "right_sw_ft": 15.0}, "geometry": {"type": "LineString", "coordinates": [[-73.80578245592311, 40.874127665185384], [-73.80560939854146, 40.873905348279216]]}}, {"type": "Feature", "properties": {"segment_id": 1743508, "physicalid": "188747", "street_name": "SHORE RD", "borough": "bronx", "direction": "TW", "total_row_ft": 51.0, "roadbed_ft": 27.4, "median_ft": 0.0, "left_sw_ft": 8.5, "right_sw_ft": 15.0}, "geometry": {"type": "LineString", "coordinates": [[-73.80572051118315, 40.874155996849666], [-73.80554713735171, 40.87393327315338]]}}, {"type": "Feature", "properties": {"segment_id": 1743509, "physicalid": "188747", "street_name": "SHORE RD", "borough": "bronx", "direction": "TW", "total_row_ft": 51.6, "roadbed_ft": 27.8, "median_ft": 0.0, "left_sw_ft": 8.8, "right_sw_ft": 15.0}, "geometry": {"type": "LineString", "coordinates": [[-73.80565940619817, 40.87418540733179], [-73.80548487610966, 40.87396119799383]]}}, {"type": "Feature", "properties": {"segment_id": 1743510, "physicalid": "188747", "street_name": "SHORE RD", "borough": "bronx", "direction": "TW", "total_row_ft": 52.6, "roadbed_ft": 28.1, "median_ft": 0.0, "left_sw_ft": 9.4, "right_sw_ft": 15.0}, "geometry": {"type": "LineString", "coordinates": [[-73.80559893942124, 40.87421563771977], [-73.80542261481531, 40.87398912280053]]}}, {"type": "Feature", "properties": {"segment_id": 1743511, "physicalid": "188747", "street_name": "SHORE RD", "borough": "bronx", "direction": "TW", "total_row_ft": 52.8, "roadbed_ft": 28.4, "median_ft": 0.0, "left_sw_ft": 9.4, "right_sw_ft": 15.0}, "geometry": {"type": "LineString", "coordinates": [[-73.80553847258932, 40.87424586807588], [-73.80536035346869, 40.87401704757352]]}}, {"type": "Feature", "properties": {"segment_id": 1743512, "physicalid": "188747", "street_name": "SHORE RD", "borough": "bronx", "direction": "TW", "total_row_ft": 52.9, "roadbed_ft": 28.6, "median_ft": 0.0, "left_sw_ft": 9.3, "right_sw_ft": 15.0}, "geometry": {"type": "LineString", "coordinates": [[-73.80547800570245, 40.87427609840013], [-73.80529809206972, 40.87404497231279]]}}, {"type": "Feature", "properties": {"segment_id": 1743513, "physicalid": "188747", "street_name": "SHORE RD", "borough": "bronx", "direction": "TW", "total_row_ft": 53.1, "roadbed_ft": 28.9, "median_ft": 0.0, "left_sw_ft": 9.2, "right_sw_ft": 15.0}, "geometry": {"type": "LineString", "coordinates": [[-73.80541715609115, 40.87430583709765], [-73.80523583061847, 40.87407289701828]]}}, {"type": "Feature", "properties": {"segment_id": 1743514, "physicalid": "188747", "street_name": "SHORE RD", "borough": "bronx", "direction": "TW", "total_row_ft": 53.5, "roadbed_ft": 29.1, "median_ft": 0.0, "left_sw_ft": 9.4, "right_sw_ft": 15.0}, "geometry": {"type": "LineString", "coordinates": [[-73.80535585476379, 40.8743349955368], [-73.80517356911493, 40.87410082169006]]}}, {"type": "Feature", "properties": {"segment_id": 1743515, "physicalid": "188747", "street_name": "SHORE RD", "borough": "bronx", "direction": "TW", "total_row_ft": 53.8, "roadbed_ft": 29.4, "median_ft": 0.0, "left_sw_ft": 9.3, "right_sw_ft": 15.0}, "geometry": {"type": "LineString", "coordinates": [[-73.8052941469293, 40.87436363179318], [-73.80511130755913, 40.874128746328104]]}}, {"type": "Feature", "properties": {"segment_id": 1743516, "physicalid": "188747", "street_name": "SHORE RD", "borough": "bronx", "direction": "TW", "total_row_ft": 53.7, "roadbed_ft": 29.6, "median_ft": 0.0, "left_sw_ft": 9.1, "right_sw_ft": 15.0}, "geometry": {"type": "LineString", "coordinates": [[-73.80523198177947, 40.874391680594066], [-73.805049045951, 40.87415667093241]]}}, {"type": "Feature", "properties": {"segment_id": 1743517, "physicalid": "188747", "street_name": "SHORE RD", "borough": "bronx", "direction": "TW", "total_row_ft": 53.9, "roadbed_ft": 29.6, "median_ft": 0.0, "left_sw_ft": 9.3, "right_sw_ft": 15.0}, "geometry": {"type": "LineString", "coordinates": [[-73.80516951260755, 40.87441933886599], [-73.80498678429055, 40.87418459550301]]}}, {"type": "Feature", "properties": {"segment_id": 1743518, "physicalid": "188747", "street_name": "SHORE RD", "borough": "bronx", "direction": "TW", "total_row_ft": 54.2, "roadbed_ft": 29.6, "median_ft": 0.0, "left_sw_ft": 9.6, "right_sw_ft": 15.0}, "geometry": {"type": "LineString", "coordinates": [[-73.80510713324861, 40.874447112549355], [-73.8049245225778, 40.87421252003987]]}}, {"type": "Feature", "properties": {"segment_id": 1743519, "physicalid": "188747", "street_name": "SHORE RD", "borough": "bronx", "direction": "TW", "total_row_ft": 54.5, "roadbed_ft": 29.6, "median_ft": 0.0, "left_sw_ft": 9.9, "right_sw_ft": 15.0}, "geometry": {"type": "LineString", "coordinates": [[-73.80504484325252, 40.87447500106628], [-73.8048622608128, 40.874240444542984]]}}, {"type": "Feature", "properties": {"segment_id": 1743520, "physicalid": "188747", "street_name": "SHORE RD", "borough": "bronx", "direction": "TW", "total_row_ft": 54.3, "roadbed_ft": 29.7, "median_ft": 0.0, "left_sw_ft": 9.7, "right_sw_ft": 15.0}, "geometry": {"type": "LineString", "coordinates": [[-73.80498162473852, 40.87450169678938], [-73.80479999899549, 40.87426836901236]]}}, {"type": "Feature", "properties": {"segment_id": 1743521, "physicalid": "188747", "street_name": "SHORE RD", "borough": "bronx", "direction": "TW", "total_row_ft": 53.6, "roadbed_ft": 29.7, "median_ft": 0.0, "left_sw_ft": 8.9, "right_sw_ft": 15.0}, "geometry": {"type": "LineString", "coordinates": [[-73.80491760604818, 40.87452736458945], [-73.8047377371259, 40.874296293448005]]}}, {"type": "Feature", "properties": {"segment_id": 1743522, "physicalid": "188747", "street_name": "SHORE RD", "borough": "bronx", "direction": "TW", "total_row_ft": 53.4, "roadbed_ft": 29.7, "median_ft": 0.0, "left_sw_ft": 8.6, "right_sw_ft": 15.0}, "geometry": {"type": "LineString", "coordinates": [[-73.80485448809496, 40.87455418955865], [-73.804675475204, 40.874324217849924]]}}, {"type": "Feature", "properties": {"segment_id": 1743523, "physicalid": "188747", "street_name": "SHORE RD", "borough": "bronx", "direction": "TW", "total_row_ft": 53.6, "roadbed_ft": 29.7, "median_ft": 0.0, "left_sw_ft": 8.9, "right_sw_ft": 15.0}, "geometry": {"type": "LineString", "coordinates": [[-73.8047923045691, 40.87458221498193], [-73.80461321322977, 40.874352142218115]]}}, {"type": "Feature", "properties": {"segment_id": 1743524, "physicalid": "188747", "street_name": "SHORE RD", "borough": "bronx", "direction": "TW", "total_row_ft": 54.3, "roadbed_ft": 29.7, "median_ft": 0.0, "left_sw_ft": 9.6, "right_sw_ft": 15.0}, "geometry": {"type": "LineString", "coordinates": [[-73.80473095101173, 40.87461130666903], [-73.80455095120328, 40.87438006655256]]}}, {"type": "Feature", "properties": {"segment_id": 1743525, "physicalid": "188747", "street_name": "SHORE RD", "borough": "bronx", "direction": "TW", "total_row_ft": 54.5, "roadbed_ft": 29.7, "median_ft": 0.0, "left_sw_ft": 9.8, "right_sw_ft": 15.0}, "geometry": {"type": "LineString", "coordinates": [[-73.80466888822461, 40.87463948726978], [-73.80448868912448, 40.87440799085327]]}}, {"type": "Feature", "properties": {"segment_id": 1743526, "physicalid": "188747", "street_name": "SHORE RD", "borough": "bronx", "direction": "TW", "total_row_ft": 54.8, "roadbed_ft": 29.7, "median_ft": 0.0, "left_sw_ft": 10.1, "right_sw_ft": 15.0}, "geometry": {"type": "LineString", "coordinates": [[-73.80460682717731, 40.874667670139694], [-73.8044264269934, 40.87443591512026]]}}, {"type": "Feature", "properties": {"segment_id": 1743527, "physicalid": "188747", "street_name": "SHORE RD", "borough": "bronx", "direction": "TW", "total_row_ft": 54.9, "roadbed_ft": 29.7, "median_ft": 0.0, "left_sw_ft": 10.2, "right_sw_ft": 15.0}, "geometry": {"type": "LineString", "coordinates": [[-73.8045447679582, 40.87469585539226], [-73.80436416481002, 40.87446383935349]]}}, {"type": "Feature", "properties": {"segment_id": 1743528, "physicalid": "188747", "street_name": "SHORE RD", "borough": "bronx", "direction": "TW", "total_row_ft": 54.6, "roadbed_ft": 29.7, "median_ft": 0.0, "left_sw_ft": 9.9, "right_sw_ft": 15.0}, "geometry": {"type": "LineString", "coordinates": [[-73.80448271184675, 40.87472404467123], [-73.80430190257435, 40.87449176355302]]}}, {"type": "Feature", "properties": {"segment_id": 1743529, "physicalid": "188747", "street_name": "SHORE RD", "borough": "bronx", "direction": "TW", "total_row_ft": 54.4, "roadbed_ft": 29.7, "median_ft": 0.0, "left_sw_ft": 9.7, "right_sw_ft": 15.0}, "geometry": {"type": "LineString", "coordinates": [[-73.8044208474747, 40.87475248030634], [-73.80423964028634, 40.87451968771884]]}}, {"type": "Feature", "properties": {"segment_id": 1743530, "physicalid": "188747", "street_name": "SHORE RD", "borough": "bronx", "direction": "TW", "total_row_ft": 54.4, "roadbed_ft": 29.7, "median_ft": 0.0, "left_sw_ft": 9.7, "right_sw_ft": 15.0}, "geometry": {"type": "LineString", "coordinates": [[-73.80435904593382, 40.874780996693595], [-73.80417737794608, 40.87454761185087]]}}, {"type": "Feature", "properties": {"segment_id": 1743531, "physicalid": "188747", "street_name": "SHORE RD", "borough": "bronx", "direction": "TW", "total_row_ft": 54.7, "roadbed_ft": 29.7, "median_ft": 0.0, "left_sw_ft": 9.9, "right_sw_ft": 15.0}, "geometry": {"type": "LineString", "coordinates": [[-73.80429687219052, 40.87480903495689], [-73.80411511555351, 40.874575535949184]]}}, {"type": "Feature", "properties": {"segment_id": 1743532, "physicalid": "188747", "street_name": "SHORE RD", "borough": "bronx", "direction": "TW", "total_row_ft": 54.7, "roadbed_ft": 29.7, "median_ft": 0.0, "left_sw_ft": 10.0, "right_sw_ft": 15.0}, "geometry": {"type": "LineString", "coordinates": [[-73.80423432649184, 40.87483659541194], [-73.80405285310866, 40.874603460013766]]}}, {"type": "Feature", "properties": {"segment_id": 1743533, "physicalid": "188747", "street_name": "SHORE RD", "borough": "bronx", "direction": "TW", "total_row_ft": 54.4, "roadbed_ft": 29.7, "median_ft": 0.0, "left_sw_ft": 9.8, "right_sw_ft": 15.0}, "geometry": {"type": "LineString", "coordinates": [[-73.80417140904089, 40.87486367831789], [-73.8039905906115, 40.87463138404462]]}}, {"type": "Feature", "properties": {"segment_id": 1743534, "physicalid": "188747", "street_name": "SHORE RD", "borough": "bronx", "direction": "TW", "total_row_ft": 54.0, "roadbed_ft": 29.6, "median_ft": 0.0, "left_sw_ft": 9.4, "right_sw_ft": 15.0}, "geometry": {"type": "LineString", "coordinates": [[-73.80410811884305, 40.87489028239515], [-73.80392832806201, 40.87465930804174]]}}, {"type": "Feature", "properties": {"segment_id": 1743535, "physicalid": "188747", "street_name": "SHORE RD", "borough": "bronx", "direction": "TW", "total_row_ft": 53.6, "roadbed_ft": 29.5, "median_ft": 0.0, "left_sw_ft": 9.1, "right_sw_ft": 15.0}, "geometry": {"type": "LineString", "coordinates": [[-73.80404499092684, 40.87491709498275], [-73.80386606546027, 40.87468723200514]]}}, {"type": "Feature", "properties": {"segment_id": 1743536, "physicalid": "188747", "street_name": "SHORE RD", "borough": "bronx", "direction": "TW", "total_row_ft": 53.3, "roadbed_ft": 29.4, "median_ft": 0.0, "left_sw_ft": 8.9, "right_sw_ft": 15.0}, "geometry": {"type": "LineString", "coordinates": [[-73.80398228313996, 40.87494444733365], [-73.80380380280621, 40.87471515593477]]}}, {"type": "Feature", "properties": {"segment_id": 1743537, "physicalid": "188747", "street_name": "SHORE RD", "borough": "bronx", "direction": "TW", "total_row_ft": 53.3, "roadbed_ft": 29.4, "median_ft": 0.0, "left_sw_ft": 8.9, "right_sw_ft": 15.0}, "geometry": {"type": "LineString", "coordinates": [[-73.80391996989701, 40.874972306580695], [-73.80374154009986, 40.874743079830694]]}}, {"type": "Feature", "properties": {"segment_id": 1743538, "physicalid": "188747", "street_name": "SHORE RD", "borough": "bronx", "direction": "TW", "total_row_ft": 53.3, "roadbed_ft": 29.2, "median_ft": 0.0, "left_sw_ft": 9.1, "right_sw_ft": 15.0}, "geometry": {"type": "LineString", "coordinates": [[-73.8038580170443, 40.87500062884902], [-73.80367927734125, 40.87477100369286]]}}, {"type": "Feature", "properties": {"segment_id": 1743539, "physicalid": "188747", "street_name": "SHORE RD", "borough": "bronx", "direction": "TW", "total_row_ft": 53.4, "roadbed_ft": 29.1, "median_ft": 0.0, "left_sw_ft": 9.3, "right_sw_ft": 15.0}, "geometry": {"type": "LineString", "coordinates": [[-73.80379625608585, 40.87502919767567], [-73.80361701453029, 40.87479892752131]]}}, {"type": "Feature", "properties": {"segment_id": 1743540, "physicalid": "188747", "street_name": "SHORE RD", "borough": "bronx", "direction": "TW", "total_row_ft": 53.4, "roadbed_ft": 28.9, "median_ft": 0.0, "left_sw_ft": 9.4, "right_sw_ft": 15.0}, "geometry": {"type": "LineString", "coordinates": [[-73.80373444474996, 40.87505770181801], [-73.80355475166704, 40.87482685131604]]}}, {"type": "Feature", "properties": {"segment_id": 1743541, "physicalid": "188747", "street_name": "SHORE RD", "borough": "bronx", "direction": "TW", "total_row_ft": 53.2, "roadbed_ft": 28.8, "median_ft": 0.0, "left_sw_ft": 9.3, "right_sw_ft": 15.0}, "geometry": {"type": "LineString", "coordinates": [[-73.80367227343363, 40.87508574353206], [-73.8034924887515, 40.874854775077026]]}}, {"type": "Feature", "properties": {"segment_id": 1743542, "physicalid": "188747", "street_name": "SHORE RD", "borough": "bronx", "direction": "TW", "total_row_ft": 52.9, "roadbed_ft": 28.8, "median_ft": 0.0, "left_sw_ft": 9.1, "right_sw_ft": 15.0}, "geometry": {"type": "LineString", "coordinates": [[-73.80360982502849, 40.875113429306346], [-73.80343022578367, 40.874882698804264]]}}, {"type": "Feature", "properties": {"segment_id": 1743543, "physicalid": "188747", "street_name": "SHORE RD", "borough": "bronx", "direction": "TW", "total_row_ft": 52.9, "roadbed_ft": 28.7, "median_ft": 0.0, "left_sw_ft": 9.2, "right_sw_ft": 15.0}, "geometry": {"type": "LineString", "coordinates": [[-73.80354712036248, 40.87514078589704], [-73.80336796276356, 40.87491062249777]]}}, {"type": "Feature", "properties": {"segment_id": 1743544, "physicalid": "188747", "street_name": "SHORE RD", "borough": "bronx", "direction": "TW", "total_row_ft": 52.7, "roadbed_ft": 28.6, "median_ft": 0.0, "left_sw_ft": 9.2, "right_sw_ft": 15.0}, "geometry": {"type": "LineString", "coordinates": [[-73.80348390977545, 40.87516749256596], [-73.80330569969115, 40.87493854615755]]}}, {"type": "Feature", "properties": {"segment_id": 1743545, "physicalid": "188747", "street_name": "SHORE RD", "borough": "bronx", "direction": "TW", "total_row_ft": 52.8, "roadbed_ft": 28.5, "median_ft": 0.0, "left_sw_ft": 9.3, "right_sw_ft": 15.0}, "geometry": {"type": "LineString", "coordinates": [[-73.80342112548679, 40.875194746929076], [-73.8032434365664, 40.874966469783615]]}}, {"type": "Feature", "properties": {"segment_id": 1743546, "physicalid": "188747", "street_name": "SHORE RD", "borough": "bronx", "direction": "TW", "total_row_ft": 52.8, "roadbed_ft": 28.5, "median_ft": 0.0, "left_sw_ft": 9.3, "right_sw_ft": 15.0}, "geometry": {"type": "LineString", "coordinates": [[-73.80336140634506, 40.87522593911019], [-73.8031811733894, 40.87499439337591]]}}, {"type": "Feature", "properties": {"segment_id": 1743547, "physicalid": "188747", "street_name": "SHORE RD", "borough": "bronx", "direction": "TW", "total_row_ft": 53.0, "roadbed_ft": 28.5, "median_ft": 0.0, "left_sw_ft": 9.4, "right_sw_ft": 15.0}, "geometry": {"type": "LineString", "coordinates": [[-73.80330895531168, 40.87526646865956], [-73.8031189101601, 40.87502231693448]]}}, {"type": "Feature", "properties": {"segment_id": 1743548, "physicalid": "188747", "street_name": "SHORE RD", "borough": "bronx", "direction": "TW", "total_row_ft": 52.5, "roadbed_ft": 28.6, "median_ft": 0.0, "left_sw_ft": 8.9, "right_sw_ft": 15.0}, "geometry": {"type": "LineString", "coordinates": [[-73.80325663963531, 40.87530717215996], [-73.80305664687849, 40.87505024045934]]}}, {"type": "Feature", "properties": {"segment_id": 1743549, "physicalid": "188747", "street_name": "SHORE RD", "borough": "bronx", "direction": "TW", "total_row_ft": 53.1, "roadbed_ft": 28.7, "median_ft": 0.0, "left_sw_ft": 9.4, "right_sw_ft": 15.0}, "geometry": {"type": "LineString", "coordinates": [[-73.80320149700378, 40.87534424392878], [-73.8029943835446, 40.87507816395045]]}}, {"type": "Feature", "properties": {"segment_id": 1743550, "physicalid": "188747", "street_name": "SHORE RD", "borough": "bronx", "direction": "TW", "total_row_ft": 52.9, "roadbed_ft": 28.8, "median_ft": 0.0, "left_sw_ft": 9.1, "right_sw_ft": 15.0}, "geometry": {"type": "LineString", "coordinates": [[-73.80314227966946, 40.87537608097305], [-73.80293212015842, 40.87510608740783]]}}, {"type": "Feature", "properties": {"segment_id": 1743551, "physicalid": "188747", "street_name": "SHORE RD", "borough": "bronx", "direction": "TW", "total_row_ft": 52.7, "roadbed_ft": 28.9, "median_ft": 0.0, "left_sw_ft": 8.9, "right_sw_ft": 15.0}, "geometry": {"type": "LineString", "coordinates": [[-73.80308107542244, 40.875405365466726], [-73.80286985671988, 40.87513401083145]]}}, {"type": "Feature", "properties": {"segment_id": 1743552, "physicalid": "188747", "street_name": "SHORE RD", "borough": "bronx", "direction": "TW", "total_row_ft": 53.0, "roadbed_ft": 28.9, "median_ft": 0.0, "left_sw_ft": 9.1, "right_sw_ft": 15.0}, "geometry": {"type": "LineString", "coordinates": [[-73.80301922205595, 40.875433816070334], [-73.8028075932291, 40.875161934221374]]}}, {"type": "Feature", "properties": {"segment_id": 1743553, "physicalid": "188747", "street_name": "SHORE RD", "borough": "bronx", "direction": "TW", "total_row_ft": 52.8, "roadbed_ft": 29.1, "median_ft": 0.0, "left_sw_ft": 8.7, "right_sw_ft": 15.0}, "geometry": {"type": "LineString", "coordinates": [[-73.80295626227887, 40.875460845296054], [-73.80274532968602, 40.87518985757751]]}}, {"type": "Feature", "properties": {"segment_id": 1743554, "physicalid": "188747", "street_name": "SHORE RD", "borough": "bronx", "direction": "TW", "total_row_ft": 53.9, "roadbed_ft": 29.5, "median_ft": 0.0, "left_sw_ft": 9.3, "right_sw_ft": 15.0}, "geometry": {"type": "LineString", "coordinates": [[-73.80289220954008, 40.87548647041663], [-73.80268306609065, 40.87521778089994]]}}, {"type": "Feature", "properties": {"segment_id": 1743555, "physicalid": "188747", "street_name": "SHORE RD", "borough": "bronx", "direction": "TW", "total_row_ft": 54.6, "roadbed_ft": 29.8, "median_ft": 0.0, "left_sw_ft": 9.8, "right_sw_ft": 15.0}, "geometry": {"type": "LineString", "coordinates": [[-73.80282712302093, 40.87551076745749], [-73.80262080244299, 40.875245704188636]]}}, {"type": "Feature", "properties": {"segment_id": 1743556, "physicalid": "188747", "street_name": "SHORE RD", "borough": "bronx", "direction": "TW", "total_row_ft": 55.0, "roadbed_ft": 30.2, "median_ft": 0.0, "left_sw_ft": 9.7, "right_sw_ft": 15.0}, "geometry": {"type": "LineString", "coordinates": [[-73.80276114034308, 40.87553391321737], [-73.802558538743, 40.87527362744362]]}}, {"type": "Feature", "properties": {"segment_id": 1743557, "physicalid": "188747", "street_name": "SHORE RD", "borough": "bronx", "direction": "TW", "total_row_ft": 55.4, "roadbed_ft": 30.5, "median_ft": 0.0, "left_sw_ft": 9.8, "right_sw_ft": 15.0}, "geometry": {"type": "LineString", "coordinates": [[-73.80269517350249, 40.87555707934479], [-73.8024962749907, 40.87530155066486]]}}, {"type": "Feature", "properties": {"segment_id": 1743558, "physicalid": "188747", "street_name": "SHORE RD", "borough": "bronx", "direction": "TW", "total_row_ft": 55.3, "roadbed_ft": 30.4, "median_ft": 0.0, "left_sw_ft": 9.9, "right_sw_ft": 15.0}, "geometry": {"type": "LineString", "coordinates": [[-73.80262905280102, 40.87558004782611], [-73.80243401118615, 40.875329473852375]]}}, {"type": "Feature", "properties": {"segment_id": 1743559, "physicalid": "188747", "street_name": "SHORE RD", "borough": "bronx", "direction": "TW", "total_row_ft": 54.6, "roadbed_ft": 29.8, "median_ft": 0.0, "left_sw_ft": 9.8, "right_sw_ft": 15.0}, "geometry": {"type": "LineString", "coordinates": [[-73.80256277790808, 40.875602818235805], [-73.80237174732927, 40.87535739700613]]}}, {"type": "Feature", "properties": {"segment_id": 1743560, "physicalid": "188747", "street_name": "SHORE RD", "borough": "bronx", "direction": "TW", "total_row_ft": 54.3, "roadbed_ft": 29.6, "median_ft": 0.0, "left_sw_ft": 9.6, "right_sw_ft": 15.0}, "geometry": {"type": "LineString", "coordinates": [[-73.80249634876607, 40.875625390499074], [-73.80230948342013, 40.87538532012615]]}}, {"type": "Feature", "properties": {"segment_id": 1743561, "physicalid": "188747", "street_name": "SHORE RD", "borough": "bronx", "direction": "TW", "total_row_ft": 54.8, "roadbed_ft": 30.6, "median_ft": 0.0, "left_sw_ft": 9.2, "right_sw_ft": 15.0}, "geometry": {"type": "LineString", "coordinates": [[-73.80240478662803, 40.87565611698212], [-73.80228293758623, 40.87539730910282]]}}, {"type": "Feature", "properties": {"segment_id": 1743562, "physicalid": "188747", "street_name": "SHORE RD", "borough": "bronx", "direction": "TW", "total_row_ft": 55.2, "roadbed_ft": 31.4, "median_ft": 0.0, "left_sw_ft": 8.9, "right_sw_ft": 15.0}, "geometry": {"type": "LineString", "coordinates": [[-73.8023383640817, 40.87567815628134], [-73.802214836238, 40.87541578206483]]}}, {"type": "Feature", "properties": {"segment_id": 1743563, "physicalid": "188747", "street_name": "SHORE RD", "borough": "bronx", "direction": "TW", "total_row_ft": 56.0, "roadbed_ft": 31.5, "median_ft": 0.0, "left_sw_ft": 9.5, "right_sw_ft": 15.0}, "geometry": {"type": "LineString", "coordinates": [[-73.80227221644509, 40.875700779545085], [-73.80214673485192, 40.87543425498658]]}}, {"type": "Feature", "properties": {"segment_id": 1743564, "physicalid": "188747", "street_name": "SHORE RD", "borough": "bronx", "direction": "TW", "total_row_ft": 56.1, "roadbed_ft": 31.5, "median_ft": 0.0, "left_sw_ft": 9.6, "right_sw_ft": 15.0}, "geometry": {"type": "LineString", "coordinates": [[-73.80220553359096, 40.87572226605994], [-73.80207863342801, 40.875452727868065]]}}, {"type": "Feature", "properties": {"segment_id": 1743565, "physicalid": "188747", "street_name": "SHORE RD", "borough": "bronx", "direction": "TW", "total_row_ft": 55.7, "roadbed_ft": 31.2, "median_ft": 0.0, "left_sw_ft": 9.5, "right_sw_ft": 15.0}, "geometry": {"type": "LineString", "coordinates": [[-73.8021382184117, 40.87574240956094], [-73.80201053196625, 40.87547120070932]]}}, {"type": "Feature", "properties": {"segment_id": 1743566, "physicalid": "188747", "street_name": "SHORE RD", "borough": "bronx", "direction": "TW", "total_row_ft": 55.8, "roadbed_ft": 30.8, "median_ft": 0.0, "left_sw_ft": 10.0, "right_sw_ft": 15.0}, "geometry": {"type": "LineString", "coordinates": [[-73.80207034810346, 40.87576137400555], [-73.80194243046665, 40.875489673510316]]}}, {"type": "Feature", "properties": {"segment_id": 1743567, "physicalid": "188747", "street_name": "SHORE RD", "borough": "bronx", "direction": "TW", "total_row_ft": 55.4, "roadbed_ft": 30.5, "median_ft": 0.0, "left_sw_ft": 9.9, "right_sw_ft": 15.0}, "geometry": {"type": "LineString", "coordinates": [[-73.8020018933676, 40.87577909715516], [-73.8018743289292, 40.87550814627105]]}}, {"type": "Feature", "properties": {"segment_id": 1743568, "physicalid": "188747", "street_name": "SHORE RD", "borough": "bronx", "direction": "TW", "total_row_ft": 54.6, "roadbed_ft": 30.1, "median_ft": 0.0, "left_sw_ft": 9.4, "right_sw_ft": 15.0}, "geometry": {"type": "LineString", "coordinates": [[-73.80193283731616, 40.87579554313116], [-73.80180622735392, 40.875526618991586]]}}, {"type": "Feature", "properties": {"segment_id": 1743569, "physicalid": "188747", "street_name": "SHORE RD", "borough": "bronx", "direction": "TW", "total_row_ft": 53.8, "roadbed_ft": 29.8, "median_ft": 0.0, "left_sw_ft": 9.1, "right_sw_ft": 15.0}, "geometry": {"type": "LineString", "coordinates": [[-73.80186396510435, 40.875812379619575], [-73.8017381257408, 40.875545091671825]]}}, {"type": "Feature", "properties": {"segment_id": 1743570, "physicalid": "188747", "street_name": "SHORE RD", "borough": "bronx", "direction": "TW", "total_row_ft": 53.3, "roadbed_ft": 29.3, "median_ft": 0.0, "left_sw_ft": 8.9, "right_sw_ft": 15.0}, "geometry": {"type": "LineString", "coordinates": [[-73.80179723487514, 40.87582914177052], [-73.80166749499737, 40.87556465344843]]}}, {"type": "Feature", "properties": {"segment_id": 1743571, "physicalid": "188747", "street_name": "SHORE RD", "borough": "bronx", "direction": "TW", "total_row_ft": 52.8, "roadbed_ft": 28.9, "median_ft": 0.0, "left_sw_ft": 8.9, "right_sw_ft": 15.0}, "geometry": {"type": "LineString", "coordinates": [[-73.80172866297092, 40.87584667008804], [-73.80159972092207, 40.87558380767154]]}}, {"type": "Feature", "properties": {"segment_id": 1743572, "physicalid": "188747", "street_name": "SHORE RD", "borough": "bronx", "direction": "TW", "total_row_ft": 52.8, "roadbed_ft": 28.8, "median_ft": 0.0, "left_sw_ft": 9.0, "right_sw_ft": 15.0}, "geometry": {"type": "LineString", "coordinates": [[-73.8016602081356, 40.87586443709571], [-73.80153194680773, 40.87560296185478]]}}, {"type": "Feature", "properties": {"segment_id": 1743573, "physicalid": "188747", "street_name": "SHORE RD", "borough": "bronx", "direction": "TW", "total_row_ft": 52.7, "roadbed_ft": 28.8, "median_ft": 0.0, "left_sw_ft": 8.9, "right_sw_ft": 15.0}, "geometry": {"type": "LineString", "coordinates": [[-73.80159183741797, 40.87588237562033], [-73.80146417265433, 40.875622115998134]]}}, {"type": "Feature", "properties": {"segment_id": 1743574, "physicalid": "188747", "street_name": "SHORE RD", "borough": "bronx", "direction": "TW", "total_row_ft": 52.5, "roadbed_ft": 28.7, "median_ft": 0.0, "left_sw_ft": 8.8, "right_sw_ft": 15.0}, "geometry": {"type": "LineString", "coordinates": [[-73.8015235986614, 40.87590058319717], [-73.8013963984619, 40.87564127010163]]}}, {"type": "Feature", "properties": {"segment_id": 1743575, "physicalid": "188747", "street_name": "SHORE RD", "borough": "bronx", "direction": "TW", "total_row_ft": 52.5, "roadbed_ft": 28.7, "median_ft": 0.0, "left_sw_ft": 8.8, "right_sw_ft": 15.0}, "geometry": {"type": "LineString", "coordinates": [[-73.80145550306116, 40.87591908265081], [-73.80132862423041, 40.87566042416526]]}}, {"type": "Feature", "properties": {"segment_id": 1743576, "physicalid": "188747", "street_name": "SHORE RD", "borough": "bronx", "direction": "TW", "total_row_ft": 52.6, "roadbed_ft": 28.7, "median_ft": 0.0, "left_sw_ft": 8.9, "right_sw_ft": 15.0}, "geometry": {"type": "LineString", "coordinates": [[-73.80138746514777, 40.87593769974308], [-73.80126084995987, 40.87567957818901]]}}, {"type": "Feature", "properties": {"segment_id": 1743577, "physicalid": "188747", "street_name": "SHORE RD", "borough": "bronx", "direction": "TW", "total_row_ft": 52.6, "roadbed_ft": 28.6, "median_ft": 0.0, "left_sw_ft": 9.0, "right_sw_ft": 15.0}, "geometry": {"type": "LineString", "coordinates": [[-73.80131940462172, 40.87595627077417], [-73.80119307565029, 40.87569873217291]]}}, {"type": "Feature", "properties": {"segment_id": 1743578, "physicalid": "188747", "street_name": "SHORE RD", "borough": "bronx", "direction": "TW", "total_row_ft": 52.6, "roadbed_ft": 28.6, "median_ft": 0.0, "left_sw_ft": 9.0, "right_sw_ft": 15.0}, "geometry": {"type": "LineString", "coordinates": [[-73.80125133843222, 40.87597483029679], [-73.80112530130164, 40.87571788611693]]}}, {"type": "Feature", "properties": {"segment_id": 1743579, "physicalid": "188747", "street_name": "SHORE RD", "borough": "bronx", "direction": "TW", "total_row_ft": 52.5, "roadbed_ft": 28.5, "median_ft": 0.0, "left_sw_ft": 9.0, "right_sw_ft": 15.0}, "geometry": {"type": "LineString", "coordinates": [[-73.80118503248363, 40.87599286529531], [-73.80105509297427, 40.87573830624996]]}}, {"type": "Feature", "properties": {"segment_id": 1743580, "physicalid": "188747", "street_name": "SHORE RD", "borough": "bronx", "direction": "TW", "total_row_ft": 52.3, "roadbed_ft": 28.2, "median_ft": 0.0, "left_sw_ft": 9.0, "right_sw_ft": 15.0}, "geometry": {"type": "LineString", "coordinates": [[-73.8011169197586, 40.87601137020051], [-73.80098765799617, 40.875758138393024]]}}, {"type": "Feature", "properties": {"segment_id": 1743581, "physicalid": "188747", "street_name": "SHORE RD", "borough": "bronx", "direction": "TW", "total_row_ft": 52.4, "roadbed_ft": 28.1, "median_ft": 0.0, "left_sw_ft": 9.3, "right_sw_ft": 15.0}, "geometry": {"type": "LineString", "coordinates": [[-73.80104879181377, 40.87602984532329], [-73.80092022297784, 40.875777970496635]]}}, {"type": "Feature", "properties": {"segment_id": 1743582, "physicalid": "188747", "street_name": "SHORE RD", "borough": "bronx", "direction": "TW", "total_row_ft": 52.4, "roadbed_ft": 28.0, "median_ft": 0.0, "left_sw_ft": 9.4, "right_sw_ft": 15.0}, "geometry": {"type": "LineString", "coordinates": [[-73.80098057087662, 40.876048138302174], [-73.80085278791925, 40.87579780256077]]}}, {"type": "Feature", "properties": {"segment_id": 1743583, "physicalid": "188747", "street_name": "SHORE RD", "borough": "bronx", "direction": "TW", "total_row_ft": 52.5, "roadbed_ft": 27.9, "median_ft": 0.0, "left_sw_ft": 9.6, "right_sw_ft": 15.0}, "geometry": {"type": "LineString", "coordinates": [[-73.80091231335626, 40.876066359645336], [-73.80078535282048, 40.87581763458543]]}}, {"type": "Feature", "properties": {"segment_id": 1743584, "physicalid": "188747", "street_name": "SHORE RD", "borough": "bronx", "direction": "TW", "total_row_ft": 52.3, "roadbed_ft": 27.8, "median_ft": 0.0, "left_sw_ft": 9.5, "right_sw_ft": 15.0}, "geometry": {"type": "LineString", "coordinates": [[-73.80084423005081, 40.876084922320544], [-73.80071791768145, 40.87583746657061]]}}, {"type": "Feature", "properties": {"segment_id": 1743585, "physicalid": "188747", "street_name": "SHORE RD", "borough": "bronx", "direction": "TW", "total_row_ft": 52.0, "roadbed_ft": 27.6, "median_ft": 0.0, "left_sw_ft": 9.4, "right_sw_ft": 15.0}, "geometry": {"type": "LineString", "coordinates": [[-73.80077625944296, 40.87610370581289], [-73.80065048250219, 40.875857298516316]]}}, {"type": "Feature", "properties": {"segment_id": 1743586, "physicalid": "188747", "street_name": "SHORE RD", "borough": "bronx", "direction": "TW", "total_row_ft": 51.9, "roadbed_ft": 27.6, "median_ft": 0.0, "left_sw_ft": 9.3, "right_sw_ft": 15.0}, "geometry": {"type": "LineString", "coordinates": [[-73.8007083816711, 40.87612267121335], [-73.80058304728271, 40.87587713042254]]}}, {"type": "Feature", "properties": {"segment_id": 1743587, "physicalid": "188747", "street_name": "SHORE RD", "borough": "bronx", "direction": "TW", "total_row_ft": 52.3, "roadbed_ft": 27.8, "median_ft": 0.0, "left_sw_ft": 9.5, "right_sw_ft": 15.0}, "geometry": {"type": "LineString", "coordinates": [[-73.80064068595081, 40.87614199330354], [-73.80051561202302, 40.87589696228929]]}}, {"type": "Feature", "properties": {"segment_id": 1743588, "physicalid": "188747", "street_name": "SHORE RD", "borough": "bronx", "direction": "TW", "total_row_ft": 52.6, "roadbed_ft": 27.9, "median_ft": 0.0, "left_sw_ft": 9.7, "right_sw_ft": 15.0}, "geometry": {"type": "LineString", "coordinates": [[-73.80057452418541, 40.876160767264174], [-73.80044584364607, 40.87591823569294]]}}, {"type": "Feature", "properties": {"segment_id": 1743589, "physicalid": "188747", "street_name": "SHORE RD", "borough": "bronx", "direction": "TW", "total_row_ft": 52.7, "roadbed_ft": 28.1, "median_ft": 0.0, "left_sw_ft": 9.6, "right_sw_ft": 15.0}, "geometry": {"type": "LineString", "coordinates": [[-73.80050672575135, 40.876179928013954], [-73.80037875953053, 40.875938742296626]]}}, {"type": "Feature", "properties": {"segment_id": 1743590, "physicalid": "188747", "street_name": "SHORE RD", "borough": "bronx", "direction": "TW", "total_row_ft": 52.9, "roadbed_ft": 28.3, "median_ft": 0.0, "left_sw_ft": 9.6, "right_sw_ft": 15.0}, "geometry": {"type": "LineString", "coordinates": [[-73.8004391187295, 40.876199449562975], [-73.80031167537364, 40.875959248861236]]}}, {"type": "Feature", "properties": {"segment_id": 1743591, "physicalid": "188747", "street_name": "SHORE RD", "borough": "bronx", "direction": "TW", "total_row_ft": 53.1, "roadbed_ft": 28.5, "median_ft": 0.0, "left_sw_ft": 9.6, "right_sw_ft": 15.0}, "geometry": {"type": "LineString", "coordinates": [[-73.80037162978074, 40.87621919368667], [-73.80024459117534, 40.87597975538678]]}}, {"type": "Feature", "properties": {"segment_id": 1743592, "physicalid": "188747", "street_name": "SHORE RD", "borough": "bronx", "direction": "TW", "total_row_ft": 52.9, "roadbed_ft": 28.7, "median_ft": 0.0, "left_sw_ft": 9.3, "right_sw_ft": 15.0}, "geometry": {"type": "LineString", "coordinates": [[-73.80030424844931, 40.87623914067962], [-73.80017750693567, 40.87600026187324]]}}, {"type": "Feature", "properties": {"segment_id": 1743593, "physicalid": "188747", "street_name": "SHORE RD", "borough": "bronx", "direction": "TW", "total_row_ft": 52.2, "roadbed_ft": 28.1, "median_ft": 0.0, "left_sw_ft": 9.1, "right_sw_ft": 15.0}, "geometry": {"type": "LineString", "coordinates": [[-73.80023704506974, 40.87625942310733], [-73.80011042265463, 40.87602076832062]]}}, {"type": "Feature", "properties": {"segment_id": 1743594, "physicalid": "188747", "street_name": "SHORE RD", "borough": "bronx", "direction": "TW", "total_row_ft": 51.0, "roadbed_ft": 27.4, "median_ft": 0.0, "left_sw_ft": 8.7, "right_sw_ft": 15.0}, "geometry": {"type": "LineString", "coordinates": [[-73.80017025352359, 40.87628048178498], [-73.80004333833219, 40.876041274728955]]}}, {"type": "Feature", "properties": {"segment_id": 1743595, "physicalid": "188747", "street_name": "SHORE RD", "borough": "bronx", "direction": "TW", "total_row_ft": 50.8, "roadbed_ft": 27.4, "median_ft": 0.0, "left_sw_ft": 8.4, "right_sw_ft": 15.0}, "geometry": {"type": "LineString", "coordinates": [[-73.80010392130828, 40.87630240623883], [-73.79997625396838, 40.87606178109823]]}}]}