{"type": "FeatureCollection", "features": [{"type": "Feature", "properties": {"segment_id": 1399060, "physicalid": "94891", "street_name": "MERRITT AVE", "borough": "bronx", "direction": "TW", "total_row_ft": 56.4, "roadbed_ft": 35.0, "median_ft": 0.0, "left_sw_ft": 11.5, "right_sw_ft": 9.9}, "geometry": {"type": "LineString", "coordinates": [[-73.82943246704335, 40.89006065742572], [-73.82923002881391, 40.89004115269755]]}}, {"type": "Feature", "properties": {"segment_id": 1399061, "physicalid": "94891", "street_name": "MERRITT AVE", "borough": "bronx", "direction": "TW", "total_row_ft": 56.9, "roadbed_ft": 34.8, "median_ft": 0.0, "left_sw_ft": 11.8, "right_sw_ft": 10.3}, "geometry": {"type": "LineString", "coordinates": [[-73.82942524897769, 40.89011529631623], [-73.82922125078849, 40.8900956412894]]}}, {"type": "Feature", "properties": {"segment_id": 1399062, "physicalid": "94891", "street_name": "MERRITT AVE", "borough": "bronx", "direction": "TW", "total_row_ft": 47.0, "roadbed_ft": 34.2, "median_ft": 0.0, "left_sw_ft": 2.0, "right_sw_ft": 10.8}, "geometry": {"type": "LineString", "coordinates": [[-73.82941803086138, 40.89016993520197], [-73.82921247252693, 40.89015012985863]]}}, {"type": "Feature", "properties": {"segment_id": 1399063, "physicalid": "94891", "street_name": "MERRITT AVE", "borough": "bronx", "direction": "TW", "total_row_ft": 52.9, "roadbed_ft": 26.7, "median_ft": 0.0, "left_sw_ft": 15.0, "right_sw_ft": 11.3}, "geometry": {"type": "LineString", "coordinates": [[-73.8294984365781, 40.89023301644168], [-73.82920369425098, 40.89020461842668]]}}, {"type": "Feature", "properties": {"segment_id": 1399064, "physicalid": "94891", "street_name": "MERRITT AVE", "borough": "bronx", "direction": "TW", "total_row_ft": 48.8, "roadbed_ft": 21.2, "median_ft": 0.0, "left_sw_ft": 15.0, "right_sw_ft": 12.5}, "geometry": {"type": "LineString", "coordinates": [[-73.82948932596528, 40.89028747298928], [-73.82919205915205, 40.89025883174017]]}}, {"type": "Feature", "properties": {"segment_id": 1399065, "physicalid": "94891", "street_name": "MERRITT AVE", "borough": "bronx", "direction": "TW", "total_row_ft": 50.0, "roadbed_ft": 22.5, "median_ft": 0.0, "left_sw_ft": 15.0, "right_sw_ft": 12.5}, "geometry": {"type": "LineString", "coordinates": [[-73.8294494461213, 40.8903823315495], [-73.82917214146038, 40.890293121863664]]}}, {"type": "Feature", "properties": {"segment_id": 1399066, "physicalid": "94891", "street_name": "MERRITT AVE", "borough": "bronx", "direction": "TW", "total_row_ft": 52.1, "roadbed_ft": 25.2, "median_ft": 0.0, "left_sw_ft": 15.0, "right_sw_ft": 11.9}, "geometry": {"type": "LineString", "coordinates": [[-73.82942121371889, 40.890432871553905], [-73.82914296185935, 40.890343357138676]]}}, {"type": "Feature", "properties": {"segment_id": 1399067, "physicalid": "94891", "street_name": "MERRITT AVE", "borough": "bronx", "direction": "TW", "total_row_ft": 54.1, "roadbed_ft": 27.8, "median_ft": 0.0, "left_sw_ft": 15.0, "right_sw_ft": 11.3}, "geometry": {"type": "LineString", "coordinates": [[-73.82939298127353, 40.89048341155093], [-73.82911378221421, 40.89039359240584]]}}, {"type": "Feature", "properties": {"segment_id": 1399068, "physicalid": "94891", "street_name": "MERRITT AVE", "borough": "bronx", "direction": "TW", "total_row_ft": 56.1, "roadbed_ft": 30.5, "median_ft": 0.0, "left_sw_ft": 15.0, "right_sw_ft": 10.7}, "geometry": {"type": "LineString", "coordinates": [[-73.82936474878527, 40.89053395154058], [-73.82908460223838, 40.89044382757294]]}}, {"type": "Feature", "properties": {"segment_id": 1399069, "physicalid": "94891", "street_name": "MERRITT AVE", "borough": "bronx", "direction": "TW", "total_row_ft": 57.5, "roadbed_ft": 32.2, "median_ft": 0.0, "left_sw_ft": 15.0, "right_sw_ft": 10.3}, "geometry": {"type": "LineString", "coordinates": [[-73.82933651625405, 40.890584491522866], [-73.82905498905654, 40.890493923382024]]}}, {"type": "Feature", "properties": {"segment_id": 1399070, "physicalid": "94891", "street_name": "MERRITT AVE", "borough": "bronx", "direction": "TW", "total_row_ft": 58.5, "roadbed_ft": 33.3, "median_ft": 0.0, "left_sw_ft": 15.0, "right_sw_ft": 10.1}, "geometry": {"type": "LineString", "coordinates": [[-73.82930828367994, 40.8906350314977], [-73.82902482204643, 40.89054384102824]]}}, {"type": "Feature", "properties": {"segment_id": 1399071, "physicalid": "94891", "street_name": "MERRITT AVE", "borough": "bronx", "direction": "TW", "total_row_ft": 59.5, "roadbed_ft": 34.4, "median_ft": 0.0, "left_sw_ft": 15.0, "right_sw_ft": 10.0}, "geometry": {"type": "LineString", "coordinates": [[-73.82928005106287, 40.89068557146521], [-73.82899465476775, 40.89059375859428]]}}, {"type": "Feature", "properties": {"segment_id": 1399072, "physicalid": "94891", "street_name": "MERRITT AVE", "borough": "bronx", "direction": "TW", "total_row_ft": 60.5, "roadbed_ft": 35.6, "median_ft": 0.0, "left_sw_ft": 15.0, "right_sw_ft": 9.9}, "geometry": {"type": "LineString", "coordinates": [[-73.82925181840288, 40.89073611142534], [-73.82896448751801, 40.890643676175856]]}}, {"type": "Feature", "properties": {"segment_id": 1399073, "physicalid": "94891", "street_name": "MERRITT AVE", "borough": "bronx", "direction": "TW", "total_row_ft": 61.5, "roadbed_ft": 36.7, "median_ft": 0.0, "left_sw_ft": 15.0, "right_sw_ft": 9.8}, "geometry": {"type": "LineString", "coordinates": [[-73.82922358569995, 40.890786651378065], [-73.82893432021129, 40.89069359374532]]}}, {"type": "Feature", "properties": {"segment_id": 1399074, "physicalid": "94891", "street_name": "MERRITT AVE", "borough": "bronx", "direction": "TW", "total_row_ft": 62.5, "roadbed_ft": 37.6, "median_ft": 0.0, "left_sw_ft": 15.0, "right_sw_ft": 9.9}, "geometry": {"type": "LineString", "coordinates": [[-73.82919535295412, 40.890837191323385], [-73.82890415250486, 40.89074351119244]]}}, {"type": "Feature", "properties": {"segment_id": 1399075, "physicalid": "94891", "street_name": "MERRITT AVE", "borough": "bronx", "direction": "TW", "total_row_ft": 63.6, "roadbed_ft": 38.5, "median_ft": 0.0, "left_sw_ft": 15.0, "right_sw_ft": 10.0}, "geometry": {"type": "LineString", "coordinates": [[-73.82916712016532, 40.89088773126139], [-73.82887374024848, 40.8907933499728]]}}, {"type": "Feature", "properties": {"segment_id": 1399076, "physicalid": "94891", "street_name": "MERRITT AVE", "borough": "bronx", "direction": "TW", "total_row_ft": 64.6, "roadbed_ft": 39.3, "median_ft": 0.0, "left_sw_ft": 15.0, "right_sw_ft": 10.3}, "geometry": {"type": "LineString", "coordinates": [[-73.8291388873336, 40.89093827119202], [-73.82884289044277, 40.89084304799752]]}}, {"type": "Feature", "properties": {"segment_id": 1399077, "physicalid": "94891", "street_name": "MERRITT AVE", "borough": "bronx", "direction": "TW", "total_row_ft": 65.6, "roadbed_ft": 40.0, "median_ft": 0.0, "left_sw_ft": 15.0, "right_sw_ft": 10.6}, "geometry": {"type": "LineString", "coordinates": [[-73.82911065445897, 40.89098881111519], [-73.82881204097403, 40.89089274613681]]}}, {"type": "Feature", "properties": {"segment_id": 1399078, "physicalid": "94891", "street_name": "MERRITT AVE", "borough": "bronx", "direction": "TW", "total_row_ft": 66.6, "roadbed_ft": 40.5, "median_ft": 0.0, "left_sw_ft": 15.0, "right_sw_ft": 11.1}, "geometry": {"type": "LineString", "coordinates": [[-73.8290824215414, 40.89103935103103], [-73.82878119145916, 40.890942444267374]]}}, {"type": "Feature", "properties": {"segment_id": 1399079, "physicalid": "94891", "street_name": "MERRITT AVE", "borough": "bronx", "direction": "TW", "total_row_ft": 67.6, "roadbed_ft": 41.0, "median_ft": 0.0, "left_sw_ft": 15.0, "right_sw_ft": 11.5}, "geometry": {"type": "LineString", "coordinates": [[-73.8290541885809, 40.891089890939476], [-73.82875034187941, 40.89099214238319]]}}, {"type": "Feature", "properties": {"segment_id": 1399080, "physicalid": "94891", "street_name": "MERRITT AVE", "borough": "bronx", "direction": "TW", "total_row_ft": 68.5, "roadbed_ft": 41.5, "median_ft": 0.0, "left_sw_ft": 15.0, "right_sw_ft": 12.0}, "geometry": {"type": "LineString", "coordinates": [[-73.82902595557746, 40.89114043084055], [-73.82871949185005, 40.891041840360515]]}}, {"type": "Feature", "properties": {"segment_id": 1399081, "physicalid": "94891", "street_name": "MERRITT AVE", "borough": "bronx", "direction": "TW", "total_row_ft": 69.5, "roadbed_ft": 42.0, "median_ft": 0.0, "left_sw_ft": 15.0, "right_sw_ft": 12.5}, "geometry": {"type": "LineString", "coordinates": [[-73.8289977225311, 40.89119097073422], [-73.82868864177455, 40.89109153832911]]}}, {"type": "Feature", "properties": {"segment_id": 1399082, "physicalid": "94891", "street_name": "MERRITT AVE", "borough": "bronx", "direction": "TW", "total_row_ft": 68.5, "roadbed_ft": 42.0, "median_ft": 0.0, "left_sw_ft": 15.0, "right_sw_ft": 11.5}, "geometry": {"type": "LineString", "coordinates": [[-73.82896948944182, 40.891241510620524], [-73.82866197696698, 40.89114258272762]]}}, {"type": "Feature", "properties": {"segment_id": 1399083, "physicalid": "94891", "street_name": "MERRITT AVE", "borough": "bronx", "direction": "TW", "total_row_ft": 67.6, "roadbed_ft": 41.5, "median_ft": 0.0, "left_sw_ft": 15.0, "right_sw_ft": 11.1}, "geometry": {"type": "LineString", "coordinates": [[-73.82894125630959, 40.891292050499445], [-73.82863245336237, 40.891192707441846]]}}, {"type": "Feature", "properties": {"segment_id": 1399084, "physicalid": "94891", "street_name": "MERRITT AVE", "borough": "bronx", "direction": "TW", "total_row_ft": 30.0, "roadbed_ft": 0.0, "median_ft": 0.0, "left_sw_ft": 15.0, "right_sw_ft": 15.0}, "geometry": {"type": "LineString", "coordinates": [[-73.82891302313443, 40.891342590370975], [-73.82851342758129, 40.89121403876376]]}}, {"type": "Feature", "properties": {"segment_id": 1399085, "physicalid": "94891", "street_name": "MERRITT AVE", "borough": "bronx", "direction": "TW", "total_row_ft": 30.0, "roadbed_ft": 0.0, "median_ft": 0.0, "left_sw_ft": 15.0, "right_sw_ft": 15.0}, "geometry": {"type": "LineString", "coordinates": [[-73.82888478991634, 40.89139313023514], [-73.82848519411398, 40.89126457853138]]}}, {"type": "Feature", "properties": {"segment_id": 1496001, "physicalid": "100951", "street_name": "MULVEY AVE", "borough": "bronx", "direction": "TW", "total_row_ft": 55.4, "roadbed_ft": 32.0, "median_ft": 0.0, "left_sw_ft": 15.0, "right_sw_ft": 8.5}, "geometry": {"type": "LineString", "coordinates": [[-73.82863905789156, 40.89006355739471], [-73.82830945371215, 40.89004159282401]]}}, {"type": "Feature", "properties": {"segment_id": 1496002, "physicalid": "100951", "street_name": "MULVEY AVE", "borough": "bronx", "direction": "TW", "total_row_ft": 56.5, "roadbed_ft": 32.1, "median_ft": 0.0, "left_sw_ft": 15.0, "right_sw_ft": 9.3}, "geometry": {"type": "LineString", "coordinates": [[-73.82863273041245, 40.8901182406613], [-73.82829779790522, 40.890095921007116]]}}, {"type": "Feature", "properties": {"segment_id": 1496003, "physicalid": "100951", "street_name": "MULVEY AVE", "borough": "bronx", "direction": "TW", "total_row_ft": 57.4, "roadbed_ft": 32.3, "median_ft": 0.0, "left_sw_ft": 15.0, "right_sw_ft": 10.1}, "geometry": {"type": "LineString", "coordinates": [[-73.82862640292292, 40.890172923927], [-73.82828614276391, 40.89015024923416]]}}, {"type": "Feature", "properties": {"segment_id": 1496004, "physicalid": "100951", "street_name": "MULVEY AVE", "borough": "bronx", "direction": "TW", "total_row_ft": 62.5, "roadbed_ft": 32.5, "median_ft": 0.0, "left_sw_ft": 15.0, "right_sw_ft": 15.0}, "geometry": {"type": "LineString", "coordinates": [[-73.82862007542298, 40.890227607191804], [-73.82818772662733, 40.89019879560321]]}}, {"type": "Feature", "properties": {"segment_id": 1496005, "physicalid": "100951", "street_name": "MULVEY AVE", "borough": "bronx", "direction": "TW", "total_row_ft": 62.8, "roadbed_ft": 32.8, "median_ft": 0.0, "left_sw_ft": 15.0, "right_sw_ft": 15.0}, "geometry": {"type": "LineString", "coordinates": [[-73.82861374791264, 40.89028229045565], [-73.82818139876406, 40.890253478843704]]}}, {"type": "Feature", "properties": {"segment_id": 1509893, "physicalid": "101791", "street_name": "EDISON AVE", "borough": "bronx", "direction": "TW", "total_row_ft": 63.9, "roadbed_ft": 33.9, "median_ft": 0.0, "left_sw_ft": 15.0, "right_sw_ft": 15.0}, "geometry": {"type": "LineString", "coordinates": [[-73.82501078265236, 40.89026457566031], [-73.825431913425, 40.890344226158454]]}}, {"type": "Feature", "properties": {"segment_id": 1509894, "physicalid": "101791", "street_name": "EDISON AVE", "borough": "bronx", "direction": "TW", "total_row_ft": 63.6, "roadbed_ft": 33.6, "median_ft": 0.0, "left_sw_ft": 15.0, "right_sw_ft": 15.0}, "geometry": {"type": "LineString", "coordinates": [[-73.82502827588587, 40.890211311361355], [-73.82544940634205, 40.89029096179646]]}}, {"type": "Feature", "properties": {"segment_id": 1509895, "physicalid": "101791", "street_name": "EDISON AVE", "borough": "bronx", "direction": "TW", "total_row_ft": 63.4, "roadbed_ft": 33.4, "median_ft": 0.0, "left_sw_ft": 15.0, "right_sw_ft": 15.0}, "geometry": {"type": "LineString", "coordinates": [[-73.82504576909137, 40.89015804705918], [-73.82546689923106, 40.890237697431324]]}}, {"type": "Feature", "properties": {"segment_id": 1509896, "physicalid": "101791", "street_name": "EDISON AVE", "borough": "bronx", "direction": "TW", "total_row_ft": 63.0, "roadbed_ft": 33.0, "median_ft": 0.0, "left_sw_ft": 15.0, "right_sw_ft": 15.0}, "geometry": {"type": "LineString", "coordinates": [[-73.82506326226883, 40.8901047827539], [-73.82548439209205, 40.890184433062956]]}}, {"type": "Feature", "properties": {"segment_id": 1509897, "physicalid": "101791", "street_name": "EDISON AVE", "borough": "bronx", "direction": "TW", "total_row_ft": 62.6, "roadbed_ft": 32.6, "median_ft": 0.0, "left_sw_ft": 15.0, "right_sw_ft": 15.0}, "geometry": {"type": "LineString", "coordinates": [[-73.82508075541826, 40.8900515184454], [-73.82550188492502, 40.89013116869143]]}}, {"type": "Feature", "properties": {"segment_id": 1509898, "physicalid": "101791", "street_name": "EDISON AVE", "borough": "bronx", "direction": "TW", "total_row_ft": 30.0, "roadbed_ft": 0.0, "median_ft": 0.0, "left_sw_ft": 15.0, "right_sw_ft": 15.0}, "geometry": {"type": "LineString", "coordinates": [[-73.82509824853967, 40.889998254133694], [-73.82551937772992, 40.890077904316755]]}}, {"type": "Feature", "properties": {"segment_id": 1677002, "physicalid": "169949", "street_name": "PROVOST AVE", "borough": "bronx", "direction": "TF", "total_row_ft": 63.4, "roadbed_ft": 44.8, "median_ft": 0.0, "left_sw_ft": 3.6, "right_sw_ft": 15.0}, "geometry": {"type": "LineString", "coordinates": [[-73.82780480688437, 40.89008823759529], [-73.82739124545823, 40.88998832790463]]}}, {"type": "Feature", "properties": {"segment_id": 1677003, "physicalid": "169949", "street_name": "PROVOST AVE", "borough": "bronx", "direction": "TF", "total_row_ft": 63.4, "roadbed_ft": 44.5, "median_ft": 0.0, "left_sw_ft": 3.9, "right_sw_ft": 15.0}, "geometry": {"type": "LineString", "coordinates": [[-73.82778286462629, 40.890140544806954], [-73.8273693029077, 40.89004063503863]]}}, {"type": "Feature", "properties": {"segment_id": 1677004, "physicalid": "169949", "street_name": "PROVOST AVE", "borough": "bronx", "direction": "TF", "total_row_ft": 63.5, "roadbed_ft": 44.3, "median_ft": 0.0, "left_sw_ft": 4.2, "right_sw_ft": 15.0}, "geometry": {"type": "LineString", "coordinates": [[-73.82776092233368, 40.89019285201391], [-73.82734736032265, 40.89009294216795]]}}, {"type": "Feature", "properties": {"segment_id": 1677005, "physicalid": "169949", "street_name": "PROVOST AVE", "borough": "bronx", "direction": "TF", "total_row_ft": 63.9, "roadbed_ft": 44.3, "median_ft": 0.0, "left_sw_ft": 4.6, "right_sw_ft": 15.0}, "geometry": {"type": "LineString", "coordinates": [[-73.82773898000654, 40.89024515921619], [-73.82732541770307, 40.89014524929261]]}}, {"type": "Feature", "properties": {"segment_id": 1677006, "physicalid": "169949", "street_name": "PROVOST AVE", "borough": "bronx", "direction": "TF", "total_row_ft": 64.6, "roadbed_ft": 44.7, "median_ft": 0.0, "left_sw_ft": 4.9, "right_sw_ft": 15.0}, "geometry": {"type": "LineString", "coordinates": [[-73.82771703764487, 40.89029746641375], [-73.82730347504894, 40.89019755641259]]}}, {"type": "Feature", "properties": {"segment_id": 1677007, "physicalid": "169949", "street_name": "PROVOST AVE", "borough": "bronx", "direction": "TF", "total_row_ft": 73.2, "roadbed_ft": 43.2, "median_ft": 0.0, "left_sw_ft": 15.0, "right_sw_ft": 15.0}, "geometry": {"type": "LineString", "coordinates": [[-73.82755927089957, 40.89044697288451], [-73.8274002410907, 40.89014051767957]]}}, {"type": "Feature", "properties": {"segment_id": 1677008, "physicalid": "169949", "street_name": "PROVOST AVE", "borough": "bronx", "direction": "TF", "total_row_ft": 81.4, "roadbed_ft": 64.8, "median_ft": 0.0, "left_sw_ft": 1.5, "right_sw_ft": 15.0}, "geometry": {"type": "LineString", "coordinates": [[-73.82749196611701, 40.89046708689416], [-73.82733293657024, 40.890160631597624]]}}, {"type": "Feature", "properties": {"segment_id": 1677031, "physicalid": "169950", "street_name": "PROVOST AVE", "borough": "bronx", "direction": "TW", "total_row_ft": 69.9, "roadbed_ft": 44.8, "median_ft": 0.0, "left_sw_ft": 15.0, "right_sw_ft": 10.1}, "geometry": {"type": "LineString", "coordinates": [[-73.82765024186902, 40.89005616208649], [-73.82736119242162, 40.89000256147322]]}}, {"type": "Feature", "properties": {"segment_id": 1677032, "physicalid": "169950", "street_name": "PROVOST AVE", "borough": "bronx", "direction": "TW", "total_row_ft": 69.6, "roadbed_ft": 44.5, "median_ft": 0.0, "left_sw_ft": 15.0, "right_sw_ft": 10.1}, "geometry": {"type": "LineString", "coordinates": [[-73.82763307152874, 40.89010948685265], [-73.82734021335308, 40.89005517995075]]}}, {"type": "Feature", "properties": {"segment_id": 1677033, "physicalid": "169950", "street_name": "PROVOST AVE", "borough": "bronx", "direction": "TW", "total_row_ft": 69.5, "roadbed_ft": 44.3, "median_ft": 0.0, "left_sw_ft": 15.0, "right_sw_ft": 10.2}, "geometry": {"type": "LineString", "coordinates": [[-73.82761590116093, 40.89016281161565], [-73.8273191097115, 40.890107775329405]]}}, {"type": "Feature", "properties": {"segment_id": 1677034, "physicalid": "169950", "street_name": "PROVOST AVE", "borough": "bronx", "direction": "TW", "total_row_ft": 69.5, "roadbed_ft": 44.5, "median_ft": 0.0, "left_sw_ft": 15.0, "right_sw_ft": 10.0}, "geometry": {"type": "LineString", "coordinates": [[-73.82759873076553, 40.89021613637567], [-73.82729872981396, 40.890160504920274]]}}, {"type": "Feature", "properties": {"segment_id": 1677035, "physicalid": "169950", "street_name": "PROVOST AVE", "borough": "bronx", "direction": "TW", "total_row_ft": 69.8, "roadbed_ft": 45.1, "median_ft": 0.0, "left_sw_ft": 15.0, "right_sw_ft": 9.7}, "geometry": {"type": "LineString", "coordinates": [[-73.82758421347049, 40.890261222100705], [-73.82727778747605, 40.89021694113438]]}}, {"type": "Feature", "properties": {"segment_id": 1677036, "physicalid": "169950", "street_name": "PROVOST AVE", "borough": "bronx", "direction": "TW", "total_row_ft": 72.2, "roadbed_ft": 48.1, "median_ft": 0.0, "left_sw_ft": 15.0, "right_sw_ft": 9.1}, "geometry": {"type": "LineString", "coordinates": [[-73.82757068233012, 40.8903151469011], [-73.82725885544912, 40.89027008533679]]}}, {"type": "Feature", "properties": {"segment_id": 1677037, "physicalid": "169951", "street_name": "PROVOST AVE", "borough": "bronx", "direction": "TW", "total_row_ft": 54.4, "roadbed_ft": 31.1, "median_ft": 0.0, "left_sw_ft": 15.0, "right_sw_ft": 8.3}, "geometry": {"type": "LineString", "coordinates": [[-73.82753776840397, 40.890420170989884], [-73.82723140015868, 40.89035144003124]]}}, {"type": "Feature", "properties": {"segment_id": 1677038, "physicalid": "169951", "street_name": "PROVOST AVE", "borough": "bronx", "direction": "TW", "total_row_ft": 54.9, "roadbed_ft": 31.0, "median_ft": 0.0, "left_sw_ft": 15.0, "right_sw_ft": 8.8}, "geometry": {"type": "LineString", "coordinates": [[-73.82751726172378, 40.89047281261644], [-73.82721433778113, 40.890404854357385]]}}, {"type": "Feature", "properties": {"segment_id": 1677039, "physicalid": "169951", "street_name": "PROVOST AVE", "borough": "bronx", "direction": "TW", "total_row_ft": 55.0, "roadbed_ft": 29.9, "median_ft": 0.0, "left_sw_ft": 15.0, "right_sw_ft": 10.1}, "geometry": {"type": "LineString", "coordinates": [[-73.8275031886102, 40.89051791485857], [-73.82719688359504, 40.890462128499536]]}}, {"type": "Feature", "properties": {"segment_id": 1677040, "physicalid": "169951", "street_name": "PROVOST AVE", "borough": "bronx", "direction": "TW", "total_row_ft": 54.3, "roadbed_ft": 29.0, "median_ft": 0.0, "left_sw_ft": 15.0, "right_sw_ft": 10.3}, "geometry": {"type": "LineString", "coordinates": [[-73.82748935924411, 40.89056304899099], [-73.82718419844407, 40.890520035904665]]}}, {"type": "Feature", "properties": {"segment_id": 1677041, "physicalid": "169951", "street_name": "PROVOST AVE", "borough": "bronx", "direction": "TW", "total_row_ft": 53.3, "roadbed_ft": 28.4, "median_ft": 0.0, "left_sw_ft": 15.0, "right_sw_ft": 9.9}, "geometry": {"type": "LineString", "coordinates": [[-73.82747614971632, 40.89061701961895], [-73.82717430468259, 40.89057447390111]]}}, {"type": "Feature", "properties": {"segment_id": 1677042, "physicalid": "169951", "street_name": "PROVOST AVE", "borough": "bronx", "direction": "TW", "total_row_ft": 52.6, "roadbed_ft": 27.6, "median_ft": 0.0, "left_sw_ft": 15.0, "right_sw_ft": 10.0}, "geometry": {"type": "LineString", "coordinates": [[-73.82746624522215, 40.890662736270734], [-73.82716379142529, 40.89063232042205]]}}, {"type": "Feature", "properties": {"segment_id": 1677043, "physicalid": "169951", "street_name": "PROVOST AVE", "borough": "bronx", "direction": "TW", "total_row_ft": 52.7, "roadbed_ft": 27.4, "median_ft": 0.0, "left_sw_ft": 15.0, "right_sw_ft": 10.3}, "geometry": {"type": "LineString", "coordinates": [[-73.82745674265536, 40.890717154230465], [-73.82715390789289, 40.89068670006991]]}}, {"type": "Feature", "properties": {"segment_id": 1677044, "physicalid": "169951", "street_name": "PROVOST AVE", "borough": "bronx", "direction": "TW", "total_row_ft": 46.0, "roadbed_ft": 27.7, "median_ft": 0.0, "left_sw_ft": 7.3, "right_sw_ft": 10.9}, "geometry": {"type": "LineString", "coordinates": [[-73.82730904970647, 40.89075465770541], [-73.82714338488036, 40.89074459706987]]}}, {"type": "Feature", "properties": {"segment_id": 1677045, "physicalid": "169951", "street_name": "PROVOST AVE", "borough": "bronx", "direction": "TW", "total_row_ft": 45.8, "roadbed_ft": 28.5, "median_ft": 0.0, "left_sw_ft": 7.1, "right_sw_ft": 10.2}, "geometry": {"type": "LineString", "coordinates": [[-73.82730467125943, 40.890809460976136], [-73.82713954084211, 40.89079943279708]]}}, {"type": "Feature", "properties": {"segment_id": 1677046, "physicalid": "169951", "street_name": "PROVOST AVE", "borough": "bronx", "direction": "TW", "total_row_ft": 46.0, "roadbed_ft": 29.9, "median_ft": 0.0, "left_sw_ft": 7.1, "right_sw_ft": 9.0}, "geometry": {"type": "LineString", "coordinates": [[-73.82730344015582, 40.89086133881847], [-73.8271372408999, 40.89085781152535]]}}]}