{"type": "FeatureCollection", "features": [{"type": "Feature", "properties": {"segment_id": 514043, "physicalid": "37258", "street_name": "PELHAM PKWY", "borough": "bronx", "direction": "TF", "total_row_ft": 51.8, "roadbed_ft": 21.8, "median_ft": 0.0, "left_sw_ft": 15.0, "right_sw_ft": 15.0}, "geometry": {"type": "LineString", "coordinates": [[-73.82009955767423, 40.85832935942154], [-73.81987327751786, 40.85804835309063]]}}, {"type": "Feature", "properties": {"segment_id": 514044, "physicalid": "37258", "street_name": "PELHAM PKWY", "borough": "bronx", "direction": "TF", "total_row_ft": 52.0, "roadbed_ft": 22.0, "median_ft": 0.0, "left_sw_ft": 15.0, "right_sw_ft": 15.0}, "geometry": {"type": "LineString", "coordinates": [[-73.82003787224514, 40.85835799321586], [-73.81981159225204, 40.858076986765376]]}}, {"type": "Feature", "properties": {"segment_id": 514045, "physicalid": "37258", "street_name": "PELHAM PKWY", "borough": "bronx", "direction": "TF", "total_row_ft": 52.2, "roadbed_ft": 22.2, "median_ft": 0.0, "left_sw_ft": 15.0, "right_sw_ft": 15.0}, "geometry": {"type": "LineString", "coordinates": [[-73.81997087647727, 40.858388092788395], [-73.81975414296751, 40.858102781372125]]}}, {"type": "Feature", "properties": {"segment_id": 514046, "physicalid": "37258", "street_name": "PELHAM PKWY", "borough": "bronx", "direction": "TF", "total_row_ft": 52.1, "roadbed_ft": 22.1, "median_ft": 0.0, "left_sw_ft": 15.0, "right_sw_ft": 15.0}, "geometry": {"type": "LineString", "coordinates": [[-73.81990824595289, 40.85841551851332], [-73.81969151262238, 40.85813020698082]]}}, {"type": "Feature", "properties": {"segment_id": 514047, "physicalid": "37258", "street_name": "PELHAM PKWY", "borough": "bronx", "direction": "TF", "total_row_ft": 51.9, "roadbed_ft": 21.9, "median_ft": 0.0, "left_sw_ft": 15.0, "right_sw_ft": 15.0}, "geometry": {"type": "LineString", "coordinates": [[-73.8198456153768, 40.85844294420413], [-73.81962888222564, 40.85815763255531]]}}, {"type": "Feature", "properties": {"segment_id": 514048, "physicalid": "37258", "street_name": "PELHAM PKWY", "borough": "bronx", "direction": "TF", "total_row_ft": 52.1, "roadbed_ft": 22.1, "median_ft": 0.0, "left_sw_ft": 15.0, "right_sw_ft": 15.0}, "geometry": {"type": "LineString", "coordinates": [[-73.81978936582426, 40.858468506392285], [-73.81956106775765, 40.85818844229521]]}}, {"type": "Feature", "properties": {"segment_id": 514049, "physicalid": "37258", "street_name": "PELHAM PKWY", "borough": "bronx", "direction": "TF", "total_row_ft": 53.5, "roadbed_ft": 23.5, "median_ft": 0.0, "left_sw_ft": 15.0, "right_sw_ft": 15.0}, "geometry": {"type": "LineString", "coordinates": [[-73.81972788710141, 40.85849739547436], [-73.81949958919452, 40.85821733125707]]}}, {"type": "Feature", "properties": {"segment_id": 514050, "physicalid": "37258", "street_name": "PELHAM PKWY", "borough": "bronx", "direction": "TF", "total_row_ft": 55.5, "roadbed_ft": 25.5, "median_ft": 0.0, "left_sw_ft": 15.0, "right_sw_ft": 15.0}, "geometry": {"type": "LineString", "coordinates": [[-73.81966640832516, 40.85852628452352], [-73.81943811057798, 40.858246220186025]]}}, {"type": "Feature", "properties": {"segment_id": 514051, "physicalid": "37258", "street_name": "PELHAM PKWY", "borough": "bronx", "direction": "TF", "total_row_ft": 57.3, "roadbed_ft": 27.3, "median_ft": 0.0, "left_sw_ft": 15.0, "right_sw_ft": 15.0}, "geometry": {"type": "LineString", "coordinates": [[-73.81961117215636, 40.858553090445405], [-73.81937152965838, 40.85827854378471]]}}, {"type": "Feature", "properties": {"segment_id": 514052, "physicalid": "37258", "street_name": "PELHAM PKWY", "borough": "bronx", "direction": "TF", "total_row_ft": 59.1, "roadbed_ft": 29.1, "median_ft": 0.0, "left_sw_ft": 15.0, "right_sw_ft": 15.0}, "geometry": {"type": "LineString", "coordinates": [[-73.8195509045296, 40.85858341502388], [-73.81931126217115, 40.8583088682395]]}}, {"type": "Feature", "properties": {"segment_id": 514053, "physicalid": "37258", "street_name": "PELHAM PKWY", "borough": "bronx", "direction": "TF", "total_row_ft": 61.2, "roadbed_ft": 31.2, "median_ft": 0.0, "left_sw_ft": 15.0, "right_sw_ft": 15.0}, "geometry": {"type": "LineString", "coordinates": [[-73.8194906368479, 40.858613739570735], [-73.81925099462897, 40.85833919266263]]}}, {"type": "Feature", "properties": {"segment_id": 514054, "physicalid": "37258", "street_name": "PELHAM PKWY", "borough": "bronx", "direction": "TF", "total_row_ft": 63.0, "roadbed_ft": 33.0, "median_ft": 0.0, "left_sw_ft": 15.0, "right_sw_ft": 15.0}, "geometry": {"type": "LineString", "coordinates": [[-73.81943646169182, 40.858641766128414], [-73.81918570566872, 40.85837300178697]]}}, {"type": "Feature", "properties": {"segment_id": 514055, "physicalid": "37258", "street_name": "PELHAM PKWY", "borough": "bronx", "direction": "TF", "total_row_ft": 64.8, "roadbed_ft": 34.8, "median_ft": 0.0, "left_sw_ft": 15.0, "right_sw_ft": 15.0}, "geometry": {"type": "LineString", "coordinates": [[-73.81937746330722, 40.85867349697828], [-73.81912670740293, 40.85840473251008]]}}, {"type": "Feature", "properties": {"segment_id": 514056, "physicalid": "37258", "street_name": "PELHAM PKWY", "borough": "bronx", "direction": "TF", "total_row_ft": 66.5, "roadbed_ft": 36.5, "median_ft": 0.0, "left_sw_ft": 15.0, "right_sw_ft": 15.0}, "geometry": {"type": "LineString", "coordinates": [[-73.81931846486636, 40.85870522779775], [-73.81906770908083, 40.85843646320285]]}}, {"type": "Feature", "properties": {"segment_id": 514057, "physicalid": "37258", "street_name": "PELHAM PKWY", "borough": "bronx", "direction": "TF", "total_row_ft": 67.4, "roadbed_ft": 37.4, "median_ft": 0.0, "left_sw_ft": 15.0, "right_sw_ft": 15.0}, "geometry": {"type": "LineString", "coordinates": [[-73.81926539720133, 40.858734450971795], [-73.81900376959935, 40.85847172808937]]}}, {"type": "Feature", "properties": {"segment_id": 514058, "physicalid": "37258", "street_name": "PELHAM PKWY", "borough": "bronx", "direction": "TF", "total_row_ft": 66.9, "roadbed_ft": 36.9, "median_ft": 0.0, "left_sw_ft": 15.0, "right_sw_ft": 15.0}, "geometry": {"type": "LineString", "coordinates": [[-73.81920772494476, 40.858767557470784], [-73.81894609744039, 40.85850483445909]]}}, {"type": "Feature", "properties": {"segment_id": 514059, "physicalid": "37258", "street_name": "PELHAM PKWY", "borough": "bronx", "direction": "TF", "total_row_ft": 66.9, "roadbed_ft": 36.9, "median_ft": 0.0, "left_sw_ft": 15.0, "right_sw_ft": 15.0}, "geometry": {"type": "LineString", "coordinates": [[-73.81915005263079, 40.858800663940755], [-73.81888842522399, 40.85853794079983]]}}, {"type": "Feature", "properties": {"segment_id": 514060, "physicalid": "37258", "street_name": "PELHAM PKWY", "borough": "bronx", "direction": "TF", "total_row_ft": 69.2, "roadbed_ft": 39.2, "median_ft": 0.0, "left_sw_ft": 15.0, "right_sw_ft": 15.0}, "geometry": {"type": "LineString", "coordinates": [[-73.8190981382181, 40.85883105854806], [-73.81882589130538, 40.85857463052095]]}}, {"type": "Feature", "properties": {"segment_id": 514061, "physicalid": "37258", "street_name": "PELHAM PKWY", "borough": "bronx", "direction": "TF", "total_row_ft": 77.4, "roadbed_ft": 47.4, "median_ft": 0.0, "left_sw_ft": 15.0, "right_sw_ft": 15.0}, "geometry": {"type": "LineString", "coordinates": [[-73.81904184771517, 40.85886550876778], [-73.81876960087847, 40.8586090806094]]}}, {"type": "Feature", "properties": {"segment_id": 514062, "physicalid": "37258", "street_name": "PELHAM PKWY", "borough": "bronx", "direction": "TF", "total_row_ft": 80.4, "roadbed_ft": 50.4, "median_ft": 0.0, "left_sw_ft": 15.0, "right_sw_ft": 15.0}, "geometry": {"type": "LineString", "coordinates": [[-73.81898555715395, 40.85889995895981], [-73.81871331039322, 40.85864353067018]]}}, {"type": "Feature", "properties": {"segment_id": 514063, "physicalid": "37258", "street_name": "PELHAM PKWY", "borough": "bronx", "direction": "TF", "total_row_ft": 80.9, "roadbed_ft": 50.9, "median_ft": 0.0, "left_sw_ft": 15.0, "right_sw_ft": 15.0}, "geometry": {"type": "LineString", "coordinates": [[-73.81893592197434, 40.8589309115768], [-73.81865131466748, 40.85868233999973]]}}, {"type": "Feature", "properties": {"segment_id": 514064, "physicalid": "37258", "street_name": "PELHAM PKWY", "borough": "bronx", "direction": "TF", "total_row_ft": 81.6, "roadbed_ft": 51.6, "median_ft": 0.0, "left_sw_ft": 15.0, "right_sw_ft": 15.0}, "geometry": {"type": "LineString", "coordinates": [[-73.81888135602611, 40.85896692582763], [-73.81859674876912, 40.85871835411751]]}}, {"type": "Feature", "properties": {"segment_id": 514065, "physicalid": "37258", "street_name": "PELHAM PKWY", "borough": "bronx", "direction": "TF", "total_row_ft": 83.6, "roadbed_ft": 53.6, "median_ft": 0.0, "left_sw_ft": 15.0, "right_sw_ft": 15.0}, "geometry": {"type": "LineString", "coordinates": [[-73.81882679001879, 40.8590029400524], [-73.81854218281163, 40.85875436820927]]}}, {"type": "Feature", "properties": {"segment_id": 514066, "physicalid": "37258", "street_name": "PELHAM PKWY", "borough": "bronx", "direction": "TF", "total_row_ft": 90.9, "roadbed_ft": 60.9, "median_ft": 0.0, "left_sw_ft": 15.0, "right_sw_ft": 15.0}, "geometry": {"type": "LineString", "coordinates": [[-73.81877222395241, 40.85903895425111], [-73.81848761679503, 40.85879038227499]]}}, {"type": "Feature", "properties": {"segment_id": 514067, "physicalid": "37258", "street_name": "PELHAM PKWY", "borough": "bronx", "direction": "TF", "total_row_ft": 74.9, "roadbed_ft": 58.7, "median_ft": 0.0, "left_sw_ft": 1.2, "right_sw_ft": 15.0}, "geometry": {"type": "LineString", "coordinates": [[-73.8187176578269, 40.859074968423826], [-73.81843305071938, 40.85882639631463]]}}, {"type": "Feature", "properties": {"segment_id": 514068, "physicalid": "37258", "street_name": "PELHAM PKWY", "borough": "bronx", "direction": "TF", "total_row_ft": 76.0, "roadbed_ft": 56.5, "median_ft": 0.0, "left_sw_ft": 4.5, "right_sw_ft": 15.0}, "geometry": {"type": "LineString", "coordinates": [[-73.8186630916423, 40.8591109825705], [-73.81837848458458, 40.8588624103283]]}}, {"type": "Feature", "properties": {"segment_id": 514069, "physicalid": "37258", "street_name": "PELHAM PKWY", "borough": "bronx", "direction": "TF", "total_row_ft": 76.7, "roadbed_ft": 54.7, "median_ft": 0.0, "left_sw_ft": 7.0, "right_sw_ft": 15.0}, "geometry": {"type": "LineString", "coordinates": [[-73.81860852539863, 40.85914699669111], [-73.8183239183907, 40.85889842431591]]}}, {"type": "Feature", "properties": {"segment_id": 514070, "physicalid": "37258", "street_name": "PELHAM PKWY", "borough": "bronx", "direction": "TF", "total_row_ft": 77.4, "roadbed_ft": 53.0, "median_ft": 0.0, "left_sw_ft": 9.4, "right_sw_ft": 15.0}, "geometry": {"type": "LineString", "coordinates": [[-73.81855395909581, 40.85918301078571], [-73.81826935213778, 40.85893443827746]]}}, {"type": "Feature", "properties": {"segment_id": 514071, "physicalid": "37258", "street_name": "PELHAM PKWY", "borough": "bronx", "direction": "TF", "total_row_ft": 77.7, "roadbed_ft": 51.4, "median_ft": 0.0, "left_sw_ft": 11.3, "right_sw_ft": 15.0}, "geometry": {"type": "LineString", "coordinates": [[-73.81849939273393, 40.85921902485427], [-73.81821478582572, 40.85897045221301]]}}, {"type": "Feature", "properties": {"segment_id": 514072, "physicalid": "37258", "street_name": "PELHAM PKWY", "borough": "bronx", "direction": "TF", "total_row_ft": 77.4, "roadbed_ft": 50.4, "median_ft": 0.0, "left_sw_ft": 12.0, "right_sw_ft": 15.0}, "geometry": {"type": "LineString", "coordinates": [[-73.81844482631297, 40.85925503889679], [-73.81816298145134, 40.85900887843515]]}}, {"type": "Feature", "properties": {"segment_id": 514073, "physicalid": "37258", "street_name": "PELHAM PKWY", "borough": "bronx", "direction": "TF", "total_row_ft": 76.6, "roadbed_ft": 49.4, "median_ft": 0.0, "left_sw_ft": 12.2, "right_sw_ft": 15.0}, "geometry": {"type": "LineString", "coordinates": [[-73.8183902598329, 40.85929105291324], [-73.81811302370923, 40.859048917525264]]}}, {"type": "Feature", "properties": {"segment_id": 514074, "physicalid": "37258", "street_name": "PELHAM PKWY", "borough": "bronx", "direction": "TF", "total_row_ft": 76.4, "roadbed_ft": 48.7, "median_ft": 0.0, "left_sw_ft": 12.7, "right_sw_ft": 15.0}, "geometry": {"type": "LineString", "coordinates": [[-73.81833569329369, 40.85932706690372], [-73.81806277054709, 40.859088698627424]]}}, {"type": "Feature", "properties": {"segment_id": 514098, "physicalid": "37259", "street_name": "PELHAM PKWY", "borough": "bronx", "direction": "FT", "total_row_ft": 65.4, "roadbed_ft": 35.4, "median_ft": 0.0, "left_sw_ft": 15.0, "right_sw_ft": 15.0}, "geometry": {"type": "LineString", "coordinates": [[-73.82008565170993, 40.858060738146776], [-73.81985221713848, 40.85778312626735]]}}, {"type": "Feature", "properties": {"segment_id": 514099, "physicalid": "37259", "street_name": "PELHAM PKWY", "borough": "bronx", "direction": "FT", "total_row_ft": 69.4, "roadbed_ft": 39.4, "median_ft": 0.0, "left_sw_ft": 15.0, "right_sw_ft": 15.0}, "geometry": {"type": "LineString", "coordinates": [[-73.82003026565847, 40.858088881610065], [-73.8197873845943, 40.857815981271465]]}}, {"type": "Feature", "properties": {"segment_id": 514100, "physicalid": "37259", "street_name": "PELHAM PKWY", "borough": "bronx", "direction": "FT", "total_row_ft": 72.9, "roadbed_ft": 42.9, "median_ft": 0.0, "left_sw_ft": 15.0, "right_sw_ft": 15.0}, "geometry": {"type": "LineString", "coordinates": [[-73.8199703598517, 40.85811961621634], [-73.8197274789211, 40.85784671575311]]}}, {"type": "Feature", "properties": {"segment_id": 514101, "physicalid": "37259", "street_name": "PELHAM PKWY", "borough": "bronx", "direction": "FT", "total_row_ft": 75.7, "roadbed_ft": 45.7, "median_ft": 0.0, "left_sw_ft": 15.0, "right_sw_ft": 15.0}, "geometry": {"type": "LineString", "coordinates": [[-73.81991045398955, 40.85815035079133], [-73.81966757319253, 40.857877450203475]]}}, {"type": "Feature", "properties": {"segment_id": 514102, "physicalid": "37259", "street_name": "PELHAM PKWY", "borough": "bronx", "direction": "FT", "total_row_ft": 78.3, "roadbed_ft": 48.3, "median_ft": 0.0, "left_sw_ft": 15.0, "right_sw_ft": 15.0}, "geometry": {"type": "LineString", "coordinates": [[-73.8198593972299, 40.85817749741316], [-73.81960028557233, 40.85791334232168]]}}, {"type": "Feature", "properties": {"segment_id": 514103, "physicalid": "37259", "street_name": "PELHAM PKWY", "borough": "bronx", "direction": "FT", "total_row_ft": 80.6, "roadbed_ft": 50.6, "median_ft": 0.0, "left_sw_ft": 15.0, "right_sw_ft": 15.0}, "geometry": {"type": "LineString", "coordinates": [[-73.81980141106845, 40.858210285821386], [-73.81954229951346, 40.857946130601206]]}}, {"type": "Feature", "properties": {"segment_id": 514104, "physicalid": "37259", "street_name": "PELHAM PKWY", "borough": "bronx", "direction": "FT", "total_row_ft": 82.8, "roadbed_ft": 52.8, "median_ft": 0.0, "left_sw_ft": 15.0, "right_sw_ft": 15.0}, "geometry": {"type": "LineString", "coordinates": [[-73.81974342484982, 40.858243074200274], [-73.8194843133974, 40.85797891885141]]}}, {"type": "Feature", "properties": {"segment_id": 514105, "physicalid": "37259", "street_name": "PELHAM PKWY", "borough": "bronx", "direction": "FT", "total_row_ft": 84.4, "roadbed_ft": 54.4, "median_ft": 0.0, "left_sw_ft": 15.0, "right_sw_ft": 15.0}, "geometry": {"type": "LineString", "coordinates": [[-73.81969071211812, 40.858273440265556], [-73.81942187859441, 40.85801494597852]]}}, {"type": "Feature", "properties": {"segment_id": 514106, "physicalid": "37259", "street_name": "PELHAM PKWY", "borough": "bronx", "direction": "FT", "total_row_ft": 81.8, "roadbed_ft": 51.8, "median_ft": 0.0, "left_sw_ft": 15.0, "right_sw_ft": 15.0}, "geometry": {"type": "LineString", "coordinates": [[-73.8196339685139, 40.858307458843036], [-73.81936513507317, 40.85804896442539]]}}, {"type": "Feature", "properties": {"segment_id": 514107, "physicalid": "37259", "street_name": "PELHAM PKWY", "borough": "bronx", "direction": "FT", "total_row_ft": 79.9, "roadbed_ft": 49.9, "median_ft": 0.0, "left_sw_ft": 15.0, "right_sw_ft": 15.0}, "geometry": {"type": "LineString", "coordinates": [[-73.8195772248516, 40.85834147739242], [-73.8193083914939, 40.85808298284411]]}}, {"type": "Feature", "properties": {"segment_id": 514108, "physicalid": "37259", "street_name": "PELHAM PKWY", "borough": "bronx", "direction": "FT", "total_row_ft": 65.8, "roadbed_ft": 48.7, "median_ft": 0.0, "left_sw_ft": 15.0, "right_sw_ft": 2.1}, "geometry": {"type": "LineString", "coordinates": [[-73.81952559775821, 40.85837290106534], [-73.81924725673166, 40.85812027376619]]}}, {"type": "Feature", "properties": {"segment_id": 514109, "physicalid": "37259", "street_name": "PELHAM PKWY", "borough": "bronx", "direction": "FT", "total_row_ft": 68.8, "roadbed_ft": 47.8, "median_ft": 0.0, "left_sw_ft": 15.0, "right_sw_ft": 6.0}, "geometry": {"type": "LineString", "coordinates": [[-73.81947014197262, 40.85840812268053], [-73.8191918010093, 40.85815549524917]]}}, {"type": "Feature", "properties": {"segment_id": 514110, "physicalid": "37259", "street_name": "PELHAM PKWY", "borough": "bronx", "direction": "FT", "total_row_ft": 72.2, "roadbed_ft": 47.2, "median_ft": 0.0, "left_sw_ft": 15.0, "right_sw_ft": 10.1}, "geometry": {"type": "LineString", "coordinates": [[-73.81941468612827, 40.858443344268856], [-73.8191363452282, 40.858190716705266]]}}, {"type": "Feature", "properties": {"segment_id": 514111, "physicalid": "37259", "street_name": "PELHAM PKWY", "borough": "bronx", "direction": "FT", "total_row_ft": 74.9, "roadbed_ft": 46.7, "median_ft": 0.0, "left_sw_ft": 15.0, "right_sw_ft": 13.2}, "geometry": {"type": "LineString", "coordinates": [[-73.81936418133735, 40.8584758032736], [-73.81907797449541, 40.85823046144887]]}}, {"type": "Feature", "properties": {"segment_id": 514112, "physicalid": "37259", "street_name": "PELHAM PKWY", "borough": "bronx", "direction": "FT", "total_row_ft": 74.6, "roadbed_ft": 46.4, "median_ft": 0.0, "left_sw_ft": 15.0, "right_sw_ft": 13.1}, "geometry": {"type": "LineString", "coordinates": [[-73.81931005760019, 40.858512199830884], [-73.819029581912, 40.85827177071626]]}}, {"type": "Feature", "properties": {"segment_id": 514113, "physicalid": "37259", "street_name": "PELHAM PKWY", "borough": "bronx", "direction": "FT", "total_row_ft": 74.6, "roadbed_ft": 46.6, "median_ft": 0.0, "left_sw_ft": 15.0, "right_sw_ft": 13.0}, "geometry": {"type": "LineString", "coordinates": [[-73.81925593380383, 40.85854859636252], [-73.81898022013434, 40.85831224919821]]}}, {"type": "Feature", "properties": {"segment_id": 514114, "physicalid": "37259", "street_name": "PELHAM PKWY", "borough": "bronx", "direction": "FT", "total_row_ft": 74.7, "roadbed_ft": 46.5, "median_ft": 0.0, "left_sw_ft": 15.0, "right_sw_ft": 13.2}, "geometry": {"type": "LineString", "coordinates": [[-73.81920658723976, 40.858582067655874], [-73.81892460502986, 40.858353680523905]]}}, {"type": "Feature", "properties": {"segment_id": 514115, "physicalid": "37259", "street_name": "PELHAM PKWY", "borough": "bronx", "direction": "FT", "total_row_ft": 75.9, "roadbed_ft": 47.3, "median_ft": 0.0, "left_sw_ft": 15.0, "right_sw_ft": 13.6}, "geometry": {"type": "LineString", "coordinates": [[-73.81915383872919, 40.85861961013131], [-73.81887181606837, 40.858391190091304]]}}, {"type": "Feature", "properties": {"segment_id": 514116, "physicalid": "37259", "street_name": "PELHAM PKWY", "borough": "bronx", "direction": "FT", "total_row_ft": 76.7, "roadbed_ft": 48.5, "median_ft": 0.0, "left_sw_ft": 15.0, "right_sw_ft": 13.2}, "geometry": {"type": "LineString", "coordinates": [[-73.81910109015911, 40.85865715258235], [-73.81881900834227, 40.85842868448442]]}}, {"type": "Feature", "properties": {"segment_id": 514117, "physicalid": "37259", "street_name": "PELHAM PKWY", "borough": "bronx", "direction": "FT", "total_row_ft": 77.4, "roadbed_ft": 48.9, "median_ft": 0.0, "left_sw_ft": 15.0, "right_sw_ft": 13.5}, "geometry": {"type": "LineString", "coordinates": [[-73.81905293688624, 40.858691612447764], [-73.81876225007913, 40.8584691157593]]}}, {"type": "Feature", "properties": {"segment_id": 514118, "physicalid": "37259", "street_name": "PELHAM PKWY", "borough": "bronx", "direction": "FT", "total_row_ft": 75.5, "roadbed_ft": 47.0, "median_ft": 0.0, "left_sw_ft": 15.0, "right_sw_ft": 13.5}, "geometry": {"type": "LineString", "coordinates": [[-73.81900160567918, 40.85873027089882], [-73.8187126691421, 40.85850911377465]]}}, {"type": "Feature", "properties": {"segment_id": 514119, "physicalid": "37259", "street_name": "PELHAM PKWY", "borough": "bronx", "direction": "FT", "total_row_ft": 79.5, "roadbed_ft": 51.5, "median_ft": 0.0, "left_sw_ft": 15.0, "right_sw_ft": 13.0}, "geometry": {"type": "LineString", "coordinates": [[-73.81895027441247, 40.85876892932679], [-73.81866613474949, 40.85855144370568]]}}, {"type": "Feature", "properties": {"segment_id": 514120, "physicalid": "37259", "street_name": "PELHAM PKWY", "borough": "bronx", "direction": "FT", "total_row_ft": 79.4, "roadbed_ft": 51.3, "median_ft": 0.0, "left_sw_ft": 15.0, "right_sw_ft": 13.1}, "geometry": {"type": "LineString", "coordinates": [[-73.81891217015453, 40.85879728552098], [-73.81861179039106, 40.85860437614312]]}}, {"type": "Feature", "properties": {"segment_id": 514121, "physicalid": "37259", "street_name": "PELHAM PKWY", "borough": "bronx", "direction": "FT", "total_row_ft": 79.0, "roadbed_ft": 50.9, "median_ft": 0.0, "left_sw_ft": 15.0, "right_sw_ft": 13.1}, "geometry": {"type": "LineString", "coordinates": [[-73.81886547695207, 40.8588391967868], [-73.81856655593826, 40.85864722416414]]}}, {"type": "Feature", "properties": {"segment_id": 514122, "physicalid": "37259", "street_name": "PELHAM PKWY", "borough": "bronx", "direction": "FT", "total_row_ft": 79.7, "roadbed_ft": 51.6, "median_ft": 0.0, "left_sw_ft": 15.0, "right_sw_ft": 13.1}, "geometry": {"type": "LineString", "coordinates": [[-73.81881878369073, 40.85888110803342], [-73.8185213214272, 40.85869007216706]]}}, {"type": "Feature", "properties": {"segment_id": 514123, "physicalid": "37259", "street_name": "PELHAM PKWY", "borough": "bronx", "direction": "FT", "total_row_ft": 82.3, "roadbed_ft": 54.2, "median_ft": 0.0, "left_sw_ft": 15.0, "right_sw_ft": 13.1}, "geometry": {"type": "LineString", "coordinates": [[-73.81877209037057, 40.85892301926084], [-73.81847608685783, 40.858732920151965]]}}, {"type": "Feature", "properties": {"segment_id": 514124, "physicalid": "37259", "street_name": "PELHAM PKWY", "borough": "bronx", "direction": "FT", "total_row_ft": 89.1, "roadbed_ft": 60.9, "median_ft": 0.0, "left_sw_ft": 15.0, "right_sw_ft": 13.2}, "geometry": {"type": "LineString", "coordinates": [[-73.81872539699155, 40.858964930469064], [-73.8184306858645, 40.85877566127501]]}}, {"type": "Feature", "properties": {"segment_id": 514125, "physicalid": "37259", "street_name": "PELHAM PKWY", "borough": "bronx", "direction": "FT", "total_row_ft": 87.0, "roadbed_ft": 58.7, "median_ft": 0.0, "left_sw_ft": 15.0, "right_sw_ft": 13.4}, "geometry": {"type": "LineString", "coordinates": [[-73.81867870355369, 40.859006841658044], [-73.81838523443255, 40.85881837002454]]}}, {"type": "Feature", "properties": {"segment_id": 514126, "physicalid": "37259", "street_name": "PELHAM PKWY", "borough": "bronx", "direction": "FT", "total_row_ft": 84.8, "roadbed_ft": 56.5, "median_ft": 0.0, "left_sw_ft": 15.0, "right_sw_ft": 13.3}, "geometry": {"type": "LineString", "coordinates": [[-73.81863201005697, 40.85904875282783], [-73.81833825553416, 40.85886009781919]]}}, {"type": "Feature", "properties": {"segment_id": 514127, "physicalid": "37259", "street_name": "PELHAM PKWY", "borough": "bronx", "direction": "FT", "total_row_ft": 82.7, "roadbed_ft": 54.5, "median_ft": 0.0, "left_sw_ft": 15.0, "right_sw_ft": 13.2}, "geometry": {"type": "LineString", "coordinates": [[-73.81858531650141, 40.85909066397839], [-73.81829031632009, 40.858901208895155]]}}, {"type": "Feature", "properties": {"segment_id": 514128, "physicalid": "37259", "street_name": "PELHAM PKWY", "borough": "bronx", "direction": "FT", "total_row_ft": 80.8, "roadbed_ft": 52.9, "median_ft": 0.0, "left_sw_ft": 15.0, "right_sw_ft": 12.9}, "geometry": {"type": "LineString", "coordinates": [[-73.818538622887, 40.85913257510977], [-73.81824210887582, 40.85894214772516]]}}, {"type": "Feature", "properties": {"segment_id": 514129, "physicalid": "37259", "street_name": "PELHAM PKWY", "borough": "bronx", "direction": "FT", "total_row_ft": 78.6, "roadbed_ft": 51.3, "median_ft": 0.0, "left_sw_ft": 15.0, "right_sw_ft": 12.3}, "geometry": {"type": "LineString", "coordinates": [[-73.81849192921374, 40.85917448622193], [-73.81819371030304, 40.858982963825554]]}}, {"type": "Feature", "properties": {"segment_id": 514130, "physicalid": "37259", "street_name": "PELHAM PKWY", "borough": "bronx", "direction": "FT", "total_row_ft": 77.0, "roadbed_ft": 50.2, "median_ft": 0.0, "left_sw_ft": 15.0, "right_sw_ft": 11.8}, "geometry": {"type": "LineString", "coordinates": [[-73.81844523548162, 40.85921639731489], [-73.81814515964408, 40.85902368227006]]}}, {"type": "Feature", "properties": {"segment_id": 514131, "physicalid": "37259", "street_name": "PELHAM PKWY", "borough": "bronx", "direction": "FT", "total_row_ft": 76.5, "roadbed_ft": 49.2, "median_ft": 0.0, "left_sw_ft": 15.0, "right_sw_ft": 12.3}, "geometry": {"type": "LineString", "coordinates": [[-73.81839854169067, 40.85925830838864], [-73.81809479230381, 40.85906323401449]]}}, {"type": "Feature", "properties": {"segment_id": 514132, "physicalid": "37259", "street_name": "PELHAM PKWY", "borough": "bronx", "direction": "FT", "total_row_ft": 75.7, "roadbed_ft": 48.3, "median_ft": 0.0, "left_sw_ft": 15.0, "right_sw_ft": 12.5}, "geometry": {"type": "LineString", "coordinates": [[-73.81835184784084, 40.85930021944319], [-73.81804608727302, 40.85910385335187]]}}, {"type": "Feature", "properties": {"segment_id": 909185, "physicalid": "63545", "street_name": "SHORE RD", "borough": "bronx", "direction": "TW", "total_row_ft": 74.3, "roadbed_ft": 47.5, "median_ft": 0.0, "left_sw_ft": 15.0, "right_sw_ft": 11.9}, "geometry": {"type": "LineString", "coordinates": [[-73.8182552878895, 40.85938537523798], [-73.81795736426713, 40.859185055294]]}}, {"type": "Feature", "properties": {"segment_id": 909186, "physicalid": "63545", "street_name": "SHORE RD", "borough": "bronx", "direction": "TW", "total_row_ft": 73.8, "roadbed_ft": 47.2, "median_ft": 0.0, "left_sw_ft": 15.0, "right_sw_ft": 11.6}, "geometry": {"type": "LineString", "coordinates": [[-73.81820735234969, 40.85942647037072], [-73.81791171071309, 40.859227684716735]]}}, {"type": "Feature", "properties": {"segment_id": 909187, "physicalid": "63545", "street_name": "SHORE RD", "borough": "bronx", "direction": "TW", "total_row_ft": 73.3, "roadbed_ft": 47.1, "median_ft": 0.0, "left_sw_ft": 15.0, "right_sw_ft": 11.2}, "geometry": {"type": "LineString", "coordinates": [[-73.81815943661267, 40.85946754943003], [-73.8178660423317, 40.8592703279116]]}}, {"type": "Feature", "properties": {"segment_id": 909188, "physicalid": "63545", "street_name": "SHORE RD", "borough": "bronx", "direction": "TW", "total_row_ft": 72.8, "roadbed_ft": 46.9, "median_ft": 0.0, "left_sw_ft": 15.0, "right_sw_ft": 10.9}, "geometry": {"type": "LineString", "coordinates": [[-73.81811150819091, 40.8595086493874], [-73.81782038891751, 40.85931295705771]]}}, {"type": "Feature", "properties": {"segment_id": 909189, "physicalid": "63545", "street_name": "SHORE RD", "borough": "bronx", "direction": "TW", "total_row_ft": 72.2, "roadbed_ft": 46.5, "median_ft": 0.0, "left_sw_ft": 15.0, "right_sw_ft": 10.7}, "geometry": {"type": "LineString", "coordinates": [[-73.8180635797099, 40.85954974932457], [-73.81777454176728, 40.85935545599341]]}}, {"type": "Feature", "properties": {"segment_id": 909190, "physicalid": "63545", "street_name": "SHORE RD", "borough": "bronx", "direction": "TW", "total_row_ft": 71.6, "roadbed_ft": 45.9, "median_ft": 0.0, "left_sw_ft": 15.0, "right_sw_ft": 10.7}, "geometry": {"type": "LineString", "coordinates": [[-73.81801565116967, 40.859590849241556], [-73.81772806271353, 40.85939753017777]]}}, {"type": "Feature", "properties": {"segment_id": 909191, "physicalid": "63545", "street_name": "SHORE RD", "borough": "bronx", "direction": "TW", "total_row_ft": 71.0, "roadbed_ft": 45.3, "median_ft": 0.0, "left_sw_ft": 15.0, "right_sw_ft": 10.7}, "geometry": {"type": "LineString", "coordinates": [[-73.81796772257019, 40.85963194913831], [-73.81768158360097, 40.85943960434307]]}}, {"type": "Feature", "properties": {"segment_id": 909192, "physicalid": "63545", "street_name": "SHORE RD", "borough": "bronx", "direction": "TW", "total_row_ft": 70.2, "roadbed_ft": 44.5, "median_ft": 0.0, "left_sw_ft": 15.0, "right_sw_ft": 10.7}, "geometry": {"type": "LineString", "coordinates": [[-73.81791979391146, 40.859673049014845], [-73.8176351674702, 40.85948172086595]]}}, {"type": "Feature", "properties": {"segment_id": 909193, "physicalid": "63545", "street_name": "SHORE RD", "borough": "bronx", "direction": "TW", "total_row_ft": 69.2, "roadbed_ft": 43.5, "median_ft": 0.0, "left_sw_ft": 15.0, "right_sw_ft": 10.7}, "geometry": {"type": "LineString", "coordinates": [[-73.81787186519354, 40.85971414887115], [-73.81758906035783, 40.85952404513507]]}}, {"type": "Feature", "properties": {"segment_id": 909194, "physicalid": "63545", "street_name": "SHORE RD", "borough": "bronx", "direction": "TW", "total_row_ft": 68.5, "roadbed_ft": 42.8, "median_ft": 0.0, "left_sw_ft": 15.0, "right_sw_ft": 10.8}, "geometry": {"type": "LineString", "coordinates": [[-73.81782393641633, 40.85975524870727], [-73.81754670472486, 40.859568891212895]]}}, {"type": "Feature", "properties": {"segment_id": 909195, "physicalid": "63545", "street_name": "SHORE RD", "borough": "bronx", "direction": "TW", "total_row_ft": 68.3, "roadbed_ft": 42.5, "median_ft": 0.0, "left_sw_ft": 15.0, "right_sw_ft": 10.9}, "geometry": {"type": "LineString", "coordinates": [[-73.81777600757987, 40.85979634852322], [-73.81750815008795, 40.859616292387344]]}}, {"type": "Feature", "properties": {"segment_id": 909196, "physicalid": "63545", "street_name": "SHORE RD", "borough": "bronx", "direction": "TW", "total_row_ft": 68.1, "roadbed_ft": 42.3, "median_ft": 0.0, "left_sw_ft": 15.0, "right_sw_ft": 10.8}, "geometry": {"type": "LineString", "coordinates": [[-73.8177280786842, 40.85983744831895], [-73.81746814693318, 40.85966271987467]]}}, {"type": "Feature", "properties": {"segment_id": 909197, "physicalid": "63545", "street_name": "SHORE RD", "borough": "bronx", "direction": "TW", "total_row_ft": 67.9, "roadbed_ft": 42.1, "median_ft": 0.0, "left_sw_ft": 15.0, "right_sw_ft": 10.9}, "geometry": {"type": "LineString", "coordinates": [[-73.81768014972928, 40.859878548094436], [-73.81742579982041, 40.859707571748565]]}}, {"type": "Feature", "properties": {"segment_id": 909198, "physicalid": "63545", "street_name": "SHORE RD", "borough": "bronx", "direction": "TW", "total_row_ft": 68.1, "roadbed_ft": 41.8, "median_ft": 0.0, "left_sw_ft": 15.0, "right_sw_ft": 11.3}, "geometry": {"type": "LineString", "coordinates": [[-73.81763222071513, 40.85991964784972], [-73.81738115096495, 40.85975087638534]]}}, {"type": "Feature", "properties": {"segment_id": 909199, "physicalid": "63545", "street_name": "SHORE RD", "borough": "bronx", "direction": "TW", "total_row_ft": 68.8, "roadbed_ft": 41.7, "median_ft": 0.0, "left_sw_ft": 15.0, "right_sw_ft": 12.1}, "geometry": {"type": "LineString", "coordinates": [[-73.81758414915754, 40.85996083619024], [-73.81733564598295, 40.8597935075577]]}}, {"type": "Feature", "properties": {"segment_id": 909200, "physicalid": "63545", "street_name": "SHORE RD", "borough": "bronx", "direction": "TW", "total_row_ft": 69.5, "roadbed_ft": 41.7, "median_ft": 0.0, "left_sw_ft": 15.0, "right_sw_ft": 12.8}, "geometry": {"type": "LineString", "coordinates": [[-73.81753617465904, 40.86000190538412], [-73.81728940053229, 40.85983574092437]]}}, {"type": "Feature", "properties": {"segment_id": 909201, "physicalid": "63545", "street_name": "SHORE RD", "borough": "bronx", "direction": "TW", "total_row_ft": 69.5, "roadbed_ft": 41.6, "median_ft": 0.0, "left_sw_ft": 15.0, "right_sw_ft": 12.8}, "geometry": {"type": "LineString", "coordinates": [[-73.81749706762598, 40.8600372164537], [-73.8172393469712, 40.859881417109825]]}}, {"type": "Feature", "properties": {"segment_id": 1563535, "physicalid": "109633", "street_name": "PELHAM PY EB WESTCHESTER AV EN", "borough": "bronx", "direction": "FT", "total_row_ft": 77.1, "roadbed_ft": 51.4, "median_ft": 0.0, "left_sw_ft": 15.0, "right_sw_ft": 10.7}, "geometry": {"type": "LineString", "coordinates": [[-73.82011433675812, 40.857704280941434], [-73.8198703877286, 40.85754078220861]]}}, {"type": "Feature", "properties": {"segment_id": 1563536, "physicalid": "109633", "street_name": "PELHAM PY EB WESTCHESTER AV EN", "borough": "bronx", "direction": "FT", "total_row_ft": 75.8, "roadbed_ft": 50.1, "median_ft": 0.0, "left_sw_ft": 15.0, "right_sw_ft": 10.7}, "geometry": {"type": "LineString", "coordinates": [[-73.82006648998336, 40.857745434861556], [-73.81982158825903, 40.85758129753619]]}}, {"type": "Feature", "properties": {"segment_id": 1563537, "physicalid": "109633", "street_name": "PELHAM PY EB WESTCHESTER AV EN", "borough": "bronx", "direction": "FT", "total_row_ft": 74.5, "roadbed_ft": 48.8, "median_ft": 0.0, "left_sw_ft": 15.0, "right_sw_ft": 10.7}, "geometry": {"type": "LineString", "coordinates": [[-73.82001864314933, 40.85778658876155], [-73.81977462840732, 40.8576230458316]]}}, {"type": "Feature", "properties": {"segment_id": 1563538, "physicalid": "109633", "street_name": "PELHAM PY EB WESTCHESTER AV EN", "borough": "bronx", "direction": "FT", "total_row_ft": 72.8, "roadbed_ft": 47.2, "median_ft": 0.0, "left_sw_ft": 15.0, "right_sw_ft": 10.7}, "geometry": {"type": "LineString", "coordinates": [[-73.81997079625613, 40.85782774264139], [-73.81972766849663, 40.857664794107635]]}}, {"type": "Feature", "properties": {"segment_id": 1563539, "physicalid": "109633", "street_name": "PELHAM PY EB WESTCHESTER AV EN", "borough": "bronx", "direction": "FT", "total_row_ft": 71.1, "roadbed_ft": 45.4, "median_ft": 0.0, "left_sw_ft": 15.0, "right_sw_ft": 10.7}, "geometry": {"type": "LineString", "coordinates": [[-73.81992294930365, 40.85786889650112], [-73.819680708527, 40.857706542364205]]}}, {"type": "Feature", "properties": {"segment_id": 1563540, "physicalid": "109633", "street_name": "PELHAM PY EB WESTCHESTER AV EN", "borough": "bronx", "direction": "FT", "total_row_ft": 69.3, "roadbed_ft": 43.6, "median_ft": 0.0, "left_sw_ft": 15.0, "right_sw_ft": 10.7}, "geometry": {"type": "LineString", "coordinates": [[-73.81987510229203, 40.85791005034066], [-73.81963312952405, 40.85774787575176]]}}, {"type": "Feature", "properties": {"segment_id": 1563541, "physicalid": "109633", "street_name": "PELHAM PY EB WESTCHESTER AV EN", "borough": "bronx", "direction": "FT", "total_row_ft": 67.5, "roadbed_ft": 41.7, "median_ft": 0.0, "left_sw_ft": 15.0, "right_sw_ft": 10.8}, "geometry": {"type": "LineString", "coordinates": [[-73.81982725522114, 40.857951204160095], [-73.81958514083261, 40.85778893457704]]}}, {"type": "Feature", "properties": {"segment_id": 1563542, "physicalid": "109633", "street_name": "PELHAM PY EB WESTCHESTER AV EN", "borough": "bronx", "direction": "FT", "total_row_ft": 68.5, "roadbed_ft": 41.3, "median_ft": 0.0, "left_sw_ft": 15.0, "right_sw_ft": 12.3}, "geometry": {"type": "LineString", "coordinates": [[-73.81977940809108, 40.857992357959404], [-73.81953397924725, 40.857827866879326]]}}, {"type": "Feature", "properties": {"segment_id": 1563543, "physicalid": "109633", "street_name": "PELHAM PY EB WESTCHESTER AV EN", "borough": "bronx", "direction": "FT", "total_row_ft": 71.6, "roadbed_ft": 43.9, "median_ft": 0.0, "left_sw_ft": 15.0, "right_sw_ft": 12.7}, "geometry": {"type": "LineString", "coordinates": [[-73.81973156090177, 40.85803351173851], [-73.81948275299233, 40.857866755855824]]}}, {"type": "Feature", "properties": {"segment_id": 1563544, "physicalid": "109633", "street_name": "PELHAM PY EB WESTCHESTER AV EN", "borough": "bronx", "direction": "FT", "total_row_ft": 74.3, "roadbed_ft": 46.4, "median_ft": 0.0, "left_sw_ft": 15.0, "right_sw_ft": 12.9}, "geometry": {"type": "LineString", "coordinates": [[-73.81968371365328, 40.858074665497504], [-73.8194330704966, 40.85790667951168]]}}, {"type": "Feature", "properties": {"segment_id": 1563545, "physicalid": "109633", "street_name": "PELHAM PY EB WESTCHESTER AV EN", "borough": "bronx", "direction": "FT", "total_row_ft": 76.3, "roadbed_ft": 48.4, "median_ft": 0.0, "left_sw_ft": 15.0, "right_sw_ft": 12.9}, "geometry": {"type": "LineString", "coordinates": [[-73.81963586634555, 40.85811581923638], [-73.81938635432007, 40.85794859128069]]}}, {"type": "Feature", "properties": {"segment_id": 1563546, "physicalid": "109633", "street_name": "PELHAM PY EB WESTCHESTER AV EN", "borough": "bronx", "direction": "FT", "total_row_ft": 78.0, "roadbed_ft": 50.1, "median_ft": 0.0, "left_sw_ft": 15.0, "right_sw_ft": 12.9}, "geometry": {"type": "LineString", "coordinates": [[-73.81958801897862, 40.85815697295511], [-73.81933963808467, 40.85799050303048]]}}, {"type": "Feature", "properties": {"segment_id": 1563547, "physicalid": "109633", "street_name": "PELHAM PY EB WESTCHESTER AV EN", "borough": "bronx", "direction": "FT", "total_row_ft": 79.2, "roadbed_ft": 51.3, "median_ft": 0.0, "left_sw_ft": 15.0, "right_sw_ft": 12.9}, "geometry": {"type": "LineString", "coordinates": [[-73.81954017155246, 40.85819812665367], [-73.819292953367, 40.8580324359244]]}}, {"type": "Feature", "properties": {"segment_id": 1563548, "physicalid": "109633", "street_name": "PELHAM PY EB WESTCHESTER AV EN", "borough": "bronx", "direction": "FT", "total_row_ft": 76.7, "roadbed_ft": 48.7, "median_ft": 0.0, "left_sw_ft": 15.0, "right_sw_ft": 13.0}, "geometry": {"type": "LineString", "coordinates": [[-73.81949232406711, 40.85823928033211], [-73.81924635106384, 40.85807442407476]]}}, {"type": "Feature", "properties": {"segment_id": 1563549, "physicalid": "109633", "street_name": "PELHAM PY EB WESTCHESTER AV EN", "borough": "bronx", "direction": "FT", "total_row_ft": 73.9, "roadbed_ft": 45.8, "median_ft": 0.0, "left_sw_ft": 15.0, "right_sw_ft": 13.1}, "geometry": {"type": "LineString", "coordinates": [[-73.81944447652255, 40.85828043399039], [-73.81919974870183, 40.85811641220598]]}}, {"type": "Feature", "properties": {"segment_id": 1563550, "physicalid": "109633", "street_name": "PELHAM PY EB WESTCHESTER AV EN", "borough": "bronx", "direction": "FT", "total_row_ft": 70.5, "roadbed_ft": 42.6, "median_ft": 0.0, "left_sw_ft": 15.0, "right_sw_ft": 13.0}, "geometry": {"type": "LineString", "coordinates": [[-73.81939662891875, 40.85832158762853], [-73.81915502143801, 40.85815965709375]]}}, {"type": "Feature", "properties": {"segment_id": 1563551, "physicalid": "109633", "street_name": "PELHAM PY EB WESTCHESTER AV EN", "borough": "bronx", "direction": "FT", "total_row_ft": 67.5, "roadbed_ft": 39.5, "median_ft": 0.0, "left_sw_ft": 15.0, "right_sw_ft": 12.9}, "geometry": {"type": "LineString", "coordinates": [[-73.81934878125574, 40.858362741246545], [-73.81910940561572, 40.85820230646918]]}}, {"type": "Feature", "properties": {"segment_id": 1563552, "physicalid": "109633", "street_name": "PELHAM PY EB WESTCHESTER AV EN", "borough": "bronx", "direction": "FT", "total_row_ft": 65.3, "roadbed_ft": 37.2, "median_ft": 0.0, "left_sw_ft": 15.0, "right_sw_ft": 13.1}, "geometry": {"type": "LineString", "coordinates": [[-73.81930093353353, 40.85840389484441], [-73.81906264787744, 40.858244190525106]]}}, {"type": "Feature", "properties": {"segment_id": 1563553, "physicalid": "109633", "street_name": "PELHAM PY EB WESTCHESTER AV EN", "borough": "bronx", "direction": "FT", "total_row_ft": 62.4, "roadbed_ft": 34.4, "median_ft": 0.0, "left_sw_ft": 15.0, "right_sw_ft": 13.0}, "geometry": {"type": "LineString", "coordinates": [[-73.81925308575211, 40.85844504842214], [-73.81901382599376, 40.858284691159206]]}}, {"type": "Feature", "properties": {"segment_id": 1563554, "physicalid": "109633", "street_name": "PELHAM PY EB WESTCHESTER AV EN", "borough": "bronx", "direction": "FT", "total_row_ft": 60.0, "roadbed_ft": 32.1, "median_ft": 0.0, "left_sw_ft": 15.0, "right_sw_ft": 12.9}, "geometry": {"type": "LineString", "coordinates": [[-73.81920523791146, 40.8584862019797], [-73.8189646921339, 40.858324982717825]]}}, {"type": "Feature", "properties": {"segment_id": 1563555, "physicalid": "109633", "street_name": "PELHAM PY EB WESTCHESTER AV EN", "borough": "bronx", "direction": "FT", "total_row_ft": 58.2, "roadbed_ft": 29.9, "median_ft": 0.0, "left_sw_ft": 15.0, "right_sw_ft": 13.4}, "geometry": {"type": "LineString", "coordinates": [[-73.8191573900116, 40.85852735551714], [-73.81891181725923, 40.858362766970274]]}}, {"type": "Feature", "properties": {"segment_id": 1563556, "physicalid": "109633", "street_name": "PELHAM PY EB WESTCHESTER AV EN", "borough": "bronx", "direction": "FT", "total_row_ft": 56.8, "roadbed_ft": 28.1, "median_ft": 0.0, "left_sw_ft": 15.0, "right_sw_ft": 13.6}, "geometry": {"type": "LineString", "coordinates": [[-73.81910954205252, 40.85856850903442], [-73.81885878353265, 40.858400444771775]]}}, {"type": "Feature", "properties": {"segment_id": 1563557, "physicalid": "109633", "street_name": "PELHAM PY EB WESTCHESTER AV EN", "borough": "bronx", "direction": "FT", "total_row_ft": 56.1, "roadbed_ft": 28.0, "median_ft": 0.0, "left_sw_ft": 15.0, "right_sw_ft": 13.2}, "geometry": {"type": "LineString", "coordinates": [[-73.81906169403423, 40.85860966253159], [-73.81880573185487, 40.85843811055755]]}}, {"type": "Feature", "properties": {"segment_id": 1563558, "physicalid": "109633", "street_name": "PELHAM PY EB WESTCHESTER AV EN", "borough": "bronx", "direction": "FT", "total_row_ft": 59.8, "roadbed_ft": 31.1, "median_ft": 0.0, "left_sw_ft": 15.0, "right_sw_ft": 13.7}, "geometry": {"type": "LineString", "coordinates": [[-73.81901384595672, 40.85865081600859], [-73.8187528122538, 40.85847586488037]]}}, {"type": "Feature", "properties": {"segment_id": 1563559, "physicalid": "109633", "street_name": "PELHAM PY EB WESTCHESTER AV EN", "borough": "bronx", "direction": "FT", "total_row_ft": 63.1, "roadbed_ft": 34.7, "median_ft": 0.0, "left_sw_ft": 15.0, "right_sw_ft": 13.3}, "geometry": {"type": "LineString", "coordinates": [[-73.81896599782, 40.85869196946546], [-73.81870424510655, 40.85851653635352]]}}, {"type": "Feature", "properties": {"segment_id": 1563560, "physicalid": "109633", "street_name": "PELHAM PY EB WESTCHESTER AV EN", "borough": "bronx", "direction": "FT", "total_row_ft": 68.7, "roadbed_ft": 40.8, "median_ft": 0.0, "left_sw_ft": 15.0, "right_sw_ft": 12.9}, "geometry": {"type": "LineString", "coordinates": [[-73.81891814962408, 40.858733122902194], [-73.81865839436337, 40.85855902845533]]}}, {"type": "Feature", "properties": {"segment_id": 1563561, "physicalid": "109633", "street_name": "PELHAM PY EB WESTCHESTER AV EN", "borough": "bronx", "direction": "FT", "total_row_ft": 71.4, "roadbed_ft": 43.3, "median_ft": 0.0, "left_sw_ft": 15.0, "right_sw_ft": 13.1}, "geometry": {"type": "LineString", "coordinates": [[-73.81888111459962, 40.85876525471262], [-73.81860806082726, 40.8586079089493]]}}, {"type": "Feature", "properties": {"segment_id": 1563562, "physicalid": "109633", "street_name": "PELHAM PY EB WESTCHESTER AV EN", "borough": "bronx", "direction": "FT", "total_row_ft": 75.9, "roadbed_ft": 47.8, "median_ft": 0.0, "left_sw_ft": 15.0, "right_sw_ft": 13.1}, "geometry": {"type": "LineString", "coordinates": [[-73.81883740384953, 40.85880898087646], [-73.81856282633456, 40.85865075700206]]}}, {"type": "Feature", "properties": {"segment_id": 1563563, "physicalid": "109633", "street_name": "PELHAM PY EB WESTCHESTER AV EN", "borough": "bronx", "direction": "FT", "total_row_ft": 79.9, "roadbed_ft": 51.8, "median_ft": 0.0, "left_sw_ft": 15.0, "right_sw_ft": 13.1}, "geometry": {"type": "LineString", "coordinates": [[-73.81879369304193, 40.8588527070234], [-73.81851759178359, 40.85869360503675]]}}, {"type": "Feature", "properties": {"segment_id": 1563564, "physicalid": "109633", "street_name": "PELHAM PY EB WESTCHESTER AV EN", "borough": "bronx", "direction": "FT", "total_row_ft": 81.8, "roadbed_ft": 53.6, "median_ft": 0.0, "left_sw_ft": 15.0, "right_sw_ft": 13.1}, "geometry": {"type": "LineString", "coordinates": [[-73.81874998217687, 40.85889643315346], [-73.81847235717431, 40.858736453053396]]}}, {"type": "Feature", "properties": {"segment_id": 1563565, "physicalid": "109633", "street_name": "PELHAM PY EB WESTCHESTER AV EN", "borough": "bronx", "direction": "FT", "total_row_ft": 89.6, "roadbed_ft": 61.4, "median_ft": 0.0, "left_sw_ft": 15.0, "right_sw_ft": 13.2}, "geometry": {"type": "LineString", "coordinates": [[-73.81870627125436, 40.858940159266574], [-73.8184269302515, 40.85877919026525]]}}, {"type": "Feature", "properties": {"segment_id": 1563566, "physicalid": "109633", "street_name": "PELHAM PY EB WESTCHESTER AV EN", "borough": "bronx", "direction": "FT", "total_row_ft": 87.5, "roadbed_ft": 59.1, "median_ft": 0.0, "left_sw_ft": 15.0, "right_sw_ft": 13.4}, "geometry": {"type": "LineString", "coordinates": [[-73.81866256027435, 40.8589838853628], [-73.81838146934638, 40.8588219079103]]}}, {"type": "Feature", "properties": {"segment_id": 1563567, "physicalid": "109633", "street_name": "PELHAM PY EB WESTCHESTER AV EN", "borough": "bronx", "direction": "FT", "total_row_ft": 85.3, "roadbed_ft": 56.9, "median_ft": 0.0, "left_sw_ft": 15.0, "right_sw_ft": 13.4}, "geometry": {"type": "LineString", "coordinates": [[-73.81861884923686, 40.85902761144215], [-73.81833419459781, 40.85886358034592]]}}, {"type": "Feature", "properties": {"segment_id": 1563568, "physicalid": "109633", "street_name": "PELHAM PY EB WESTCHESTER AV EN", "borough": "bronx", "direction": "FT", "total_row_ft": 83.1, "roadbed_ft": 54.8, "median_ft": 0.0, "left_sw_ft": 15.0, "right_sw_ft": 13.2}, "geometry": {"type": "LineString", "coordinates": [[-73.8185751381419, 40.85907133750458], [-73.81828613090282, 40.85890479816646]]}}, {"type": "Feature", "properties": {"segment_id": 1563569, "physicalid": "109633", "street_name": "PELHAM PY EB WESTCHESTER AV EN", "borough": "bronx", "direction": "FT", "total_row_ft": 81.1, "roadbed_ft": 53.2, "median_ft": 0.0, "left_sw_ft": 15.0, "right_sw_ft": 12.9}, "geometry": {"type": "LineString", "coordinates": [[-73.81853142698944, 40.859115063550135], [-73.81823774330825, 40.858945829354106]]}}, {"type": "Feature", "properties": {"segment_id": 1563570, "physicalid": "109633", "street_name": "PELHAM PY EB WESTCHESTER AV EN", "borough": "bronx", "direction": "FT", "total_row_ft": 78.9, "roadbed_ft": 51.6, "median_ft": 0.0, "left_sw_ft": 15.0, "right_sw_ft": 12.3}, "geometry": {"type": "LineString", "coordinates": [[-73.81848771577954, 40.85915878957878], [-73.818189197663, 40.85898676947897]]}}, {"type": "Feature", "properties": {"segment_id": 1563571, "physicalid": "109633", "street_name": "PELHAM PY EB WESTCHESTER AV EN", "borough": "bronx", "direction": "FT", "total_row_ft": 77.3, "roadbed_ft": 50.4, "median_ft": 0.0, "left_sw_ft": 15.0, "right_sw_ft": 11.9}, "geometry": {"type": "LineString", "coordinates": [[-73.81844400451214, 40.85920251559051], [-73.81814029384329, 40.85902750321955]]}}, {"type": "Feature", "properties": {"segment_id": 1563572, "physicalid": "109633", "street_name": "PELHAM PY EB WESTCHESTER AV EN", "borough": "bronx", "direction": "FT", "total_row_ft": 76.8, "roadbed_ft": 49.4, "median_ft": 0.0, "left_sw_ft": 15.0, "right_sw_ft": 12.4}, "geometry": {"type": "LineString", "coordinates": [[-73.81840029318727, 40.859246241585375], [-73.81808967776368, 40.85906725028351]]}}, {"type": "Feature", "properties": {"segment_id": 1563573, "physicalid": "109633", "street_name": "PELHAM PY EB WESTCHESTER AV EN", "borough": "bronx", "direction": "FT", "total_row_ft": 75.9, "roadbed_ft": 48.4, "median_ft": 0.0, "left_sw_ft": 15.0, "right_sw_ft": 12.5}, "geometry": {"type": "LineString", "coordinates": [[-73.81835658180492, 40.859289967563335], [-73.81804124262169, 40.859108254126326]]}}]}