{"type": "FeatureCollection", "features": [{"type": "Feature", "properties": {"segment_id": 524945, "physicalid": "37897", "street_name": "INDIAN TRL", "borough": "bronx", "direction": "TW", "total_row_ft": 23.3, "roadbed_ft": 0.0, "median_ft": 0.0, "left_sw_ft": 18.2, "right_sw_ft": 5.2}, "geometry": {"type": "LineString", "coordinates": [[-73.80537621678084, 40.81005351136728], [-73.80549378655209, 40.80994050607531]]}}, {"type": "Feature", "properties": {"segment_id": 524946, "physicalid": "37897", "street_name": "INDIAN TRL", "borough": "bronx", "direction": "TW", "total_row_ft": 6.6, "roadbed_ft": 0.0, "median_ft": 0.0, "left_sw_ft": 1.9, "right_sw_ft": 4.7}, "geometry": {"type": "LineString", "coordinates": [[-73.80542121292834, 40.80992174230036], [-73.80543603413791, 40.80990749648749]]}}, {"type": "Feature", "properties": {"segment_id": 524947, "physicalid": "37897", "street_name": "INDIAN TRL", "borough": "bronx", "direction": "TW", "total_row_ft": 6.0, "roadbed_ft": 0.0, "median_ft": 0.0, "left_sw_ft": 2.2, "right_sw_ft": 3.8}, "geometry": {"type": "LineString", "coordinates": [[-73.80536395897875, 40.80988825361392], [-73.80537731426368, 40.809875416825896]]}}, {"type": "Feature", "properties": {"segment_id": 524948, "physicalid": "37897", "street_name": "INDIAN TRL", "borough": "bronx", "direction": "TW", "total_row_ft": 6.7, "roadbed_ft": 0.0, "median_ft": 0.0, "left_sw_ft": 2.4, "right_sw_ft": 4.3}, "geometry": {"type": "LineString", "coordinates": [[-73.80530670465151, 40.80985476531726], [-73.80532178142663, 40.80984027388468]]}}, {"type": "Feature", "properties": {"segment_id": 524949, "physicalid": "37897", "street_name": "INDIAN TRL", "borough": "bronx", "direction": "TW", "total_row_ft": 4.5, "roadbed_ft": 0.0, "median_ft": 0.0, "left_sw_ft": 0.3, "right_sw_ft": 4.1}, "geometry": {"type": "LineString", "coordinates": [[-73.80525473795424, 40.809816194710166], [-73.80526476840669, 40.80980655368824]]}}, {"type": "Feature", "properties": {"segment_id": 524950, "physicalid": "37897", "street_name": "INDIAN TRL", "borough": "bronx", "direction": "TW", "total_row_ft": 4.4, "roadbed_ft": 0.0, "median_ft": 0.0, "left_sw_ft": 1.9, "right_sw_ft": 2.6}, "geometry": {"type": "LineString", "coordinates": [[-73.80519462083215, 40.80978545811564], [-73.80520453938927, 40.809775924653756]]}}, {"type": "Feature", "properties": {"segment_id": 524951, "physicalid": "37897", "street_name": "INDIAN TRL", "borough": "bronx", "direction": "TW", "total_row_ft": 5.8, "roadbed_ft": 0.0, "median_ft": 0.0, "left_sw_ft": 5.3, "right_sw_ft": 0.5}, "geometry": {"type": "LineString", "coordinates": [[-73.8051302921957, 40.80975876953732], [-73.80514323371152, 40.80974633049834]]}}, {"type": "Feature", "properties": {"segment_id": 524952, "physicalid": "37898", "street_name": "INDIAN TRL", "borough": "bronx", "direction": "TW", "total_row_ft": 35.9, "roadbed_ft": 0.0, "median_ft": 0.0, "left_sw_ft": 20.9, "right_sw_ft": 15.0}, "geometry": {"type": "LineString", "coordinates": [[-73.80490636417517, 40.809811880208464], [-73.80519649858097, 40.809567164130215]]}}, {"type": "Feature", "properties": {"segment_id": 524953, "physicalid": "37898", "street_name": "INDIAN TRL", "borough": "bronx", "direction": "TW", "total_row_ft": 20.7, "roadbed_ft": 0.0, "median_ft": 0.0, "left_sw_ft": 5.7, "right_sw_ft": 15.0}, "geometry": {"type": "LineString", "coordinates": [[-73.8049599680784, 40.80968465051437], [-73.80514281917564, 40.80953042316937]]}}, {"type": "Feature", "properties": {"segment_id": 524954, "physicalid": "37898", "street_name": "INDIAN TRL", "borough": "bronx", "direction": "TW", "total_row_ft": 22.4, "roadbed_ft": 0.0, "median_ft": 0.0, "left_sw_ft": 7.4, "right_sw_ft": 15.0}, "geometry": {"type": "LineString", "coordinates": [[-73.8049019688347, 40.80965155306485], [-73.8050891398296, 40.80949368218333]]}}, {"type": "Feature", "properties": {"segment_id": 524955, "physicalid": "37898", "street_name": "INDIAN TRL", "borough": "bronx", "direction": "TW", "total_row_ft": 22.1, "roadbed_ft": 0.0, "median_ft": 0.0, "left_sw_ft": 7.1, "right_sw_ft": 15.0}, "geometry": {"type": "LineString", "coordinates": [[-73.80484360162504, 40.809618765997214], [-73.80503546054281, 40.809456941172066]]}}, {"type": "Feature", "properties": {"segment_id": 524956, "physicalid": "37898", "street_name": "INDIAN TRL", "borough": "bronx", "direction": "TW", "total_row_ft": 20.6, "roadbed_ft": 0.0, "median_ft": 0.0, "left_sw_ft": 5.6, "right_sw_ft": 15.0}, "geometry": {"type": "LineString", "coordinates": [[-73.80478873610072, 40.8095830254383], [-73.80498178131532, 40.80942020013563]]}}, {"type": "Feature", "properties": {"segment_id": 524957, "physicalid": "37898", "street_name": "INDIAN TRL", "borough": "bronx", "direction": "TW", "total_row_ft": 19.5, "roadbed_ft": 0.0, "median_ft": 0.0, "left_sw_ft": 4.5, "right_sw_ft": 15.0}, "geometry": {"type": "LineString", "coordinates": [[-73.80473942857289, 40.80954259699184], [-73.80492810214703, 40.80938345907393]]}}, {"type": "Feature", "properties": {"segment_id": 524958, "physicalid": "37898", "street_name": "INDIAN TRL", "borough": "bronx", "direction": "TW", "total_row_ft": 20.7, "roadbed_ft": 0.0, "median_ft": 0.0, "left_sw_ft": 5.7, "right_sw_ft": 15.0}, "geometry": {"type": "LineString", "coordinates": [[-73.80468842425093, 40.80950359974067], [-73.80487442303804, 40.80934671798705]]}}, {"type": "Feature", "properties": {"segment_id": 524959, "physicalid": "37898", "street_name": "INDIAN TRL", "borough": "bronx", "direction": "TW", "total_row_ft": 21.0, "roadbed_ft": 0.0, "median_ft": 0.0, "left_sw_ft": 6.0, "right_sw_ft": 15.0}, "geometry": {"type": "LineString", "coordinates": [[-73.80463759093851, 40.80946445827866], [-73.80482074398833, 40.80930997687495]]}}, {"type": "Feature", "properties": {"segment_id": 524960, "physicalid": "37898", "street_name": "INDIAN TRL", "borough": "bronx", "direction": "TW", "total_row_ft": 20.8, "roadbed_ft": 0.0, "median_ft": 0.0, "left_sw_ft": 5.8, "right_sw_ft": 15.0}, "geometry": {"type": "LineString", "coordinates": [[-73.80458653678963, 40.809422549596874], [-73.80477666570712, 40.8092776743014]]}}, {"type": "Feature", "properties": {"segment_id": 524961, "physicalid": "37898", "street_name": "INDIAN TRL", "borough": "bronx", "direction": "TW", "total_row_ft": 20.3, "roadbed_ft": 0.0, "median_ft": 0.0, "left_sw_ft": 5.3, "right_sw_ft": 15.0}, "geometry": {"type": "LineString", "coordinates": [[-73.80453742088713, 40.80938223151165], [-73.80472550608575, 40.80923891357639]]}}, {"type": "Feature", "properties": {"segment_id": 524962, "physicalid": "37898", "street_name": "INDIAN TRL", "borough": "bronx", "direction": "TW", "total_row_ft": 19.8, "roadbed_ft": 0.0, "median_ft": 0.0, "left_sw_ft": 4.8, "right_sw_ft": 15.0}, "geometry": {"type": "LineString", "coordinates": [[-73.8044844983749, 40.80934481401573], [-73.80467434652398, 40.80920015282847]]}}, {"type": "Feature", "properties": {"segment_id": 524963, "physicalid": "37898", "street_name": "INDIAN TRL", "borough": "bronx", "direction": "TW", "total_row_ft": 19.2, "roadbed_ft": 0.0, "median_ft": 0.0, "left_sw_ft": 4.2, "right_sw_ft": 15.0}, "geometry": {"type": "LineString", "coordinates": [[-73.80443006420752, 40.80930854839267], [-73.80462318702176, 40.80916139205756]]}}, {"type": "Feature", "properties": {"segment_id": 524964, "physicalid": "37898", "street_name": "INDIAN TRL", "borough": "bronx", "direction": "TW", "total_row_ft": 20.0, "roadbed_ft": 0.0, "median_ft": 0.0, "left_sw_ft": 5.0, "right_sw_ft": 15.0}, "geometry": {"type": "LineString", "coordinates": [[-73.80437688329276, 40.80927132783525], [-73.80457202757917, 40.80912263126376]]}}, {"type": "Feature", "properties": {"segment_id": 524965, "physicalid": "37898", "street_name": "INDIAN TRL", "borough": "bronx", "direction": "TW", "total_row_ft": 20.8, "roadbed_ft": 0.0, "median_ft": 0.0, "left_sw_ft": 5.8, "right_sw_ft": 15.0}, "geometry": {"type": "LineString", "coordinates": [[-73.80433058192187, 40.809228865225336], [-73.80452086819611, 40.80908387044694]]}}, {"type": "Feature", "properties": {"segment_id": 524966, "physicalid": "37898", "street_name": "INDIAN TRL", "borough": "bronx", "direction": "TW", "total_row_ft": 21.5, "roadbed_ft": 0.0, "median_ft": 0.0, "left_sw_ft": 6.5, "right_sw_ft": 15.0}, "geometry": {"type": "LineString", "coordinates": [[-73.80428351396205, 40.809186986766605], [-73.80446970887266, 40.80904510960721]]}}, {"type": "Feature", "properties": {"segment_id": 524967, "physicalid": "37898", "street_name": "INDIAN TRL", "borough": "bronx", "direction": "TW", "total_row_ft": 21.4, "roadbed_ft": 0.0, "median_ft": 0.0, "left_sw_ft": 6.4, "right_sw_ft": 15.0}, "geometry": {"type": "LineString", "coordinates": [[-73.8042345380604, 40.80914656214537], [-73.80441854960884, 40.80900634874455]]}}, {"type": "Feature", "properties": {"segment_id": 524968, "physicalid": "37898", "street_name": "INDIAN TRL", "borough": "bronx", "direction": "TW", "total_row_ft": 21.9, "roadbed_ft": 0.0, "median_ft": 0.0, "left_sw_ft": 6.9, "right_sw_ft": 15.0}, "geometry": {"type": "LineString", "coordinates": [[-73.8041780025934, 40.80911189777568], [-73.80436739040454, 40.80896758785896]]}}, {"type": "Feature", "properties": {"segment_id": 908409, "physicalid": "63478", "street_name": "SHEPARD AVE", "borough": "bronx", "direction": "TW", "total_row_ft": 52.0, "roadbed_ft": 23.7, "median_ft": 0.0, "left_sw_ft": 13.3, "right_sw_ft": 15.0}, "geometry": {"type": "LineString", "coordinates": [[-73.80116322648175, 40.80902047262932], [-73.80133629092116, 40.80880102752325]]}}, {"type": "Feature", "properties": {"segment_id": 908410, "physicalid": "63478", "street_name": "SHEPARD AVE", "borough": "bronx", "direction": "TW", "total_row_ft": 50.4, "roadbed_ft": 22.9, "median_ft": 0.0, "left_sw_ft": 12.4, "right_sw_ft": 15.0}, "geometry": {"type": "LineString", "coordinates": [[-73.80109830827647, 40.808995991477424], [-73.80127431849745, 40.80877281140792]]}}, {"type": "Feature", "properties": {"segment_id": 908411, "physicalid": "63478", "street_name": "SHEPARD AVE", "borough": "bronx", "direction": "TW", "total_row_ft": 52.7, "roadbed_ft": 22.7, "median_ft": 0.0, "left_sw_ft": 15.0, "right_sw_ft": 15.0}, "geometry": {"type": "LineString", "coordinates": [[-73.80098953253025, 40.809027121140595], [-73.80121234612626, 40.808744595259164]]}}, {"type": "Feature", "properties": {"segment_id": 908412, "physicalid": "63478", "street_name": "SHEPARD AVE", "borough": "bronx", "direction": "TW", "total_row_ft": 56.5, "roadbed_ft": 22.3, "median_ft": 0.0, "left_sw_ft": 19.2, "right_sw_ft": 15.0}, "geometry": {"type": "LineString", "coordinates": [[-73.8009732883592, 40.8089409219958], [-73.80115037380767, 40.808716379076984]]}}, {"type": "Feature", "properties": {"segment_id": 908413, "physicalid": "63478", "street_name": "SHEPARD AVE", "borough": "bronx", "direction": "TW", "total_row_ft": 46.7, "roadbed_ft": 22.1, "median_ft": 0.0, "left_sw_ft": 9.6, "right_sw_ft": 15.0}, "geometry": {"type": "LineString", "coordinates": [[-73.80093030487338, 40.8088886280103], [-73.80108840154156, 40.8086881628613]]}}, {"type": "Feature", "properties": {"segment_id": 908414, "physicalid": "63478", "street_name": "SHEPARD AVE", "borough": "bronx", "direction": "TW", "total_row_ft": 42.6, "roadbed_ft": 22.0, "median_ft": 0.0, "left_sw_ft": 5.6, "right_sw_ft": 15.0}, "geometry": {"type": "LineString", "coordinates": [[-73.80087636073479, 40.80885023204528], [-73.80102642932803, 40.808659946612224]]}}, {"type": "Feature", "properties": {"segment_id": 908415, "physicalid": "63478", "street_name": "SHEPARD AVE", "borough": "bronx", "direction": "TW", "total_row_ft": 42.7, "roadbed_ft": 22.1, "median_ft": 0.0, "left_sw_ft": 5.6, "right_sw_ft": 15.0}, "geometry": {"type": "LineString", "coordinates": [[-73.80081244107421, 40.80881889675236], [-73.80097532591587, 40.808634373053714]]}}, {"type": "Feature", "properties": {"segment_id": 908416, "physicalid": "63478", "street_name": "SHEPARD AVE", "borough": "bronx", "direction": "TW", "total_row_ft": 42.6, "roadbed_ft": 22.3, "median_ft": 0.0, "left_sw_ft": 5.3, "right_sw_ft": 15.0}, "geometry": {"type": "LineString", "coordinates": [[-73.80075308204475, 40.80878759215879], [-73.8009153253075, 40.80860379545566]]}}, {"type": "Feature", "properties": {"segment_id": 908417, "physicalid": "63478", "street_name": "SHEPARD AVE", "borough": "bronx", "direction": "TW", "total_row_ft": 42.9, "roadbed_ft": 22.4, "median_ft": 0.0, "left_sw_ft": 5.5, "right_sw_ft": 15.0}, "geometry": {"type": "LineString", "coordinates": [[-73.80069369480898, 40.808756319551094], [-73.80085532475417, 40.80857321782621]]}}, {"type": "Feature", "properties": {"segment_id": 908418, "physicalid": "63478", "street_name": "SHEPARD AVE", "borough": "bronx", "direction": "TW", "total_row_ft": 43.3, "roadbed_ft": 22.7, "median_ft": 0.0, "left_sw_ft": 5.5, "right_sw_ft": 15.0}, "geometry": {"type": "LineString", "coordinates": [[-73.80063436434907, 40.80872498265785], [-73.80079532425603, 40.80854264016541]]}}, {"type": "Feature", "properties": {"segment_id": 908419, "physicalid": "63478", "street_name": "SHEPARD AVE", "borough": "bronx", "direction": "TW", "total_row_ft": 43.5, "roadbed_ft": 22.7, "median_ft": 0.0, "left_sw_ft": 5.8, "right_sw_ft": 15.0}, "geometry": {"type": "LineString", "coordinates": [[-73.8005753116724, 40.80869333111341], [-73.80073532381302, 40.80851206247323]]}}, {"type": "Feature", "properties": {"segment_id": 908420, "physicalid": "63478", "street_name": "SHEPARD AVE", "borough": "bronx", "direction": "TW", "total_row_ft": 43.6, "roadbed_ft": 22.7, "median_ft": 0.0, "left_sw_ft": 5.9, "right_sw_ft": 15.0}, "geometry": {"type": "LineString", "coordinates": [[-73.80051654853403, 40.8086613516022], [-73.80067532342511, 40.808481484749656]]}}, {"type": "Feature", "properties": {"segment_id": 908421, "physicalid": "63478", "street_name": "SHEPARD AVE", "borough": "bronx", "direction": "TW", "total_row_ft": 43.5, "roadbed_ft": 22.7, "median_ft": 0.0, "left_sw_ft": 5.8, "right_sw_ft": 15.0}, "geometry": {"type": "LineString", "coordinates": [[-73.80045539635849, 40.808627421561276], [-73.80062606412763, 40.8084539431711]]}}, {"type": "Feature", "properties": {"segment_id": 908422, "physicalid": "63478", "street_name": "SHEPARD AVE", "borough": "bronx", "direction": "TW", "total_row_ft": 43.3, "roadbed_ft": 22.2, "median_ft": 0.0, "left_sw_ft": 6.0, "right_sw_ft": 15.0}, "geometry": {"type": "LineString", "coordinates": [[-73.80039736388342, 40.80859472371937], [-73.80056819776283, 40.80842107663646]]}}, {"type": "Feature", "properties": {"segment_id": 908423, "physicalid": "63478", "street_name": "SHEPARD AVE", "borough": "bronx", "direction": "TW", "total_row_ft": 43.5, "roadbed_ft": 22.1, "median_ft": 0.0, "left_sw_ft": 6.4, "right_sw_ft": 15.0}, "geometry": {"type": "LineString", "coordinates": [[-73.80033962979316, 40.80856172260887], [-73.80051033145519, 40.80838821007263]]}}, {"type": "Feature", "properties": {"segment_id": 908424, "physicalid": "63478", "street_name": "SHEPARD AVE", "borough": "bronx", "direction": "TW", "total_row_ft": 44.2, "roadbed_ft": 22.7, "median_ft": 0.0, "left_sw_ft": 6.6, "right_sw_ft": 15.0}, "geometry": {"type": "LineString", "coordinates": [[-73.80028243947523, 40.808528168803406], [-73.80045246520469, 40.80835534347957]]}}, {"type": "Feature", "properties": {"segment_id": 908425, "physicalid": "63478", "street_name": "SHEPARD AVE", "borough": "bronx", "direction": "TW", "total_row_ft": 44.3, "roadbed_ft": 23.2, "median_ft": 0.0, "left_sw_ft": 6.1, "right_sw_ft": 15.0}, "geometry": {"type": "LineString", "coordinates": [[-73.80022652580116, 40.808493317368686], [-73.80039459901133, 40.808322476857256]]}}, {"type": "Feature", "properties": {"segment_id": 908426, "physicalid": "63478", "street_name": "SHEPARD AVE", "borough": "bronx", "direction": "TW", "total_row_ft": 44.3, "roadbed_ft": 23.3, "median_ft": 0.0, "left_sw_ft": 6.0, "right_sw_ft": 15.0}, "geometry": {"type": "LineString", "coordinates": [[-73.80017077040512, 40.80845830508278], [-73.80033673287514, 40.808289610205776]]}}, {"type": "Feature", "properties": {"segment_id": 908427, "physicalid": "63478", "street_name": "SHEPARD AVE", "borough": "bronx", "direction": "TW", "total_row_ft": 44.0, "roadbed_ft": 23.1, "median_ft": 0.0, "left_sw_ft": 5.9, "right_sw_ft": 15.0}, "geometry": {"type": "LineString", "coordinates": [[-73.80011287486437, 40.808421700908234], [-73.8002894012365, 40.80826018832726]]}}, {"type": "Feature", "properties": {"segment_id": 908428, "physicalid": "63478", "street_name": "SHEPARD AVE", "borough": "bronx", "direction": "TW", "total_row_ft": 43.6, "roadbed_ft": 22.9, "median_ft": 0.0, "left_sw_ft": 5.7, "right_sw_ft": 15.0}, "geometry": {"type": "LineString", "coordinates": [[-73.80005762359768, 40.80838632942659], [-73.8002338213889, 40.808225117601566]]}}, {"type": "Feature", "properties": {"segment_id": 908429, "physicalid": "63478", "street_name": "SHEPARD AVE", "borough": "bronx", "direction": "TW", "total_row_ft": 43.4, "roadbed_ft": 22.8, "median_ft": 0.0, "left_sw_ft": 5.6, "right_sw_ft": 15.0}, "geometry": {"type": "LineString", "coordinates": [[-73.80000247419618, 40.808350864771015], [-73.80017824159987, 40.808190046848914]]}}, {"type": "Feature", "properties": {"segment_id": 908430, "physicalid": "63478", "street_name": "SHEPARD AVE", "borough": "bronx", "direction": "TW", "total_row_ft": 43.9, "roadbed_ft": 23.0, "median_ft": 0.0, "left_sw_ft": 5.9, "right_sw_ft": 15.0}, "geometry": {"type": "LineString", "coordinates": [[-73.79994758474784, 40.80831516230011], [-73.80012266186942, 40.80815497606924]]}}, {"type": "Feature", "properties": {"segment_id": 908465, "physicalid": "63479", "street_name": "PYTHIAN CIR", "borough": "bronx", "direction": "TW", "total_row_ft": 104.0, "roadbed_ft": 74.0, "median_ft": 0.0, "left_sw_ft": 15.0, "right_sw_ft": 15.0}, "geometry": {"type": "LineString", "coordinates": [[-73.80153439407529, 40.80921228185895], [-73.80168382387936, 40.808903103293815]]}}, {"type": "Feature", "properties": {"segment_id": 908466, "physicalid": "63479", "street_name": "PYTHIAN CIR", "borough": "bronx", "direction": "TW", "total_row_ft": 103.6, "roadbed_ft": 40.1, "median_ft": 33.5, "left_sw_ft": 15.0, "right_sw_ft": 15.0}, "geometry": {"type": "LineString", "coordinates": [[-73.80146657505037, 40.80919335865076], [-73.801616005127, 40.808884180172555]]}}, {"type": "Feature", "properties": {"segment_id": 908467, "physicalid": "63479", "street_name": "PYTHIAN CIR", "borough": "bronx", "direction": "TW", "total_row_ft": 103.7, "roadbed_ft": 30.9, "median_ft": 42.8, "left_sw_ft": 15.0, "right_sw_ft": 15.0}, "geometry": {"type": "LineString", "coordinates": [[-73.801398756064, 40.809174435402596], [-73.8015481864132, 40.808865257011355]]}}, {"type": "Feature", "properties": {"segment_id": 908468, "physicalid": "63479", "street_name": "PYTHIAN CIR", "borough": "bronx", "direction": "TW", "total_row_ft": 103.7, "roadbed_ft": 39.0, "median_ft": 34.7, "left_sw_ft": 15.0, "right_sw_ft": 15.0}, "geometry": {"type": "LineString", "coordinates": [[-73.80133093711623, 40.8091555121145], [-73.80148036773794, 40.80884633381019]]}}, {"type": "Feature", "properties": {"segment_id": 908469, "physicalid": "63479", "street_name": "PYTHIAN CIR", "borough": "bronx", "direction": "TW", "total_row_ft": 103.8, "roadbed_ft": 73.8, "median_ft": 0.0, "left_sw_ft": 15.0, "right_sw_ft": 15.0}, "geometry": {"type": "LineString", "coordinates": [[-73.80126311820698, 40.809136588786416], [-73.80141254910129, 40.8088274105691]]}}, {"type": "Feature", "properties": {"segment_id": 923077, "physicalid": "64540", "street_name": "PENNYFIELD AVE", "borough": "bronx", "direction": "TW", "total_row_ft": 98.6, "roadbed_ft": 68.6, "median_ft": 0.0, "left_sw_ft": 15.0, "right_sw_ft": 15.0}, "geometry": {"type": "LineString", "coordinates": [[-73.80375283503739, 40.809799489034624], [-73.80343594622815, 40.81002423460958]]}}, {"type": "Feature", "properties": {"segment_id": 923078, "physicalid": "64540", "street_name": "PENNYFIELD AVE", "borough": "bronx", "direction": "TW", "total_row_ft": 95.7, "roadbed_ft": 65.7, "median_ft": 0.0, "left_sw_ft": 15.0, "right_sw_ft": 15.0}, "geometry": {"type": "LineString", "coordinates": [[-73.80380213408941, 40.80983961786604], [-73.80348524525553, 40.810064363575016]]}}, {"type": "Feature", "properties": {"segment_id": 923079, "physicalid": "64540", "street_name": "PENNYFIELD AVE", "borough": "bronx", "direction": "TW", "total_row_ft": 94.2, "roadbed_ft": 64.2, "median_ft": 0.0, "left_sw_ft": 15.0, "right_sw_ft": 15.0}, "geometry": {"type": "LineString", "coordinates": [[-73.80385143320085, 40.80987974667612], [-73.80353454434237, 40.81010449251912]]}}, {"type": "Feature", "properties": {"segment_id": 923082, "physicalid": "64541", "street_name": "PENNYFIELD AVE", "borough": "bronx", "direction": "TW", "total_row_ft": 150.0, "roadbed_ft": 120.0, "median_ft": 0.0, "left_sw_ft": 15.0, "right_sw_ft": 15.0}, "geometry": {"type": "LineString", "coordinates": [[-73.80363518707688, 40.80971894293543], [-73.80336829149176, 40.80997847948649]]}}, {"type": "Feature", "properties": {"segment_id": 923083, "physicalid": "64542", "street_name": "PENNYFIELD AVE", "borough": "bronx", "direction": "TW", "total_row_ft": 87.6, "roadbed_ft": 57.6, "median_ft": 0.0, "left_sw_ft": 15.0, "right_sw_ft": 15.0}, "geometry": {"type": "LineString", "coordinates": [[-73.80326258864686, 40.80948310627679], [-73.8029839261919, 40.809735401535264]]}}, {"type": "Feature", "properties": {"segment_id": 923084, "physicalid": "64542", "street_name": "PENNYFIELD AVE", "borough": "bronx", "direction": "TW", "total_row_ft": 88.4, "roadbed_ft": 58.4, "median_ft": 0.0, "left_sw_ft": 15.0, "right_sw_ft": 15.0}, "geometry": {"type": "LineString", "coordinates": [[-73.80331793055484, 40.80951839451096], [-73.80303926816191, 40.809770689901754]]}}, {"type": "Feature", "properties": {"segment_id": 923085, "physicalid": "64542", "street_name": "PENNYFIELD AVE", "borough": "bronx", "direction": "TW", "total_row_ft": 90.3, "roadbed_ft": 60.3, "median_ft": 0.0, "left_sw_ft": 15.0, "right_sw_ft": 15.0}, "geometry": {"type": "LineString", "coordinates": [[-73.80337327252153, 40.80955368271836], [-73.80309461019063, 40.80980597824147]]}}, {"type": "Feature", "properties": {"segment_id": 923086, "physicalid": "64542", "street_name": "PENNYFIELD AVE", "borough": "bronx", "direction": "TW", "total_row_ft": 88.6, "roadbed_ft": 58.6, "median_ft": 0.0, "left_sw_ft": 15.0, "right_sw_ft": 15.0}, "geometry": {"type": "LineString", "coordinates": [[-73.80342861454687, 40.80958897089899], [-73.80314995227802, 40.809841266554436]]}}, {"type": "Feature", "properties": {"segment_id": 923087, "physicalid": "64542", "street_name": "PENNYFIELD AVE", "borough": "bronx", "direction": "TW", "total_row_ft": 69.3, "roadbed_ft": 46.0, "median_ft": 0.0, "left_sw_ft": 15.0, "right_sw_ft": 8.3}, "geometry": {"type": "LineString", "coordinates": [[-73.80348395663091, 40.809624259052846], [-73.80326886567669, 40.80981899879191]]}}, {"type": "Feature", "properties": {"segment_id": 923088, "physicalid": "64542", "street_name": "PENNYFIELD AVE", "borough": "bronx", "direction": "TW", "total_row_ft": 107.5, "roadbed_ft": 84.3, "median_ft": 0.0, "left_sw_ft": 15.0, "right_sw_ft": 8.1}, "geometry": {"type": "LineString", "coordinates": [[-73.80353929877364, 40.80965954717993], [-73.80332459175641, 40.809853939455515]]}}, {"type": "Feature", "properties": {"segment_id": 923089, "physicalid": "64543", "street_name": "PENNYFIELD AVE", "borough": "bronx", "direction": "TW", "total_row_ft": 57.5, "roadbed_ft": 27.5, "median_ft": 0.0, "left_sw_ft": 15.0, "right_sw_ft": 15.0}, "geometry": {"type": "LineString", "coordinates": [[-73.80200926391811, 40.80898593229586], [-73.80189109833742, 40.80930282554986]]}}, {"type": "Feature", "properties": {"segment_id": 923090, "physicalid": "64543", "street_name": "PENNYFIELD AVE", "borough": "bronx", "direction": "TW", "total_row_ft": 59.2, "roadbed_ft": 29.2, "median_ft": 0.0, "left_sw_ft": 15.0, "right_sw_ft": 15.0}, "geometry": {"type": "LineString", "coordinates": [[-73.80207877501269, 40.80900089619854], [-73.80196060973637, 40.80931778952299]]}}, {"type": "Feature", "properties": {"segment_id": 923091, "physicalid": "64543", "street_name": "PENNYFIELD AVE", "borough": "bronx", "direction": "TW", "total_row_ft": 61.1, "roadbed_ft": 31.1, "median_ft": 0.0, "left_sw_ft": 15.0, "right_sw_ft": 15.0}, "geometry": {"type": "LineString", "coordinates": [[-73.80215885659847, 40.80901973458473], [-73.80201852796041, 40.80933136559799]]}}, {"type": "Feature", "properties": {"segment_id": 923092, "physicalid": "64543", "street_name": "PENNYFIELD AVE", "borough": "bronx", "direction": "TW", "total_row_ft": 63.4, "roadbed_ft": 33.4, "median_ft": 0.0, "left_sw_ft": 15.0, "right_sw_ft": 15.0}, "geometry": {"type": "LineString", "coordinates": [[-73.80222721345488, 40.8090375051039], [-73.80208688509937, 40.80934913619946]]}}, {"type": "Feature", "properties": {"segment_id": 923093, "physicalid": "64543", "street_name": "PENNYFIELD AVE", "borough": "bronx", "direction": "TW", "total_row_ft": 62.7, "roadbed_ft": 36.6, "median_ft": 0.0, "left_sw_ft": 15.0, "right_sw_ft": 11.1}, "geometry": {"type": "LineString", "coordinates": [[-73.8023062672024, 40.80905872857847], [-73.80218111040641, 40.809294600506185]]}}, {"type": "Feature", "properties": {"segment_id": 923094, "physicalid": "64543", "street_name": "PENNYFIELD AVE", "borough": "bronx", "direction": "TW", "total_row_ft": 66.4, "roadbed_ft": 40.6, "median_ft": 0.0, "left_sw_ft": 15.0, "right_sw_ft": 10.8}, "geometry": {"type": "LineString", "coordinates": [[-73.80237327368897, 40.809079254726846], [-73.8022457744979, 40.809319541596906]]}}, {"type": "Feature", "properties": {"segment_id": 923095, "physicalid": "64543", "street_name": "PENNYFIELD AVE", "borough": "bronx", "direction": "TW", "total_row_ft": 70.6, "roadbed_ft": 45.0, "median_ft": 0.0, "left_sw_ft": 15.0, "right_sw_ft": 10.7}, "geometry": {"type": "LineString", "coordinates": [[-73.80244028021686, 40.80909978083619], [-73.80230964578578, 40.80934597686876]]}}, {"type": "Feature", "properties": {"segment_id": 923096, "physicalid": "64543", "street_name": "PENNYFIELD AVE", "borough": "bronx", "direction": "TW", "total_row_ft": 75.7, "roadbed_ft": 50.2, "median_ft": 0.0, "left_sw_ft": 15.0, "right_sw_ft": 10.5}, "geometry": {"type": "LineString", "coordinates": [[-73.80251665587868, 40.809126059015554], [-73.80236565520212, 40.80937179956656]]}}, {"type": "Feature", "properties": {"segment_id": 923097, "physicalid": "64543", "street_name": "PENNYFIELD AVE", "borough": "bronx", "direction": "TW", "total_row_ft": 80.1, "roadbed_ft": 54.6, "median_ft": 0.0, "left_sw_ft": 15.0, "right_sw_ft": 10.5}, "geometry": {"type": "LineString", "coordinates": [[-73.80258211978308, 40.809149281862005], [-73.80242778745423, 40.809400444767434]]}}, {"type": "Feature", "properties": {"segment_id": 923098, "physicalid": "64543", "street_name": "PENNYFIELD AVE", "borough": "bronx", "direction": "TW", "total_row_ft": 82.1, "roadbed_ft": 56.7, "median_ft": 0.0, "left_sw_ft": 15.0, "right_sw_ft": 10.4}, "geometry": {"type": "LineString", "coordinates": [[-73.8026570653215, 40.80917782221841], [-73.80248281624728, 40.8094258146966]]}}, {"type": "Feature", "properties": {"segment_id": 923099, "physicalid": "64543", "street_name": "PENNYFIELD AVE", "borough": "bronx", "direction": "TW", "total_row_ft": 82.9, "roadbed_ft": 56.8, "median_ft": 0.0, "left_sw_ft": 15.0, "right_sw_ft": 11.0}, "geometry": {"type": "LineString", "coordinates": [[-73.80272079876887, 40.809203675170615], [-73.80254338160849, 40.80945617681423]]}}, {"type": "Feature", "properties": {"segment_id": 923100, "physicalid": "64543", "street_name": "PENNYFIELD AVE", "borough": "bronx", "direction": "TW", "total_row_ft": 82.3, "roadbed_ft": 56.2, "median_ft": 0.0, "left_sw_ft": 15.0, "right_sw_ft": 11.1}, "geometry": {"type": "LineString", "coordinates": [[-73.80279421296031, 40.80923443904541], [-73.8025957602875, 40.80948375074202]]}}, {"type": "Feature", "properties": {"segment_id": 923101, "physicalid": "64543", "street_name": "PENNYFIELD AVE", "borough": "bronx", "direction": "TW", "total_row_ft": 81.9, "roadbed_ft": 55.9, "median_ft": 0.0, "left_sw_ft": 15.0, "right_sw_ft": 11.0}, "geometry": {"type": "LineString", "coordinates": [[-73.8028560330811, 40.809262847925474], [-73.8026555754552, 40.80951467868166]]}}, {"type": "Feature", "properties": {"segment_id": 923102, "physicalid": "64543", "street_name": "PENNYFIELD AVE", "borough": "bronx", "direction": "TW", "total_row_ft": 81.2, "roadbed_ft": 55.6, "median_ft": 0.0, "left_sw_ft": 15.0, "right_sw_ft": 10.7}, "geometry": {"type": "LineString", "coordinates": [[-73.8029178532547, 40.809291256772255], [-73.80271580788303, 40.809545082466435]]}}, {"type": "Feature", "properties": {"segment_id": 923103, "physicalid": "64543", "street_name": "PENNYFIELD AVE", "borough": "bronx", "direction": "TW", "total_row_ft": 80.1, "roadbed_ft": 54.8, "median_ft": 0.0, "left_sw_ft": 15.0, "right_sw_ft": 10.4}, "geometry": {"type": "LineString", "coordinates": [[-73.80298754529719, 40.80932667814767], [-73.80276823558971, 40.80957154613991]]}}, {"type": "Feature", "properties": {"segment_id": 923104, "physicalid": "64543", "street_name": "PENNYFIELD AVE", "borough": "bronx", "direction": "TW", "total_row_ft": 87.7, "roadbed_ft": 57.7, "median_ft": 0.0, "left_sw_ft": 15.0, "right_sw_ft": 15.0}, "geometry": {"type": "LineString", "coordinates": [[-73.8030472747658, 40.80935756141292], [-73.80280339786746, 40.809629859781495]]}}, {"type": "Feature", "properties": {"segment_id": 923105, "physicalid": "64543", "street_name": "PENNYFIELD AVE", "borough": "bronx", "direction": "TW", "total_row_ft": 87.3, "roadbed_ft": 57.3, "median_ft": 0.0, "left_sw_ft": 15.0, "right_sw_ft": 15.0}, "geometry": {"type": "LineString", "coordinates": [[-73.80311506514381, 40.80939503492571], [-73.80285234780952, 40.809657020290864]]}}, {"type": "Feature", "properties": {"segment_id": 925333, "physicalid": "64663", "street_name": "SOUNDVIEW TER", "borough": "bronx", "direction": "TW", "total_row_ft": 48.9, "roadbed_ft": 18.9, "median_ft": 0.0, "left_sw_ft": 15.0, "right_sw_ft": 15.0}, "geometry": {"type": "LineString", "coordinates": [[-73.8045071450786, 40.81008471210126], [-73.80487558846966, 40.809911179636195]]}}, {"type": "Feature", "properties": {"segment_id": 925340, "physicalid": "64665", "street_name": "SOUNDVIEW TER", "borough": "bronx", "direction": "TW", "total_row_ft": 49.6, "roadbed_ft": 19.6, "median_ft": 0.0, "left_sw_ft": 15.0, "right_sw_ft": 15.0}, "geometry": {"type": "LineString", "coordinates": [[-73.80443373766019, 40.80999520030847], [-73.8048007959704, 40.80981998210294]]}}, {"type": "Feature", "properties": {"segment_id": 925341, "physicalid": "64665", "street_name": "SOUNDVIEW TER", "borough": "bronx", "direction": "TW", "total_row_ft": 50.0, "roadbed_ft": 20.0, "median_ft": 0.0, "left_sw_ft": 15.0, "right_sw_ft": 15.0}, "geometry": {"type": "LineString", "coordinates": [[-73.80439530282098, 40.80994871816282], [-73.80476236097603, 40.809773500078364]]}}, {"type": "Feature", "properties": {"segment_id": 925342, "physicalid": "64665", "street_name": "SOUNDVIEW TER", "borough": "bronx", "direction": "TW", "total_row_ft": 50.2, "roadbed_ft": 20.2, "median_ft": 0.0, "left_sw_ft": 15.0, "right_sw_ft": 15.0}, "geometry": {"type": "LineString", "coordinates": [[-73.80435686803547, 40.80990223600404], [-73.80472392603534, 40.809727018040626]]}}, {"type": "Feature", "properties": {"segment_id": 925343, "physicalid": "64665", "street_name": "SOUNDVIEW TER", "borough": "bronx", "direction": "TW", "total_row_ft": 50.3, "roadbed_ft": 20.3, "median_ft": 0.0, "left_sw_ft": 15.0, "right_sw_ft": 15.0}, "geometry": {"type": "LineString", "coordinates": [[-73.80431843330364, 40.809855753832096], [-73.80468549114836, 40.80968053598973]]}}, {"type": "Feature", "properties": {"segment_id": 925344, "physicalid": "64665", "street_name": "SOUNDVIEW TER", "borough": "bronx", "direction": "TW", "total_row_ft": 50.3, "roadbed_ft": 20.3, "median_ft": 0.0, "left_sw_ft": 15.0, "right_sw_ft": 15.0}, "geometry": {"type": "LineString", "coordinates": [[-73.80427999862549, 40.80980927164696], [-73.80464705631503, 40.80963405392565]]}}, {"type": "Feature", "properties": {"segment_id": 925345, "physicalid": "64665", "street_name": "SOUNDVIEW TER", "borough": "bronx", "direction": "TW", "total_row_ft": 50.3, "roadbed_ft": 20.3, "median_ft": 0.0, "left_sw_ft": 15.0, "right_sw_ft": 15.0}, "geometry": {"type": "LineString", "coordinates": [[-73.804241564001, 40.80976278944867], [-73.8046086215354, 40.80958757184842]]}}, {"type": "Feature", "properties": {"segment_id": 925346, "physicalid": "64665", "street_name": "SOUNDVIEW TER", "borough": "bronx", "direction": "TW", "total_row_ft": 50.2, "roadbed_ft": 20.2, "median_ft": 0.0, "left_sw_ft": 15.0, "right_sw_ft": 15.0}, "geometry": {"type": "LineString", "coordinates": [[-73.80420312943023, 40.809716307237224], [-73.80457018680946, 40.80954108975803]]}}, {"type": "Feature", "properties": {"segment_id": 925347, "physicalid": "64665", "street_name": "SOUNDVIEW TER", "borough": "bronx", "direction": "TW", "total_row_ft": 50.2, "roadbed_ft": 20.2, "median_ft": 0.0, "left_sw_ft": 15.0, "right_sw_ft": 15.0}, "geometry": {"type": "LineString", "coordinates": [[-73.80416169609198, 40.80966483733351], [-73.80453617858292, 40.80949893860699]]}}, {"type": "Feature", "properties": {"segment_id": 925348, "physicalid": "64665", "street_name": "SOUNDVIEW TER", "borough": "bronx", "direction": "TW", "total_row_ft": 50.4, "roadbed_ft": 20.4, "median_ft": 0.0, "left_sw_ft": 15.0, "right_sw_ft": 15.0}, "geometry": {"type": "LineString", "coordinates": [[-73.80412530571421, 40.809617414801934], [-73.80449978802908, 40.809451516192446]]}}, {"type": "Feature", "properties": {"segment_id": 925349, "physicalid": "64665", "street_name": "SOUNDVIEW TER", "borough": "bronx", "direction": "TW", "total_row_ft": 50.6, "roadbed_ft": 20.6, "median_ft": 0.0, "left_sw_ft": 15.0, "right_sw_ft": 15.0}, "geometry": {"type": "LineString", "coordinates": [[-73.80408891538832, 40.80956999225858], [-73.80446339752707, 40.80940409376599]]}}, {"type": "Feature", "properties": {"segment_id": 925350, "physicalid": "64665", "street_name": "SOUNDVIEW TER", "borough": "bronx", "direction": "TW", "total_row_ft": 50.8, "roadbed_ft": 20.8, "median_ft": 0.0, "left_sw_ft": 15.0, "right_sw_ft": 15.0}, "geometry": {"type": "LineString", "coordinates": [[-73.80405252511429, 40.809522569703375], [-73.80442700707688, 40.8093566713277]]}}, {"type": "Feature", "properties": {"segment_id": 925351, "physicalid": "64665", "street_name": "SOUNDVIEW TER", "borough": "bronx", "direction": "TW", "total_row_ft": 51.0, "roadbed_ft": 21.0, "median_ft": 0.0, "left_sw_ft": 15.0, "right_sw_ft": 15.0}, "geometry": {"type": "LineString", "coordinates": [[-73.80401613489211, 40.8094751471363], [-73.80439061667859, 40.80930924887753]]}}, {"type": "Feature", "properties": {"segment_id": 925352, "physicalid": "64665", "street_name": "SOUNDVIEW TER", "borough": "bronx", "direction": "TW", "total_row_ft": 51.6, "roadbed_ft": 21.6, "median_ft": 0.0, "left_sw_ft": 15.0, "right_sw_ft": 15.0}, "geometry": {"type": "LineString", "coordinates": [[-73.80400239284643, 40.80945192398011], [-73.80433157814429, 40.80923762706117]]}}, {"type": "Feature", "properties": {"segment_id": 925353, "physicalid": "64665", "street_name": "SOUNDVIEW TER", "borough": "bronx", "direction": "TW", "total_row_ft": 52.7, "roadbed_ft": 22.7, "median_ft": 0.0, "left_sw_ft": 15.0, "right_sw_ft": 15.0}, "geometry": {"type": "LineString", "coordinates": [[-73.80402919976369, 40.80947077877443], [-73.80418223634608, 40.809162620260004]]}}, {"type": "Feature", "properties": {"segment_id": 925354, "physicalid": "64665", "street_name": "SOUNDVIEW TER", "borough": "bronx", "direction": "TW", "total_row_ft": 53.0, "roadbed_ft": 23.0, "median_ft": 0.0, "left_sw_ft": 15.0, "right_sw_ft": 15.0}, "geometry": {"type": "LineString", "coordinates": [[-73.80406149179329, 40.809475226616804], [-73.80400751700674, 40.809148423039744]]}}, {"type": "Feature", "properties": {"segment_id": 925355, "physicalid": "64665", "street_name": "SOUNDVIEW TER", "borough": "bronx", "direction": "TW", "total_row_ft": 49.3, "roadbed_ft": 19.3, "median_ft": 0.0, "left_sw_ft": 15.0, "right_sw_ft": 15.0}, "geometry": {"type": "LineString", "coordinates": [[-73.80409187941902, 40.80946592717614], [-73.80384337637325, 40.8091960545729]]}}, {"type": "Feature", "properties": {"segment_id": 925356, "physicalid": "64665", "street_name": "SOUNDVIEW TER", "borough": "bronx", "direction": "TW", "total_row_ft": 49.4, "roadbed_ft": 19.4, "median_ft": 0.0, "left_sw_ft": 15.0, "right_sw_ft": 15.0}, "geometry": {"type": "LineString", "coordinates": [[-73.80407434927139, 40.80948040905316], [-73.80375620711716, 40.809256690154044]]}}, {"type": "Feature", "properties": {"segment_id": 925357, "physicalid": "64665", "street_name": "SOUNDVIEW TER", "borough": "bronx", "direction": "TW", "total_row_ft": 51.0, "roadbed_ft": 21.0, "median_ft": 0.0, "left_sw_ft": 15.0, "right_sw_ft": 15.0}, "geometry": {"type": "LineString", "coordinates": [[-73.80402527585669, 40.80952069706717], [-73.80370713367476, 40.80929697803414]]}}, {"type": "Feature", "properties": {"segment_id": 925358, "physicalid": "64665", "street_name": "SOUNDVIEW TER", "borough": "bronx", "direction": "TW", "total_row_ft": 53.2, "roadbed_ft": 23.2, "median_ft": 0.0, "left_sw_ft": 15.0, "right_sw_ft": 15.0}, "geometry": {"type": "LineString", "coordinates": [[-73.80397620238253, 40.80956098506007], [-73.80365806017298, 40.80933726589307]]}}, {"type": "Feature", "properties": {"segment_id": 925359, "physicalid": "64665", "street_name": "SOUNDVIEW TER", "borough": "bronx", "direction": "TW", "total_row_ft": 54.8, "roadbed_ft": 24.8, "median_ft": 0.0, "left_sw_ft": 15.0, "right_sw_ft": 15.0}, "geometry": {"type": "LineString", "coordinates": [[-73.80392712884895, 40.80960127303182], [-73.80360898661179, 40.809377553730855]]}}, {"type": "Feature", "properties": {"segment_id": 925360, "physicalid": "64665", "street_name": "SOUNDVIEW TER", "borough": "bronx", "direction": "TW", "total_row_ft": 56.0, "roadbed_ft": 26.0, "median_ft": 0.0, "left_sw_ft": 15.0, "right_sw_ft": 15.0}, "geometry": {"type": "LineString", "coordinates": [[-73.80387805525599, 40.80964156098241], [-73.8035599129912, 40.80941784154749]]}}, {"type": "Feature", "properties": {"segment_id": 925361, "physicalid": "64665", "street_name": "SOUNDVIEW TER", "borough": "bronx", "direction": "TW", "total_row_ft": 57.8, "roadbed_ft": 27.8, "median_ft": 0.0, "left_sw_ft": 15.0, "right_sw_ft": 15.0}, "geometry": {"type": "LineString", "coordinates": [[-73.80382898160359, 40.80968184891188], [-73.80351083931122, 40.80945812934296]]}}, {"type": "Feature", "properties": {"segment_id": 925362, "physicalid": "64665", "street_name": "SOUNDVIEW TER", "borough": "bronx", "direction": "TW", "total_row_ft": 82.0, "roadbed_ft": 52.0, "median_ft": 0.0, "left_sw_ft": 15.0, "right_sw_ft": 15.0}, "geometry": {"type": "LineString", "coordinates": [[-73.80379949890448, 40.809703512364045], [-73.80344217452499, 40.809517041516614]]}}, {"type": "Feature", "properties": {"segment_id": 925363, "physicalid": "64665", "street_name": "SOUNDVIEW TER", "borough": "bronx", "direction": "TW", "total_row_ft": 109.3, "roadbed_ft": 79.3, "median_ft": 0.0, "left_sw_ft": 15.0, "right_sw_ft": 15.0}, "geometry": {"type": "LineString", "coordinates": [[-73.80377243386383, 40.80974000641653], [-73.80339685757598, 40.80957554079128]]}}, {"type": "Feature", "properties": {"segment_id": 925364, "physicalid": "64665", "street_name": "SOUNDVIEW TER", "borough": "bronx", "direction": "TW", "total_row_ft": 112.9, "roadbed_ft": 82.9, "median_ft": 0.0, "left_sw_ft": 15.0, "right_sw_ft": 15.0}, "geometry": {"type": "LineString", "coordinates": [[-73.80373635775038, 40.80978756739374], [-73.80336078128323, 40.809623101652285]]}}, {"type": "Feature", "properties": {"segment_id": 925365, "physicalid": "64665", "street_name": "SOUNDVIEW TER", "borough": "bronx", "direction": "TW", "total_row_ft": 131.2, "roadbed_ft": 101.2, "median_ft": 0.0, "left_sw_ft": 15.0, "right_sw_ft": 15.0}, "geometry": {"type": "LineString", "coordinates": [[-73.80370028158535, 40.809835128359325], [-73.80332470493897, 40.8096706625016]]}}, {"type": "Feature", "properties": {"segment_id": 1293530, "physicalid": "88439", "street_name": "HAZEL PL", "borough": "bronx", "direction": "TW", "total_row_ft": 21.0, "roadbed_ft": 0.0, "median_ft": 0.0, "left_sw_ft": 1.8, "right_sw_ft": 19.2}, "geometry": {"type": "LineString", "coordinates": [[-73.80548207086429, 40.81000303696857], [-73.80537869012261, 40.809876168481615]]}}, {"type": "Feature", "properties": {"segment_id": 1323540, "physicalid": "90258", "street_name": "PYTHIAN CIR", "borough": "bronx", "direction": "TF", "total_row_ft": 135.0, "roadbed_ft": 59.1, "median_ft": 14.1, "left_sw_ft": 15.0, "right_sw_ft": 46.8}, "geometry": {"type": "LineString", "coordinates": [[-73.80109558427945, 40.80927070533296], [-73.80149757535074, 40.80914745671494]]}}, {"type": "Feature", "properties": {"segment_id": 1323541, "physicalid": "90258", "street_name": "PYTHIAN CIR", "borough": "bronx", "direction": "TF", "total_row_ft": 93.1, "roadbed_ft": 38.1, "median_ft": 32.3, "left_sw_ft": 15.0, "right_sw_ft": 7.6}, "geometry": {"type": "LineString", "coordinates": [[-73.80121097095314, 40.80916725393398], [-73.80148677346769, 40.80912276912625]]}}, {"type": "Feature", "properties": {"segment_id": 1323542, "physicalid": "90258", "street_name": "PYTHIAN CIR", "borough": "bronx", "direction": "TF", "total_row_ft": 96.6, "roadbed_ft": 23.7, "median_ft": 44.7, "left_sw_ft": 15.0, "right_sw_ft": 13.2}, "geometry": {"type": "LineString", "coordinates": [[-73.80118292819705, 40.80910513230289], [-73.80147758063326, 40.809097671061465]]}}, {"type": "Feature", "properties": {"segment_id": 1323543, "physicalid": "90258", "street_name": "PYTHIAN CIR", "borough": "bronx", "direction": "TF", "total_row_ft": 88.9, "roadbed_ft": 39.4, "median_ft": 28.3, "left_sw_ft": 15.0, "right_sw_ft": 6.1}, "geometry": {"type": "LineString", "coordinates": [[-73.80120852565175, 40.809049559216376], [-73.80147517407732, 40.809042807064976]]}}, {"type": "Feature", "properties": {"segment_id": 1323544, "physicalid": "90259", "street_name": "PYTHIAN CIR", "borough": "bronx", "direction": "TF", "total_row_ft": 104.9, "roadbed_ft": 74.9, "median_ft": 0.0, "left_sw_ft": 15.0, "right_sw_ft": 15.0}, "geometry": {"type": "LineString", "coordinates": [[-73.8017941030008, 40.809207639493735], [-73.80145754492679, 40.80900006051457]]}}, {"type": "Feature", "properties": {"segment_id": 1323545, "physicalid": "90259", "street_name": "PYTHIAN CIR", "borough": "bronx", "direction": "TF", "total_row_ft": 99.5, "roadbed_ft": 43.8, "median_ft": 25.7, "left_sw_ft": 15.0, "right_sw_ft": 15.0}, "geometry": {"type": "LineString", "coordinates": [[-73.8017155343122, 40.809271033056795], [-73.8014390241197, 40.8090173756063]]}}, {"type": "Feature", "properties": {"segment_id": 1323546, "physicalid": "90259", "street_name": "PYTHIAN CIR", "borough": "bronx", "direction": "TF", "total_row_ft": 104.0, "roadbed_ft": 26.8, "median_ft": 47.1, "left_sw_ft": 15.0, "right_sw_ft": 15.0}, "geometry": {"type": "LineString", "coordinates": [[-73.801659893931, 40.809306049119336], [-73.80138338380509, 40.80905239153683]]}}, {"type": "Feature", "properties": {"segment_id": 1323547, "physicalid": "90259", "street_name": "PYTHIAN CIR", "borough": "bronx", "direction": "TF", "total_row_ft": 106.3, "roadbed_ft": 36.1, "median_ft": 40.2, "left_sw_ft": 15.0, "right_sw_ft": 15.0}, "geometry": {"type": "LineString", "coordinates": [[-73.80156194499267, 40.80935193842921], [-73.80135694512207, 40.8090617301762]]}}, {"type": "Feature", "properties": {"segment_id": 1323548, "physicalid": "90259", "street_name": "PYTHIAN CIR", "borough": "bronx", "direction": "TF", "total_row_ft": 101.0, "roadbed_ft": 48.1, "median_ft": 22.8, "left_sw_ft": 15.0, "right_sw_ft": 15.0}, "geometry": {"type": "LineString", "coordinates": [[-73.80145704881386, 40.80938698572297], [-73.80133084972184, 40.80907188570289]]}}, {"type": "Feature", "properties": {"segment_id": 1323549, "physicalid": "90260", "street_name": "ERBEN AVE", "borough": "bronx", "direction": "TW", "total_row_ft": 84.0, "roadbed_ft": 22.7, "median_ft": 0.0, "left_sw_ft": 15.0, "right_sw_ft": 46.3}, "geometry": {"type": "LineString", "coordinates": [[-73.80133345066865, 40.80941654373593], [-73.80119736923307, 40.80910382714923]]}}, {"type": "Feature", "properties": {"segment_id": 1323550, "physicalid": "90260", "street_name": "ERBEN AVE", "borough": "bronx", "direction": "TW", "total_row_ft": 40.8, "roadbed_ft": 22.3, "median_ft": 0.0, "left_sw_ft": 15.0, "right_sw_ft": 3.5}, "geometry": {"type": "LineString", "coordinates": [[-73.80126485531673, 40.809433776467586], [-73.80117902291065, 40.80923653258145]]}}, {"type": "Feature", "properties": {"segment_id": 1323551, "physicalid": "90260", "street_name": "ERBEN AVE", "borough": "bronx", "direction": "TW", "total_row_ft": 41.9, "roadbed_ft": 22.9, "median_ft": 0.0, "left_sw_ft": 15.0, "right_sw_ft": 3.9}, "geometry": {"type": "LineString", "coordinates": [[-73.8012262334775, 40.809447697741106], [-73.80110535210238, 40.80925999701865]]}}, {"type": "Feature", "properties": {"segment_id": 1323552, "physicalid": "90260", "street_name": "ERBEN AVE", "borough": "bronx", "direction": "TW", "total_row_ft": 42.8, "roadbed_ft": 23.1, "median_ft": 0.0, "left_sw_ft": 15.0, "right_sw_ft": 4.7}, "geometry": {"type": "LineString", "coordinates": [[-73.80116133852988, 40.80947182537587], [-73.80104063917116, 40.80928440700056]]}}, {"type": "Feature", "properties": {"segment_id": 1323553, "physicalid": "90260", "street_name": "ERBEN AVE", "borough": "bronx", "direction": "TW", "total_row_ft": 43.1, "roadbed_ft": 23.3, "median_ft": 0.0, "left_sw_ft": 15.0, "right_sw_ft": 4.8}, "geometry": {"type": "LineString", "coordinates": [[-73.80112565867441, 40.80948928378929], [-73.80097344444509, 40.80931735567461]]}}, {"type": "Feature", "properties": {"segment_id": 1323554, "physicalid": "90260", "street_name": "ERBEN AVE", "borough": "bronx", "direction": "TW", "total_row_ft": 43.1, "roadbed_ft": 23.0, "median_ft": 0.0, "left_sw_ft": 15.0, "right_sw_ft": 5.1}, "geometry": {"type": "LineString", "coordinates": [[-73.80106571207025, 40.80951992337403], [-73.8009164893009, 40.80935137399543]]}}, {"type": "Feature", "properties": {"segment_id": 1323555, "physicalid": "90260", "street_name": "ERBEN AVE", "borough": "bronx", "direction": "TW", "total_row_ft": 37.9, "roadbed_ft": 22.9, "median_ft": 0.0, "left_sw_ft": 15.0, "right_sw_ft": 0.0}, "geometry": {"type": "LineString", "coordinates": [[-73.80103323288171, 40.80954065757906], [-73.80084189538013, 40.809377956895524]]}}, {"type": "Feature", "properties": {"segment_id": 1323556, "physicalid": "90260", "street_name": "ERBEN AVE", "borough": "bronx", "direction": "TW", "total_row_ft": 52.7, "roadbed_ft": 22.7, "median_ft": 0.0, "left_sw_ft": 15.0, "right_sw_ft": 15.0}, "geometry": {"type": "LineString", "coordinates": [[-73.80097935894484, 40.80957723380027], [-73.80069052753267, 40.80933163018311]]}}, {"type": "Feature", "properties": {"segment_id": 1323557, "physicalid": "90260", "street_name": "ERBEN AVE", "borough": "bronx", "direction": "TW", "total_row_ft": 41.6, "roadbed_ft": 22.6, "median_ft": 0.0, "left_sw_ft": 15.0, "right_sw_ft": 3.9}, "geometry": {"type": "LineString", "coordinates": [[-73.80095042513413, 40.80960110277991], [-73.80075548946142, 40.809474858941236]]}}, {"type": "Feature", "properties": {"segment_id": 1323558, "physicalid": "90260", "street_name": "ERBEN AVE", "borough": "bronx", "direction": "TW", "total_row_ft": 42.5, "roadbed_ft": 23.0, "median_ft": 0.0, "left_sw_ft": 15.0, "right_sw_ft": 4.5}, "geometry": {"type": "LineString", "coordinates": [[-73.80090355921409, 40.809642880698625], [-73.80069984357694, 40.80951095071913]]}}, {"type": "Feature", "properties": {"segment_id": 1323559, "physicalid": "90260", "street_name": "ERBEN AVE", "borough": "bronx", "direction": "TW", "total_row_ft": 42.4, "roadbed_ft": 22.5, "median_ft": 0.0, "left_sw_ft": 15.0, "right_sw_ft": 4.9}, "geometry": {"type": "LineString", "coordinates": [[-73.8007630637796, 40.80971696966647], [-73.80066003484234, 40.80952976310307]]}}, {"type": "Feature", "properties": {"segment_id": 1323560, "physicalid": "90260", "street_name": "ERBEN AVE", "borough": "bronx", "direction": "TW", "total_row_ft": 43.0, "roadbed_ft": 22.0, "median_ft": 0.0, "left_sw_ft": 15.0, "right_sw_ft": 5.9}, "geometry": {"type": "LineString", "coordinates": [[-73.80065567115747, 40.809745641609354], [-73.8006021425454, 40.80954779595788]]}}, {"type": "Feature", "properties": {"segment_id": 1323561, "physicalid": "90260", "street_name": "ERBEN AVE", "borough": "bronx", "direction": "TW", "total_row_ft": 43.1, "roadbed_ft": 22.1, "median_ft": 0.0, "left_sw_ft": 15.0, "right_sw_ft": 6.0}, "geometry": {"type": "LineString", "coordinates": [[-73.80058490302268, 40.809756695195944], [-73.8005315269911, 40.80955941271987]]}}, {"type": "Feature", "properties": {"segment_id": 1323562, "physicalid": "90260", "street_name": "ERBEN AVE", "borough": "bronx", "direction": "TW", "total_row_ft": 40.7, "roadbed_ft": 22.3, "median_ft": 0.0, "left_sw_ft": 6.0, "right_sw_ft": 12.4}, "geometry": {"type": "LineString", "coordinates": [[-73.80046973297613, 40.80965461144184], [-73.80046913189216, 40.8095294611216]]}}, {"type": "Feature", "properties": {"segment_id": 1323563, "physicalid": "90260", "street_name": "ERBEN AVE", "borough": "bronx", "direction": "TW", "total_row_ft": 40.5, "roadbed_ft": 22.3, "median_ft": 0.0, "left_sw_ft": 6.3, "right_sw_ft": 11.8}, "geometry": {"type": "LineString", "coordinates": [[-73.80038455860863, 40.80964629811038], [-73.80042079175034, 40.80950847744122]]}}, {"type": "Feature", "properties": {"segment_id": 1323564, "physicalid": "90260", "street_name": "ERBEN AVE", "borough": "bronx", "direction": "TW", "total_row_ft": 41.5, "roadbed_ft": 22.8, "median_ft": 0.0, "left_sw_ft": 5.9, "right_sw_ft": 12.8}, "geometry": {"type": "LineString", "coordinates": [[-73.80031567833522, 40.80962805974624], [-73.80035466338778, 40.80947977212513]]}}, {"type": "Feature", "properties": {"segment_id": 1323565, "physicalid": "90260", "street_name": "ERBEN AVE", "borough": "bronx", "direction": "TW", "total_row_ft": 40.1, "roadbed_ft": 22.6, "median_ft": 0.0, "left_sw_ft": 5.2, "right_sw_ft": 12.4}, "geometry": {"type": "LineString", "coordinates": [[-73.80024133707428, 40.80960009387776], [-73.80031685197292, 40.80946297169735]]}}, {"type": "Feature", "properties": {"segment_id": 1323566, "physicalid": "90260", "street_name": "ERBEN AVE", "borough": "bronx", "direction": "TW", "total_row_ft": 40.3, "roadbed_ft": 22.2, "median_ft": 0.0, "left_sw_ft": 5.7, "right_sw_ft": 12.4}, "geometry": {"type": "LineString", "coordinates": [[-73.80016935360368, 40.809573014900124], [-73.80028052782887, 40.809446725278235]]}}, {"type": "Feature", "properties": {"segment_id": 1323567, "physicalid": "90260", "street_name": "ERBEN AVE", "borough": "bronx", "direction": "TW", "total_row_ft": 41.3, "roadbed_ft": 21.9, "median_ft": 0.0, "left_sw_ft": 6.2, "right_sw_ft": 13.2}, "geometry": {"type": "LineString", "coordinates": [[-73.80010171314153, 40.80955111481348], [-73.80021816340458, 40.80941883197896]]}}, {"type": "Feature", "properties": {"segment_id": 1323568, "physicalid": "90260", "street_name": "ERBEN AVE", "borough": "bronx", "direction": "TW", "total_row_ft": 46.8, "roadbed_ft": 20.8, "median_ft": 0.0, "left_sw_ft": 5.5, "right_sw_ft": 20.5}, "geometry": {"type": "LineString", "coordinates": [[-73.80006093046497, 40.80954352398191], [-73.80007619611166, 40.809355335048664]]}}, {"type": "Feature", "properties": {"segment_id": 1323665, "physicalid": "90264", "street_name": "PENNYFIELD AVE", "borough": "bronx", "direction": "TW", "total_row_ft": 56.5, "roadbed_ft": 26.5, "median_ft": 0.0, "left_sw_ft": 15.0, "right_sw_ft": 15.0}, "geometry": {"type": "LineString", "coordinates": [[-73.8017771930475, 40.80927592660761], [-73.80191625952081, 40.808963969146504]]}}, {"type": "Feature", "properties": {"segment_id": 1323666, "physicalid": "90264", "street_name": "PENNYFIELD AVE", "borough": "bronx", "direction": "TW", "total_row_ft": 58.3, "roadbed_ft": 28.3, "median_ft": 0.0, "left_sw_ft": 15.0, "right_sw_ft": 15.0}, "geometry": {"type": "LineString", "coordinates": [[-73.80170876439487, 40.80925831578578], [-73.80184783115216, 40.808946358406324]]}}, {"type": "Feature", "properties": {"segment_id": 1528887, "physicalid": "102962", "street_name": "ALAN PL", "borough": "bronx", "direction": "TW", "total_row_ft": 114.5, "roadbed_ft": 84.5, "median_ft": 0.0, "left_sw_ft": 15.0, "right_sw_ft": 15.0}, "geometry": {"type": "LineString", "coordinates": [[-73.803602849724, 40.81004796993813], [-73.80341438944092, 40.80975135872659]]}}, {"type": "Feature", "properties": {"segment_id": 1528888, "physicalid": "102962", "street_name": "ALAN PL", "borough": "bronx", "direction": "TW", "total_row_ft": 103.4, "roadbed_ft": 73.4, "median_ft": 0.0, "left_sw_ft": 15.0, "right_sw_ft": 15.0}, "geometry": {"type": "LineString", "coordinates": [[-73.80353778652264, 40.81007183546318], [-73.8033493264619, 40.80977522414639]]}}, {"type": "Feature", "properties": {"segment_id": 1528889, "physicalid": "102962", "street_name": "ALAN PL", "borough": "bronx", "direction": "TW", "total_row_ft": 69.2, "roadbed_ft": 28.8, "median_ft": 0.0, "left_sw_ft": 15.0, "right_sw_ft": 25.4}, "geometry": {"type": "LineString", "coordinates": [[-73.80347272327461, 40.81009570095139], [-73.80328426343624, 40.80979908952941]]}}]}