{"type": "FeatureCollection", "features": [{"type": "Feature", "properties": {"segment_id": 1632193, "physicalid": "155528", "street_name": "RODMANS NECK PATH", "borough": "bronx", "direction": "TW", "total_row_ft": 98.1, "roadbed_ft": 68.1, "median_ft": 0.0, "left_sw_ft": 15.0, "right_sw_ft": 15.0}, "geometry": {"type": "LineString", "coordinates": [[-73.80023829875658, 40.84993979064001], [-73.800670615548, 40.84996654212983]]}}, {"type": "Feature", "properties": {"segment_id": 1632194, "physicalid": "155528", "street_name": "RODMANS NECK PATH", "borough": "bronx", "direction": "TW", "total_row_ft": 99.7, "roadbed_ft": 69.7, "median_ft": 0.0, "left_sw_ft": 15.0, "right_sw_ft": 15.0}, "geometry": {"type": "LineString", "coordinates": [[-73.80024417056667, 40.84988507793362], [-73.80067648700485, 40.84991182940162]]}}, {"type": "Feature", "properties": {"segment_id": 1632195, "physicalid": "155528", "street_name": "RODMANS NECK PATH", "borough": "bronx", "direction": "TW", "total_row_ft": 101.8, "roadbed_ft": 71.8, "median_ft": 0.0, "left_sw_ft": 15.0, "right_sw_ft": 15.0}, "geometry": {"type": "LineString", "coordinates": [[-73.80025288359869, 40.84982418950221], [-73.80068351659207, 40.84986359902243]]}}, {"type": "Feature", "properties": {"segment_id": 1632196, "physicalid": "155528", "street_name": "RODMANS NECK PATH", "borough": "bronx", "direction": "TW", "total_row_ft": 103.8, "roadbed_ft": 73.8, "median_ft": 0.0, "left_sw_ft": 15.0, "right_sw_ft": 15.0}, "geometry": {"type": "LineString", "coordinates": [[-73.80026153367864, 40.84976968980655], [-73.8006921663243, 40.849809099294866]]}}, {"type": "Feature", "properties": {"segment_id": 1632197, "physicalid": "155528", "street_name": "RODMANS NECK PATH", "borough": "bronx", "direction": "TW", "total_row_ft": 105.9, "roadbed_ft": 75.9, "median_ft": 0.0, "left_sw_ft": 15.0, "right_sw_ft": 15.0}, "geometry": {"type": "LineString", "coordinates": [[-73.8002701837444, 40.84971519010974], [-73.80070081604235, 40.84975459956614]]}}, {"type": "Feature", "properties": {"segment_id": 1632198, "physicalid": "155528", "street_name": "RODMANS NECK PATH", "borough": "bronx", "direction": "TW", "total_row_ft": 108.4, "roadbed_ft": 78.4, "median_ft": 0.0, "left_sw_ft": 15.0, "right_sw_ft": 15.0}, "geometry": {"type": "LineString", "coordinates": [[-73.80028201849295, 40.84965460596813], [-73.80071032483197, 40.849706614665934]]}}, {"type": "Feature", "properties": {"segment_id": 1632199, "physicalid": "155528", "street_name": "RODMANS NECK PATH", "borough": "bronx", "direction": "TW", "total_row_ft": 109.9, "roadbed_ft": 79.9, "median_ft": 0.0, "left_sw_ft": 15.0, "right_sw_ft": 15.0}, "geometry": {"type": "LineString", "coordinates": [[-73.80029343390568, 40.84960040059752], [-73.80072173990459, 40.84965240925342]]}}, {"type": "Feature", "properties": {"segment_id": 1632280, "physicalid": "155531", "street_name": "RODMANS NECK PATH", "borough": "bronx", "direction": "TW", "total_row_ft": 40.8, "roadbed_ft": 10.8, "median_ft": 0.0, "left_sw_ft": 15.0, "right_sw_ft": 15.0}, "geometry": {"type": "LineString", "coordinates": [[-73.7997996408941, 40.84914628079822], [-73.80021649019012, 40.84923731206409]]}}, {"type": "Feature", "properties": {"segment_id": 1632281, "physicalid": "155531", "street_name": "RODMANS NECK PATH", "borough": "bronx", "direction": "TW", "total_row_ft": 41.3, "roadbed_ft": 11.3, "median_ft": 0.0, "left_sw_ft": 15.0, "right_sw_ft": 15.0}, "geometry": {"type": "LineString", "coordinates": [[-73.799816163661, 40.849102659536264], [-73.80023923193332, 40.84917528617076]]}}, {"type": "Feature", "properties": {"segment_id": 1632282, "physicalid": "155531", "street_name": "RODMANS NECK PATH", "borough": "bronx", "direction": "TW", "total_row_ft": 41.9, "roadbed_ft": 11.9, "median_ft": 0.0, "left_sw_ft": 15.0, "right_sw_ft": 15.0}, "geometry": {"type": "LineString", "coordinates": [[-73.79983210430696, 40.84904911664884], [-73.80025517225614, 40.84912174322549]]}}, {"type": "Feature", "properties": {"segment_id": 1632283, "physicalid": "155531", "street_name": "RODMANS NECK PATH", "borough": "bronx", "direction": "TW", "total_row_ft": 42.4, "roadbed_ft": 12.4, "median_ft": 0.0, "left_sw_ft": 15.0, "right_sw_ft": 15.0}, "geometry": {"type": "LineString", "coordinates": [[-73.79984423208394, 40.849002891937374], [-73.80027132905613, 40.84906033189541]]}}, {"type": "Feature", "properties": {"segment_id": 1632284, "physicalid": "155531", "street_name": "RODMANS NECK PATH", "borough": "bronx", "direction": "TW", "total_row_ft": 42.4, "roadbed_ft": 12.4, "median_ft": 0.0, "left_sw_ft": 15.0, "right_sw_ft": 15.0}, "geometry": {"type": "LineString", "coordinates": [[-73.79985569081903, 40.84895429530794], [-73.80028508470737, 40.849000822779246]]}}, {"type": "Feature", "properties": {"segment_id": 1632285, "physicalid": "155531", "street_name": "RODMANS NECK PATH", "borough": "bronx", "direction": "TW", "total_row_ft": 43.0, "roadbed_ft": 13.0, "median_ft": 0.0, "left_sw_ft": 15.0, "right_sw_ft": 15.0}, "geometry": {"type": "LineString", "coordinates": [[-73.79986456754393, 40.84890205548377], [-73.80029474830745, 40.84894418171862]]}}, {"type": "Feature", "properties": {"segment_id": 1632286, "physicalid": "155531", "street_name": "RODMANS NECK PATH", "borough": "bronx", "direction": "TW", "total_row_ft": 47.0, "roadbed_ft": 17.0, "median_ft": 0.0, "left_sw_ft": 15.0, "right_sw_ft": 15.0}, "geometry": {"type": "LineString", "coordinates": [[-73.79991175007729, 40.84879070920823], [-73.80028950903755, 40.84895256219343]]}}, {"type": "Feature", "properties": {"segment_id": 1632423, "physicalid": "155539", "street_name": "RODMANS NECK PATH", "borough": "bronx", "direction": "TW", "total_row_ft": 30.0, "roadbed_ft": 0.0, "median_ft": 0.0, "left_sw_ft": 15.0, "right_sw_ft": 15.0}, "geometry": {"type": "LineString", "coordinates": [[-73.80117708328206, 40.84983231361556], [-73.8012393171028, 40.850158270319184]]}}, {"type": "Feature", "properties": {"segment_id": 1632424, "physicalid": "155539", "street_name": "RODMANS NECK PATH", "borough": "bronx", "direction": "TW", "total_row_ft": 30.0, "roadbed_ft": 0.0, "median_ft": 0.0, "left_sw_ft": 15.0, "right_sw_ft": 15.0}, "geometry": {"type": "LineString", "coordinates": [[-73.8012486268219, 40.84982443749175], [-73.80131086098585, 40.85015039415721]]}}, {"type": "Feature", "properties": {"segment_id": 1632425, "physicalid": "155539", "street_name": "RODMANS NECK PATH", "borough": "bronx", "direction": "TW", "total_row_ft": 39.3, "roadbed_ft": 9.3, "median_ft": 0.0, "left_sw_ft": 15.0, "right_sw_ft": 15.0}, "geometry": {"type": "LineString", "coordinates": [[-73.80130568355422, 40.849815471296395], [-73.80139550492817, 40.850137696424476]]}}, {"type": "Feature", "properties": {"segment_id": 1632428, "physicalid": "155541", "street_name": "RODMANS NECK PATH", "borough": "bronx", "direction": "TW", "total_row_ft": 46.2, "roadbed_ft": 16.2, "median_ft": 0.0, "left_sw_ft": 15.0, "right_sw_ft": 15.0}, "geometry": {"type": "LineString", "coordinates": [[-73.801204344841, 40.84993272922998], [-73.80163744178272, 40.84991466675261]]}}, {"type": "Feature", "properties": {"segment_id": 1632429, "physicalid": "155541", "street_name": "RODMANS NECK PATH", "borough": "bronx", "direction": "TW", "total_row_ft": 54.6, "roadbed_ft": 24.6, "median_ft": 0.0, "left_sw_ft": 15.0, "right_sw_ft": 15.0}, "geometry": {"type": "LineString", "coordinates": [[-73.80120115925625, 40.84986835214676], [-73.80163490647395, 40.849869377486876]]}}, {"type": "Feature", "properties": {"segment_id": 1632430, "physicalid": "155541", "street_name": "RODMANS NECK PATH", "borough": "bronx", "direction": "TW", "total_row_ft": 72.3, "roadbed_ft": 42.3, "median_ft": 0.0, "left_sw_ft": 15.0, "right_sw_ft": 15.0}, "geometry": {"type": "LineString", "coordinates": [[-73.8012013844849, 40.84981345832912], [-73.80163513134464, 40.849814483668496]]}}, {"type": "Feature", "properties": {"segment_id": 1632431, "physicalid": "155541", "street_name": "RODMANS NECK PATH", "borough": "bronx", "direction": "TW", "total_row_ft": 63.5, "roadbed_ft": 33.5, "median_ft": 0.0, "left_sw_ft": 15.0, "right_sw_ft": 15.0}, "geometry": {"type": "LineString", "coordinates": [[-73.80120526813788, 40.84974910170965], [-73.80163820751481, 40.84976921139729]]}}, {"type": "Feature", "properties": {"segment_id": 1632432, "physicalid": "155541", "street_name": "RODMANS NECK PATH", "borough": "bronx", "direction": "TW", "total_row_ft": 59.7, "roadbed_ft": 29.7, "median_ft": 0.0, "left_sw_ft": 15.0, "right_sw_ft": 15.0}, "geometry": {"type": "LineString", "coordinates": [[-73.8012104296401, 40.84969096143653], [-73.80164273383774, 40.84971781501577]]}}, {"type": "Feature", "properties": {"segment_id": 1632433, "physicalid": "155541", "street_name": "RODMANS NECK PATH", "borough": "bronx", "direction": "TW", "total_row_ft": 51.0, "roadbed_ft": 21.0, "median_ft": 0.0, "left_sw_ft": 15.0, "right_sw_ft": 15.0}, "geometry": {"type": "LineString", "coordinates": [[-73.80121632383529, 40.849636250116994], [-73.80164862767974, 40.849663103674395]]}}, {"type": "Feature", "properties": {"segment_id": 1632434, "physicalid": "155541", "street_name": "RODMANS NECK PATH", "borough": "bronx", "direction": "TW", "total_row_ft": 50.2, "roadbed_ft": 20.2, "median_ft": 0.0, "left_sw_ft": 15.0, "right_sw_ft": 15.0}, "geometry": {"type": "LineString", "coordinates": [[-73.80121883336058, 40.849592176091086], [-73.80165252305459, 40.84959755467906]]}}, {"type": "Feature", "properties": {"segment_id": 1632435, "physicalid": "155541", "street_name": "RODMANS NECK PATH", "borough": "bronx", "direction": "TW", "total_row_ft": 51.5, "roadbed_ft": 21.5, "median_ft": 0.0, "left_sw_ft": 15.0, "right_sw_ft": 15.0}, "geometry": {"type": "LineString", "coordinates": [[-73.80122001406903, 40.84953728932656], [-73.8016537034053, 40.849542667910235]]}}, {"type": "Feature", "properties": {"segment_id": 1632436, "physicalid": "155541", "street_name": "RODMANS NECK PATH", "borough": "bronx", "direction": "TW", "total_row_ft": 52.8, "roadbed_ft": 22.8, "median_ft": 0.0, "left_sw_ft": 15.0, "right_sw_ft": 15.0}, "geometry": {"type": "LineString", "coordinates": [[-73.8012174078921, 40.84949320127261], [-73.80165063494745, 40.84947708198841]]}}, {"type": "Feature", "properties": {"segment_id": 1632437, "physicalid": "155541", "street_name": "RODMANS NECK PATH", "borough": "bronx", "direction": "TW", "total_row_ft": 54.8, "roadbed_ft": 24.8, "median_ft": 0.0, "left_sw_ft": 15.0, "right_sw_ft": 15.0}, "geometry": {"type": "LineString", "coordinates": [[-73.80121440336947, 40.849449126104204], [-73.80164532199166, 40.84941157764761]]}}, {"type": "Feature", "properties": {"segment_id": 1632438, "physicalid": "155541", "street_name": "RODMANS NECK PATH", "borough": "bronx", "direction": "TW", "total_row_ft": 55.4, "roadbed_ft": 25.4, "median_ft": 0.0, "left_sw_ft": 15.0, "right_sw_ft": 15.0}, "geometry": {"type": "LineString", "coordinates": [[-73.80120616217017, 40.84939458988604], [-73.8016370804437, 40.849357041459875]]}}, {"type": "Feature", "properties": {"segment_id": 1632439, "physicalid": "155541", "street_name": "RODMANS NECK PATH", "borough": "bronx", "direction": "TW", "total_row_ft": 54.1, "roadbed_ft": 24.1, "median_ft": 0.0, "left_sw_ft": 15.0, "right_sw_ft": 15.0}, "geometry": {"type": "LineString", "coordinates": [[-73.80119806770342, 40.84935090458961], [-73.80162484124583, 40.84929208702137]]}}, {"type": "Feature", "properties": {"segment_id": 1632440, "physicalid": "155541", "street_name": "RODMANS NECK PATH", "borough": "bronx", "direction": "TW", "total_row_ft": 50.8, "roadbed_ft": 20.8, "median_ft": 0.0, "left_sw_ft": 15.0, "right_sw_ft": 15.0}, "geometry": {"type": "LineString", "coordinates": [[-73.80118515823898, 40.84929689286628], [-73.80161193144626, 40.84923807534522]]}}, {"type": "Feature", "properties": {"segment_id": 1632441, "physicalid": "155541", "street_name": "RODMANS NECK PATH", "borough": "bronx", "direction": "TW", "total_row_ft": 47.5, "roadbed_ft": 17.5, "median_ft": 0.0, "left_sw_ft": 15.0, "right_sw_ft": 15.0}, "geometry": {"type": "LineString", "coordinates": [[-73.80117203362232, 40.84925391333851], [-73.80159284347813, 40.84917407734069]]}}, {"type": "Feature", "properties": {"segment_id": 1632442, "physicalid": "155541", "street_name": "RODMANS NECK PATH", "borough": "bronx", "direction": "TW", "total_row_ft": 45.2, "roadbed_ft": 15.2, "median_ft": 0.0, "left_sw_ft": 15.0, "right_sw_ft": 15.0}, "geometry": {"type": "LineString", "coordinates": [[-73.80115451092594, 40.84920065627306], [-73.80157532046587, 40.849120820338435]]}}, {"type": "Feature", "properties": {"segment_id": 1632443, "physicalid": "155541", "street_name": "RODMANS NECK PATH", "borough": "bronx", "direction": "TW", "total_row_ft": 45.9, "roadbed_ft": 15.9, "median_ft": 0.0, "left_sw_ft": 15.0, "right_sw_ft": 15.0}, "geometry": {"type": "LineString", "coordinates": [[-73.80113644848139, 40.84915869387326], [-73.80154950147609, 40.8490581796928]]}}, {"type": "Feature", "properties": {"segment_id": 1632444, "physicalid": "155541", "street_name": "RODMANS NECK PATH", "borough": "bronx", "direction": "TW", "total_row_ft": 46.2, "roadbed_ft": 16.2, "median_ft": 0.0, "left_sw_ft": 15.0, "right_sw_ft": 15.0}, "geometry": {"type": "LineString", "coordinates": [[-73.80111911780936, 40.84911955550656], [-73.80151986933434, 40.848993557707864]]}}, {"type": "Feature", "properties": {"segment_id": 1632445, "physicalid": "155541", "street_name": "RODMANS NECK PATH", "borough": "bronx", "direction": "TW", "total_row_ft": 46.2, "roadbed_ft": 16.2, "median_ft": 0.0, "left_sw_ft": 15.0, "right_sw_ft": 15.0}, "geometry": {"type": "LineString", "coordinates": [[-73.80109506049028, 40.849075066882314], [-73.80148861734114, 40.84893660913131]]}}, {"type": "Feature", "properties": {"segment_id": 1632446, "physicalid": "155541", "street_name": "RODMANS NECK PATH", "borough": "bronx", "direction": "TW", "total_row_ft": 45.8, "roadbed_ft": 15.8, "median_ft": 0.0, "left_sw_ft": 15.0, "right_sw_ft": 15.0}, "geometry": {"type": "LineString", "coordinates": [[-73.80106561260783, 40.84903052133849], [-73.8014533933881, 40.84888296548936]]}}, {"type": "Feature", "properties": {"segment_id": 1632447, "physicalid": "155541", "street_name": "RODMANS NECK PATH", "borough": "bronx", "direction": "TW", "total_row_ft": 44.9, "roadbed_ft": 14.9, "median_ft": 0.0, "left_sw_ft": 15.0, "right_sw_ft": 15.0}, "geometry": {"type": "LineString", "coordinates": [[-73.80103740750182, 40.84899321524988], [-73.80141020975202, 40.84882486536585]]}}, {"type": "Feature", "properties": {"segment_id": 1632448, "physicalid": "155541", "street_name": "RODMANS NECK PATH", "borough": "bronx", "direction": "TW", "total_row_ft": 44.3, "roadbed_ft": 14.3, "median_ft": 0.0, "left_sw_ft": 15.0, "right_sw_ft": 15.0}, "geometry": {"type": "LineString", "coordinates": [[-73.80100689905865, 40.848956979914064], [-73.80136279231002, 40.84876870778335]]}}, {"type": "Feature", "properties": {"segment_id": 1632449, "physicalid": "155541", "street_name": "RODMANS NECK PATH", "borough": "bronx", "direction": "TW", "total_row_ft": 44.7, "roadbed_ft": 14.7, "median_ft": 0.0, "left_sw_ft": 15.0, "right_sw_ft": 15.0}, "geometry": {"type": "LineString", "coordinates": [[-73.80097413804583, 40.8489218766415], [-73.80131127939535, 40.848714657215325]]}}, {"type": "Feature", "properties": {"segment_id": 1632450, "physicalid": "155541", "street_name": "RODMANS NECK PATH", "borough": "bronx", "direction": "TW", "total_row_ft": 44.8, "roadbed_ft": 14.8, "median_ft": 0.0, "left_sw_ft": 15.0, "right_sw_ft": 15.0}, "geometry": {"type": "LineString", "coordinates": [[-73.80092865666322, 40.84887920823196], [-73.80126579793813, 40.848671988937156]]}}, {"type": "Feature", "properties": {"segment_id": 1632451, "physicalid": "155541", "street_name": "RODMANS NECK PATH", "borough": "bronx", "direction": "TW", "total_row_ft": 44.9, "roadbed_ft": 14.9, "median_ft": 0.0, "left_sw_ft": 15.0, "right_sw_ft": 15.0}, "geometry": {"type": "LineString", "coordinates": [[-73.80087113466836, 40.848826589087366], [-73.80122953994841, 40.84864108582838]]}}, {"type": "Feature", "properties": {"segment_id": 1632452, "physicalid": "155541", "street_name": "RODMANS NECK PATH", "borough": "bronx", "direction": "TW", "total_row_ft": 45.7, "roadbed_ft": 15.7, "median_ft": 0.0, "left_sw_ft": 15.0, "right_sw_ft": 15.0}, "geometry": {"type": "LineString", "coordinates": [[-73.80081868426883, 40.848764645160415], [-73.80120260278922, 40.84861137854568]]}}, {"type": "Feature", "properties": {"segment_id": 1632453, "physicalid": "155541", "street_name": "RODMANS NECK PATH", "borough": "bronx", "direction": "TW", "total_row_ft": 45.7, "roadbed_ft": 15.7, "median_ft": 0.0, "left_sw_ft": 15.0, "right_sw_ft": 15.0}, "geometry": {"type": "LineString", "coordinates": [[-73.80080395631047, 40.84874281264936], [-73.80114446209329, 40.84853879083469]]}}, {"type": "Feature", "properties": {"segment_id": 1632454, "physicalid": "155541", "street_name": "RODMANS NECK PATH", "borough": "bronx", "direction": "TW", "total_row_ft": 44.9, "roadbed_ft": 14.9, "median_ft": 0.0, "left_sw_ft": 15.0, "right_sw_ft": 15.0}, "geometry": {"type": "LineString", "coordinates": [[-73.80076952596879, 40.84870941549267], [-73.80108871141684, 40.84848640217665]]}}, {"type": "Feature", "properties": {"segment_id": 1632455, "physicalid": "155541", "street_name": "RODMANS NECK PATH", "borough": "bronx", "direction": "TW", "total_row_ft": 43.9, "roadbed_ft": 13.9, "median_ft": 0.0, "left_sw_ft": 15.0, "right_sw_ft": 15.0}, "geometry": {"type": "LineString", "coordinates": [[-73.80072057821454, 40.84866901942938], [-73.80103976363284, 40.848446006247215]]}}, {"type": "Feature", "properties": {"segment_id": 1632456, "physicalid": "155541", "street_name": "RODMANS NECK PATH", "borough": "bronx", "direction": "TW", "total_row_ft": 44.0, "roadbed_ft": 14.0, "median_ft": 0.0, "left_sw_ft": 15.0, "right_sw_ft": 15.0}, "geometry": {"type": "LineString", "coordinates": [[-73.80067971459374, 40.84864011138939], [-73.8009757473671, 40.84839938701458]]}}, {"type": "Feature", "properties": {"segment_id": 1632457, "physicalid": "155541", "street_name": "RODMANS NECK PATH", "borough": "bronx", "direction": "TW", "total_row_ft": 45.5, "roadbed_ft": 15.5, "median_ft": 0.0, "left_sw_ft": 15.0, "right_sw_ft": 15.0}, "geometry": {"type": "LineString", "coordinates": [[-73.80063671762059, 40.848613081374786], [-73.80090789830395, 40.84835602778851]]}}, {"type": "Feature", "properties": {"segment_id": 1632458, "physicalid": "155541", "street_name": "RODMANS NECK PATH", "borough": "bronx", "direction": "TW", "total_row_ft": 45.8, "roadbed_ft": 15.8, "median_ft": 0.0, "left_sw_ft": 15.0, "right_sw_ft": 15.0}, "geometry": {"type": "LineString", "coordinates": [[-73.8005917235856, 40.84858801192204], [-73.80083649540782, 40.848316104847456]]}}, {"type": "Feature", "properties": {"segment_id": 1632459, "physicalid": "155541", "street_name": "RODMANS NECK PATH", "borough": "bronx", "direction": "TW", "total_row_ft": 48.2, "roadbed_ft": 18.2, "median_ft": 0.0, "left_sw_ft": 15.0, "right_sw_ft": 15.0}, "geometry": {"type": "LineString", "coordinates": [[-73.80056653366772, 40.84857591891166], [-73.80073732247607, 40.84827316240963]]}}, {"type": "Feature", "properties": {"segment_id": 1632460, "physicalid": "155541", "street_name": "RODMANS NECK PATH", "borough": "bronx", "direction": "TW", "total_row_ft": 51.5, "roadbed_ft": 21.5, "median_ft": 0.0, "left_sw_ft": 15.0, "right_sw_ft": 15.0}, "geometry": {"type": "LineString", "coordinates": [[-73.80052752964976, 40.84856701615474], [-73.80063894305178, 40.8482487028096]]}}, {"type": "Feature", "properties": {"segment_id": 1632461, "physicalid": "155541", "street_name": "RODMANS NECK PATH", "borough": "bronx", "direction": "TW", "total_row_ft": 59.5, "roadbed_ft": 29.5, "median_ft": 0.0, "left_sw_ft": 15.0, "right_sw_ft": 15.0}, "geometry": {"type": "LineString", "coordinates": [[-73.80051795684413, 40.84856756705023], [-73.80050490419903, 40.84823835163488]]}}, {"type": "Feature", "properties": {"segment_id": 1632462, "physicalid": "155542", "street_name": "RODMANS NECK PATH", "borough": "bronx", "direction": "TW", "total_row_ft": 77.9, "roadbed_ft": 47.9, "median_ft": 0.0, "left_sw_ft": 15.0, "right_sw_ft": 15.0}, "geometry": {"type": "LineString", "coordinates": [[-73.80033723448506, 40.848725918807844], [-73.80003995807172, 40.84896575885279]]}}, {"type": "Feature", "properties": {"segment_id": 1632463, "physicalid": "155542", "street_name": "RODMANS NECK PATH", "borough": "bronx", "direction": "TW", "total_row_ft": 46.9, "roadbed_ft": 16.9, "median_ft": 0.0, "left_sw_ft": 15.0, "right_sw_ft": 15.0}, "geometry": {"type": "LineString", "coordinates": [[-73.80037758067252, 40.84874951180581], [-73.80011278925586, 40.84901037892787]]}}, {"type": "Feature", "properties": {"segment_id": 1632464, "physicalid": "155542", "street_name": "RODMANS NECK PATH", "borough": "bronx", "direction": "TW", "total_row_ft": 46.3, "roadbed_ft": 16.3, "median_ft": 0.0, "left_sw_ft": 15.0, "right_sw_ft": 15.0}, "geometry": {"type": "LineString", "coordinates": [[-73.8004028047992, 40.848761303093355], [-73.80021033740442, 40.849056465635314]]}}, {"type": "Feature", "properties": {"segment_id": 1632465, "physicalid": "155542", "street_name": "RODMANS NECK PATH", "borough": "bronx", "direction": "TW", "total_row_ft": 46.1, "roadbed_ft": 16.1, "median_ft": 0.0, "left_sw_ft": 15.0, "right_sw_ft": 15.0}, "geometry": {"type": "LineString", "coordinates": [[-73.80044850569386, 40.84877834467921], [-73.80029517701904, 40.84908644352716]]}}, {"type": "Feature", "properties": {"segment_id": 1632466, "physicalid": "155542", "street_name": "RODMANS NECK PATH", "borough": "bronx", "direction": "TW", "total_row_ft": 45.3, "roadbed_ft": 15.3, "median_ft": 0.0, "left_sw_ft": 15.0, "right_sw_ft": 15.0}, "geometry": {"type": "LineString", "coordinates": [[-73.80049642148968, 40.848791351149146], [-73.80038371617324, 40.84910940228995]]}}, {"type": "Feature", "properties": {"segment_id": 1632467, "physicalid": "155542", "street_name": "RODMANS NECK PATH", "borough": "bronx", "direction": "TW", "total_row_ft": 45.7, "roadbed_ft": 15.7, "median_ft": 0.0, "left_sw_ft": 15.0, "right_sw_ft": 15.0}, "geometry": {"type": "LineString", "coordinates": [[-73.80054594750646, 40.84880016211381], [-73.80047495755201, 40.84912508533922]]}}, {"type": "Feature", "properties": {"segment_id": 1632468, "physicalid": "155542", "street_name": "RODMANS NECK PATH", "borough": "bronx", "direction": "TW", "total_row_ft": 54.4, "roadbed_ft": 24.4, "median_ft": 0.0, "left_sw_ft": 15.0, "right_sw_ft": 15.0}, "geometry": {"type": "LineString", "coordinates": [[-73.8005964603391, 40.848804668543025], [-73.80056787330994, 40.84913331696755]]}}, {"type": "Feature", "properties": {"segment_id": 1632469, "physicalid": "155542", "street_name": "RODMANS NECK PATH", "borough": "bronx", "direction": "TW", "total_row_ft": 73.0, "roadbed_ft": 43.0, "median_ft": 0.0, "left_sw_ft": 15.0, "right_sw_ft": 15.0}, "geometry": {"type": "LineString", "coordinates": [[-73.80064732442649, 40.848804813935345], [-73.80066141719796, 40.849134004593566]]}}, {"type": "Feature", "properties": {"segment_id": 1632470, "physicalid": "155543", "street_name": "RODMANS NECK PATH", "borough": "bronx", "direction": "TW", "total_row_ft": 53.0, "roadbed_ft": 23.0, "median_ft": 0.0, "left_sw_ft": 15.0, "right_sw_ft": 15.0}, "geometry": {"type": "LineString", "coordinates": [[-73.79995127983904, 40.848752461456044], [-73.80037958379208, 40.84880445390502]]}}, {"type": "Feature", "properties": {"segment_id": 1632471, "physicalid": "155543", "street_name": "RODMANS NECK PATH", "borough": "bronx", "direction": "TW", "total_row_ft": 46.7, "roadbed_ft": 16.7, "median_ft": 0.0, "left_sw_ft": 15.0, "right_sw_ft": 15.0}, "geometry": {"type": "LineString", "coordinates": [[-73.79996885085646, 40.848669114844434], [-73.80037739051214, 40.84877975006701]]}}, {"type": "Feature", "properties": {"segment_id": 1632472, "physicalid": "155543", "street_name": "RODMANS NECK PATH", "borough": "bronx", "direction": "TW", "total_row_ft": 43.4, "roadbed_ft": 13.4, "median_ft": 0.0, "left_sw_ft": 15.0, "right_sw_ft": 15.0}, "geometry": {"type": "LineString", "coordinates": [[-73.7999931336564, 40.848617410364135], [-73.8004016730349, 40.84872804550172]]}}, {"type": "Feature", "properties": {"segment_id": 1632473, "physicalid": "155543", "street_name": "RODMANS NECK PATH", "borough": "bronx", "direction": "TW", "total_row_ft": 42.2, "roadbed_ft": 12.2, "median_ft": 0.0, "left_sw_ft": 15.0, "right_sw_ft": 15.0}, "geometry": {"type": "LineString", "coordinates": [[-73.80002635377177, 40.848557174015134], [-73.80042485874083, 40.848687210967036]]}}, {"type": "Feature", "properties": {"segment_id": 1632474, "physicalid": "155543", "street_name": "RODMANS NECK PATH", "borough": "bronx", "direction": "TW", "total_row_ft": 43.5, "roadbed_ft": 13.5, "median_ft": 0.0, "left_sw_ft": 15.0, "right_sw_ft": 15.0}, "geometry": {"type": "LineString", "coordinates": [[-73.80006324526971, 40.848498199399245], [-73.80045011977157, 40.84864711733413]]}}, {"type": "Feature", "properties": {"segment_id": 1632475, "physicalid": "155543", "street_name": "RODMANS NECK PATH", "borough": "bronx", "direction": "TW", "total_row_ft": 47.0, "roadbed_ft": 17.0, "median_ft": 0.0, "left_sw_ft": 15.0, "right_sw_ft": 15.0}, "geometry": {"type": "LineString", "coordinates": [[-73.80010373611371, 40.848440599776985], [-73.80047743067743, 40.848607802242526]]}}, {"type": "Feature", "properties": {"segment_id": 1632476, "physicalid": "155543", "street_name": "RODMANS NECK PATH", "borough": "bronx", "direction": "TW", "total_row_ft": 51.0, "roadbed_ft": 21.0, "median_ft": 0.0, "left_sw_ft": 15.0, "right_sw_ft": 15.0}, "geometry": {"type": "LineString", "coordinates": [[-73.80014741545855, 40.8483848989731], [-73.80050714767424, 40.848568913673745]]}}, {"type": "Feature", "properties": {"segment_id": 1632477, "physicalid": "155543", "street_name": "RODMANS NECK PATH", "borough": "bronx", "direction": "TW", "total_row_ft": 58.8, "roadbed_ft": 28.8, "median_ft": 0.0, "left_sw_ft": 15.0, "right_sw_ft": 15.0}, "geometry": {"type": "LineString", "coordinates": [[-73.80024338764554, 40.84830381818331], [-73.80050448938722, 40.84856682008008]]}}, {"type": "Feature", "properties": {"segment_id": 1632478, "physicalid": "155544", "street_name": "RODMANS NECK PATH", "borough": "bronx", "direction": "TW", "total_row_ft": 46.4, "roadbed_ft": 16.4, "median_ft": 0.0, "left_sw_ft": 15.0, "right_sw_ft": 15.0}, "geometry": {"type": "LineString", "coordinates": [[-73.80120397857985, 40.84999540417638], [-73.80159892300303, 40.849859234588]]}}, {"type": "Feature", "properties": {"segment_id": 1632479, "physicalid": "155544", "street_name": "RODMANS NECK PATH", "borough": "bronx", "direction": "TW", "total_row_ft": 53.4, "roadbed_ft": 23.4, "median_ft": 0.0, "left_sw_ft": 15.0, "right_sw_ft": 15.0}, "geometry": {"type": "LineString", "coordinates": [[-73.80117893609713, 40.84995788893698], [-73.80155876785615, 40.84979884990467]]}}, {"type": "Feature", "properties": {"segment_id": 1632480, "physicalid": "155544", "street_name": "RODMANS NECK PATH", "borough": "bronx", "direction": "TW", "total_row_ft": 71.1, "roadbed_ft": 41.1, "median_ft": 0.0, "left_sw_ft": 15.0, "right_sw_ft": 15.0}, "geometry": {"type": "LineString", "coordinates": [[-73.80115114329591, 40.84992150075834], [-73.80151357009615, 40.84974055211688]]}}, {"type": "Feature", "properties": {"segment_id": 1632481, "physicalid": "155544", "street_name": "RODMANS NECK PATH", "borough": "bronx", "direction": "TW", "total_row_ft": 67.0, "roadbed_ft": 37.0, "median_ft": 0.0, "left_sw_ft": 15.0, "right_sw_ft": 15.0}, "geometry": {"type": "LineString", "coordinates": [[-73.80112067339282, 40.84988634026132], [-73.80146350798724, 40.849684574070885]]}}, {"type": "Feature", "properties": {"segment_id": 1632482, "physicalid": "155544", "street_name": "RODMANS NECK PATH", "borough": "bronx", "direction": "TW", "total_row_ft": 58.6, "roadbed_ft": 28.6, "median_ft": 0.0, "left_sw_ft": 15.0, "right_sw_ft": 15.0}, "geometry": {"type": "LineString", "coordinates": [[-73.80107638826654, 40.8498429519586], [-73.80141922277166, 40.84964118589827]]}}, {"type": "Feature", "properties": {"segment_id": 1632483, "physicalid": "155544", "street_name": "RODMANS NECK PATH", "borough": "bronx", "direction": "TW", "total_row_ft": 53.5, "roadbed_ft": 23.5, "median_ft": 0.0, "left_sw_ft": 15.0, "right_sw_ft": 15.0}, "geometry": {"type": "LineString", "coordinates": [[-73.8010203946407, 40.84976698207783], [-73.80140851911943, 40.8496199416881]]}}, {"type": "Feature", "properties": {"segment_id": 1632484, "physicalid": "155544", "street_name": "RODMANS NECK PATH", "borough": "bronx", "direction": "TW", "total_row_ft": 47.7, "roadbed_ft": 17.7, "median_ft": 0.0, "left_sw_ft": 15.0, "right_sw_ft": 15.0}, "geometry": {"type": "LineString", "coordinates": [[-73.80098499392803, 40.84970713120575], [-73.80138491821047, 40.84957962045102]]}}, {"type": "Feature", "properties": {"segment_id": 1632485, "physicalid": "155544", "street_name": "RODMANS NECK PATH", "borough": "bronx", "direction": "TW", "total_row_ft": 45.4, "roadbed_ft": 15.4, "median_ft": 0.0, "left_sw_ft": 15.0, "right_sw_ft": 15.0}, "geometry": {"type": "LineString", "coordinates": [[-73.80095364629037, 40.849645991884145], [-73.80136366827271, 40.84953855343876]]}}, {"type": "Feature", "properties": {"segment_id": 1632486, "physicalid": "155544", "street_name": "RODMANS NECK PATH", "borough": "bronx", "direction": "TW", "total_row_ft": 45.0, "roadbed_ft": 15.0, "median_ft": 0.0, "left_sw_ft": 15.0, "right_sw_ft": 15.0}, "geometry": {"type": "LineString", "coordinates": [[-73.80092642726787, 40.84958370930185], [-73.80134480187608, 40.84949680041118]]}}, {"type": "Feature", "properties": {"segment_id": 1632487, "physicalid": "155544", "street_name": "RODMANS NECK PATH", "borough": "bronx", "direction": "TW", "total_row_ft": 44.5, "roadbed_ft": 14.5, "median_ft": 0.0, "left_sw_ft": 15.0, "right_sw_ft": 15.0}, "geometry": {"type": "LineString", "coordinates": [[-73.80090735207455, 40.84953076069741], [-73.80132572637461, 40.849443851875066]]}}, {"type": "Feature", "properties": {"segment_id": 1632488, "physicalid": "155544", "street_name": "RODMANS NECK PATH", "borough": "bronx", "direction": "TW", "total_row_ft": 44.5, "roadbed_ft": 14.5, "median_ft": 0.0, "left_sw_ft": 15.0, "right_sw_ft": 15.0}, "geometry": {"type": "LineString", "coordinates": [[-73.8008909285736, 40.849505924768856], [-73.80128486398495, 40.849368084975055]]}}, {"type": "Feature", "properties": {"segment_id": 1632489, "physicalid": "155544", "street_name": "RODMANS NECK PATH", "borough": "bronx", "direction": "TW", "total_row_ft": 44.8, "roadbed_ft": 14.8, "median_ft": 0.0, "left_sw_ft": 15.0, "right_sw_ft": 15.0}, "geometry": {"type": "LineString", "coordinates": [[-73.80086748530037, 40.84946672838917], [-73.80124735215054, 40.84930774154073]]}}, {"type": "Feature", "properties": {"segment_id": 1632490, "physicalid": "155544", "street_name": "RODMANS NECK PATH", "borough": "bronx", "direction": "TW", "total_row_ft": 45.0, "roadbed_ft": 15.0, "median_ft": 0.0, "left_sw_ft": 15.0, "right_sw_ft": 15.0}, "geometry": {"type": "LineString", "coordinates": [[-73.80083258997264, 40.84941865310356], [-73.80121245663166, 40.84925966636869]]}}, {"type": "Feature", "properties": {"segment_id": 1632491, "physicalid": "155544", "street_name": "RODMANS NECK PATH", "borough": "bronx", "direction": "TW", "total_row_ft": 45.3, "roadbed_ft": 15.3, "median_ft": 0.0, "left_sw_ft": 15.0, "right_sw_ft": 15.0}, "geometry": {"type": "LineString", "coordinates": [[-73.80080463892517, 40.84938122801894], [-73.80116847153143, 40.84920191689446]]}}, {"type": "Feature", "properties": {"segment_id": 1632492, "physicalid": "155544", "street_name": "RODMANS NECK PATH", "borough": "bronx", "direction": "TW", "total_row_ft": 45.5, "roadbed_ft": 15.5, "median_ft": 0.0, "left_sw_ft": 15.0, "right_sw_ft": 15.0}, "geometry": {"type": "LineString", "coordinates": [[-73.80076528273216, 40.84933518192367], [-73.80112911519265, 40.84915587092187]]}}, {"type": "Feature", "properties": {"segment_id": 1632493, "physicalid": "155544", "street_name": "RODMANS NECK PATH", "borough": "bronx", "direction": "TW", "total_row_ft": 45.7, "roadbed_ft": 15.7, "median_ft": 0.0, "left_sw_ft": 15.0, "right_sw_ft": 15.0}, "geometry": {"type": "LineString", "coordinates": [[-73.80072435005795, 40.84928648132864], [-73.80109225914667, 40.84911203285619]]}}, {"type": "Feature", "properties": {"segment_id": 1632494, "physicalid": "155544", "street_name": "RODMANS NECK PATH", "borough": "bronx", "direction": "TW", "total_row_ft": 46.0, "roadbed_ft": 16.0, "median_ft": 0.0, "left_sw_ft": 15.0, "right_sw_ft": 15.0}, "geometry": {"type": "LineString", "coordinates": [[-73.8006860612083, 40.84923991925677], [-73.80105397013988, 40.84906547090501]]}}, {"type": "Feature", "properties": {"segment_id": 1632495, "physicalid": "155544", "street_name": "RODMANS NECK PATH", "borough": "bronx", "direction": "TW", "total_row_ft": 44.7, "roadbed_ft": 14.7, "median_ft": 0.0, "left_sw_ft": 15.0, "right_sw_ft": 15.0}, "geometry": {"type": "LineString", "coordinates": [[-73.8006437342709, 40.84918392431572], [-73.80102451983201, 40.849026212031774]]}}, {"type": "Feature", "properties": {"segment_id": 1632496, "physicalid": "155544", "street_name": "RODMANS NECK PATH", "borough": "bronx", "direction": "TW", "total_row_ft": 44.9, "roadbed_ft": 14.9, "median_ft": 0.0, "left_sw_ft": 15.0, "right_sw_ft": 15.0}, "geometry": {"type": "LineString", "coordinates": [[-73.80060911884244, 40.84913573255341], [-73.80098990420976, 40.848978020382404]]}}, {"type": "Feature", "properties": {"segment_id": 1632497, "physicalid": "155544", "street_name": "RODMANS NECK PATH", "borough": "bronx", "direction": "TW", "total_row_ft": 50.6, "roadbed_ft": 20.6, "median_ft": 0.0, "left_sw_ft": 15.0, "right_sw_ft": 15.0}, "geometry": {"type": "LineString", "coordinates": [[-73.80057204012171, 40.849077621085875], [-73.8009643832715, 40.84893719118286]]}}, {"type": "Feature", "properties": {"segment_id": 1632498, "physicalid": "155545", "street_name": "RODMANS NECK PATH", "borough": "bronx", "direction": "TW", "total_row_ft": 76.0, "roadbed_ft": 46.0, "median_ft": 0.0, "left_sw_ft": 15.0, "right_sw_ft": 15.0}, "geometry": {"type": "LineString", "coordinates": [[-73.80052848853573, 40.84901670916365], [-73.80089359171737, 40.84883889576916]]}}, {"type": "Feature", "properties": {"segment_id": 1632499, "physicalid": "155545", "street_name": "RODMANS NECK PATH", "borough": "bronx", "direction": "TW", "total_row_ft": 55.6, "roadbed_ft": 25.6, "median_ft": 0.0, "left_sw_ft": 15.0, "right_sw_ft": 15.0}, "geometry": {"type": "LineString", "coordinates": [[-73.8004838701691, 40.84895979955594], [-73.80086426080467, 40.84880154046899]]}}, {"type": "Feature", "properties": {"segment_id": 1632500, "physicalid": "155545", "street_name": "RODMANS NECK PATH", "borough": "bronx", "direction": "TW", "total_row_ft": 44.4, "roadbed_ft": 14.4, "median_ft": 0.0, "left_sw_ft": 15.0, "right_sw_ft": 15.0}, "geometry": {"type": "LineString", "coordinates": [[-73.80044331799897, 40.84890115034013], [-73.80083718358203, 40.84876320141562]]}}, {"type": "Feature", "properties": {"segment_id": 1632501, "physicalid": "155545", "street_name": "RODMANS NECK PATH", "borough": "bronx", "direction": "TW", "total_row_ft": 64.3, "roadbed_ft": 34.3, "median_ft": 0.0, "left_sw_ft": 15.0, "right_sw_ft": 15.0}, "geometry": {"type": "LineString", "coordinates": [[-73.80041304048274, 40.84885130298785], [-73.80080690583343, 40.848713354165525]]}}]}