{"type": "FeatureCollection", "features": [{"type": "Feature", "properties": {"segment_id": 517876, "physicalid": "37448", "street_name": "NEW ENGLAND THRUWAY", "borough": "bronx", "direction": "FT", "total_row_ft": 91.5, "roadbed_ft": 61.5, "median_ft": 0.0, "left_sw_ft": 15.0, "right_sw_ft": 15.0}, "geometry": {"type": "LineString", "coordinates": [[-73.80991412222724, 40.88634098599916], [-73.81002963429327, 40.8860235045959]]}}, {"type": "Feature", "properties": {"segment_id": 517877, "physicalid": "37448", "street_name": "NEW ENGLAND THRUWAY", "borough": "bronx", "direction": "FT", "total_row_ft": 91.3, "roadbed_ft": 61.3, "median_ft": 0.0, "left_sw_ft": 15.0, "right_sw_ft": 15.0}, "geometry": {"type": "LineString", "coordinates": [[-73.80984440021568, 40.886326375140285], [-73.80995991258925, 40.88600889380591]]}}, {"type": "Feature", "properties": {"segment_id": 517878, "physicalid": "37448", "street_name": "NEW ENGLAND THRUWAY", "borough": "bronx", "direction": "FT", "total_row_ft": 91.2, "roadbed_ft": 61.2, "median_ft": 0.0, "left_sw_ft": 15.0, "right_sw_ft": 15.0}, "geometry": {"type": "LineString", "coordinates": [[-73.80977467823473, 40.886311764239224], [-73.80989019091588, 40.88599428297377]]}}, {"type": "Feature", "properties": {"segment_id": 517879, "physicalid": "37448", "street_name": "NEW ENGLAND THRUWAY", "borough": "bronx", "direction": "FT", "total_row_ft": 91.0, "roadbed_ft": 61.0, "median_ft": 0.0, "left_sw_ft": 15.0, "right_sw_ft": 15.0}, "geometry": {"type": "LineString", "coordinates": [[-73.80970496256369, 40.88629715533812], [-73.80982046250291, 40.88597967140711]]}}, {"type": "Feature", "properties": {"segment_id": 517880, "physicalid": "37448", "street_name": "NEW ENGLAND THRUWAY", "borough": "bronx", "direction": "FT", "total_row_ft": 91.0, "roadbed_ft": 61.0, "median_ft": 0.0, "left_sw_ft": 15.0, "right_sw_ft": 15.0}, "geometry": {"type": "LineString", "coordinates": [[-73.8096352400435, 40.88628254600334], [-73.80975074029034, 40.88596506214125]]}}, {"type": "Feature", "properties": {"segment_id": 517881, "physicalid": "37448", "street_name": "NEW ENGLAND THRUWAY", "borough": "bronx", "direction": "FT", "total_row_ft": 91.1, "roadbed_ft": 61.1, "median_ft": 0.0, "left_sw_ft": 15.0, "right_sw_ft": 15.0}, "geometry": {"type": "LineString", "coordinates": [[-73.80956551755399, 40.886267936626446], [-73.80968101810838, 40.88595045283324]]}}, {"type": "Feature", "properties": {"segment_id": 517882, "physicalid": "37448", "street_name": "NEW ENGLAND THRUWAY", "borough": "bronx", "direction": "FT", "total_row_ft": 91.2, "roadbed_ft": 61.2, "median_ft": 0.0, "left_sw_ft": 15.0, "right_sw_ft": 15.0}, "geometry": {"type": "LineString", "coordinates": [[-73.80949579509512, 40.88625332720738], [-73.80961129595708, 40.885935843483075]]}}, {"type": "Feature", "properties": {"segment_id": 517883, "physicalid": "37448", "street_name": "NEW ENGLAND THRUWAY", "borough": "bronx", "direction": "FT", "total_row_ft": 91.3, "roadbed_ft": 61.3, "median_ft": 0.0, "left_sw_ft": 15.0, "right_sw_ft": 15.0}, "geometry": {"type": "LineString", "coordinates": [[-73.80942405737296, 40.886238255333666], [-73.80954361120004, 40.885921636940196]]}}, {"type": "Feature", "properties": {"segment_id": 517884, "physicalid": "37448", "street_name": "NEW ENGLAND THRUWAY", "borough": "bronx", "direction": "FT", "total_row_ft": 91.6, "roadbed_ft": 61.6, "median_ft": 0.0, "left_sw_ft": 15.0, "right_sw_ft": 15.0}, "geometry": {"type": "LineString", "coordinates": [[-73.80935452499702, 40.88622313321899], [-73.809474079128, 40.88590651489665]]}}, {"type": "Feature", "properties": {"segment_id": 517885, "physicalid": "37448", "street_name": "NEW ENGLAND THRUWAY", "borough": "bronx", "direction": "FT", "total_row_ft": 97.9, "roadbed_ft": 67.9, "median_ft": 0.0, "left_sw_ft": 15.0, "right_sw_ft": 15.0}, "geometry": {"type": "LineString", "coordinates": [[-73.80928499265264, 40.88620801106238], [-73.80940454708762, 40.88589139281119]]}}, {"type": "Feature", "properties": {"segment_id": 517886, "physicalid": "37448", "street_name": "NEW ENGLAND THRUWAY", "borough": "bronx", "direction": "FT", "total_row_ft": 118.2, "roadbed_ft": 88.2, "median_ft": 0.0, "left_sw_ft": 15.0, "right_sw_ft": 15.0}, "geometry": {"type": "LineString", "coordinates": [[-73.80921546033996, 40.88619288886386], [-73.80933501507884, 40.885876270683774]]}}, {"type": "Feature", "properties": {"segment_id": 517887, "physicalid": "37449", "street_name": "NEW ENGLAND THRUWAY", "borough": "bronx", "direction": "FT", "total_row_ft": 118.1, "roadbed_ft": 88.1, "median_ft": 0.0, "left_sw_ft": 15.0, "right_sw_ft": 15.0}, "geometry": {"type": "LineString", "coordinates": [[-73.80910289345614, 40.886168754210864], [-73.80921900780089, 40.88585139942767]]}}, {"type": "Feature", "properties": {"segment_id": 517888, "physicalid": "37449", "street_name": "NEW ENGLAND THRUWAY", "borough": "bronx", "direction": "FT", "total_row_ft": 96.9, "roadbed_ft": 66.9, "median_ft": 0.0, "left_sw_ft": 15.0, "right_sw_ft": 15.0}, "geometry": {"type": "LineString", "coordinates": [[-73.80903319943457, 40.88615406713272], [-73.80914931408635, 40.88583671241881]]}}, {"type": "Feature", "properties": {"segment_id": 517889, "physicalid": "37449", "street_name": "NEW ENGLAND THRUWAY", "borough": "bronx", "direction": "FT", "total_row_ft": 90.0, "roadbed_ft": 60.0, "median_ft": 0.0, "left_sw_ft": 15.0, "right_sw_ft": 15.0}, "geometry": {"type": "LineString", "coordinates": [[-73.80896350544377, 40.88613938001249], [-73.80907962040261, 40.8858220253678]]}}, {"type": "Feature", "properties": {"segment_id": 517890, "physicalid": "37449", "street_name": "NEW ENGLAND THRUWAY", "borough": "bronx", "direction": "FT", "total_row_ft": 89.9, "roadbed_ft": 59.9, "median_ft": 0.0, "left_sw_ft": 15.0, "right_sw_ft": 15.0}, "geometry": {"type": "LineString", "coordinates": [[-73.80889381148378, 40.886124692850096], [-73.80900992674965, 40.885807338274674]]}}, {"type": "Feature", "properties": {"segment_id": 517891, "physicalid": "37449", "street_name": "NEW ENGLAND THRUWAY", "borough": "bronx", "direction": "FT", "total_row_ft": 89.9, "roadbed_ft": 59.9, "median_ft": 0.0, "left_sw_ft": 15.0, "right_sw_ft": 15.0}, "geometry": {"type": "LineString", "coordinates": [[-73.80882411716084, 40.8861100055057], [-73.80894023355991, 40.885792651173624]]}}, {"type": "Feature", "properties": {"segment_id": 517892, "physicalid": "37449", "street_name": "NEW ENGLAND THRUWAY", "borough": "bronx", "direction": "FT", "total_row_ft": 77.3, "roadbed_ft": 59.9, "median_ft": 0.0, "left_sw_ft": 15.0, "right_sw_ft": 2.4}, "geometry": {"type": "LineString", "coordinates": [[-73.80875442330066, 40.88609531815459], [-73.8088705400068, 40.88577796389177]]}}, {"type": "Feature", "properties": {"segment_id": 517893, "physicalid": "37449", "street_name": "NEW ENGLAND THRUWAY", "borough": "bronx", "direction": "FT", "total_row_ft": 81.5, "roadbed_ft": 59.9, "median_ft": 0.0, "left_sw_ft": 15.0, "right_sw_ft": 6.6}, "geometry": {"type": "LineString", "coordinates": [[-73.8086847294713, 40.88608063076134], [-73.80880084648446, 40.88576327656777]]}}, {"type": "Feature", "properties": {"segment_id": 517894, "physicalid": "37449", "street_name": "NEW ENGLAND THRUWAY", "borough": "bronx", "direction": "FT", "total_row_ft": 82.2, "roadbed_ft": 59.6, "median_ft": 0.0, "left_sw_ft": 15.0, "right_sw_ft": 7.6}, "geometry": {"type": "LineString", "coordinates": [[-73.80861504340075, 40.8860659468233], [-73.80872893474937, 40.885754628114555]]}}, {"type": "Feature", "properties": {"segment_id": 517895, "physicalid": "37449", "street_name": "NEW ENGLAND THRUWAY", "borough": "bronx", "direction": "FT", "total_row_ft": 82.0, "roadbed_ft": 59.5, "median_ft": 0.0, "left_sw_ft": 15.0, "right_sw_ft": 7.6}, "geometry": {"type": "LineString", "coordinates": [[-73.80854534885894, 40.886051261461404], [-73.80865690562932, 40.88574632515832]]}}, {"type": "Feature", "properties": {"segment_id": 517896, "physicalid": "37449", "street_name": "NEW ENGLAND THRUWAY", "borough": "bronx", "direction": "FT", "total_row_ft": 81.8, "roadbed_ft": 59.3, "median_ft": 0.0, "left_sw_ft": 15.0, "right_sw_ft": 7.6}, "geometry": {"type": "LineString", "coordinates": [[-73.80847565434792, 40.88603657605738], [-73.80858483311746, 40.88573814081654]]}}, {"type": "Feature", "properties": {"segment_id": 517897, "physicalid": "37449", "street_name": "NEW ENGLAND THRUWAY", "borough": "bronx", "direction": "FT", "total_row_ft": 82.1, "roadbed_ft": 59.6, "median_ft": 0.0, "left_sw_ft": 15.0, "right_sw_ft": 7.5}, "geometry": {"type": "LineString", "coordinates": [[-73.8084209070589, 40.886026871482905], [-73.80849928755195, 40.88572850644598]]}}, {"type": "Feature", "properties": {"segment_id": 517898, "physicalid": "37449", "street_name": "NEW ENGLAND THRUWAY", "borough": "bronx", "direction": "FT", "total_row_ft": 82.1, "roadbed_ft": 59.6, "median_ft": 0.0, "left_sw_ft": 15.0, "right_sw_ft": 7.5}, "geometry": {"type": "LineString", "coordinates": [[-73.80834997224183, 40.886016138498185], [-73.80842823925902, 40.8857182066327]]}}, {"type": "Feature", "properties": {"segment_id": 517899, "physicalid": "37449", "street_name": "NEW ENGLAND THRUWAY", "borough": "bronx", "direction": "FT", "total_row_ft": 81.8, "roadbed_ft": 59.3, "median_ft": 0.0, "left_sw_ft": 15.0, "right_sw_ft": 7.5}, "geometry": {"type": "LineString", "coordinates": [[-73.80827903744765, 40.886005405469845], [-73.80835734266148, 40.885707329414146]]}}, {"type": "Feature", "properties": {"segment_id": 517900, "physicalid": "37449", "street_name": "NEW ENGLAND THRUWAY", "borough": "bronx", "direction": "FT", "total_row_ft": 81.8, "roadbed_ft": 59.3, "median_ft": 0.0, "left_sw_ft": 15.0, "right_sw_ft": 7.5}, "geometry": {"type": "LineString", "coordinates": [[-73.80820810267637, 40.88599467239791], [-73.80828633448317, 40.885696876983225]]}}, {"type": "Feature", "properties": {"segment_id": 517901, "physicalid": "37449", "street_name": "NEW ENGLAND THRUWAY", "borough": "bronx", "direction": "FT", "total_row_ft": 81.8, "roadbed_ft": 59.3, "median_ft": 0.0, "left_sw_ft": 15.0, "right_sw_ft": 7.5}, "geometry": {"type": "LineString", "coordinates": [[-73.80813716792801, 40.88598393928233], [-73.80821520979093, 40.88568686811301]]}}, {"type": "Feature", "properties": {"segment_id": 517902, "physicalid": "37449", "street_name": "NEW ENGLAND THRUWAY", "borough": "bronx", "direction": "FT", "total_row_ft": 81.0, "roadbed_ft": 58.5, "median_ft": 0.0, "left_sw_ft": 15.0, "right_sw_ft": 7.5}, "geometry": {"type": "LineString", "coordinates": [[-73.80806623320255, 40.88597320612316], [-73.8081442020704, 40.88567641402026]]}}, {"type": "Feature", "properties": {"segment_id": 517903, "physicalid": "37449", "street_name": "NEW ENGLAND THRUWAY", "borough": "bronx", "direction": "FT", "total_row_ft": 80.5, "roadbed_ft": 58.0, "median_ft": 0.0, "left_sw_ft": 15.0, "right_sw_ft": 7.5}, "geometry": {"type": "LineString", "coordinates": [[-73.80799529849999, 40.88596247292038], [-73.80807342872019, 40.885665067826835]]}}, {"type": "Feature", "properties": {"segment_id": 517904, "physicalid": "37449", "street_name": "NEW ENGLAND THRUWAY", "borough": "bronx", "direction": "FT", "total_row_ft": 80.2, "roadbed_ft": 57.7, "median_ft": 0.0, "left_sw_ft": 15.0, "right_sw_ft": 7.5}, "geometry": {"type": "LineString", "coordinates": [[-73.80792436382035, 40.885951739673985], [-73.80800265539413, 40.88565372158998]]}}, {"type": "Feature", "properties": {"segment_id": 517905, "physicalid": "37449", "street_name": "NEW ENGLAND THRUWAY", "borough": "bronx", "direction": "FT", "total_row_ft": 80.4, "roadbed_ft": 57.8, "median_ft": 0.0, "left_sw_ft": 15.0, "right_sw_ft": 7.6}, "geometry": {"type": "LineString", "coordinates": [[-73.80787954778766, 40.88594431583437], [-73.80790975137779, 40.885638199079295]]}}, {"type": "Feature", "properties": {"segment_id": 517906, "physicalid": "37449", "street_name": "NEW ENGLAND THRUWAY", "borough": "bronx", "direction": "FT", "total_row_ft": 80.6, "roadbed_ft": 58.0, "median_ft": 0.0, "left_sw_ft": 15.0, "right_sw_ft": 7.6}, "geometry": {"type": "LineString", "coordinates": [[-73.80780741894756, 40.885940216777115], [-73.80783846537966, 40.885625561143954]]}}, {"type": "Feature", "properties": {"segment_id": 517907, "physicalid": "37449", "street_name": "NEW ENGLAND THRUWAY", "borough": "bronx", "direction": "FT", "total_row_ft": 81.3, "roadbed_ft": 58.7, "median_ft": 0.0, "left_sw_ft": 15.0, "right_sw_ft": 7.6}, "geometry": {"type": "LineString", "coordinates": [[-73.80773529011637, 40.885936117674795], [-73.80776712676023, 40.885613456752786]]}}, {"type": "Feature", "properties": {"segment_id": 517908, "physicalid": "37449", "street_name": "NEW ENGLAND THRUWAY", "borough": "bronx", "direction": "FT", "total_row_ft": 82.4, "roadbed_ft": 60.4, "median_ft": 0.0, "left_sw_ft": 15.0, "right_sw_ft": 7.0}, "geometry": {"type": "LineString", "coordinates": [[-73.80766316129409, 40.88593201852739], [-73.80769556878283, 40.88560357573677]]}}, {"type": "Feature", "properties": {"segment_id": 517909, "physicalid": "37449", "street_name": "NEW ENGLAND THRUWAY", "borough": "bronx", "direction": "FT", "total_row_ft": 82.7, "roadbed_ft": 62.5, "median_ft": 0.0, "left_sw_ft": 15.0, "right_sw_ft": 5.2}, "geometry": {"type": "LineString", "coordinates": [[-73.80759103248067, 40.885927919334904], [-73.80762344032377, 40.88559947656429]]}}, {"type": "Feature", "properties": {"segment_id": 517910, "physicalid": "37449", "street_name": "NEW ENGLAND THRUWAY", "borough": "bronx", "direction": "FT", "total_row_ft": 83.9, "roadbed_ft": 64.8, "median_ft": 0.0, "left_sw_ft": 15.0, "right_sw_ft": 4.2}, "geometry": {"type": "LineString", "coordinates": [[-73.80751890367615, 40.88592382009735], [-73.8075513118736, 40.88559537734674]]}}, {"type": "Feature", "properties": {"segment_id": 517911, "physicalid": "37449", "street_name": "NEW ENGLAND THRUWAY", "borough": "bronx", "direction": "FT", "total_row_ft": 85.4, "roadbed_ft": 66.8, "median_ft": 0.0, "left_sw_ft": 15.0, "right_sw_ft": 3.6}, "geometry": {"type": "LineString", "coordinates": [[-73.80744677488055, 40.88591972081471], [-73.80747918343233, 40.885591278084114]]}}, {"type": "Feature", "properties": {"segment_id": 517912, "physicalid": "37449", "street_name": "NEW ENGLAND THRUWAY", "borough": "bronx", "direction": "FT", "total_row_ft": 84.7, "roadbed_ft": 66.2, "median_ft": 0.0, "left_sw_ft": 15.0, "right_sw_ft": 3.6}, "geometry": {"type": "LineString", "coordinates": [[-73.8073746460938, 40.88591562148699], [-73.80740705499998, 40.8855871787764]]}}, {"type": "Feature", "properties": {"segment_id": 517913, "physicalid": "37449", "street_name": "NEW ENGLAND THRUWAY", "borough": "bronx", "direction": "FT", "total_row_ft": 84.7, "roadbed_ft": 65.6, "median_ft": 0.0, "left_sw_ft": 15.0, "right_sw_ft": 4.1}, "geometry": {"type": "LineString", "coordinates": [[-73.80730251731597, 40.8859115221142], [-73.8073349265765, 40.885583079423625]]}}, {"type": "Feature", "properties": {"segment_id": 517914, "physicalid": "37449", "street_name": "NEW ENGLAND THRUWAY", "borough": "bronx", "direction": "FT", "total_row_ft": 83.8, "roadbed_ft": 64.7, "median_ft": 0.0, "left_sw_ft": 15.0, "right_sw_ft": 4.0}, "geometry": {"type": "LineString", "coordinates": [[-73.80725161458437, 40.88590996037168], [-73.8072414287477, 40.885580688718235]]}}, {"type": "Feature", "properties": {"segment_id": 517915, "physicalid": "37449", "street_name": "NEW ENGLAND THRUWAY", "borough": "bronx", "direction": "FT", "total_row_ft": 81.4, "roadbed_ft": 64.3, "median_ft": 0.0, "left_sw_ft": 15.0, "right_sw_ft": 2.1}, "geometry": {"type": "LineString", "coordinates": [[-73.80717930376318, 40.8859112487392], [-73.8071691182845, 40.88558197707945]]}}, {"type": "Feature", "properties": {"segment_id": 517916, "physicalid": "37449", "street_name": "NEW ENGLAND THRUWAY", "borough": "bronx", "direction": "FT", "total_row_ft": 78.8, "roadbed_ft": 63.7, "median_ft": 0.0, "left_sw_ft": 15.0, "right_sw_ft": 0.0}, "geometry": {"type": "LineString", "coordinates": [[-73.80710699293923, 40.8859125370614], [-73.80709680781848, 40.88558326539536]]}}, {"type": "Feature", "properties": {"segment_id": 517917, "physicalid": "37449", "street_name": "NEW ENGLAND THRUWAY", "borough": "bronx", "direction": "FT", "total_row_ft": 93.3, "roadbed_ft": 63.3, "median_ft": 0.0, "left_sw_ft": 15.0, "right_sw_ft": 15.0}, "geometry": {"type": "LineString", "coordinates": [[-73.80703468211246, 40.885913825338335], [-73.80702449734964, 40.88558455366597]]}}, {"type": "Feature", "properties": {"segment_id": 517918, "physicalid": "37449", "street_name": "NEW ENGLAND THRUWAY", "borough": "bronx", "direction": "FT", "total_row_ft": 92.9, "roadbed_ft": 62.9, "median_ft": 0.0, "left_sw_ft": 15.0, "right_sw_ft": 15.0}, "geometry": {"type": "LineString", "coordinates": [[-73.80696237029852, 40.88591511341377], [-73.80695218785166, 40.88558584170023]]}}, {"type": "Feature", "properties": {"segment_id": 517919, "physicalid": "37449", "street_name": "NEW ENGLAND THRUWAY", "borough": "bronx", "direction": "FT", "total_row_ft": 92.4, "roadbed_ft": 62.4, "median_ft": 0.0, "left_sw_ft": 15.0, "right_sw_ft": 15.0}, "geometry": {"type": "LineString", "coordinates": [[-73.80689005945848, 40.885916401352425], [-73.80687987736958, 40.885587129632576]]}}, {"type": "Feature", "properties": {"segment_id": 517920, "physicalid": "37449", "street_name": "NEW ENGLAND THRUWAY", "borough": "bronx", "direction": "FT", "total_row_ft": 92.3, "roadbed_ft": 62.3, "median_ft": 0.0, "left_sw_ft": 15.0, "right_sw_ft": 15.0}, "geometry": {"type": "LineString", "coordinates": [[-73.80681774861564, 40.88591768924576], [-73.8068075668847, 40.88558841751964]]}}, {"type": "Feature", "properties": {"segment_id": 517921, "physicalid": "37449", "street_name": "NEW ENGLAND THRUWAY", "borough": "bronx", "direction": "FT", "total_row_ft": 91.8, "roadbed_ft": 61.8, "median_ft": 0.0, "left_sw_ft": 15.0, "right_sw_ft": 15.0}, "geometry": {"type": "LineString", "coordinates": [[-73.80676069497609, 40.88591930771771], [-73.80672015445928, 40.885591385548]]}}, {"type": "Feature", "properties": {"segment_id": 517922, "physicalid": "37449", "street_name": "NEW ENGLAND THRUWAY", "borough": "bronx", "direction": "FT", "total_row_ft": 91.7, "roadbed_ft": 61.7, "median_ft": 0.0, "left_sw_ft": 15.0, "right_sw_ft": 15.0}, "geometry": {"type": "LineString", "coordinates": [[-73.80668868049993, 40.88592443559948], [-73.80664814033524, 40.8855965134048]]}}, {"type": "Feature", "properties": {"segment_id": 517923, "physicalid": "37449", "street_name": "NEW ENGLAND THRUWAY", "borough": "bronx", "direction": "FT", "total_row_ft": 91.9, "roadbed_ft": 61.9, "median_ft": 0.0, "left_sw_ft": 15.0, "right_sw_ft": 15.0}, "geometry": {"type": "LineString", "coordinates": [[-73.80661666601266, 40.88592956343632], [-73.80657612620007, 40.88560164121663]]}}, {"type": "Feature", "properties": {"segment_id": 517924, "physicalid": "37449", "street_name": "NEW ENGLAND THRUWAY", "borough": "bronx", "direction": "FT", "total_row_ft": 92.0, "roadbed_ft": 62.0, "median_ft": 0.0, "left_sw_ft": 15.0, "right_sw_ft": 15.0}, "geometry": {"type": "LineString", "coordinates": [[-73.80654465151432, 40.88593469122821], [-73.80650411205377, 40.88560676898355]]}}, {"type": "Feature", "properties": {"segment_id": 517925, "physicalid": "37449", "street_name": "NEW ENGLAND THRUWAY", "borough": "bronx", "direction": "FT", "total_row_ft": 92.2, "roadbed_ft": 62.2, "median_ft": 0.0, "left_sw_ft": 15.0, "right_sw_ft": 15.0}, "geometry": {"type": "LineString", "coordinates": [[-73.806484740244, 40.88593958940542], [-73.8064202765738, 40.88561388080938]]}}, {"type": "Feature", "properties": {"segment_id": 517926, "physicalid": "37449", "street_name": "NEW ENGLAND THRUWAY", "borough": "bronx", "direction": "FT", "total_row_ft": 92.2, "roadbed_ft": 62.2, "median_ft": 0.0, "left_sw_ft": 15.0, "right_sw_ft": 15.0}, "geometry": {"type": "LineString", "coordinates": [[-73.80641321186437, 40.88594774328558], [-73.80634874853668, 40.8856220346501]]}}, {"type": "Feature", "properties": {"segment_id": 517927, "physicalid": "37449", "street_name": "NEW ENGLAND THRUWAY", "borough": "bronx", "direction": "FT", "total_row_ft": 92.3, "roadbed_ft": 62.3, "median_ft": 0.0, "left_sw_ft": 15.0, "right_sw_ft": 15.0}, "geometry": {"type": "LineString", "coordinates": [[-73.80634168346718, 40.885955897121406], [-73.806277220482, 40.88563018844644]]}}, {"type": "Feature", "properties": {"segment_id": 517928, "physicalid": "37449", "street_name": "NEW ENGLAND THRUWAY", "borough": "bronx", "direction": "FT", "total_row_ft": 92.2, "roadbed_ft": 62.2, "median_ft": 0.0, "left_sw_ft": 15.0, "right_sw_ft": 15.0}, "geometry": {"type": "LineString", "coordinates": [[-73.80627015505242, 40.885964050912875], [-73.80620569240982, 40.885638342198476]]}}, {"type": "Feature", "properties": {"segment_id": 517929, "physicalid": "37449", "street_name": "NEW ENGLAND THRUWAY", "borough": "bronx", "direction": "FT", "total_row_ft": 92.3, "roadbed_ft": 62.3, "median_ft": 0.0, "left_sw_ft": 15.0, "right_sw_ft": 15.0}, "geometry": {"type": "LineString", "coordinates": [[-73.80619862662014, 40.88597220466001], [-73.80613416432004, 40.885646495906165]]}}, {"type": "Feature", "properties": {"segment_id": 517930, "physicalid": "37449", "street_name": "NEW ENGLAND THRUWAY", "borough": "bronx", "direction": "FT", "total_row_ft": 92.3, "roadbed_ft": 62.3, "median_ft": 0.0, "left_sw_ft": 15.0, "right_sw_ft": 15.0}, "geometry": {"type": "LineString", "coordinates": [[-73.80612709817031, 40.885980358362836], [-73.80606263621276, 40.88565464956951]]}}, {"type": "Feature", "properties": {"segment_id": 517931, "physicalid": "37449", "street_name": "NEW ENGLAND THRUWAY", "borough": "bronx", "direction": "FT", "total_row_ft": 92.3, "roadbed_ft": 62.3, "median_ft": 0.0, "left_sw_ft": 15.0, "right_sw_ft": 15.0}, "geometry": {"type": "LineString", "coordinates": [[-73.80607525648368, 40.88598738905563], [-73.80597232822292, 40.885667424045025]]}}, {"type": "Feature", "properties": {"segment_id": 517932, "physicalid": "37449", "street_name": "NEW ENGLAND THRUWAY", "borough": "bronx", "direction": "FT", "total_row_ft": 92.1, "roadbed_ft": 62.1, "median_ft": 0.0, "left_sw_ft": 15.0, "right_sw_ft": 15.0}, "geometry": {"type": "LineString", "coordinates": [[-73.80600498939415, 40.886000408247966], [-73.80590206145142, 40.8856804431755]]}}, {"type": "Feature", "properties": {"segment_id": 517933, "physicalid": "37449", "street_name": "NEW ENGLAND THRUWAY", "borough": "bronx", "direction": "FT", "total_row_ft": 91.9, "roadbed_ft": 61.9, "median_ft": 0.0, "left_sw_ft": 15.0, "right_sw_ft": 15.0}, "geometry": {"type": "LineString", "coordinates": [[-73.8059347222771, 40.88601342739751], [-73.80583179465239, 40.885693462263156]]}}, {"type": "Feature", "properties": {"segment_id": 517934, "physicalid": "37449", "street_name": "NEW ENGLAND THRUWAY", "borough": "bronx", "direction": "FT", "total_row_ft": 91.5, "roadbed_ft": 61.5, "median_ft": 0.0, "left_sw_ft": 15.0, "right_sw_ft": 15.0}, "geometry": {"type": "LineString", "coordinates": [[-73.80586445513252, 40.88602644650423], [-73.80576152782585, 40.88570648130799]]}}, {"type": "Feature", "properties": {"segment_id": 517935, "physicalid": "37449", "street_name": "NEW ENGLAND THRUWAY", "borough": "bronx", "direction": "FT", "total_row_ft": 91.3, "roadbed_ft": 61.3, "median_ft": 0.0, "left_sw_ft": 15.0, "right_sw_ft": 15.0}, "geometry": {"type": "LineString", "coordinates": [[-73.80579418796043, 40.88603946556817], [-73.80569126097178, 40.885719500310024]]}}, {"type": "Feature", "properties": {"segment_id": 517936, "physicalid": "37449", "street_name": "NEW ENGLAND THRUWAY", "borough": "bronx", "direction": "FT", "total_row_ft": 90.8, "roadbed_ft": 60.8, "median_ft": 0.0, "left_sw_ft": 15.0, "right_sw_ft": 15.0}, "geometry": {"type": "LineString", "coordinates": [[-73.80572392076081, 40.886052484589285], [-73.80562099409022, 40.88573251926924]]}}, {"type": "Feature", "properties": {"segment_id": 517937, "physicalid": "37449", "street_name": "NEW ENGLAND THRUWAY", "borough": "bronx", "direction": "FT", "total_row_ft": 90.7, "roadbed_ft": 60.7, "median_ft": 0.0, "left_sw_ft": 15.0, "right_sw_ft": 15.0}, "geometry": {"type": "LineString", "coordinates": [[-73.80565365353368, 40.886065503567586], [-73.8055507271811, 40.88574553818567]]}}, {"type": "Feature", "properties": {"segment_id": 517938, "physicalid": "37449", "street_name": "NEW ENGLAND THRUWAY", "borough": "bronx", "direction": "FT", "total_row_ft": 90.4, "roadbed_ft": 60.4, "median_ft": 0.0, "left_sw_ft": 15.0, "right_sw_ft": 15.0}, "geometry": {"type": "LineString", "coordinates": [[-73.80558338627901, 40.88607852250308], [-73.80548046024448, 40.88575855705927]]}}, {"type": "Feature", "properties": {"segment_id": 517939, "physicalid": "37449", "street_name": "NEW ENGLAND THRUWAY", "borough": "bronx", "direction": "FT", "total_row_ft": 90.5, "roadbed_ft": 60.5, "median_ft": 0.0, "left_sw_ft": 15.0, "right_sw_ft": 15.0}, "geometry": {"type": "LineString", "coordinates": [[-73.80553078772637, 40.88609073984761], [-73.80539464991138, 40.88577800218757]]}}, {"type": "Feature", "properties": {"segment_id": 517940, "physicalid": "37449", "street_name": "NEW ENGLAND THRUWAY", "borough": "bronx", "direction": "FT", "total_row_ft": 90.4, "roadbed_ft": 60.4, "median_ft": 0.0, "left_sw_ft": 15.0, "right_sw_ft": 15.0}, "geometry": {"type": "LineString", "coordinates": [[-73.80546210772098, 40.88610795962975], [-73.80532597019379, 40.88579522188967]]}}, {"type": "Feature", "properties": {"segment_id": 517941, "physicalid": "37449", "street_name": "NEW ENGLAND THRUWAY", "borough": "bronx", "direction": "FT", "total_row_ft": 90.4, "roadbed_ft": 60.4, "median_ft": 0.0, "left_sw_ft": 15.0, "right_sw_ft": 15.0}, "geometry": {"type": "LineString", "coordinates": [[-73.80539342767999, 40.88612517937096], [-73.80525729044066, 40.885812441550875]]}}, {"type": "Feature", "properties": {"segment_id": 517942, "physicalid": "37449", "street_name": "NEW ENGLAND THRUWAY", "borough": "bronx", "direction": "FT", "total_row_ft": 90.2, "roadbed_ft": 60.2, "median_ft": 0.0, "left_sw_ft": 15.0, "right_sw_ft": 15.0}, "geometry": {"type": "LineString", "coordinates": [[-73.80532474760344, 40.88614239907125], [-73.8051886106519, 40.88582966117115]]}}, {"type": "Feature", "properties": {"segment_id": 517943, "physicalid": "37449", "street_name": "NEW ENGLAND THRUWAY", "borough": "bronx", "direction": "FT", "total_row_ft": 90.4, "roadbed_ft": 60.4, "median_ft": 0.0, "left_sw_ft": 15.0, "right_sw_ft": 15.0}, "geometry": {"type": "LineString", "coordinates": [[-73.80528047246514, 40.886153594789455], [-73.80509673171737, 40.88585520828059]]}}, {"type": "Feature", "properties": {"segment_id": 517944, "physicalid": "37449", "street_name": "NEW ENGLAND THRUWAY", "borough": "bronx", "direction": "FT", "total_row_ft": 90.4, "roadbed_ft": 60.4, "median_ft": 0.0, "left_sw_ft": 15.0, "right_sw_ft": 15.0}, "geometry": {"type": "LineString", "coordinates": [[-73.8052149440483, 40.88617683574683], [-73.80503120353038, 40.88587844913494]]}}, {"type": "Feature", "properties": {"segment_id": 517945, "physicalid": "37449", "street_name": "NEW ENGLAND THRUWAY", "borough": "bronx", "direction": "FT", "total_row_ft": 90.3, "roadbed_ft": 60.3, "median_ft": 0.0, "left_sw_ft": 15.0, "right_sw_ft": 15.0}, "geometry": {"type": "LineString", "coordinates": [[-73.80514941563584, 40.88620007665114], [-73.80496567524946, 40.885901689971114]]}}, {"type": "Feature", "properties": {"segment_id": 517946, "physicalid": "37449", "street_name": "NEW ENGLAND THRUWAY", "borough": "bronx", "direction": "FT", "total_row_ft": 90.4, "roadbed_ft": 60.4, "median_ft": 0.0, "left_sw_ft": 15.0, "right_sw_ft": 15.0}, "geometry": {"type": "LineString", "coordinates": [[-73.80508388713501, 40.886223317546346], [-73.80490014697851, 40.885924930763274]]}}, {"type": "Feature", "properties": {"segment_id": 517947, "physicalid": "37449", "street_name": "NEW ENGLAND THRUWAY", "borough": "bronx", "direction": "FT", "total_row_ft": 90.3, "roadbed_ft": 60.3, "median_ft": 0.0, "left_sw_ft": 15.0, "right_sw_ft": 15.0}, "geometry": {"type": "LineString", "coordinates": [[-73.80501835858837, 40.886246558404245], [-73.80483461866173, 40.88594817151814]]}}, {"type": "Feature", "properties": {"segment_id": 517948, "physicalid": "37449", "street_name": "NEW ENGLAND THRUWAY", "borough": "bronx", "direction": "FT", "total_row_ft": 90.3, "roadbed_ft": 60.3, "median_ft": 0.0, "left_sw_ft": 15.0, "right_sw_ft": 15.0}, "geometry": {"type": "LineString", "coordinates": [[-73.80495282999587, 40.886269799224856], [-73.80476909029917, 40.8859714122357]]}}, {"type": "Feature", "properties": {"segment_id": 517949, "physicalid": "37449", "street_name": "NEW ENGLAND THRUWAY", "borough": "bronx", "direction": "FT", "total_row_ft": 90.0, "roadbed_ft": 60.0, "median_ft": 0.0, "left_sw_ft": 15.0, "right_sw_ft": 15.0}, "geometry": {"type": "LineString", "coordinates": [[-73.8048873013576, 40.88629304000814], [-73.80470356189078, 40.885994652915976]]}}, {"type": "Feature", "properties": {"segment_id": 517950, "physicalid": "37449", "street_name": "NEW ENGLAND THRUWAY", "borough": "bronx", "direction": "FT", "total_row_ft": 90.2, "roadbed_ft": 60.2, "median_ft": 0.0, "left_sw_ft": 15.0, "right_sw_ft": 15.0}, "geometry": {"type": "LineString", "coordinates": [[-73.80482177267349, 40.88631628075414], [-73.80463803343656, 40.88601789355892]]}}, {"type": "Feature", "properties": {"segment_id": 517951, "physicalid": "37449", "street_name": "NEW ENGLAND THRUWAY", "borough": "bronx", "direction": "FT", "total_row_ft": 90.4, "roadbed_ft": 60.4, "median_ft": 0.0, "left_sw_ft": 15.0, "right_sw_ft": 15.0}, "geometry": {"type": "LineString", "coordinates": [[-73.80475624394357, 40.88633952146282], [-73.80457250493653, 40.88604113416457]]}}, {"type": "Feature", "properties": {"segment_id": 517952, "physicalid": "37449", "street_name": "NEW ENGLAND THRUWAY", "borough": "bronx", "direction": "FT", "total_row_ft": 90.9, "roadbed_ft": 60.9, "median_ft": 0.0, "left_sw_ft": 15.0, "right_sw_ft": 15.0}, "geometry": {"type": "LineString", "coordinates": [[-73.80469071516785, 40.886362762134205], [-73.80450697639068, 40.88606437473293]]}}, {"type": "Feature", "properties": {"segment_id": 517953, "physicalid": "37449", "street_name": "NEW ENGLAND THRUWAY", "borough": "bronx", "direction": "FT", "total_row_ft": 91.1, "roadbed_ft": 61.1, "median_ft": 0.0, "left_sw_ft": 15.0, "right_sw_ft": 15.0}, "geometry": {"type": "LineString", "coordinates": [[-73.80462518634626, 40.88638600276831], [-73.80444144779904, 40.88608761526399]]}}, {"type": "Feature", "properties": {"segment_id": 517954, "physicalid": "37449", "street_name": "NEW ENGLAND THRUWAY", "borough": "bronx", "direction": "FT", "total_row_ft": 91.4, "roadbed_ft": 61.4, "median_ft": 0.0, "left_sw_ft": 15.0, "right_sw_ft": 15.0}, "geometry": {"type": "LineString", "coordinates": [[-73.80455965747889, 40.886409243365094], [-73.80437591916156, 40.88611085575773]]}}, {"type": "Feature", "properties": {"segment_id": 517955, "physicalid": "37449", "street_name": "NEW ENGLAND THRUWAY", "borough": "bronx", "direction": "FT", "total_row_ft": 91.4, "roadbed_ft": 61.4, "median_ft": 0.0, "left_sw_ft": 15.0, "right_sw_ft": 15.0}, "geometry": {"type": "LineString", "coordinates": [[-73.80449412856572, 40.88643248392456], [-73.80431039047826, 40.886134096214185]]}}, {"type": "Feature", "properties": {"segment_id": 517956, "physicalid": "37449", "street_name": "NEW ENGLAND THRUWAY", "borough": "bronx", "direction": "FT", "total_row_ft": 91.4, "roadbed_ft": 61.4, "median_ft": 0.0, "left_sw_ft": 15.0, "right_sw_ft": 15.0}, "geometry": {"type": "LineString", "coordinates": [[-73.80442859960672, 40.88645572444673], [-73.80424486174914, 40.88615733663333]]}}, {"type": "Feature", "properties": {"segment_id": 518466, "physicalid": "37479", "street_name": "NEW ENGLAND THRUWAY", "borough": "bronx", "direction": "TF", "total_row_ft": 87.9, "roadbed_ft": 57.9, "median_ft": 0.0, "left_sw_ft": 15.0, "right_sw_ft": 15.0}, "geometry": {"type": "LineString", "coordinates": [[-73.80989492234322, 40.88674587106876], [-73.80999973713682, 40.886426258815284]]}}, {"type": "Feature", "properties": {"segment_id": 518467, "physicalid": "37479", "street_name": "NEW ENGLAND THRUWAY", "borough": "bronx", "direction": "TF", "total_row_ft": 87.8, "roadbed_ft": 57.8, "median_ft": 0.0, "left_sw_ft": 15.0, "right_sw_ft": 15.0}, "geometry": {"type": "LineString", "coordinates": [[-73.80982473193966, 40.886732613362625], [-73.8099295470498, 40.88641300117212]]}}, {"type": "Feature", "properties": {"segment_id": 518468, "physicalid": "37479", "street_name": "NEW ENGLAND THRUWAY", "borough": "bronx", "direction": "TF", "total_row_ft": 87.7, "roadbed_ft": 57.7, "median_ft": 0.0, "left_sw_ft": 15.0, "right_sw_ft": 15.0}, "geometry": {"type": "LineString", "coordinates": [[-73.8097545415641, 40.8867193556138], [-73.8098593569908, 40.88639974348625]]}}, {"type": "Feature", "properties": {"segment_id": 518469, "physicalid": "37479", "street_name": "NEW ENGLAND THRUWAY", "borough": "bronx", "direction": "TF", "total_row_ft": 87.6, "roadbed_ft": 57.6, "median_ft": 0.0, "left_sw_ft": 15.0, "right_sw_ft": 15.0}, "geometry": {"type": "LineString", "coordinates": [[-73.80968435121655, 40.88670609782224], [-73.8097891669598, 40.88638648575763]]}}, {"type": "Feature", "properties": {"segment_id": 518470, "physicalid": "37479", "street_name": "NEW ENGLAND THRUWAY", "borough": "bronx", "direction": "TF", "total_row_ft": 87.4, "roadbed_ft": 57.4, "median_ft": 0.0, "left_sw_ft": 15.0, "right_sw_ft": 15.0}, "geometry": {"type": "LineString", "coordinates": [[-73.80961416089698, 40.88669283998799], [-73.80971897695679, 40.88637322798633]]}}, {"type": "Feature", "properties": {"segment_id": 518471, "physicalid": "37479", "street_name": "NEW ENGLAND THRUWAY", "borough": "bronx", "direction": "TF", "total_row_ft": 87.3, "roadbed_ft": 57.3, "median_ft": 0.0, "left_sw_ft": 15.0, "right_sw_ft": 15.0}, "geometry": {"type": "LineString", "coordinates": [[-73.8095439706054, 40.88667958211098], [-73.80964878698177, 40.886359970172286]]}}, {"type": "Feature", "properties": {"segment_id": 518472, "physicalid": "37479", "street_name": "NEW ENGLAND THRUWAY", "borough": "bronx", "direction": "TF", "total_row_ft": 87.2, "roadbed_ft": 57.2, "median_ft": 0.0, "left_sw_ft": 15.0, "right_sw_ft": 15.0}, "geometry": {"type": "LineString", "coordinates": [[-73.80947378034185, 40.88666632419129], [-73.80957859703474, 40.88634671231554]]}}, {"type": "Feature", "properties": {"segment_id": 518473, "physicalid": "37479", "street_name": "NEW ENGLAND THRUWAY", "borough": "bronx", "direction": "TF", "total_row_ft": 87.2, "roadbed_ft": 57.2, "median_ft": 0.0, "left_sw_ft": 15.0, "right_sw_ft": 15.0}, "geometry": {"type": "LineString", "coordinates": [[-73.80940359010627, 40.88665306622886], [-73.80950840711573, 40.88633345441609]]}}, {"type": "Feature", "properties": {"segment_id": 518474, "physicalid": "37479", "street_name": "NEW ENGLAND THRUWAY", "borough": "bronx", "direction": "TF", "total_row_ft": 87.1, "roadbed_ft": 57.1, "median_ft": 0.0, "left_sw_ft": 15.0, "right_sw_ft": 15.0}, "geometry": {"type": "LineString", "coordinates": [[-73.80932878211777, 40.886637769145494], [-73.80944355912457, 40.88632013414243]]}}, {"type": "Feature", "properties": {"segment_id": 518475, "physicalid": "37479", "street_name": "NEW ENGLAND THRUWAY", "borough": "bronx", "direction": "TF", "total_row_ft": 87.1, "roadbed_ft": 57.1, "median_ft": 0.0, "left_sw_ft": 15.0, "right_sw_ft": 15.0}, "geometry": {"type": "LineString", "coordinates": [[-73.80925902605868, 40.88662325132798], [-73.8093738033737, 40.886305616393436]]}}, {"type": "Feature", "properties": {"segment_id": 518476, "physicalid": "37479", "street_name": "NEW ENGLAND THRUWAY", "borough": "bronx", "direction": "TF", "total_row_ft": 88.6, "roadbed_ft": 58.6, "median_ft": 0.0, "left_sw_ft": 15.0, "right_sw_ft": 15.0}, "geometry": {"type": "LineString", "coordinates": [[-73.80918927003005, 40.8866087334683], [-73.8093040476533, 40.88629109860226]]}}, {"type": "Feature", "properties": {"segment_id": 518477, "physicalid": "37479", "street_name": "NEW ENGLAND THRUWAY", "borough": "bronx", "direction": "TF", "total_row_ft": 98.6, "roadbed_ft": 68.6, "median_ft": 0.0, "left_sw_ft": 15.0, "right_sw_ft": 15.0}, "geometry": {"type": "LineString", "coordinates": [[-73.80911951403185, 40.88659421556637], [-73.80923429196336, 40.886276580768865]]}}, {"type": "Feature", "properties": {"segment_id": 518478, "physicalid": "37480", "street_name": "NEW ENGLAND THRUWAY", "borough": "bronx", "direction": "TF", "total_row_ft": 118.8, "roadbed_ft": 88.8, "median_ft": 0.0, "left_sw_ft": 15.0, "right_sw_ft": 15.0}, "geometry": {"type": "LineString", "coordinates": [[-73.80896444169916, 40.88656087012262], [-73.80908920744247, 40.88624541194489]]}}, {"type": "Feature", "properties": {"segment_id": 518479, "physicalid": "37480", "street_name": "NEW ENGLAND THRUWAY", "borough": "bronx", "direction": "TF", "total_row_ft": 96.1, "roadbed_ft": 66.1, "median_ft": 0.0, "left_sw_ft": 15.0, "right_sw_ft": 15.0}, "geometry": {"type": "LineString", "coordinates": [[-73.80889516377906, 40.88654508884236], [-73.80901992982153, 40.88622963073861]]}}, {"type": "Feature", "properties": {"segment_id": 518480, "physicalid": "37480", "street_name": "NEW ENGLAND THRUWAY", "borough": "bronx", "direction": "TF", "total_row_ft": 88.5, "roadbed_ft": 58.5, "median_ft": 0.0, "left_sw_ft": 15.0, "right_sw_ft": 15.0}, "geometry": {"type": "LineString", "coordinates": [[-73.80882588589186, 40.886529307520476], [-73.80895065223346, 40.88621384949069]]}}, {"type": "Feature", "properties": {"segment_id": 518481, "physicalid": "37480", "street_name": "NEW ENGLAND THRUWAY", "borough": "bronx", "direction": "TF", "total_row_ft": 88.4, "roadbed_ft": 58.4, "median_ft": 0.0, "left_sw_ft": 15.0, "right_sw_ft": 15.0}, "geometry": {"type": "LineString", "coordinates": [[-73.80875828314858, 40.88651390779644], [-73.80887969553933, 40.88619769691733]]}}, {"type": "Feature", "properties": {"segment_id": 518482, "physicalid": "37480", "street_name": "NEW ENGLAND THRUWAY", "borough": "bronx", "direction": "TF", "total_row_ft": 88.3, "roadbed_ft": 58.3, "median_ft": 0.0, "left_sw_ft": 15.0, "right_sw_ft": 15.0}, "geometry": {"type": "LineString", "coordinates": [[-73.80868883997577, 40.886498550660825], [-73.80881025266882, 40.886182339853875]]}}, {"type": "Feature", "properties": {"segment_id": 518483, "physicalid": "37480", "street_name": "NEW ENGLAND THRUWAY", "borough": "bronx", "direction": "TF", "total_row_ft": 88.3, "roadbed_ft": 58.3, "median_ft": 0.0, "left_sw_ft": 15.0, "right_sw_ft": 15.0}, "geometry": {"type": "LineString", "coordinates": [[-73.80861939683508, 40.886483193483414], [-73.80874080983034, 40.886166982748605]]}}, {"type": "Feature", "properties": {"segment_id": 518484, "physicalid": "37480", "street_name": "NEW ENGLAND THRUWAY", "borough": "bronx", "direction": "TF", "total_row_ft": 88.5, "roadbed_ft": 58.5, "median_ft": 0.0, "left_sw_ft": 15.0, "right_sw_ft": 15.0}, "geometry": {"type": "LineString", "coordinates": [[-73.80854995372644, 40.88646783626415], [-73.808671367024, 40.88615162560151]]}}, {"type": "Feature", "properties": {"segment_id": 518485, "physicalid": "37480", "street_name": "NEW ENGLAND THRUWAY", "borough": "bronx", "direction": "TF", "total_row_ft": 88.6, "roadbed_ft": 58.6, "median_ft": 0.0, "left_sw_ft": 15.0, "right_sw_ft": 15.0}, "geometry": {"type": "LineString", "coordinates": [[-73.80848051064991, 40.886452479003076], [-73.8086019242497, 40.88613626841257]]}}, {"type": "Feature", "properties": {"segment_id": 518486, "physicalid": "37480", "street_name": "NEW ENGLAND THRUWAY", "borough": "bronx", "direction": "TF", "total_row_ft": 88.4, "roadbed_ft": 58.4, "median_ft": 0.0, "left_sw_ft": 15.0, "right_sw_ft": 15.0}, "geometry": {"type": "LineString", "coordinates": [[-73.80841106760545, 40.88643712170019], [-73.80853248150751, 40.886120911181834]]}}, {"type": "Feature", "properties": {"segment_id": 518487, "physicalid": "37480", "street_name": "NEW ENGLAND THRUWAY", "borough": "bronx", "direction": "TF", "total_row_ft": 87.8, "roadbed_ft": 57.8, "median_ft": 0.0, "left_sw_ft": 15.0, "right_sw_ft": 15.0}, "geometry": {"type": "LineString", "coordinates": [[-73.80835695642136, 40.88642779938826], [-73.80844576855907, 40.88610540740267]]}}, {"type": "Feature", "properties": {"segment_id": 518488, "physicalid": "37480", "street_name": "NEW ENGLAND THRUWAY", "borough": "bronx", "direction": "TF", "total_row_ft": 87.1, "roadbed_ft": 57.1, "median_ft": 0.0, "left_sw_ft": 15.0, "right_sw_ft": 15.0}, "geometry": {"type": "LineString", "coordinates": [[-73.80828615589549, 40.886416565751155], [-73.8083749683615, 40.88609417381937]]}}, {"type": "Feature", "properties": {"segment_id": 518489, "physicalid": "37480", "street_name": "NEW ENGLAND THRUWAY", "borough": "bronx", "direction": "TF", "total_row_ft": 86.9, "roadbed_ft": 56.9, "median_ft": 0.0, "left_sw_ft": 15.0, "right_sw_ft": 15.0}, "geometry": {"type": "LineString", "coordinates": [[-73.80821535539351, 40.8864053320706], [-73.8083041681879, 40.88608294019263]]}}, {"type": "Feature", "properties": {"segment_id": 518490, "physicalid": "37480", "street_name": "NEW ENGLAND THRUWAY", "borough": "bronx", "direction": "TF", "total_row_ft": 86.7, "roadbed_ft": 56.7, "median_ft": 0.0, "left_sw_ft": 15.0, "right_sw_ft": 15.0}, "geometry": {"type": "LineString", "coordinates": [[-73.8081445549155, 40.8863940983466], [-73.80823336803819, 40.88607170652243]]}}, {"type": "Feature", "properties": {"segment_id": 518491, "physicalid": "37480", "street_name": "NEW ENGLAND THRUWAY", "borough": "bronx", "direction": "TF", "total_row_ft": 86.8, "roadbed_ft": 56.8, "median_ft": 0.0, "left_sw_ft": 15.0, "right_sw_ft": 15.0}, "geometry": {"type": "LineString", "coordinates": [[-73.80808749715764, 40.88638471229629], [-73.80814881849984, 40.886058654389736]]}}, {"type": "Feature", "properties": {"segment_id": 518492, "physicalid": "37480", "street_name": "NEW ENGLAND THRUWAY", "borough": "bronx", "direction": "TF", "total_row_ft": 87.1, "roadbed_ft": 57.1, "median_ft": 0.0, "left_sw_ft": 15.0, "right_sw_ft": 15.0}, "geometry": {"type": "LineString", "coordinates": [[-73.80801589159786, 40.88637695589212], [-73.8080772132841, 40.88605089802312]]}}, {"type": "Feature", "properties": {"segment_id": 518493, "physicalid": "37480", "street_name": "NEW ENGLAND THRUWAY", "borough": "bronx", "direction": "TF", "total_row_ft": 87.3, "roadbed_ft": 57.3, "median_ft": 0.0, "left_sw_ft": 15.0, "right_sw_ft": 15.0}, "geometry": {"type": "LineString", "coordinates": [[-73.80794428605475, 40.886369199443514], [-73.80800560808507, 40.886043141612106]]}}, {"type": "Feature", "properties": {"segment_id": 518494, "physicalid": "37480", "street_name": "NEW ENGLAND THRUWAY", "borough": "bronx", "direction": "TF", "total_row_ft": 87.2, "roadbed_ft": 57.2, "median_ft": 0.0, "left_sw_ft": 15.0, "right_sw_ft": 15.0}, "geometry": {"type": "LineString", "coordinates": [[-73.80787268052838, 40.886361442950474], [-73.80793400290275, 40.886035385156624]]}}, {"type": "Feature", "properties": {"segment_id": 518495, "physicalid": "37480", "street_name": "NEW ENGLAND THRUWAY", "borough": "bronx", "direction": "TF", "total_row_ft": 86.7, "roadbed_ft": 56.7, "median_ft": 0.0, "left_sw_ft": 15.0, "right_sw_ft": 15.0}, "geometry": {"type": "LineString", "coordinates": [[-73.8078010750187, 40.886353686412996], [-73.80786239773713, 40.88602762865673]]}}, {"type": "Feature", "properties": {"segment_id": 518496, "physicalid": "37480", "street_name": "NEW ENGLAND THRUWAY", "borough": "bronx", "direction": "TF", "total_row_ft": 85.7, "roadbed_ft": 55.7, "median_ft": 0.0, "left_sw_ft": 15.0, "right_sw_ft": 15.0}, "geometry": {"type": "LineString", "coordinates": [[-73.80772946952577, 40.88634592983106], [-73.80779079258821, 40.886019872112385]]}}, {"type": "Feature", "properties": {"segment_id": 518497, "physicalid": "37480", "street_name": "NEW ENGLAND THRUWAY", "borough": "bronx", "direction": "TF", "total_row_ft": 85.0, "roadbed_ft": 55.0, "median_ft": 0.0, "left_sw_ft": 15.0, "right_sw_ft": 15.0}, "geometry": {"type": "LineString", "coordinates": [[-73.80767099095446, 40.886339633434694], [-73.80770595956325, 40.886011341993544]]}}, {"type": "Feature", "properties": {"segment_id": 518498, "physicalid": "37480", "street_name": "NEW ENGLAND THRUWAY", "borough": "bronx", "direction": "TF", "total_row_ft": 84.8, "roadbed_ft": 54.8, "median_ft": 0.0, "left_sw_ft": 15.0, "right_sw_ft": 15.0}, "geometry": {"type": "LineString", "coordinates": [[-73.8075988949317, 40.88633521031786], [-73.8076338638942, 40.88600691889826]]}}, {"type": "Feature", "properties": {"segment_id": 518499, "physicalid": "37480", "street_name": "NEW ENGLAND THRUWAY", "borough": "bronx", "direction": "TF", "total_row_ft": 84.8, "roadbed_ft": 54.8, "median_ft": 0.0, "left_sw_ft": 15.0, "right_sw_ft": 15.0}, "geometry": {"type": "LineString", "coordinates": [[-73.80752679891852, 40.88633078715595], [-73.80756176823475, 40.88600249575793]]}}, {"type": "Feature", "properties": {"segment_id": 518500, "physicalid": "37480", "street_name": "NEW ENGLAND THRUWAY", "borough": "bronx", "direction": "TF", "total_row_ft": 85.0, "roadbed_ft": 55.0, "median_ft": 0.0, "left_sw_ft": 15.0, "right_sw_ft": 15.0}, "geometry": {"type": "LineString", "coordinates": [[-73.80745470291495, 40.88632636394902], [-73.80748967258488, 40.885998072572576]]}}, {"type": "Feature", "properties": {"segment_id": 518501, "physicalid": "37480", "street_name": "NEW ENGLAND THRUWAY", "borough": "bronx", "direction": "TF", "total_row_ft": 85.3, "roadbed_ft": 55.3, "median_ft": 0.0, "left_sw_ft": 15.0, "right_sw_ft": 15.0}, "geometry": {"type": "LineString", "coordinates": [[-73.80738260692097, 40.88632194069706], [-73.8074175769446, 40.88599364934219]]}}, {"type": "Feature", "properties": {"segment_id": 518502, "physicalid": "37480", "street_name": "NEW ENGLAND THRUWAY", "borough": "bronx", "direction": "TF", "total_row_ft": 85.5, "roadbed_ft": 55.5, "median_ft": 0.0, "left_sw_ft": 15.0, "right_sw_ft": 15.0}, "geometry": {"type": "LineString", "coordinates": [[-73.80731051093662, 40.88631751740004], [-73.80734548131389, 40.88598922606676]]}}, {"type": "Feature", "properties": {"segment_id": 518503, "physicalid": "37480", "street_name": "NEW ENGLAND THRUWAY", "borough": "bronx", "direction": "TF", "total_row_ft": 85.8, "roadbed_ft": 55.8, "median_ft": 0.0, "left_sw_ft": 15.0, "right_sw_ft": 15.0}, "geometry": {"type": "LineString", "coordinates": [[-73.80725597973255, 40.88631622789516], [-73.80725554808119, 40.885986865699344]]}}, {"type": "Feature", "properties": {"segment_id": 518504, "physicalid": "37480", "street_name": "NEW ENGLAND THRUWAY", "borough": "bronx", "direction": "TF", "total_row_ft": 85.9, "roadbed_ft": 55.9, "median_ft": 0.0, "left_sw_ft": 15.0, "right_sw_ft": 15.0}, "geometry": {"type": "LineString", "coordinates": [[-73.8071836485813, 40.88631628247104], [-73.80718321728828, 40.88598692027495]]}}, {"type": "Feature", "properties": {"segment_id": 518505, "physicalid": "37480", "street_name": "NEW ENGLAND THRUWAY", "borough": "bronx", "direction": "TF", "total_row_ft": 86.1, "roadbed_ft": 56.1, "median_ft": 0.0, "left_sw_ft": 15.0, "right_sw_ft": 15.0}, "geometry": {"type": "LineString", "coordinates": [[-73.80711131742994, 40.8863163370016], [-73.80711088649528, 40.885986974805256]]}}, {"type": "Feature", "properties": {"segment_id": 518506, "physicalid": "37480", "street_name": "NEW ENGLAND THRUWAY", "borough": "bronx", "direction": "TF", "total_row_ft": 85.9, "roadbed_ft": 55.9, "median_ft": 0.0, "left_sw_ft": 15.0, "right_sw_ft": 15.0}, "geometry": {"type": "LineString", "coordinates": [[-73.80703898627846, 40.886316391486844], [-73.80703855570215, 40.885987029290234]]}}, {"type": "Feature", "properties": {"segment_id": 518507, "physicalid": "37480", "street_name": "NEW ENGLAND THRUWAY", "borough": "bronx", "direction": "TF", "total_row_ft": 85.9, "roadbed_ft": 55.9, "median_ft": 0.0, "left_sw_ft": 15.0, "right_sw_ft": 15.0}, "geometry": {"type": "LineString", "coordinates": [[-73.80696665512687, 40.88631644592677], [-73.80696622490889, 40.885987083729866]]}}, {"type": "Feature", "properties": {"segment_id": 518508, "physicalid": "37480", "street_name": "NEW ENGLAND THRUWAY", "borough": "bronx", "direction": "TF", "total_row_ft": 85.6, "roadbed_ft": 55.6, "median_ft": 0.0, "left_sw_ft": 15.0, "right_sw_ft": 15.0}, "geometry": {"type": "LineString", "coordinates": [[-73.80689432397514, 40.886316500321335], [-73.80689389411553, 40.88598713812418]]}}, {"type": "Feature", "properties": {"segment_id": 518509, "physicalid": "37480", "street_name": "NEW ENGLAND THRUWAY", "borough": "bronx", "direction": "TF", "total_row_ft": 85.5, "roadbed_ft": 55.5, "median_ft": 0.0, "left_sw_ft": 15.0, "right_sw_ft": 15.0}, "geometry": {"type": "LineString", "coordinates": [[-73.8068219928233, 40.88631655467059], [-73.80682156332205, 40.885987192473195]]}}, {"type": "Feature", "properties": {"segment_id": 518510, "physicalid": "37480", "street_name": "NEW ENGLAND THRUWAY", "borough": "bronx", "direction": "TF", "total_row_ft": 85.3, "roadbed_ft": 55.3, "median_ft": 0.0, "left_sw_ft": 15.0, "right_sw_ft": 15.0}, "geometry": {"type": "LineString", "coordinates": [[-73.80676436101206, 40.886318049762664], [-73.80673470025442, 40.88598945753564]]}}, {"type": "Feature", "properties": {"segment_id": 518511, "physicalid": "37480", "street_name": "NEW ENGLAND THRUWAY", "borough": "bronx", "direction": "TF", "total_row_ft": 85.2, "roadbed_ft": 55.2, "median_ft": 0.0, "left_sw_ft": 15.0, "right_sw_ft": 15.0}, "geometry": {"type": "LineString", "coordinates": [[-73.80669219894831, 40.88632180145849], [-73.80666253854564, 40.88599320921316]]}}, {"type": "Feature", "properties": {"segment_id": 518512, "physicalid": "37480", "street_name": "NEW ENGLAND THRUWAY", "borough": "bronx", "direction": "TF", "total_row_ft": 84.9, "roadbed_ft": 54.9, "median_ft": 0.0, "left_sw_ft": 15.0, "right_sw_ft": 15.0}, "geometry": {"type": "LineString", "coordinates": [[-73.80662003687638, 40.88632555310922], [-73.80659037682875, 40.88599696084557]]}}, {"type": "Feature", "properties": {"segment_id": 518513, "physicalid": "37480", "street_name": "NEW ENGLAND THRUWAY", "borough": "bronx", "direction": "TF", "total_row_ft": 85.1, "roadbed_ft": 55.1, "median_ft": 0.0, "left_sw_ft": 15.0, "right_sw_ft": 15.0}, "geometry": {"type": "LineString", "coordinates": [[-73.80654787479632, 40.88632930471483], [-73.8065182151037, 40.88600071243285]]}}, {"type": "Feature", "properties": {"segment_id": 518514, "physicalid": "37480", "street_name": "NEW ENGLAND THRUWAY", "borough": "bronx", "direction": "TF", "total_row_ft": 85.2, "roadbed_ft": 55.2, "median_ft": 0.0, "left_sw_ft": 15.0, "right_sw_ft": 15.0}, "geometry": {"type": "LineString", "coordinates": [[-73.80647571270812, 40.886333056275305], [-73.80644605337051, 40.88600446397501]]}}, {"type": "Feature", "properties": {"segment_id": 518515, "physicalid": "37480", "street_name": "NEW ENGLAND THRUWAY", "borough": "bronx", "direction": "TF", "total_row_ft": 85.2, "roadbed_ft": 55.2, "median_ft": 0.0, "left_sw_ft": 15.0, "right_sw_ft": 15.0}, "geometry": {"type": "LineString", "coordinates": [[-73.80641595921021, 40.886337005005686], [-73.80636176489497, 40.886010220765684]]}}, {"type": "Feature", "properties": {"segment_id": 518516, "physicalid": "37480", "street_name": "NEW ENGLAND THRUWAY", "borough": "bronx", "direction": "TF", "total_row_ft": 85.2, "roadbed_ft": 55.2, "median_ft": 0.0, "left_sw_ft": 15.0, "right_sw_ft": 15.0}, "geometry": {"type": "LineString", "coordinates": [[-73.80634419417592, 40.8863438598907], [-73.80629000020791, 40.88601707561743]]}}, {"type": "Feature", "properties": {"segment_id": 518517, "physicalid": "37480", "street_name": "NEW ENGLAND THRUWAY", "borough": "bronx", "direction": "TF", "total_row_ft": 85.2, "roadbed_ft": 55.2, "median_ft": 0.0, "left_sw_ft": 15.0, "right_sw_ft": 15.0}, "geometry": {"type": "LineString", "coordinates": [[-73.80627242912689, 40.88635071473109], [-73.80621823550598, 40.88602393042455]]}}, {"type": "Feature", "properties": {"segment_id": 518518, "physicalid": "37480", "street_name": "NEW ENGLAND THRUWAY", "borough": "bronx", "direction": "TF", "total_row_ft": 85.4, "roadbed_ft": 55.4, "median_ft": 0.0, "left_sw_ft": 15.0, "right_sw_ft": 15.0}, "geometry": {"type": "LineString", "coordinates": [[-73.80620066406303, 40.88635756952687], [-73.80614647078932, 40.88603078518704]]}}, {"type": "Feature", "properties": {"segment_id": 518519, "physicalid": "37480", "street_name": "NEW ENGLAND THRUWAY", "borough": "bronx", "direction": "TF", "total_row_ft": 85.5, "roadbed_ft": 55.5, "median_ft": 0.0, "left_sw_ft": 15.0, "right_sw_ft": 15.0}, "geometry": {"type": "LineString", "coordinates": [[-73.80612889898434, 40.88636442427802], [-73.80607470605783, 40.88603763990489]]}}, {"type": "Feature", "properties": {"segment_id": 518520, "physicalid": "37480", "street_name": "NEW ENGLAND THRUWAY", "borough": "bronx", "direction": "TF", "total_row_ft": 85.7, "roadbed_ft": 55.7, "median_ft": 0.0, "left_sw_ft": 15.0, "right_sw_ft": 15.0}, "geometry": {"type": "LineString", "coordinates": [[-73.8060571338909, 40.88637127898453], [-73.80600294131153, 40.88604449457814]]}}, {"type": "Feature", "properties": {"segment_id": 518521, "physicalid": "37480", "street_name": "NEW ENGLAND THRUWAY", "borough": "bronx", "direction": "TF", "total_row_ft": 86.0, "roadbed_ft": 56.0, "median_ft": 0.0, "left_sw_ft": 15.0, "right_sw_ft": 15.0}, "geometry": {"type": "LineString", "coordinates": [[-73.80602189015487, 40.886380608087904], [-73.80589902123832, 40.88606472145988]]}}, {"type": "Feature", "properties": {"segment_id": 518522, "physicalid": "37480", "street_name": "NEW ENGLAND THRUWAY", "borough": "bronx", "direction": "TF", "total_row_ft": 86.1, "roadbed_ft": 56.1, "median_ft": 0.0, "left_sw_ft": 15.0, "right_sw_ft": 15.0}, "geometry": {"type": "LineString", "coordinates": [[-73.80595251829988, 40.88639614944509], [-73.80582964968423, 40.88608026274411]]}}, {"type": "Feature", "properties": {"segment_id": 518523, "physicalid": "37480", "street_name": "NEW ENGLAND THRUWAY", "borough": "bronx", "direction": "TF", "total_row_ft": 86.2, "roadbed_ft": 56.2, "median_ft": 0.0, "left_sw_ft": 15.0, "right_sw_ft": 15.0}, "geometry": {"type": "LineString", "coordinates": [[-73.80588314641244, 40.88641169076052], [-73.80576027809771, 40.886095803986606]]}}, {"type": "Feature", "properties": {"segment_id": 518524, "physicalid": "37480", "street_name": "NEW ENGLAND THRUWAY", "borough": "bronx", "direction": "TF", "total_row_ft": 86.3, "roadbed_ft": 56.3, "median_ft": 0.0, "left_sw_ft": 15.0, "right_sw_ft": 15.0}, "geometry": {"type": "LineString", "coordinates": [[-73.80581377449258, 40.88642723203422], [-73.80569090647876, 40.88611134518737]]}}, {"type": "Feature", "properties": {"segment_id": 518525, "physicalid": "37480", "street_name": "NEW ENGLAND THRUWAY", "borough": "bronx", "direction": "TF", "total_row_ft": 86.3, "roadbed_ft": 56.3, "median_ft": 0.0, "left_sw_ft": 15.0, "right_sw_ft": 15.0}, "geometry": {"type": "LineString", "coordinates": [[-73.80574440254028, 40.88644277326617], [-73.80562153482735, 40.88612688634637]]}}, {"type": "Feature", "properties": {"segment_id": 518526, "physicalid": "37480", "street_name": "NEW ENGLAND THRUWAY", "borough": "bronx", "direction": "TF", "total_row_ft": 86.3, "roadbed_ft": 56.3, "median_ft": 0.0, "left_sw_ft": 15.0, "right_sw_ft": 15.0}, "geometry": {"type": "LineString", "coordinates": [[-73.80567503055553, 40.886458314456405], [-73.80555216314355, 40.88614242746365]]}}, {"type": "Feature", "properties": {"segment_id": 518527, "physicalid": "37480", "street_name": "NEW ENGLAND THRUWAY", "borough": "bronx", "direction": "TF", "total_row_ft": 86.4, "roadbed_ft": 56.4, "median_ft": 0.0, "left_sw_ft": 15.0, "right_sw_ft": 15.0}, "geometry": {"type": "LineString", "coordinates": [[-73.80560565853838, 40.88647385560487], [-73.80548279142728, 40.8861579685392]]}}, {"type": "Feature", "properties": {"segment_id": 518528, "physicalid": "37480", "street_name": "NEW ENGLAND THRUWAY", "borough": "bronx", "direction": "TF", "total_row_ft": 86.5, "roadbed_ft": 56.5, "median_ft": 0.0, "left_sw_ft": 15.0, "right_sw_ft": 15.0}, "geometry": {"type": "LineString", "coordinates": [[-73.80553628648876, 40.88648939671162], [-73.8054134196786, 40.88617350957301]]}}, {"type": "Feature", "properties": {"segment_id": 518529, "physicalid": "37480", "street_name": "NEW ENGLAND THRUWAY", "borough": "bronx", "direction": "TF", "total_row_ft": 72.1, "roadbed_ft": 56.6, "median_ft": 0.0, "left_sw_ft": 15.0, "right_sw_ft": 0.4}, "geometry": {"type": "LineString", "coordinates": [[-73.8054597217067, 40.8864864455829], [-73.80534404789745, 40.88618905056508]]}}, {"type": "Feature", "properties": {"segment_id": 518530, "physicalid": "37480", "street_name": "NEW ENGLAND THRUWAY", "borough": "bronx", "direction": "TF", "total_row_ft": 94.3, "roadbed_ft": 64.3, "median_ft": 0.0, "left_sw_ft": 15.0, "right_sw_ft": 15.0}, "geometry": {"type": "LineString", "coordinates": [[-73.80539754229228, 40.886520478799895], [-73.8052746760839, 40.886204591515394]]}}, {"type": "Feature", "properties": {"segment_id": 518531, "physicalid": "37480", "street_name": "NEW ENGLAND THRUWAY", "borough": "bronx", "direction": "TF", "total_row_ft": 77.5, "roadbed_ft": 56.8, "median_ft": 0.0, "left_sw_ft": 15.0, "right_sw_ft": 5.7}, "geometry": {"type": "LineString", "coordinates": [[-73.80532272927277, 40.88652203140409], [-73.8052053042379, 40.88622013242398]]}}, {"type": "Feature", "properties": {"segment_id": 518532, "physicalid": "37480", "street_name": "NEW ENGLAND THRUWAY", "borough": "bronx", "direction": "TF", "total_row_ft": 87.0, "roadbed_ft": 57.0, "median_ft": 0.0, "left_sw_ft": 15.0, "right_sw_ft": 15.0}, "geometry": {"type": "LineString", "coordinates": [[-73.80525879796602, 40.886551560721195], [-73.80513593235946, 40.88623567329085]]}}, {"type": "Feature", "properties": {"segment_id": 518533, "physicalid": "37480", "street_name": "NEW ENGLAND THRUWAY", "borough": "bronx", "direction": "TF", "total_row_ft": 87.0, "roadbed_ft": 57.0, "median_ft": 0.0, "left_sw_ft": 15.0, "right_sw_ft": 15.0}, "geometry": {"type": "LineString", "coordinates": [[-73.80518942575425, 40.88656710161924], [-73.80506656044861, 40.88625121411596]]}}, {"type": "Feature", "properties": {"segment_id": 518534, "physicalid": "37480", "street_name": "NEW ENGLAND THRUWAY", "borough": "bronx", "direction": "TF", "total_row_ft": 87.2, "roadbed_ft": 57.2, "median_ft": 0.0, "left_sw_ft": 15.0, "right_sw_ft": 15.0}, "geometry": {"type": "LineString", "coordinates": [[-73.80512005351004, 40.88658264247554], [-73.80499718850531, 40.88626675489933]]}}, {"type": "Feature", "properties": {"segment_id": 518535, "physicalid": "37480", "street_name": "NEW ENGLAND THRUWAY", "borough": "bronx", "direction": "TF", "total_row_ft": 87.1, "roadbed_ft": 57.1, "median_ft": 0.0, "left_sw_ft": 15.0, "right_sw_ft": 15.0}, "geometry": {"type": "LineString", "coordinates": [[-73.80505068123338, 40.88659818329012], [-73.80492781652958, 40.88628229564095]]}}, {"type": "Feature", "properties": {"segment_id": 518536, "physicalid": "37480", "street_name": "NEW ENGLAND THRUWAY", "borough": "bronx", "direction": "TF", "total_row_ft": 87.2, "roadbed_ft": 57.2, "median_ft": 0.0, "left_sw_ft": 15.0, "right_sw_ft": 15.0}, "geometry": {"type": "LineString", "coordinates": [[-73.80498130892431, 40.88661372406295], [-73.80485844452141, 40.88629783634085]]}}, {"type": "Feature", "properties": {"segment_id": 925367, "physicalid": "64666", "street_name": "PARK DR", "borough": "bronx", "direction": "TW", "total_row_ft": 55.0, "roadbed_ft": 25.0, "median_ft": 0.0, "left_sw_ft": 15.0, "right_sw_ft": 15.0}, "geometry": {"type": "LineString", "coordinates": [[-73.8098982023066, 40.887422567142934], [-73.81003987241931, 40.887111247302165]]}}, {"type": "Feature", "properties": {"segment_id": 925368, "physicalid": "64666", "street_name": "PARK DR", "borough": "bronx", "direction": "TW", "total_row_ft": 55.0, "roadbed_ft": 25.0, "median_ft": 0.0, "left_sw_ft": 15.0, "right_sw_ft": 15.0}, "geometry": {"type": "LineString", "coordinates": [[-73.80982983231821, 40.88740464791447], [-73.8099715027129, 40.887093328156595]]}}, {"type": "Feature", "properties": {"segment_id": 925369, "physicalid": "64666", "street_name": "PARK DR", "borough": "bronx", "direction": "TW", "total_row_ft": 54.9, "roadbed_ft": 24.9, "median_ft": 0.0, "left_sw_ft": 15.0, "right_sw_ft": 15.0}, "geometry": {"type": "LineString", "coordinates": [[-73.80976146236667, 40.88738672864545], [-73.80990313304333, 40.88707540897046]]}}, {"type": "Feature", "properties": {"segment_id": 925370, "physicalid": "64666", "street_name": "PARK DR", "borough": "bronx", "direction": "TW", "total_row_ft": 54.8, "roadbed_ft": 24.8, "median_ft": 0.0, "left_sw_ft": 15.0, "right_sw_ft": 15.0}, "geometry": {"type": "LineString", "coordinates": [[-73.80969309245198, 40.887368809335875], [-73.80983476341065, 40.887057489743775]]}}, {"type": "Feature", "properties": {"segment_id": 925371, "physicalid": "64666", "street_name": "PARK DR", "borough": "bronx", "direction": "TW", "total_row_ft": 54.7, "roadbed_ft": 24.7, "median_ft": 0.0, "left_sw_ft": 15.0, "right_sw_ft": 15.0}, "geometry": {"type": "LineString", "coordinates": [[-73.80962459949396, 40.887350832106556], [-73.80976653771738, 40.88703958264588]]}}, {"type": "Feature", "properties": {"segment_id": 925372, "physicalid": "64666", "street_name": "PARK DR", "borough": "bronx", "direction": "TW", "total_row_ft": 54.5, "roadbed_ft": 24.5, "median_ft": 0.0, "left_sw_ft": 15.0, "right_sw_ft": 15.0}, "geometry": {"type": "LineString", "coordinates": [[-73.80955624503675, 40.88733287894642], [-73.80969818354187, 40.88702162956875]]}}, {"type": "Feature", "properties": {"segment_id": 925373, "physicalid": "64666", "street_name": "PARK DR", "borough": "bronx", "direction": "TW", "total_row_ft": 54.2, "roadbed_ft": 24.2, "median_ft": 0.0, "left_sw_ft": 15.0, "right_sw_ft": 15.0}, "geometry": {"type": "LineString", "coordinates": [[-73.80948789061644, 40.88731492574571], [-73.80962982940328, 40.88700367645108]]}}, {"type": "Feature", "properties": {"segment_id": 925374, "physicalid": "64666", "street_name": "PARK DR", "borough": "bronx", "direction": "TW", "total_row_ft": 53.9, "roadbed_ft": 23.9, "median_ft": 0.0, "left_sw_ft": 15.0, "right_sw_ft": 15.0}, "geometry": {"type": "LineString", "coordinates": [[-73.80941953623304, 40.887296972504465], [-73.80956147530162, 40.886985723292874]]}}, {"type": "Feature", "properties": {"segment_id": 925375, "physicalid": "64666", "street_name": "PARK DR", "borough": "bronx", "direction": "TW", "total_row_ft": 53.6, "roadbed_ft": 23.6, "median_ft": 0.0, "left_sw_ft": 15.0, "right_sw_ft": 15.0}, "geometry": {"type": "LineString", "coordinates": [[-73.80935118188661, 40.88727901922272], [-73.80949312123686, 40.886967770094124]]}}, {"type": "Feature", "properties": {"segment_id": 925376, "physicalid": "64666", "street_name": "PARK DR", "borough": "bronx", "direction": "TW", "total_row_ft": 53.3, "roadbed_ft": 23.3, "median_ft": 0.0, "left_sw_ft": 15.0, "right_sw_ft": 15.0}, "geometry": {"type": "LineString", "coordinates": [[-73.80928282757706, 40.8872610659004], [-73.80942476720902, 40.886949816854845]]}}, {"type": "Feature", "properties": {"segment_id": 925377, "physicalid": "64666", "street_name": "PARK DR", "borough": "bronx", "direction": "TW", "total_row_ft": 53.0, "roadbed_ft": 23.0, "median_ft": 0.0, "left_sw_ft": 15.0, "right_sw_ft": 15.0}, "geometry": {"type": "LineString", "coordinates": [[-73.80921447330444, 40.887243112537554], [-73.80935641321811, 40.88693186357502]]}}, {"type": "Feature", "properties": {"segment_id": 925378, "physicalid": "64666", "street_name": "PARK DR", "borough": "bronx", "direction": "TW", "total_row_ft": 52.7, "roadbed_ft": 22.7, "median_ft": 0.0, "left_sw_ft": 15.0, "right_sw_ft": 15.0}, "geometry": {"type": "LineString", "coordinates": [[-73.80914611906876, 40.88722515913416], [-73.8092880592641, 40.88691391025464]]}}, {"type": "Feature", "properties": {"segment_id": 925379, "physicalid": "64666", "street_name": "PARK DR", "borough": "bronx", "direction": "TW", "total_row_ft": 52.4, "roadbed_ft": 22.4, "median_ft": 0.0, "left_sw_ft": 15.0, "right_sw_ft": 15.0}, "geometry": {"type": "LineString", "coordinates": [[-73.80907776486997, 40.88720720569026], [-73.80921970534703, 40.88689595689376]]}}, {"type": "Feature", "properties": {"segment_id": 925380, "physicalid": "64666", "street_name": "PARK DR", "borough": "bronx", "direction": "TW", "total_row_ft": 52.2, "roadbed_ft": 22.2, "median_ft": 0.0, "left_sw_ft": 15.0, "right_sw_ft": 15.0}, "geometry": {"type": "LineString", "coordinates": [[-73.80900941070811, 40.887189252205786], [-73.80915135146687, 40.886878003492306]]}}, {"type": "Feature", "properties": {"segment_id": 925381, "physicalid": "64666", "street_name": "PARK DR", "borough": "bronx", "direction": "TW", "total_row_ft": 52.5, "roadbed_ft": 22.5, "median_ft": 0.0, "left_sw_ft": 15.0, "right_sw_ft": 15.0}, "geometry": {"type": "LineString", "coordinates": [[-73.8089410565832, 40.88717129868079], [-73.8090829976236, 40.886860050050316]]}}, {"type": "Feature", "properties": {"segment_id": 925401, "physicalid": "64670", "street_name": "PARK DR", "borough": "bronx", "direction": "TW", "total_row_ft": 57.0, "roadbed_ft": 27.0, "median_ft": 0.0, "left_sw_ft": 15.0, "right_sw_ft": 15.0}, "geometry": {"type": "LineString", "coordinates": [[-73.80881972680778, 40.88713872757862], [-73.80896806938848, 40.886829203052315]]}}, {"type": "Feature", "properties": {"segment_id": 925402, "physicalid": "64670", "street_name": "PARK DR", "borough": "bronx", "direction": "TW", "total_row_ft": 50.4, "roadbed_ft": 20.4, "median_ft": 0.0, "left_sw_ft": 15.0, "right_sw_ft": 15.0}, "geometry": {"type": "LineString", "coordinates": [[-73.80875175139099, 40.88711996429966], [-73.80890009424631, 40.88681043985965]]}}, {"type": "Feature", "properties": {"segment_id": 925403, "physicalid": "64670", "street_name": "PARK DR", "borough": "bronx", "direction": "TW", "total_row_ft": 49.7, "roadbed_ft": 19.7, "median_ft": 0.0, "left_sw_ft": 15.0, "right_sw_ft": 15.0}, "geometry": {"type": "LineString", "coordinates": [[-73.80868377601257, 40.88710120098062], [-73.80883211914251, 40.88679167662691]]}}, {"type": "Feature", "properties": {"segment_id": 925404, "physicalid": "64670", "street_name": "PARK DR", "borough": "bronx", "direction": "TW", "total_row_ft": 49.4, "roadbed_ft": 19.4, "median_ft": 0.0, "left_sw_ft": 15.0, "right_sw_ft": 15.0}, "geometry": {"type": "LineString", "coordinates": [[-73.8086158006725, 40.88708243762148], [-73.8087641440771, 40.88677291335405]]}}, {"type": "Feature", "properties": {"segment_id": 925405, "physicalid": "64670", "street_name": "PARK DR", "borough": "bronx", "direction": "TW", "total_row_ft": 49.2, "roadbed_ft": 19.2, "median_ft": 0.0, "left_sw_ft": 15.0, "right_sw_ft": 15.0}, "geometry": {"type": "LineString", "coordinates": [[-73.80854782537082, 40.887063674222226], [-73.80869616905004, 40.8867541500411]]}}, {"type": "Feature", "properties": {"segment_id": 925406, "physicalid": "64670", "street_name": "PARK DR", "borough": "bronx", "direction": "TW", "total_row_ft": 48.8, "roadbed_ft": 18.8, "median_ft": 0.0, "left_sw_ft": 15.0, "right_sw_ft": 15.0}, "geometry": {"type": "LineString", "coordinates": [[-73.80847985010752, 40.8870449107829], [-73.80862819406136, 40.88673538668805]]}}, {"type": "Feature", "properties": {"segment_id": 925407, "physicalid": "64670", "street_name": "PARK DR", "borough": "bronx", "direction": "TW", "total_row_ft": 48.4, "roadbed_ft": 18.4, "median_ft": 0.0, "left_sw_ft": 15.0, "right_sw_ft": 15.0}, "geometry": {"type": "LineString", "coordinates": [[-73.8084118748826, 40.88702614730347], [-73.80856021911103, 40.886716623294895]]}}, {"type": "Feature", "properties": {"segment_id": 925408, "physicalid": "64670", "street_name": "PARK DR", "borough": "bronx", "direction": "TW", "total_row_ft": 48.1, "roadbed_ft": 18.1, "median_ft": 0.0, "left_sw_ft": 15.0, "right_sw_ft": 15.0}, "geometry": {"type": "LineString", "coordinates": [[-73.80834389969603, 40.887007383783946], [-73.80849224419909, 40.886697859861656]]}}, {"type": "Feature", "properties": {"segment_id": 925409, "physicalid": "64670", "street_name": "PARK DR", "borough": "bronx", "direction": "TW", "total_row_ft": 48.5, "roadbed_ft": 18.5, "median_ft": 0.0, "left_sw_ft": 15.0, "right_sw_ft": 15.0}, "geometry": {"type": "LineString", "coordinates": [[-73.80827592454783, 40.88698862022431], [-73.80842426932551, 40.8866790963883]]}}, {"type": "Feature", "properties": {"segment_id": 925410, "physicalid": "64670", "street_name": "PARK DR", "borough": "bronx", "direction": "TW", "total_row_ft": 49.0, "roadbed_ft": 19.0, "median_ft": 0.0, "left_sw_ft": 15.0, "right_sw_ft": 15.0}, "geometry": {"type": "LineString", "coordinates": [[-73.80820794943801, 40.88696985662458], [-73.80835629449031, 40.886660332874875]]}}, {"type": "Feature", "properties": {"segment_id": 925411, "physicalid": "64670", "street_name": "PARK DR", "borough": "bronx", "direction": "TW", "total_row_ft": 49.4, "roadbed_ft": 19.4, "median_ft": 0.0, "left_sw_ft": 15.0, "right_sw_ft": 15.0}, "geometry": {"type": "LineString", "coordinates": [[-73.80813997436657, 40.886951092984766], [-73.80828831969347, 40.88664156932135]]}}, {"type": "Feature", "properties": {"segment_id": 925412, "physicalid": "64670", "street_name": "PARK DR", "borough": "bronx", "direction": "TW", "total_row_ft": 49.5, "roadbed_ft": 19.5, "median_ft": 0.0, "left_sw_ft": 15.0, "right_sw_ft": 15.0}, "geometry": {"type": "LineString", "coordinates": [[-73.80807199933349, 40.88693232930484], [-73.80822034493502, 40.8866228057277]]}}, {"type": "Feature", "properties": {"segment_id": 925413, "physicalid": "64670", "street_name": "PARK DR", "borough": "bronx", "direction": "TW", "total_row_ft": 49.6, "roadbed_ft": 19.6, "median_ft": 0.0, "left_sw_ft": 15.0, "right_sw_ft": 15.0}, "geometry": {"type": "LineString", "coordinates": [[-73.80800402433879, 40.88691356558484], [-73.80815237021493, 40.886604042093985]]}}, {"type": "Feature", "properties": {"segment_id": 925414, "physicalid": "64670", "street_name": "PARK DR", "borough": "bronx", "direction": "TW", "total_row_ft": 49.6, "roadbed_ft": 19.6, "median_ft": 0.0, "left_sw_ft": 15.0, "right_sw_ft": 15.0}, "geometry": {"type": "LineString", "coordinates": [[-73.80793604938246, 40.88689480182472], [-73.80808439553321, 40.886585278420156]]}}, {"type": "Feature", "properties": {"segment_id": 925415, "physicalid": "64670", "street_name": "PARK DR", "borough": "bronx", "direction": "TW", "total_row_ft": 49.6, "roadbed_ft": 19.6, "median_ft": 0.0, "left_sw_ft": 15.0, "right_sw_ft": 15.0}, "geometry": {"type": "LineString", "coordinates": [[-73.8078680744645, 40.88687603802453], [-73.80801642088987, 40.88656651470624]]}}, {"type": "Feature", "properties": {"segment_id": 925416, "physicalid": "64670", "street_name": "PARK DR", "borough": "bronx", "direction": "TW", "total_row_ft": 49.7, "roadbed_ft": 19.7, "median_ft": 0.0, "left_sw_ft": 15.0, "right_sw_ft": 15.0}, "geometry": {"type": "LineString", "coordinates": [[-73.8078000995849, 40.886857274184216], [-73.80794844628491, 40.886547750952246]]}}, {"type": "Feature", "properties": {"segment_id": 925417, "physicalid": "64671", "street_name": "PARK DR", "borough": "bronx", "direction": "TW", "total_row_ft": 77.1, "roadbed_ft": 30.4, "median_ft": 0.0, "left_sw_ft": 31.7, "right_sw_ft": 15.0}, "geometry": {"type": "LineString", "coordinates": [[-73.80766694987136, 40.886796393166186], [-73.80778632331663, 40.886505259101824]]}}, {"type": "Feature", "properties": {"segment_id": 925418, "physicalid": "64671", "street_name": "PARK DR", "borough": "bronx", "direction": "TW", "total_row_ft": 47.5, "roadbed_ft": 24.6, "median_ft": 0.0, "left_sw_ft": 7.9, "right_sw_ft": 15.0}, "geometry": {"type": "LineString", "coordinates": [[-73.80763083509099, 40.88669972241915], [-73.80771725851913, 40.8864889488068]]}}, {"type": "Feature", "properties": {"segment_id": 925419, "physicalid": "64671", "street_name": "PARK DR", "borough": "bronx", "direction": "TW", "total_row_ft": 49.1, "roadbed_ft": 24.7, "median_ft": 0.0, "left_sw_ft": 9.4, "right_sw_ft": 15.0}, "geometry": {"type": "LineString", "coordinates": [[-73.80756113620566, 40.88668495806672], [-73.80764819375548, 40.8864726384704]]}}, {"type": "Feature", "properties": {"segment_id": 925420, "physicalid": "64671", "street_name": "PARK DR", "borough": "bronx", "direction": "TW", "total_row_ft": 47.0, "roadbed_ft": 25.1, "median_ft": 0.0, "left_sw_ft": 7.0, "right_sw_ft": 15.0}, "geometry": {"type": "LineString", "coordinates": [[-73.8074953202319, 40.88666072399531], [-73.80757912902577, 40.886456328092606]]}}, {"type": "Feature", "properties": {"segment_id": 925421, "physicalid": "64671", "street_name": "PARK DR", "borough": "bronx", "direction": "TW", "total_row_ft": 55.6, "roadbed_ft": 25.6, "median_ft": 0.0, "left_sw_ft": 15.0, "right_sw_ft": 15.0}, "geometry": {"type": "LineString", "coordinates": [[-73.80738111393171, 40.886754505200415], [-73.80751006432988, 40.88644001767345]]}}, {"type": "Feature", "properties": {"segment_id": 925422, "physicalid": "64671", "street_name": "PARK DR", "borough": "bronx", "direction": "TW", "total_row_ft": 56.1, "roadbed_ft": 26.1, "median_ft": 0.0, "left_sw_ft": 15.0, "right_sw_ft": 15.0}, "geometry": {"type": "LineString", "coordinates": [[-73.80731204897465, 40.88673819466367], [-73.80744099966793, 40.88642370721296]]}}, {"type": "Feature", "properties": {"segment_id": 925423, "physicalid": "64671", "street_name": "PARK DR", "borough": "bronx", "direction": "TW", "total_row_ft": 56.6, "roadbed_ft": 26.6, "median_ft": 0.0, "left_sw_ft": 15.0, "right_sw_ft": 15.0}, "geometry": {"type": "LineString", "coordinates": [[-73.80724298405151, 40.88672188408557], [-73.80737193503985, 40.88640739671103]]}}, {"type": "Feature", "properties": {"segment_id": 925424, "physicalid": "64671", "street_name": "PARK DR", "borough": "bronx", "direction": "TW", "total_row_ft": 56.8, "roadbed_ft": 26.8, "median_ft": 0.0, "left_sw_ft": 15.0, "right_sw_ft": 15.0}, "geometry": {"type": "LineString", "coordinates": [[-73.80717391916221, 40.88670557346607], [-73.8073028704457, 40.88639108616778]]}}, {"type": "Feature", "properties": {"segment_id": 925425, "physicalid": "64671", "street_name": "PARK DR", "borough": "bronx", "direction": "TW", "total_row_ft": 56.8, "roadbed_ft": 26.8, "median_ft": 0.0, "left_sw_ft": 15.0, "right_sw_ft": 15.0}, "geometry": {"type": "LineString", "coordinates": [[-73.80710485430684, 40.8866892628052], [-73.80723380588539, 40.886374775583114]]}}, {"type": "Feature", "properties": {"segment_id": 925426, "physicalid": "64671", "street_name": "PARK DR", "borough": "bronx", "direction": "TW", "total_row_ft": 56.4, "roadbed_ft": 26.4, "median_ft": 0.0, "left_sw_ft": 15.0, "right_sw_ft": 15.0}, "geometry": {"type": "LineString", "coordinates": [[-73.80703578948535, 40.88667295210296], [-73.80716474135899, 40.8863584649571]]}}, {"type": "Feature", "properties": {"segment_id": 925427, "physicalid": "64671", "street_name": "PARK DR", "borough": "bronx", "direction": "TW", "total_row_ft": 56.0, "roadbed_ft": 26.0, "median_ft": 0.0, "left_sw_ft": 15.0, "right_sw_ft": 15.0}, "geometry": {"type": "LineString", "coordinates": [[-73.80696672469777, 40.88665664135935], [-73.80709567686647, 40.88634215428968]]}}, {"type": "Feature", "properties": {"segment_id": 925428, "physicalid": "64671", "street_name": "PARK DR", "borough": "bronx", "direction": "TW", "total_row_ft": 55.5, "roadbed_ft": 25.5, "median_ft": 0.0, "left_sw_ft": 15.0, "right_sw_ft": 15.0}, "geometry": {"type": "LineString", "coordinates": [[-73.80689765994408, 40.88664033057437], [-73.80702661240782, 40.88632584358091]]}}, {"type": "Feature", "properties": {"segment_id": 925429, "physicalid": "64671", "street_name": "PARK DR", "borough": "bronx", "direction": "TW", "total_row_ft": 55.1, "roadbed_ft": 25.1, "median_ft": 0.0, "left_sw_ft": 15.0, "right_sw_ft": 15.0}, "geometry": {"type": "LineString", "coordinates": [[-73.80682859522423, 40.88662401974801], [-73.80695754798313, 40.886309532830765]]}}, {"type": "Feature", "properties": {"segment_id": 925430, "physicalid": "64671", "street_name": "PARK DR", "borough": "bronx", "direction": "TW", "total_row_ft": 53.8, "roadbed_ft": 23.8, "median_ft": 0.0, "left_sw_ft": 15.0, "right_sw_ft": 15.0}, "geometry": {"type": "LineString", "coordinates": [[-73.80675953053834, 40.886607708880284], [-73.80688848359223, 40.88629322203923]]}}, {"type": "Feature", "properties": {"segment_id": 925431, "physicalid": "64671", "street_name": "PARK DR", "borough": "bronx", "direction": "TW", "total_row_ft": 52.8, "roadbed_ft": 22.8, "median_ft": 0.0, "left_sw_ft": 15.0, "right_sw_ft": 15.0}, "geometry": {"type": "LineString", "coordinates": [[-73.80669046588629, 40.886591397971166], [-73.80681941923531, 40.88627691120634]]}}, {"type": "Feature", "properties": {"segment_id": 925432, "physicalid": "64671", "street_name": "PARK DR", "borough": "bronx", "direction": "TW", "total_row_ft": 52.5, "roadbed_ft": 22.5, "median_ft": 0.0, "left_sw_ft": 15.0, "right_sw_ft": 15.0}, "geometry": {"type": "LineString", "coordinates": [[-73.80662140126817, 40.88657508702069], [-73.80675035491223, 40.886260600332065]]}}, {"type": "Feature", "properties": {"segment_id": 1293017, "physicalid": "88390", "street_name": "OAK LN", "borough": "bronx", "direction": "TW", "total_row_ft": 73.2, "roadbed_ft": 28.0, "median_ft": 0.0, "left_sw_ft": 15.0, "right_sw_ft": 30.3}, "geometry": {"type": "LineString", "coordinates": [[-73.80795784116216, 40.8867710388415], [-73.80755140863775, 40.88665554449875]]}}, {"type": "Feature", "properties": {"segment_id": 1293018, "physicalid": "88390", "street_name": "OAK LN", "borough": "bronx", "direction": "TW", "total_row_ft": 43.2, "roadbed_ft": 20.8, "median_ft": 0.0, "left_sw_ft": 15.0, "right_sw_ft": 7.4}, "geometry": {"type": "LineString", "coordinates": [[-73.8079324774392, 40.88682244699844], [-73.80766234362152, 40.88674568432364]]}}, {"type": "Feature", "properties": {"segment_id": 1293019, "physicalid": "88390", "street_name": "OAK LN", "borough": "bronx", "direction": "TW", "total_row_ft": 44.3, "roadbed_ft": 21.1, "median_ft": 0.0, "left_sw_ft": 15.0, "right_sw_ft": 8.3}, "geometry": {"type": "LineString", "coordinates": [[-73.80790711367702, 40.886873855149325], [-73.8076348517565, 40.88679648773054]]}}, {"type": "Feature", "properties": {"segment_id": 1293020, "physicalid": "88390", "street_name": "OAK LN", "borough": "bronx", "direction": "TW", "total_row_ft": 45.4, "roadbed_ft": 21.7, "median_ft": 0.0, "left_sw_ft": 15.0, "right_sw_ft": 8.7}, "geometry": {"type": "LineString", "coordinates": [[-73.80788174987559, 40.88692526329415], [-73.8076073598495, 40.88684729113044]]}}, {"type": "Feature", "properties": {"segment_id": 1293021, "physicalid": "88390", "street_name": "OAK LN", "borough": "bronx", "direction": "TW", "total_row_ft": 46.5, "roadbed_ft": 22.3, "median_ft": 0.0, "left_sw_ft": 15.0, "right_sw_ft": 9.2}, "geometry": {"type": "LineString", "coordinates": [[-73.80785638603496, 40.8869766714329], [-73.80757986790046, 40.88689809452328]]}}, {"type": "Feature", "properties": {"segment_id": 1293022, "physicalid": "88390", "street_name": "OAK LN", "borough": "bronx", "direction": "TW", "total_row_ft": 47.5, "roadbed_ft": 22.9, "median_ft": 0.0, "left_sw_ft": 15.0, "right_sw_ft": 9.7}, "geometry": {"type": "LineString", "coordinates": [[-73.80783102215509, 40.88702807956561], [-73.80755237553976, 40.88694889780407]]}}, {"type": "Feature", "properties": {"segment_id": 1293023, "physicalid": "88390", "street_name": "OAK LN", "borough": "bronx", "direction": "TW", "total_row_ft": 48.4, "roadbed_ft": 23.3, "median_ft": 0.0, "left_sw_ft": 15.0, "right_sw_ft": 10.1}, "geometry": {"type": "LineString", "coordinates": [[-73.80780565823596, 40.887079487692276], [-73.80752537958335, 40.886999842151525]]}}, {"type": "Feature", "properties": {"segment_id": 1407390, "physicalid": "95424", "street_name": "RIDGE PL", "borough": "bronx", "direction": "TW", "total_row_ft": 58.4, "roadbed_ft": 28.4, "median_ft": 0.0, "left_sw_ft": 15.0, "right_sw_ft": 15.0}, "geometry": {"type": "LineString", "coordinates": [[-73.80913155378039, 40.88709155054249], [-73.80872218205508, 40.88698219402493]]}}, {"type": "Feature", "properties": {"segment_id": 1407391, "physicalid": "95424", "street_name": "RIDGE PL", "borough": "bronx", "direction": "TW", "total_row_ft": 53.1, "roadbed_ft": 23.1, "median_ft": 0.0, "left_sw_ft": 15.0, "right_sw_ft": 15.0}, "geometry": {"type": "LineString", "coordinates": [[-73.80910753787903, 40.88714333021099], [-73.80869816587438, 40.88703397360928]]}}, {"type": "Feature", "properties": {"segment_id": 1407392, "physicalid": "95424", "street_name": "RIDGE PL", "borough": "bronx", "direction": "TW", "total_row_ft": 52.8, "roadbed_ft": 22.8, "median_ft": 0.0, "left_sw_ft": 15.0, "right_sw_ft": 15.0}, "geometry": {"type": "LineString", "coordinates": [[-73.80908352194027, 40.88719510987398], [-73.80867414965627, 40.88708575318814]]}}, {"type": "Feature", "properties": {"segment_id": 1407393, "physicalid": "95424", "street_name": "RIDGE PL", "borough": "bronx", "direction": "TW", "total_row_ft": 53.0, "roadbed_ft": 23.0, "median_ft": 0.0, "left_sw_ft": 15.0, "right_sw_ft": 15.0}, "geometry": {"type": "LineString", "coordinates": [[-73.8090595059641, 40.887246889531454], [-73.80865013340075, 40.88713753276153]]}}, {"type": "Feature", "properties": {"segment_id": 1407394, "physicalid": "95424", "street_name": "RIDGE PL", "borough": "bronx", "direction": "TW", "total_row_ft": 53.4, "roadbed_ft": 23.4, "median_ft": 0.0, "left_sw_ft": 15.0, "right_sw_ft": 15.0}, "geometry": {"type": "LineString", "coordinates": [[-73.8090354899505, 40.88729866918347], [-73.8086261171078, 40.8871893123294]]}}, {"type": "Feature", "properties": {"segment_id": 1407395, "physicalid": "95424", "street_name": "RIDGE PL", "borough": "bronx", "direction": "TW", "total_row_ft": 53.9, "roadbed_ft": 23.9, "median_ft": 0.0, "left_sw_ft": 15.0, "right_sw_ft": 15.0}, "geometry": {"type": "LineString", "coordinates": [[-73.80901147389952, 40.88735044882998], [-73.80860210077746, 40.88724109189176]]}}, {"type": "Feature", "properties": {"segment_id": 1407396, "physicalid": "95424", "street_name": "RIDGE PL", "borough": "bronx", "direction": "TW", "total_row_ft": 54.3, "roadbed_ft": 24.3, "median_ft": 0.0, "left_sw_ft": 15.0, "right_sw_ft": 15.0}, "geometry": {"type": "LineString", "coordinates": [[-73.8089874578111, 40.88740222847098], [-73.8085780844097, 40.88729287144864]]}}, {"type": "Feature", "properties": {"segment_id": 1407397, "physicalid": "95424", "street_name": "RIDGE PL", "borough": "bronx", "direction": "TW", "total_row_ft": 54.5, "roadbed_ft": 24.5, "median_ft": 0.0, "left_sw_ft": 15.0, "right_sw_ft": 15.0}, "geometry": {"type": "LineString", "coordinates": [[-73.80896344168528, 40.88745400810651], [-73.80855406800453, 40.88734465100004]]}}, {"type": "Feature", "properties": {"segment_id": 1463809, "physicalid": "98886", "street_name": "EDGEMERE ST", "borough": "bronx", "direction": "TW", "total_row_ft": 44.8, "roadbed_ft": 21.5, "median_ft": 0.0, "left_sw_ft": 15.0, "right_sw_ft": 8.4}, "geometry": {"type": "LineString", "coordinates": [[-73.80678000328568, 40.88649373671906], [-73.80649594868531, 40.88641176744892]]}}, {"type": "Feature", "properties": {"segment_id": 1463810, "physicalid": "98886", "street_name": "EDGEMERE ST", "borough": "bronx", "direction": "TW", "total_row_ft": 45.0, "roadbed_ft": 21.7, "median_ft": 0.0, "left_sw_ft": 15.0, "right_sw_ft": 8.3}, "geometry": {"type": "LineString", "coordinates": [[-73.80675429605294, 40.886545046479526], [-73.8064714194479, 40.8864634171355]]}}, {"type": "Feature", "properties": {"segment_id": 1463811, "physicalid": "98886", "street_name": "EDGEMERE ST", "borough": "bronx", "direction": "TW", "total_row_ft": 45.5, "roadbed_ft": 22.0, "median_ft": 0.0, "left_sw_ft": 15.0, "right_sw_ft": 8.4}, "geometry": {"type": "LineString", "coordinates": [[-73.80672858878049, 40.88659635623378], [-73.80644700790144, 40.886515100789474]]}}, {"type": "Feature", "properties": {"segment_id": 1463812, "physicalid": "98886", "street_name": "EDGEMERE ST", "borough": "bronx", "direction": "TW", "total_row_ft": 45.9, "roadbed_ft": 22.4, "median_ft": 0.0, "left_sw_ft": 15.0, "right_sw_ft": 8.6}, "geometry": {"type": "LineString", "coordinates": [[-73.8067028814684, 40.88664766598181], [-73.80642259631702, 40.886566784437804]]}}, {"type": "Feature", "properties": {"segment_id": 1463813, "physicalid": "98886", "street_name": "EDGEMERE ST", "borough": "bronx", "direction": "TW", "total_row_ft": 46.4, "roadbed_ft": 22.7, "median_ft": 0.0, "left_sw_ft": 15.0, "right_sw_ft": 8.7}, "geometry": {"type": "LineString", "coordinates": [[-73.80667717411661, 40.886698975723625], [-73.80639818469463, 40.88661846808048]]}}, {"type": "Feature", "properties": {"segment_id": 1463814, "physicalid": "98886", "street_name": "EDGEMERE ST", "borough": "bronx", "direction": "TW", "total_row_ft": 46.8, "roadbed_ft": 23.1, "median_ft": 0.0, "left_sw_ft": 15.0, "right_sw_ft": 8.8}, "geometry": {"type": "LineString", "coordinates": [[-73.80665146672514, 40.88675028545921], [-73.80637377303428, 40.88667015171751]]}}, {"type": "Feature", "properties": {"segment_id": 1463815, "physicalid": "98886", "street_name": "EDGEMERE ST", "borough": "bronx", "direction": "TW", "total_row_ft": 47.3, "roadbed_ft": 23.4, "median_ft": 0.0, "left_sw_ft": 15.0, "right_sw_ft": 8.9}, "geometry": {"type": "LineString", "coordinates": [[-73.806625759294, 40.88680159518858], [-73.80634936133599, 40.88672183534888]]}}, {"type": "Feature", "properties": {"segment_id": 1516117, "physicalid": "102166", "street_name": "TERRACE PL", "borough": "bronx", "direction": "TW", "total_row_ft": 54.4, "roadbed_ft": 24.4, "median_ft": 0.0, "left_sw_ft": 15.0, "right_sw_ft": 15.0}, "geometry": {"type": "LineString", "coordinates": [[-73.81018821561965, 40.88759726806974], [-73.80977569207116, 40.88749495302932]]}}, {"type": "Feature", "properties": {"segment_id": 1516118, "physicalid": "102166", "street_name": "TERRACE PL", "borough": "bronx", "direction": "TW", "total_row_ft": 54.1, "roadbed_ft": 24.1, "median_ft": 0.0, "left_sw_ft": 15.0, "right_sw_ft": 15.0}, "geometry": {"type": "LineString", "coordinates": [[-73.81016574594415, 40.88764944599177], [-73.80975322210647, 40.88754713087202]]}}, {"type": "Feature", "properties": {"segment_id": 1516119, "physicalid": "102166", "street_name": "TERRACE PL", "borough": "bronx", "direction": "TW", "total_row_ft": 53.9, "roadbed_ft": 23.9, "median_ft": 0.0, "left_sw_ft": 15.0, "right_sw_ft": 15.0}, "geometry": {"type": "LineString", "coordinates": [[-73.81014327623339, 40.887701623908875], [-73.80973075210647, 40.887599308709895]]}}]}