{"type": "FeatureCollection", "features": [{"type": "Feature", "properties": {"segment_id": 1296673, "physicalid": "88604", "street_name": "LOCUST AVE", "borough": "bronx", "direction": "TW", "total_row_ft": 150.0, "roadbed_ft": 120.0, "median_ft": 0.0, "left_sw_ft": 15.0, "right_sw_ft": 15.0}, "geometry": {"type": "LineString", "coordinates": [[-73.90982202377197, 40.79989565026737], [-73.90947725790606, 40.79969604689389]]}}, {"type": "Feature", "properties": {"segment_id": 1296674, "physicalid": "88604", "street_name": "LOCUST AVE", "borough": "bronx", "direction": "TW", "total_row_ft": 120.0, "roadbed_ft": 35.8, "median_ft": 0.0, "left_sw_ft": 42.4, "right_sw_ft": 41.8}, "geometry": {"type": "LineString", "coordinates": [[-73.90977824656676, 40.79993931612352], [-73.90943348060597, 40.79973971262048]]}}, {"type": "Feature", "properties": {"segment_id": 1296675, "physicalid": "88604", "street_name": "LOCUST AVE", "borough": "bronx", "direction": "TW", "total_row_ft": 59.3, "roadbed_ft": 35.5, "median_ft": 0.0, "left_sw_ft": 11.8, "right_sw_ft": 12.0}, "geometry": {"type": "LineString", "coordinates": [[-73.90964590408556, 40.799931707002465], [-73.9094754259142, 40.79983300800554]]}}, {"type": "Feature", "properties": {"segment_id": 1296676, "physicalid": "88604", "street_name": "LOCUST AVE", "borough": "bronx", "direction": "TW", "total_row_ft": 59.4, "roadbed_ft": 35.3, "median_ft": 0.0, "left_sw_ft": 12.0, "right_sw_ft": 12.1}, "geometry": {"type": "LineString", "coordinates": [[-73.90960206686363, 40.799975338125236], [-73.90943147920935, 40.79987657570551]]}}, {"type": "Feature", "properties": {"segment_id": 1296677, "physicalid": "88604", "street_name": "LOCUST AVE", "borough": "bronx", "direction": "TW", "total_row_ft": 59.4, "roadbed_ft": 35.0, "median_ft": 0.0, "left_sw_ft": 12.2, "right_sw_ft": 12.2}, "geometry": {"type": "LineString", "coordinates": [[-73.9095582295842, 40.80001896923105], [-73.909387532447, 40.79992014338839]]}}, {"type": "Feature", "properties": {"segment_id": 1296692, "physicalid": "88605", "street_name": "LOCUST AVE", "borough": "bronx", "direction": "TW", "total_row_ft": 59.4, "roadbed_ft": 30.6, "median_ft": 0.0, "left_sw_ft": 14.7, "right_sw_ft": 14.1}, "geometry": {"type": "LineString", "coordinates": [[-73.91007413323184, 40.799510209998644], [-73.90990413263188, 40.7994106200481]]}}, {"type": "Feature", "properties": {"segment_id": 1296693, "physicalid": "88605", "street_name": "LOCUST AVE", "borough": "bronx", "direction": "TW", "total_row_ft": 59.4, "roadbed_ft": 30.7, "median_ft": 0.0, "left_sw_ft": 14.5, "right_sw_ft": 14.3}, "geometry": {"type": "LineString", "coordinates": [[-73.91002977167291, 40.79955353450581], [-73.90985980370756, 40.79945396363459]]}}, {"type": "Feature", "properties": {"segment_id": 1296694, "physicalid": "88605", "street_name": "LOCUST AVE", "borough": "bronx", "direction": "TW", "total_row_ft": 59.4, "roadbed_ft": 30.8, "median_ft": 0.0, "left_sw_ft": 14.2, "right_sw_ft": 14.4}, "geometry": {"type": "LineString", "coordinates": [[-73.90998541005624, 40.79959685899561], [-73.90981547472552, 40.799497307203715]]}}, {"type": "Feature", "properties": {"segment_id": 1296695, "physicalid": "88605", "street_name": "LOCUST AVE", "borough": "bronx", "direction": "TW", "total_row_ft": 59.4, "roadbed_ft": 30.9, "median_ft": 0.0, "left_sw_ft": 14.0, "right_sw_ft": 14.5}, "geometry": {"type": "LineString", "coordinates": [[-73.90994104838181, 40.79964018346807], [-73.90977114568575, 40.799540650755524]]}}, {"type": "Feature", "properties": {"segment_id": 1296696, "physicalid": "88605", "street_name": "LOCUST AVE", "borough": "bronx", "direction": "TW", "total_row_ft": 59.4, "roadbed_ft": 31.0, "median_ft": 0.0, "left_sw_ft": 13.7, "right_sw_ft": 14.7}, "geometry": {"type": "LineString", "coordinates": [[-73.90989668664965, 40.799683507923106], [-73.90972681658826, 40.79958399428996]]}}, {"type": "Feature", "properties": {"segment_id": 1296697, "physicalid": "88605", "street_name": "LOCUST AVE", "borough": "bronx", "direction": "TW", "total_row_ft": 90.2, "roadbed_ft": 31.1, "median_ft": 0.0, "left_sw_ft": 44.3, "right_sw_ft": 14.8}, "geometry": {"type": "LineString", "coordinates": [[-73.90994049618469, 40.79977848487354], [-73.90968248743305, 40.79962733780706]]}}, {"type": "Feature", "properties": {"segment_id": 1296698, "physicalid": "88605", "street_name": "LOCUST AVE", "borough": "bronx", "direction": "TW", "total_row_ft": 150.0, "roadbed_ft": 120.0, "median_ft": 0.0, "left_sw_ft": 15.0, "right_sw_ft": 15.0}, "geometry": {"type": "LineString", "coordinates": [[-73.90989639261024, 40.79982196061544], [-73.90955312832672, 40.7996208686725]]}}, {"type": "Feature", "properties": {"segment_id": 1331686, "physicalid": "90902", "street_name": "E 132 ST", "borough": "bronx", "direction": "TW", "total_row_ft": 14.3, "roadbed_ft": 0.0, "median_ft": 0.0, "left_sw_ft": 9.5, "right_sw_ft": 4.8}, "geometry": {"type": "LineString", "coordinates": [[-73.90992270704064, 40.79810636533464], [-73.91004777773267, 40.79798194180209]]}}, {"type": "Feature", "properties": {"segment_id": 1331687, "physicalid": "90902", "street_name": "E 132 ST", "borough": "bronx", "direction": "TW", "total_row_ft": 30.0, "roadbed_ft": 0.0, "median_ft": 0.0, "left_sw_ft": 15.0, "right_sw_ft": 15.0}, "geometry": {"type": "LineString", "coordinates": [[-73.9097900017316, 40.79814795412326], [-73.910053101296, 40.797886216214906]]}}, {"type": "Feature", "properties": {"segment_id": 1331688, "physicalid": "90902", "street_name": "E 132 ST", "borough": "bronx", "direction": "TW", "total_row_ft": 30.0, "roadbed_ft": 0.0, "median_ft": 0.0, "left_sw_ft": 15.0, "right_sw_ft": 15.0}, "geometry": {"type": "LineString", "coordinates": [[-73.90973259862726, 40.79811463066645], [-73.90999569828567, 40.797852892887725]]}}, {"type": "Feature", "properties": {"segment_id": 1331689, "physicalid": "90902", "street_name": "E 132 ST", "borough": "bronx", "direction": "TW", "total_row_ft": 30.0, "roadbed_ft": 0.0, "median_ft": 0.0, "left_sw_ft": 15.0, "right_sw_ft": 15.0}, "geometry": {"type": "LineString", "coordinates": [[-73.90967519558039, 40.79808130718087], [-73.90993829533281, 40.7978195695318]]}}, {"type": "Feature", "properties": {"segment_id": 1401098, "physicalid": "95005", "street_name": "E 134 ST", "borough": "bronx", "direction": "TW", "total_row_ft": 77.3, "roadbed_ft": 42.3, "median_ft": 0.0, "left_sw_ft": 15.8, "right_sw_ft": 19.2}, "geometry": {"type": "LineString", "coordinates": [[-73.90987206887075, 40.800001635899484], [-73.91004193291218, 40.799833205505315]]}}, {"type": "Feature", "properties": {"segment_id": 1401099, "physicalid": "95005", "street_name": "E 134 ST", "borough": "bronx", "direction": "TW", "total_row_ft": 77.3, "roadbed_ft": 42.5, "median_ft": 0.0, "left_sw_ft": 15.7, "right_sw_ft": 19.2}, "geometry": {"type": "LineString", "coordinates": [[-73.90981498125998, 40.799967997926444], [-73.90998487994369, 40.79979953332364]]}}, {"type": "Feature", "properties": {"segment_id": 1401100, "physicalid": "95005", "street_name": "E 134 ST", "borough": "bronx", "direction": "TW", "total_row_ft": 77.4, "roadbed_ft": 42.6, "median_ft": 0.0, "left_sw_ft": 15.6, "right_sw_ft": 19.2}, "geometry": {"type": "LineString", "coordinates": [[-73.90975789370691, 40.79993435992497], [-73.90992801214124, 40.79976567756722]]}}, {"type": "Feature", "properties": {"segment_id": 1401101, "physicalid": "95005", "street_name": "E 134 ST", "borough": "bronx", "direction": "TW", "total_row_ft": 77.5, "roadbed_ft": 42.8, "median_ft": 0.0, "left_sw_ft": 15.5, "right_sw_ft": 19.2}, "geometry": {"type": "LineString", "coordinates": [[-73.90970080621153, 40.799900721895035], [-73.90987114439663, 40.7997318217826]]}}, {"type": "Feature", "properties": {"segment_id": 1401102, "physicalid": "95006", "street_name": "E 134 ST", "borough": "bronx", "direction": "TW", "total_row_ft": 150.0, "roadbed_ft": 120.0, "median_ft": 0.0, "left_sw_ft": 15.0, "right_sw_ft": 15.0}, "geometry": {"type": "LineString", "coordinates": [[-73.90950760008596, 40.79986872136711], [-73.90977136560421, 40.79960736692807]]}}, {"type": "Feature", "properties": {"segment_id": 1401103, "physicalid": "95006", "street_name": "E 134 ST", "borough": "bronx", "direction": "TW", "total_row_ft": 75.7, "roadbed_ft": 42.8, "median_ft": 0.0, "left_sw_ft": 15.7, "right_sw_ft": 17.2}, "geometry": {"type": "LineString", "coordinates": [[-73.90950034708382, 40.79978570485086], [-73.90966675179266, 40.79962082137758]]}}, {"type": "Feature", "properties": {"segment_id": 1401104, "physicalid": "95006", "street_name": "E 134 ST", "borough": "bronx", "direction": "TW", "total_row_ft": 75.1, "roadbed_ft": 42.6, "median_ft": 0.0, "left_sw_ft": 15.4, "right_sw_ft": 17.1}, "geometry": {"type": "LineString", "coordinates": [[-73.9094436799248, 40.799751650623385], [-73.90960880571701, 40.79958803451377]]}}, {"type": "Feature", "properties": {"segment_id": 1401105, "physicalid": "95006", "street_name": "E 134 ST", "borough": "bronx", "direction": "TW", "total_row_ft": 74.5, "roadbed_ft": 42.5, "median_ft": 0.0, "left_sw_ft": 15.2, "right_sw_ft": 16.9}, "geometry": {"type": "LineString", "coordinates": [[-73.90938701282377, 40.79971759636786], [-73.90955085969846, 40.79955524762066]]}}, {"type": "Feature", "properties": {"segment_id": 1401106, "physicalid": "95006", "street_name": "E 134 ST", "borough": "bronx", "direction": "TW", "total_row_ft": 74.0, "roadbed_ft": 42.3, "median_ft": 0.0, "left_sw_ft": 14.9, "right_sw_ft": 16.8}, "geometry": {"type": "LineString", "coordinates": [[-73.90933034578069, 40.79968354208426], [-73.90949291373701, 40.79952246069826]]}}, {"type": "Feature", "properties": {"segment_id": 1401107, "physicalid": "95006", "street_name": "E 134 ST", "borough": "bronx", "direction": "TW", "total_row_ft": 73.3, "roadbed_ft": 42.1, "median_ft": 0.0, "left_sw_ft": 14.6, "right_sw_ft": 16.6}, "geometry": {"type": "LineString", "coordinates": [[-73.90927379995209, 40.79964936772452], [-73.90943496783262, 40.799489673746564]]}}, {"type": "Feature", "properties": {"segment_id": 1401108, "physicalid": "95006", "street_name": "E 134 ST", "borough": "bronx", "direction": "TW", "total_row_ft": 72.7, "roadbed_ft": 41.9, "median_ft": 0.0, "left_sw_ft": 14.3, "right_sw_ft": 16.5}, "geometry": {"type": "LineString", "coordinates": [[-73.9092172827734, 40.79961516500662], [-73.9093770219853, 40.79945688676555]]}}, {"type": "Feature", "properties": {"segment_id": 1401109, "physicalid": "95006", "street_name": "E 134 ST", "borough": "bronx", "direction": "TW", "total_row_ft": 72.0, "roadbed_ft": 41.7, "median_ft": 0.0, "left_sw_ft": 13.9, "right_sw_ft": 16.4}, "geometry": {"type": "LineString", "coordinates": [[-73.9091607656528, 40.7995809622608], [-73.90931907641688, 40.799424099535486]]}}, {"type": "Feature", "properties": {"segment_id": 1401110, "physicalid": "95006", "street_name": "E 134 ST", "borough": "bronx", "direction": "TW", "total_row_ft": 71.4, "roadbed_ft": 41.6, "median_ft": 0.0, "left_sw_ft": 13.6, "right_sw_ft": 16.3}, "geometry": {"type": "LineString", "coordinates": [[-73.90910424859027, 40.79954675948711], [-73.9092612865655, 40.799391158039576]]}}, {"type": "Feature", "properties": {"segment_id": 1401111, "physicalid": "95006", "street_name": "E 134 ST", "borough": "bronx", "direction": "TW", "total_row_ft": 70.9, "roadbed_ft": 41.4, "median_ft": 0.0, "left_sw_ft": 13.3, "right_sw_ft": 16.2}, "geometry": {"type": "LineString", "coordinates": [[-73.90904773158583, 40.79951255668549], [-73.90920364196681, 40.79935807264693]]}}, {"type": "Feature", "properties": {"segment_id": 1401112, "physicalid": "95006", "street_name": "E 134 ST", "borough": "bronx", "direction": "TW", "total_row_ft": 70.5, "roadbed_ft": 41.3, "median_ft": 0.0, "left_sw_ft": 13.0, "right_sw_ft": 16.2}, "geometry": {"type": "LineString", "coordinates": [[-73.90899107277677, 40.799478494420306], [-73.90914611282484, 40.79932487288137]]}}, {"type": "Feature", "properties": {"segment_id": 1401113, "physicalid": "95006", "street_name": "E 134 ST", "borough": "bronx", "direction": "TW", "total_row_ft": 72.3, "roadbed_ft": 41.1, "median_ft": 0.0, "left_sw_ft": 15.0, "right_sw_ft": 16.2}, "geometry": {"type": "LineString", "coordinates": [[-73.90887707774478, 40.79950124354067], [-73.90908858374024, 40.7992916730869]]}}, {"type": "Feature", "properties": {"segment_id": 1401114, "physicalid": "95006", "street_name": "E 134 ST", "borough": "bronx", "direction": "TW", "total_row_ft": 72.1, "roadbed_ft": 40.8, "median_ft": 0.0, "left_sw_ft": 15.0, "right_sw_ft": 16.2}, "geometry": {"type": "LineString", "coordinates": [[-73.90881975787711, 40.79946783629344], [-73.90903105471304, 40.79925847326355]]}}, {"type": "Feature", "properties": {"segment_id": 1401115, "physicalid": "95006", "street_name": "E 134 ST", "borough": "bronx", "direction": "TW", "total_row_ft": 71.8, "roadbed_ft": 40.6, "median_ft": 0.0, "left_sw_ft": 15.0, "right_sw_ft": 16.2}, "geometry": {"type": "LineString", "coordinates": [[-73.90876243806699, 40.799434429017545], [-73.90897352574322, 40.79922527341133]]}}, {"type": "Feature", "properties": {"segment_id": 1401116, "physicalid": "95006", "street_name": "E 134 ST", "borough": "bronx", "direction": "TW", "total_row_ft": 71.5, "roadbed_ft": 40.3, "median_ft": 0.0, "left_sw_ft": 15.0, "right_sw_ft": 16.2}, "geometry": {"type": "LineString", "coordinates": [[-73.90870511831442, 40.799401021712974], [-73.90891599683077, 40.79919207353022]]}}, {"type": "Feature", "properties": {"segment_id": 1401117, "physicalid": "95006", "street_name": "E 134 ST", "borough": "bronx", "direction": "TW", "total_row_ft": 71.2, "roadbed_ft": 40.0, "median_ft": 0.0, "left_sw_ft": 15.0, "right_sw_ft": 16.2}, "geometry": {"type": "LineString", "coordinates": [[-73.90864779861938, 40.799367614379726], [-73.90885846797573, 40.79915887362022]]}}, {"type": "Feature", "properties": {"segment_id": 1401118, "physicalid": "95006", "street_name": "E 134 ST", "borough": "bronx", "direction": "TW", "total_row_ft": 70.9, "roadbed_ft": 39.7, "median_ft": 0.0, "left_sw_ft": 15.0, "right_sw_ft": 16.2}, "geometry": {"type": "LineString", "coordinates": [[-73.90859047898188, 40.799334207017786], [-73.90880093912064, 40.79912567373822]]}}, {"type": "Feature", "properties": {"segment_id": 1401119, "physicalid": "95006", "street_name": "E 134 ST", "borough": "bronx", "direction": "TW", "total_row_ft": 70.6, "roadbed_ft": 39.5, "median_ft": 0.0, "left_sw_ft": 15.0, "right_sw_ft": 16.1}, "geometry": {"type": "LineString", "coordinates": [[-73.90853315940193, 40.79930079962721], [-73.90874335323359, 40.79909253039417]]}}, {"type": "Feature", "properties": {"segment_id": 1401120, "physicalid": "95006", "street_name": "E 134 ST", "borough": "bronx", "direction": "TW", "total_row_ft": 70.1, "roadbed_ft": 39.0, "median_ft": 0.0, "left_sw_ft": 15.0, "right_sw_ft": 16.1}, "geometry": {"type": "LineString", "coordinates": [[-73.90847583987947, 40.79926739220791], [-73.90868542847053, 40.79905972285222]]}}, {"type": "Feature", "properties": {"segment_id": 1401121, "physicalid": "95006", "street_name": "E 134 ST", "borough": "bronx", "direction": "TW", "total_row_ft": 69.7, "roadbed_ft": 38.5, "median_ft": 0.0, "left_sw_ft": 15.0, "right_sw_ft": 16.2}, "geometry": {"type": "LineString", "coordinates": [[-73.90841852041457, 40.79923398475993], [-73.90862750378649, 40.7990269152593]]}}, {"type": "Feature", "properties": {"segment_id": 1401122, "physicalid": "95006", "street_name": "E 134 ST", "borough": "bronx", "direction": "TW", "total_row_ft": 29.7, "roadbed_ft": 0.0, "median_ft": 0.0, "left_sw_ft": 15.0, "right_sw_ft": 14.7}, "geometry": {"type": "LineString", "coordinates": [[-73.90836120100721, 40.799200577283294], [-73.90856957909521, 40.79899410770082]]}}, {"type": "Feature", "properties": {"segment_id": 1401123, "physicalid": "95006", "street_name": "E 134 ST", "borough": "bronx", "direction": "TW", "total_row_ft": 27.5, "roadbed_ft": 0.0, "median_ft": 0.0, "left_sw_ft": 15.0, "right_sw_ft": 12.5}, "geometry": {"type": "LineString", "coordinates": [[-73.90830388165733, 40.79916716977794], [-73.90851165442012, 40.79896130015365]]}}, {"type": "Feature", "properties": {"segment_id": 1401124, "physicalid": "95006", "street_name": "E 134 ST", "borough": "bronx", "direction": "TW", "total_row_ft": 30.0, "roadbed_ft": 0.0, "median_ft": 0.0, "left_sw_ft": 15.0, "right_sw_ft": 15.0}, "geometry": {"type": "LineString", "coordinates": [[-73.90824656236501, 40.79913376224393], [-73.90851032992214, 40.79887241066002]]}}]}