{"type": "FeatureCollection", "features": [{"type": "Feature", "properties": {"segment_id": 907396, "physicalid": "63416", "street_name": "EDSALL AVE", "borough": "bronx", "direction": "TW", "total_row_ft": 53.8, "roadbed_ft": 23.8, "median_ft": 0.0, "left_sw_ft": 15.0, "right_sw_ft": 15.0}, "geometry": {"type": "LineString", "coordinates": [[-73.92151819952653, 40.879084395222954], [-73.92124346404701, 40.879339340361774]]}}, {"type": "Feature", "properties": {"segment_id": 907397, "physicalid": "63416", "street_name": "EDSALL AVE", "borough": "bronx", "direction": "TW", "total_row_ft": 55.7, "roadbed_ft": 25.7, "median_ft": 0.0, "left_sw_ft": 15.0, "right_sw_ft": 15.0}, "geometry": {"type": "LineString", "coordinates": [[-73.92157418190577, 40.87911914936636], [-73.92129944649731, 40.8793740946368]]}}, {"type": "Feature", "properties": {"segment_id": 907398, "physicalid": "63416", "street_name": "EDSALL AVE", "borough": "bronx", "direction": "TW", "total_row_ft": 57.2, "roadbed_ft": 27.2, "median_ft": 0.0, "left_sw_ft": 15.0, "right_sw_ft": 15.0}, "geometry": {"type": "LineString", "coordinates": [[-73.92161248393782, 40.87914238094657], [-73.92137524077867, 40.879418162082395]]}}, {"type": "Feature", "properties": {"segment_id": 907399, "physicalid": "63416", "street_name": "EDSALL AVE", "borough": "bronx", "direction": "TW", "total_row_ft": 58.2, "roadbed_ft": 28.2, "median_ft": 0.0, "left_sw_ft": 15.0, "right_sw_ft": 15.0}, "geometry": {"type": "LineString", "coordinates": [[-73.92167304163506, 40.879172392257], [-73.92143579862008, 40.87944817351584]]}}, {"type": "Feature", "properties": {"segment_id": 907400, "physicalid": "63416", "street_name": "EDSALL AVE", "borough": "bronx", "direction": "TW", "total_row_ft": 59.0, "roadbed_ft": 29.0, "median_ft": 0.0, "left_sw_ft": 15.0, "right_sw_ft": 15.0}, "geometry": {"type": "LineString", "coordinates": [[-73.92173359938704, 40.879202403535544], [-73.92149635651609, 40.87947818491731]]}}, {"type": "Feature", "properties": {"segment_id": 907401, "physicalid": "63416", "street_name": "EDSALL AVE", "borough": "bronx", "direction": "TW", "total_row_ft": 59.0, "roadbed_ft": 29.0, "median_ft": 0.0, "left_sw_ft": 15.0, "right_sw_ft": 15.0}, "geometry": {"type": "LineString", "coordinates": [[-73.92177646845704, 40.87921998910635], [-73.92157992753457, 40.87951363285822]]}}, {"type": "Feature", "properties": {"segment_id": 907402, "physicalid": "63416", "street_name": "EDSALL AVE", "borough": "bronx", "direction": "TW", "total_row_ft": 58.1, "roadbed_ft": 28.1, "median_ft": 0.0, "left_sw_ft": 15.0, "right_sw_ft": 15.0}, "geometry": {"type": "LineString", "coordinates": [[-73.92184094858708, 40.879244851534274], [-73.9216444078759, 40.87953849539459]]}}, {"type": "Feature", "properties": {"segment_id": 907403, "physicalid": "63416", "street_name": "EDSALL AVE", "borough": "bronx", "direction": "TW", "total_row_ft": 56.9, "roadbed_ft": 26.9, "median_ft": 0.0, "left_sw_ft": 15.0, "right_sw_ft": 15.0}, "geometry": {"type": "LineString", "coordinates": [[-73.92188412094296, 40.87926191196935], [-73.92173084465358, 40.87957004431699]]}}, {"type": "Feature", "properties": {"segment_id": 907404, "physicalid": "63416", "street_name": "EDSALL AVE", "borough": "bronx", "direction": "TW", "total_row_ft": 56.0, "roadbed_ft": 26.0, "median_ft": 0.0, "left_sw_ft": 15.0, "right_sw_ft": 15.0}, "geometry": {"type": "LineString", "coordinates": [[-73.9219517825909, 40.87928130139851], [-73.92179850657041, 40.87958943383493]]}}, {"type": "Feature", "properties": {"segment_id": 907405, "physicalid": "63416", "street_name": "EDSALL AVE", "borough": "bronx", "direction": "TW", "total_row_ft": 55.2, "roadbed_ft": 25.2, "median_ft": 0.0, "left_sw_ft": 15.0, "right_sw_ft": 15.0}, "geometry": {"type": "LineString", "coordinates": [[-73.92201944427832, 40.87930069078794], [-73.92186616852669, 40.87960882331312]]}}, {"type": "Feature", "properties": {"segment_id": 907406, "physicalid": "63416", "street_name": "EDSALL AVE", "borough": "bronx", "direction": "TW", "total_row_ft": 54.6, "roadbed_ft": 24.6, "median_ft": 0.0, "left_sw_ft": 15.0, "right_sw_ft": 15.0}, "geometry": {"type": "LineString", "coordinates": [[-73.9220657944001, 40.879311715199314], [-73.9219576026045, 40.87963067682027]]}}, {"type": "Feature", "properties": {"segment_id": 907407, "physicalid": "63416", "street_name": "EDSALL AVE", "borough": "bronx", "direction": "TW", "total_row_ft": 54.1, "roadbed_ft": 24.1, "median_ft": 0.0, "left_sw_ft": 15.0, "right_sw_ft": 15.0}, "geometry": {"type": "LineString", "coordinates": [[-73.92213583404346, 40.87932540142648], [-73.9220276425616, 40.87964436311229]]}}, {"type": "Feature", "properties": {"segment_id": 907408, "physicalid": "63416", "street_name": "EDSALL AVE", "borough": "bronx", "direction": "TW", "total_row_ft": 38.4, "roadbed_ft": 23.2, "median_ft": 0.0, "left_sw_ft": 0.2, "right_sw_ft": 15.0}, "geometry": {"type": "LineString", "coordinates": [[-73.92220587371567, 40.8793390876111], [-73.92209768254756, 40.87965804936181]]}}, {"type": "Feature", "properties": {"segment_id": 907409, "physicalid": "63416", "street_name": "EDSALL AVE", "borough": "bronx", "direction": "TW", "total_row_ft": 40.2, "roadbed_ft": 22.6, "median_ft": 0.0, "left_sw_ft": 2.6, "right_sw_ft": 15.0}, "geometry": {"type": "LineString", "coordinates": [[-73.92225430920892, 40.87934378242173], [-73.92219222324968, 40.879669756691776]]}}, {"type": "Feature", "properties": {"segment_id": 907410, "physicalid": "63416", "street_name": "EDSALL AVE", "borough": "bronx", "direction": "TW", "total_row_ft": 43.5, "roadbed_ft": 22.3, "median_ft": 0.0, "left_sw_ft": 6.2, "right_sw_ft": 15.0}, "geometry": {"type": "LineString", "coordinates": [[-73.92232588875586, 40.879351636260836], [-73.92226380314024, 40.87967761056893]]}}, {"type": "Feature", "properties": {"segment_id": 907411, "physicalid": "63416", "street_name": "EDSALL AVE", "borough": "bronx", "direction": "TW", "total_row_ft": 63.5, "roadbed_ft": 33.5, "median_ft": 0.0, "left_sw_ft": 15.0, "right_sw_ft": 15.0}, "geometry": {"type": "LineString", "coordinates": [[-73.92237459290592, 40.87935564291979], [-73.92235879641538, 40.87968478738467]]}}, {"type": "Feature", "properties": {"segment_id": 907412, "physicalid": "63416", "street_name": "EDSALL AVE", "borough": "bronx", "direction": "TW", "total_row_ft": 73.3, "roadbed_ft": 43.3, "median_ft": 0.0, "left_sw_ft": 15.0, "right_sw_ft": 15.0}, "geometry": {"type": "LineString", "coordinates": [[-73.92244686858804, 40.87935764114954], [-73.92243107245487, 40.87968678562421]]}}, {"type": "Feature", "properties": {"segment_id": 907413, "physicalid": "63416", "street_name": "EDSALL AVE", "borough": "bronx", "direction": "TW", "total_row_ft": 84.6, "roadbed_ft": 54.6, "median_ft": 0.0, "left_sw_ft": 15.0, "right_sw_ft": 15.0}, "geometry": {"type": "LineString", "coordinates": [[-73.92251914427455, 40.87935963933407], [-73.9225033484987, 40.8796887838185]]}}, {"type": "Feature", "properties": {"segment_id": 907414, "physicalid": "63416", "street_name": "EDSALL AVE", "borough": "bronx", "direction": "TW", "total_row_ft": 64.3, "roadbed_ft": 34.3, "median_ft": 0.0, "left_sw_ft": 15.0, "right_sw_ft": 15.0}, "geometry": {"type": "LineString", "coordinates": [[-73.92234334552559, 40.87943585048682], [-73.9227586557875, 40.879531326339595]]}}, {"type": "Feature", "properties": {"segment_id": 907415, "physicalid": "63416", "street_name": "EDSALL AVE", "borough": "bronx", "direction": "TW", "total_row_ft": 72.3, "roadbed_ft": 42.3, "median_ft": 0.0, "left_sw_ft": 15.0, "right_sw_ft": 15.0}, "geometry": {"type": "LineString", "coordinates": [[-73.922363341941, 40.879519791212815], [-73.92272794741967, 40.87934119401851]]}}, {"type": "Feature", "properties": {"segment_id": 907416, "physicalid": "63416", "street_name": "EDSALL AVE", "borough": "bronx", "direction": "TW", "total_row_ft": 77.4, "roadbed_ft": 47.4, "median_ft": 0.0, "left_sw_ft": 15.0, "right_sw_ft": 15.0}, "geometry": {"type": "LineString", "coordinates": [[-73.92237886933127, 40.8795299832215], [-73.9226145977475, 40.87925345462532]]}}, {"type": "Feature", "properties": {"segment_id": 907417, "physicalid": "63416", "street_name": "EDSALL AVE", "borough": "bronx", "direction": "TW", "total_row_ft": 68.0, "roadbed_ft": 38.0, "median_ft": 0.0, "left_sw_ft": 15.0, "right_sw_ft": 15.0}, "geometry": {"type": "LineString", "coordinates": [[-73.92226531676482, 40.87946802758878], [-73.92260762858375, 40.87926560285771]]}}, {"type": "Feature", "properties": {"segment_id": 907418, "physicalid": "63416", "street_name": "EDSALL AVE", "borough": "bronx", "direction": "TW", "total_row_ft": 60.3, "roadbed_ft": 37.7, "median_ft": 0.0, "left_sw_ft": 7.6, "right_sw_ft": 15.0}, "geometry": {"type": "LineString", "coordinates": [[-73.92231806002476, 40.8793672505407], [-73.92256317882526, 40.87922230034095]]}}, {"type": "Feature", "properties": {"segment_id": 907419, "physicalid": "63416", "street_name": "EDSALL AVE", "borough": "bronx", "direction": "TW", "total_row_ft": 71.7, "roadbed_ft": 35.5, "median_ft": 0.0, "left_sw_ft": 21.2, "right_sw_ft": 15.0}, "geometry": {"type": "LineString", "coordinates": [[-73.92223468271241, 40.879346967550696], [-73.92251872912468, 40.879178997806754]]}}, {"type": "Feature", "properties": {"segment_id": 907420, "physicalid": "63416", "street_name": "EDSALL AVE", "borough": "bronx", "direction": "TW", "total_row_ft": 59.3, "roadbed_ft": 33.2, "median_ft": 0.0, "left_sw_ft": 11.2, "right_sw_ft": 15.0}, "geometry": {"type": "LineString", "coordinates": [[-73.92215200142444, 40.879326272941704], [-73.922474279482, 40.87913569525507]]}}, {"type": "Feature", "properties": {"segment_id": 907421, "physicalid": "63416", "street_name": "EDSALL AVE", "borough": "bronx", "direction": "TW", "total_row_ft": 54.4, "roadbed_ft": 33.8, "median_ft": 0.0, "left_sw_ft": 5.6, "right_sw_ft": 15.0}, "geometry": {"type": "LineString", "coordinates": [[-73.9220875184287, 40.87929481689605], [-73.92242982989721, 40.87909239268594]]}}, {"type": "Feature", "properties": {"segment_id": 907422, "physicalid": "63416", "street_name": "EDSALL AVE", "borough": "bronx", "direction": "TW", "total_row_ft": 64.4, "roadbed_ft": 34.4, "median_ft": 0.0, "left_sw_ft": 15.0, "right_sw_ft": 15.0}, "geometry": {"type": "LineString", "coordinates": [[-73.92204306898944, 40.87925151417921], [-73.92238538037029, 40.87904909009932]]}}, {"type": "Feature", "properties": {"segment_id": 907423, "physicalid": "63416", "street_name": "EDSALL AVE", "borough": "bronx", "direction": "TW", "total_row_ft": 65.5, "roadbed_ft": 35.5, "median_ft": 0.0, "left_sw_ft": 15.0, "right_sw_ft": 15.0}, "geometry": {"type": "LineString", "coordinates": [[-73.92199861960808, 40.879208211444926], [-73.9223409309013, 40.87900578749526]]}}, {"type": "Feature", "properties": {"segment_id": 907424, "physicalid": "63416", "street_name": "EDSALL AVE", "borough": "bronx", "direction": "TW", "total_row_ft": 66.1, "roadbed_ft": 36.1, "median_ft": 0.0, "left_sw_ft": 15.0, "right_sw_ft": 15.0}, "geometry": {"type": "LineString", "coordinates": [[-73.9219541702846, 40.87916490869316], [-73.9222964814902, 40.878962484873725]]}}, {"type": "Feature", "properties": {"segment_id": 907425, "physicalid": "63416", "street_name": "EDSALL AVE", "borough": "bronx", "direction": "TW", "total_row_ft": 65.5, "roadbed_ft": 35.5, "median_ft": 0.0, "left_sw_ft": 15.0, "right_sw_ft": 15.0}, "geometry": {"type": "LineString", "coordinates": [[-73.92190972101902, 40.879121605923935], [-73.92225203213701, 40.87891918223473]]}}, {"type": "Feature", "properties": {"segment_id": 907426, "physicalid": "63416", "street_name": "EDSALL AVE", "borough": "bronx", "direction": "TW", "total_row_ft": 64.9, "roadbed_ft": 34.9, "median_ft": 0.0, "left_sw_ft": 15.0, "right_sw_ft": 15.0}, "geometry": {"type": "LineString", "coordinates": [[-73.92186527181133, 40.87907830313723], [-73.92220758284174, 40.878875879578295]]}}, {"type": "Feature", "properties": {"segment_id": 907427, "physicalid": "63416", "street_name": "EDSALL AVE", "borough": "bronx", "direction": "TW", "total_row_ft": 63.8, "roadbed_ft": 33.8, "median_ft": 0.0, "left_sw_ft": 15.0, "right_sw_ft": 15.0}, "geometry": {"type": "LineString", "coordinates": [[-73.92182082266154, 40.879035000333076], [-73.92216313360434, 40.8788325769044]]}}, {"type": "Feature", "properties": {"segment_id": 907428, "physicalid": "63416", "street_name": "EDSALL AVE", "borough": "bronx", "direction": "TW", "total_row_ft": 62.7, "roadbed_ft": 32.7, "median_ft": 0.0, "left_sw_ft": 15.0, "right_sw_ft": 15.0}, "geometry": {"type": "LineString", "coordinates": [[-73.92177637356968, 40.8789916975115], [-73.92211868442483, 40.878789274213]]}}, {"type": "Feature", "properties": {"segment_id": 907429, "physicalid": "63416", "street_name": "EDSALL AVE", "borough": "bronx", "direction": "TW", "total_row_ft": 61.5, "roadbed_ft": 31.5, "median_ft": 0.0, "left_sw_ft": 15.0, "right_sw_ft": 15.0}, "geometry": {"type": "LineString", "coordinates": [[-73.92173192453572, 40.87894839467243], [-73.92207423530323, 40.878745971504166]]}}, {"type": "Feature", "properties": {"segment_id": 907430, "physicalid": "63416", "street_name": "EDSALL AVE", "borough": "bronx", "direction": "TW", "total_row_ft": 60.4, "roadbed_ft": 30.4, "median_ft": 0.0, "left_sw_ft": 15.0, "right_sw_ft": 15.0}, "geometry": {"type": "LineString", "coordinates": [[-73.92168747555962, 40.878905091815895], [-73.92202978623953, 40.878702668777876]]}}, {"type": "Feature", "properties": {"segment_id": 907431, "physicalid": "63416", "street_name": "EDSALL AVE", "borough": "bronx", "direction": "TW", "total_row_ft": 59.4, "roadbed_ft": 29.4, "median_ft": 0.0, "left_sw_ft": 15.0, "right_sw_ft": 15.0}, "geometry": {"type": "LineString", "coordinates": [[-73.92164302664145, 40.8788617889419], [-73.92198533723374, 40.87865936603412]]}}, {"type": "Feature", "properties": {"segment_id": 907432, "physicalid": "63416", "street_name": "EDSALL AVE", "borough": "bronx", "direction": "TW", "total_row_ft": 59.3, "roadbed_ft": 29.3, "median_ft": 0.0, "left_sw_ft": 15.0, "right_sw_ft": 15.0}, "geometry": {"type": "LineString", "coordinates": [[-73.92159857778114, 40.87881848605042], [-73.92194088828585, 40.87861606327292]]}}, {"type": "Feature", "properties": {"segment_id": 907433, "physicalid": "63416", "street_name": "EDSALL AVE", "borough": "bronx", "direction": "TW", "total_row_ft": 59.0, "roadbed_ft": 29.0, "median_ft": 0.0, "left_sw_ft": 15.0, "right_sw_ft": 15.0}, "geometry": {"type": "LineString", "coordinates": [[-73.92155412897877, 40.8787751831415], [-73.92189643939585, 40.878572760494244]]}}, {"type": "Feature", "properties": {"segment_id": 907434, "physicalid": "63416", "street_name": "EDSALL AVE", "borough": "bronx", "direction": "TW", "total_row_ft": 58.7, "roadbed_ft": 28.7, "median_ft": 0.0, "left_sw_ft": 15.0, "right_sw_ft": 15.0}, "geometry": {"type": "LineString", "coordinates": [[-73.9215096802343, 40.87873188021515], [-73.92185199056372, 40.87852945769809]]}}, {"type": "Feature", "properties": {"segment_id": 907435, "physicalid": "63416", "street_name": "EDSALL AVE", "borough": "bronx", "direction": "TW", "total_row_ft": 58.4, "roadbed_ft": 28.4, "median_ft": 0.0, "left_sw_ft": 15.0, "right_sw_ft": 15.0}, "geometry": {"type": "LineString", "coordinates": [[-73.92146523154773, 40.87868857727131], [-73.92180754178953, 40.878486154884456]]}}, {"type": "Feature", "properties": {"segment_id": 907436, "physicalid": "63416", "street_name": "EDSALL AVE", "borough": "bronx", "direction": "TW", "total_row_ft": 58.4, "roadbed_ft": 28.4, "median_ft": 0.0, "left_sw_ft": 15.0, "right_sw_ft": 15.0}, "geometry": {"type": "LineString", "coordinates": [[-73.92142078291903, 40.878645274309996], [-73.92176309307322, 40.87844285205341]]}}, {"type": "Feature", "properties": {"segment_id": 907437, "physicalid": "63416", "street_name": "EDSALL AVE", "borough": "bronx", "direction": "TW", "total_row_ft": 58.4, "roadbed_ft": 28.4, "median_ft": 0.0, "left_sw_ft": 15.0, "right_sw_ft": 15.0}, "geometry": {"type": "LineString", "coordinates": [[-73.92137633434824, 40.878601971331236], [-73.92171864441481, 40.87839954920489]]}}, {"type": "Feature", "properties": {"segment_id": 907438, "physicalid": "63416", "street_name": "EDSALL AVE", "borough": "bronx", "direction": "TW", "total_row_ft": 58.4, "roadbed_ft": 28.4, "median_ft": 0.0, "left_sw_ft": 15.0, "right_sw_ft": 15.0}, "geometry": {"type": "LineString", "coordinates": [[-73.92133188583533, 40.878558668334996], [-73.92167419581433, 40.87835624633892]]}}, {"type": "Feature", "properties": {"segment_id": 907439, "physicalid": "63416", "street_name": "EDSALL AVE", "borough": "bronx", "direction": "TW", "total_row_ft": 58.4, "roadbed_ft": 28.4, "median_ft": 0.0, "left_sw_ft": 15.0, "right_sw_ft": 15.0}, "geometry": {"type": "LineString", "coordinates": [[-73.92128743738034, 40.878515365321306], [-73.92162974727171, 40.87831294345546]]}}, {"type": "Feature", "properties": {"segment_id": 907440, "physicalid": "63420", "street_name": "EDSALL AVE", "borough": "bronx", "direction": "TW", "total_row_ft": 150.0, "roadbed_ft": 120.0, "median_ft": 0.0, "left_sw_ft": 15.0, "right_sw_ft": 15.0}, "geometry": {"type": "LineString", "coordinates": [[-73.92005248093486, 40.87909304607712], [-73.92037315536668, 40.87887114702109]]}}, {"type": "Feature", "properties": {"segment_id": 907441, "physicalid": "63420", "street_name": "EDSALL AVE", "borough": "bronx", "direction": "TW", "total_row_ft": 58.2, "roadbed_ft": 28.2, "median_ft": 0.0, "left_sw_ft": 15.0, "right_sw_ft": 15.0}, "geometry": {"type": "LineString", "coordinates": [[-73.91999596426592, 40.879042335043245], [-73.92033635914014, 40.87883805863828]]}}, {"type": "Feature", "properties": {"segment_id": 907442, "physicalid": "63420", "street_name": "EDSALL AVE", "borough": "bronx", "direction": "TW", "total_row_ft": 59.8, "roadbed_ft": 29.8, "median_ft": 0.0, "left_sw_ft": 15.0, "right_sw_ft": 15.0}, "geometry": {"type": "LineString", "coordinates": [[-73.91995110828135, 40.87899927461046], [-73.92029150307289, 40.87879499833615]]}}, {"type": "Feature", "properties": {"segment_id": 907443, "physicalid": "63420", "street_name": "EDSALL AVE", "borough": "bronx", "direction": "TW", "total_row_ft": 61.1, "roadbed_ft": 31.1, "median_ft": 0.0, "left_sw_ft": 15.0, "right_sw_ft": 15.0}, "geometry": {"type": "LineString", "coordinates": [[-73.91989871385614, 40.87894017949965], [-73.92026415859272, 40.8787625769722]]}}, {"type": "Feature", "properties": {"segment_id": 907444, "physicalid": "63420", "street_name": "EDSALL AVE", "borough": "bronx", "direction": "TW", "total_row_ft": 63.8, "roadbed_ft": 33.8, "median_ft": 0.0, "left_sw_ft": 15.0, "right_sw_ft": 15.0}, "geometry": {"type": "LineString", "coordinates": [[-73.91985005075341, 40.87887928987367], [-73.92023691784911, 40.87873009856849]]}}, {"type": "Feature", "properties": {"segment_id": 907452, "physicalid": "63422", "street_name": "EDSALL AVE", "borough": "bronx", "direction": "TW", "total_row_ft": 51.9, "roadbed_ft": 21.9, "median_ft": 0.0, "left_sw_ft": 15.0, "right_sw_ft": 15.0}, "geometry": {"type": "LineString", "coordinates": [[-73.91978868065264, 40.878392874373134], [-73.92021815877834, 40.878439961384956]]}}, {"type": "Feature", "properties": {"segment_id": 907453, "physicalid": "63422", "street_name": "EDSALL AVE", "borough": "bronx", "direction": "TW", "total_row_ft": 51.2, "roadbed_ft": 21.2, "median_ft": 0.0, "left_sw_ft": 15.0, "right_sw_ft": 15.0}, "geometry": {"type": "LineString", "coordinates": [[-73.91979729930347, 40.8783975762662], [-73.92022111221436, 40.87832685190663]]}}, {"type": "Feature", "properties": {"segment_id": 907471, "physicalid": "63423", "street_name": "EDSALL AVE", "borough": "bronx", "direction": "TW", "total_row_ft": 108.3, "roadbed_ft": 78.3, "median_ft": 0.0, "left_sw_ft": 15.0, "right_sw_ft": 15.0}, "geometry": {"type": "LineString", "coordinates": [[-73.92114075567156, 40.87838332910202], [-73.92144793248988, 40.87815069179488]]}}, {"type": "Feature", "properties": {"segment_id": 907472, "physicalid": "63423", "street_name": "EDSALL AVE", "borough": "bronx", "direction": "TW", "total_row_ft": 59.5, "roadbed_ft": 29.5, "median_ft": 0.0, "left_sw_ft": 15.0, "right_sw_ft": 15.0}, "geometry": {"type": "LineString", "coordinates": [[-73.92108967253881, 40.878344470390424], [-73.92139684935633, 40.8781118332176]]}}, {"type": "Feature", "properties": {"segment_id": 907473, "physicalid": "63423", "street_name": "EDSALL AVE", "borough": "bronx", "direction": "TW", "total_row_ft": 60.2, "roadbed_ft": 30.2, "median_ft": 0.0, "left_sw_ft": 15.0, "right_sw_ft": 15.0}, "geometry": {"type": "LineString", "coordinates": [[-73.92103858946577, 40.87830561165591], [-73.9213457662825, 40.87807297461742]]}}, {"type": "Feature", "properties": {"segment_id": 907474, "physicalid": "63423", "street_name": "EDSALL AVE", "borough": "bronx", "direction": "TW", "total_row_ft": 61.3, "roadbed_ft": 31.3, "median_ft": 0.0, "left_sw_ft": 15.0, "right_sw_ft": 15.0}, "geometry": {"type": "LineString", "coordinates": [[-73.92098750645242, 40.87826675289855], [-73.92129468326837, 40.878034115994346]]}}, {"type": "Feature", "properties": {"segment_id": 907475, "physicalid": "63423", "street_name": "EDSALL AVE", "borough": "bronx", "direction": "TW", "total_row_ft": 63.3, "roadbed_ft": 33.3, "median_ft": 0.0, "left_sw_ft": 15.0, "right_sw_ft": 15.0}, "geometry": {"type": "LineString", "coordinates": [[-73.92094347627581, 40.878234386549074], [-73.92123471458859, 40.877990225374475]]}}, {"type": "Feature", "properties": {"segment_id": 907476, "physicalid": "63423", "street_name": "EDSALL AVE", "borough": "bronx", "direction": "TW", "total_row_ft": 65.9, "roadbed_ft": 35.9, "median_ft": 0.0, "left_sw_ft": 15.0, "right_sw_ft": 15.0}, "geometry": {"type": "LineString", "coordinates": [[-73.92088986280734, 40.87819754401057], [-73.92118110115564, 40.87795338296962]]}}, {"type": "Feature", "properties": {"segment_id": 907477, "physicalid": "63423", "street_name": "EDSALL AVE", "borough": "bronx", "direction": "TW", "total_row_ft": 69.4, "roadbed_ft": 39.4, "median_ft": 0.0, "left_sw_ft": 15.0, "right_sw_ft": 15.0}, "geometry": {"type": "LineString", "coordinates": [[-73.92083624939832, 40.878160701446895], [-73.9211274877821, 40.8779165405396]]}}, {"type": "Feature", "properties": {"segment_id": 907478, "physicalid": "63423", "street_name": "EDSALL AVE", "borough": "bronx", "direction": "TW", "total_row_ft": 66.1, "roadbed_ft": 36.1, "median_ft": 0.0, "left_sw_ft": 15.0, "right_sw_ft": 15.0}, "geometry": {"type": "LineString", "coordinates": [[-73.9207826360487, 40.87812385885808], [-73.921073874468, 40.87787969808444]]}}, {"type": "Feature", "properties": {"segment_id": 907479, "physicalid": "63423", "street_name": "EDSALL AVE", "borough": "bronx", "direction": "TW", "total_row_ft": 59.5, "roadbed_ft": 29.5, "median_ft": 0.0, "left_sw_ft": 15.0, "right_sw_ft": 15.0}, "geometry": {"type": "LineString", "coordinates": [[-73.9207290227585, 40.87808701624411], [-73.92102026121329, 40.87784285560415]]}}, {"type": "Feature", "properties": {"segment_id": 907480, "physicalid": "63423", "street_name": "EDSALL AVE", "borough": "bronx", "direction": "TW", "total_row_ft": 57.8, "roadbed_ft": 27.8, "median_ft": 0.0, "left_sw_ft": 15.0, "right_sw_ft": 15.0}, "geometry": {"type": "LineString", "coordinates": [[-73.92068256239352, 40.87805667713555], [-73.92095710699711, 40.877801616793185]]}}, {"type": "Feature", "properties": {"segment_id": 907481, "physicalid": "63423", "street_name": "EDSALL AVE", "borough": "bronx", "direction": "TW", "total_row_ft": 57.0, "roadbed_ft": 27.0, "median_ft": 0.0, "left_sw_ft": 15.0, "right_sw_ft": 15.0}, "geometry": {"type": "LineString", "coordinates": [[-73.92062655579812, 40.878021946300905], [-73.92090110047312, 40.87776688609013]]}}, {"type": "Feature", "properties": {"segment_id": 907482, "physicalid": "63423", "street_name": "EDSALL AVE", "borough": "bronx", "direction": "TW", "total_row_ft": 57.1, "roadbed_ft": 27.1, "median_ft": 0.0, "left_sw_ft": 15.0, "right_sw_ft": 15.0}, "geometry": {"type": "LineString", "coordinates": [[-73.92057054926121, 40.87798721543886], [-73.92084509400767, 40.8777321553597]]}}, {"type": "Feature", "properties": {"segment_id": 907483, "physicalid": "63423", "street_name": "EDSALL AVE", "borough": "bronx", "direction": "TW", "total_row_ft": 57.7, "roadbed_ft": 27.7, "median_ft": 0.0, "left_sw_ft": 15.0, "right_sw_ft": 15.0}, "geometry": {"type": "LineString", "coordinates": [[-73.92051454278283, 40.87795248454937], [-73.92078908760072, 40.87769742460186]]}}, {"type": "Feature", "properties": {"segment_id": 907484, "physicalid": "63423", "street_name": "EDSALL AVE", "borough": "bronx", "direction": "TW", "total_row_ft": 58.0, "roadbed_ft": 28.0, "median_ft": 0.0, "left_sw_ft": 15.0, "right_sw_ft": 15.0}, "geometry": {"type": "LineString", "coordinates": [[-73.92045853636296, 40.87791775363254], [-73.9207330812523, 40.87766269381663]]}}, {"type": "Feature", "properties": {"segment_id": 907485, "physicalid": "63423", "street_name": "EDSALL AVE", "borough": "bronx", "direction": "TW", "total_row_ft": 58.4, "roadbed_ft": 28.4, "median_ft": 0.0, "left_sw_ft": 15.0, "right_sw_ft": 15.0}, "geometry": {"type": "LineString", "coordinates": [[-73.92040982345969, 40.87788954999426], [-73.92066693034194, 40.877624226461684]]}}, {"type": "Feature", "properties": {"segment_id": 907486, "physicalid": "63423", "street_name": "EDSALL AVE", "borough": "bronx", "direction": "TW", "total_row_ft": 58.9, "roadbed_ft": 28.9, "median_ft": 0.0, "left_sw_ft": 15.0, "right_sw_ft": 15.0}, "geometry": {"type": "LineString", "coordinates": [[-73.92035156338967, 40.87785702500145], [-73.92060867037866, 40.877591701597105]]}}, {"type": "Feature", "properties": {"segment_id": 907487, "physicalid": "63423", "street_name": "EDSALL AVE", "borough": "bronx", "direction": "TW", "total_row_ft": 59.4, "roadbed_ft": 29.4, "median_ft": 0.0, "left_sw_ft": 15.0, "right_sw_ft": 15.0}, "geometry": {"type": "LineString", "coordinates": [[-73.92029330337668, 40.87782449997906], [-73.92055041047237, 40.87755917670291]]}}, {"type": "Feature", "properties": {"segment_id": 907488, "physicalid": "63423", "street_name": "EDSALL AVE", "borough": "bronx", "direction": "TW", "total_row_ft": 60.6, "roadbed_ft": 30.6, "median_ft": 0.0, "left_sw_ft": 15.0, "right_sw_ft": 15.0}, "geometry": {"type": "LineString", "coordinates": [[-73.92023504342067, 40.877791974927035], [-73.92049215062308, 40.87752665177914]]}}, {"type": "Feature", "properties": {"segment_id": 907489, "physicalid": "63423", "street_name": "EDSALL AVE", "borough": "bronx", "direction": "TW", "total_row_ft": 61.8, "roadbed_ft": 31.8, "median_ft": 0.0, "left_sw_ft": 15.0, "right_sw_ft": 15.0}, "geometry": {"type": "LineString", "coordinates": [[-73.92017678352167, 40.87775944984545], [-73.9204338908308, 40.87749412682574]]}}, {"type": "Feature", "properties": {"segment_id": 907490, "physicalid": "63423", "street_name": "EDSALL AVE", "borough": "bronx", "direction": "TW", "total_row_ft": 62.5, "roadbed_ft": 32.5, "median_ft": 0.0, "left_sw_ft": 15.0, "right_sw_ft": 15.0}, "geometry": {"type": "LineString", "coordinates": [[-73.92012593370143, 40.87773345605881], [-73.92036499439837, 40.877458583551025]]}}, {"type": "Feature", "properties": {"segment_id": 907491, "physicalid": "63423", "street_name": "EDSALL AVE", "borough": "bronx", "direction": "TW", "total_row_ft": 63.0, "roadbed_ft": 33.0, "median_ft": 0.0, "left_sw_ft": 15.0, "right_sw_ft": 15.0}, "geometry": {"type": "LineString", "coordinates": [[-73.92006557698625, 40.87770321389837], [-73.92030463782396, 40.87742834151412]]}}, {"type": "Feature", "properties": {"segment_id": 907492, "physicalid": "63423", "street_name": "EDSALL AVE", "borough": "bronx", "direction": "TW", "total_row_ft": 65.0, "roadbed_ft": 35.0, "median_ft": 0.0, "left_sw_ft": 15.0, "right_sw_ft": 15.0}, "geometry": {"type": "LineString", "coordinates": [[-73.92000522032596, 40.87767297170624], [-73.92024428130446, 40.877398099445465]]}}, {"type": "Feature", "properties": {"segment_id": 907493, "physicalid": "63423", "street_name": "EDSALL AVE", "borough": "bronx", "direction": "TW", "total_row_ft": 69.8, "roadbed_ft": 39.8, "median_ft": 0.0, "left_sw_ft": 15.0, "right_sw_ft": 15.0}, "geometry": {"type": "LineString", "coordinates": [[-73.91994486372056, 40.87764272948237], [-73.92018392483986, 40.87736785734509]]}}, {"type": "Feature", "properties": {"segment_id": 967311, "physicalid": "67584", "street_name": "HENRY HUDSON BRG", "borough": "bronx", "direction": "TF", "total_row_ft": 74.7, "roadbed_ft": 44.7, "median_ft": 0.0, "left_sw_ft": 15.0, "right_sw_ft": 15.0}, "geometry": {"type": "LineString", "coordinates": [[-73.92172887939482, 40.87833810253456], [-73.9214530911943, 40.87808381557437]]}}, {"type": "Feature", "properties": {"segment_id": 967312, "physicalid": "67585", "street_name": "HENRY HUDSON BRG", "borough": "bronx", "direction": "TF", "total_row_ft": 74.3, "roadbed_ft": 44.3, "median_ft": 0.0, "left_sw_ft": 15.0, "right_sw_ft": 15.0}, "geometry": {"type": "LineString", "coordinates": [[-73.92161042197881, 40.87841031497942], [-73.92134541632228, 40.87814950607684]]}}, {"type": "Feature", "properties": {"segment_id": 967313, "physicalid": "67586", "street_name": "HENRY HUDSON BRG", "borough": "bronx", "direction": "TF", "total_row_ft": 126.8, "roadbed_ft": 96.8, "median_ft": 0.0, "left_sw_ft": 15.0, "right_sw_ft": 15.0}, "geometry": {"type": "LineString", "coordinates": [[-73.92148837963045, 40.8784857529648], [-73.92119193909716, 40.87824522486509]]}}, {"type": "Feature", "properties": {"segment_id": 967314, "physicalid": "67586", "street_name": "HENRY HUDSON BRG", "borough": "bronx", "direction": "TF", "total_row_ft": 74.5, "roadbed_ft": 44.5, "median_ft": 0.0, "left_sw_ft": 15.0, "right_sw_ft": 15.0}, "geometry": {"type": "LineString", "coordinates": [[-73.92142931557954, 40.87852657446475], [-73.92114410956604, 40.878278343991866]]}}, {"type": "Feature", "properties": {"segment_id": 967315, "physicalid": "67586", "street_name": "HENRY HUDSON BRG", "borough": "bronx", "direction": "TF", "total_row_ft": 74.6, "roadbed_ft": 44.6, "median_ft": 0.0, "left_sw_ft": 15.0, "right_sw_ft": 15.0}, "geometry": {"type": "LineString", "coordinates": [[-73.9213748082584, 40.87856265371536], [-73.92108960229365, 40.87831442310941]]}}, {"type": "Feature", "properties": {"segment_id": 967316, "physicalid": "67586", "street_name": "HENRY HUDSON BRG", "borough": "bronx", "direction": "TF", "total_row_ft": 74.7, "roadbed_ft": 44.7, "median_ft": 0.0, "left_sw_ft": 15.0, "right_sw_ft": 15.0}, "geometry": {"type": "LineString", "coordinates": [[-73.92132030087812, 40.87859873293998], [-73.92103509496211, 40.87835050220096]]}}, {"type": "Feature", "properties": {"segment_id": 967317, "physicalid": "67586", "street_name": "HENRY HUDSON BRG", "borough": "bronx", "direction": "TF", "total_row_ft": 74.6, "roadbed_ft": 44.6, "median_ft": 0.0, "left_sw_ft": 15.0, "right_sw_ft": 15.0}, "geometry": {"type": "LineString", "coordinates": [[-73.92126579343869, 40.87863481213859], [-73.92098058757139, 40.87838658126651]]}}, {"type": "Feature", "properties": {"segment_id": 967318, "physicalid": "67586", "street_name": "HENRY HUDSON BRG", "borough": "bronx", "direction": "TF", "total_row_ft": 74.5, "roadbed_ft": 44.5, "median_ft": 0.0, "left_sw_ft": 15.0, "right_sw_ft": 15.0}, "geometry": {"type": "LineString", "coordinates": [[-73.92121128594007, 40.87867089131125], [-73.92092608012153, 40.8784226603061]]}}, {"type": "Feature", "properties": {"segment_id": 967319, "physicalid": "67586", "street_name": "HENRY HUDSON BRG", "borough": "bronx", "direction": "TF", "total_row_ft": 74.4, "roadbed_ft": 44.4, "median_ft": 0.0, "left_sw_ft": 15.0, "right_sw_ft": 15.0}, "geometry": {"type": "LineString", "coordinates": [[-73.92115677838231, 40.87870697045793], [-73.92087157261251, 40.87845873931969]]}}, {"type": "Feature", "properties": {"segment_id": 967320, "physicalid": "67586", "street_name": "HENRY HUDSON BRG", "borough": "bronx", "direction": "TF", "total_row_ft": 74.2, "roadbed_ft": 44.2, "median_ft": 0.0, "left_sw_ft": 15.0, "right_sw_ft": 15.0}, "geometry": {"type": "LineString", "coordinates": [[-73.9211022707654, 40.87874304957861], [-73.92081706504433, 40.87849481830732]]}}, {"type": "Feature", "properties": {"segment_id": 967321, "physicalid": "67586", "street_name": "HENRY HUDSON BRG", "borough": "bronx", "direction": "TF", "total_row_ft": 74.1, "roadbed_ft": 44.1, "median_ft": 0.0, "left_sw_ft": 15.0, "right_sw_ft": 15.0}, "geometry": {"type": "LineString", "coordinates": [[-73.92104548752226, 40.878780028533455], [-73.92076406553045, 40.87852932164144]]}}, {"type": "Feature", "properties": {"segment_id": 967322, "physicalid": "67586", "street_name": "HENRY HUDSON BRG", "borough": "bronx", "direction": "TF", "total_row_ft": 74.1, "roadbed_ft": 44.1, "median_ft": 0.0, "left_sw_ft": 15.0, "right_sw_ft": 15.0}, "geometry": {"type": "LineString", "coordinates": [[-73.92099043620551, 40.878815628959686], [-73.92070901427057, 40.87856492193506]]}}, {"type": "Feature", "properties": {"segment_id": 967323, "physicalid": "67586", "street_name": "HENRY HUDSON BRG", "borough": "bronx", "direction": "TF", "total_row_ft": 74.1, "roadbed_ft": 44.1, "median_ft": 0.0, "left_sw_ft": 15.0, "right_sw_ft": 15.0}, "geometry": {"type": "LineString", "coordinates": [[-73.92093538482982, 40.87885122935942], [-73.92065396295173, 40.878600522202234]]}}, {"type": "Feature", "properties": {"segment_id": 967324, "physicalid": "67586", "street_name": "HENRY HUDSON BRG", "borough": "bronx", "direction": "TF", "total_row_ft": 76.0, "roadbed_ft": 44.1, "median_ft": 0.0, "left_sw_ft": 15.0, "right_sw_ft": 16.8}, "geometry": {"type": "LineString", "coordinates": [[-73.92088033339513, 40.87888682973269], [-73.92059891157398, 40.87863612244286]]}}, {"type": "Feature", "properties": {"segment_id": 967325, "physicalid": "67586", "street_name": "HENRY HUDSON BRG", "borough": "bronx", "direction": "TF", "total_row_ft": 78.8, "roadbed_ft": 44.1, "median_ft": 0.0, "left_sw_ft": 15.0, "right_sw_ft": 19.7}, "geometry": {"type": "LineString", "coordinates": [[-73.92079999272026, 40.87889990106266], [-73.92054386013726, 40.87867172265701]]}}, {"type": "Feature", "properties": {"segment_id": 967326, "physicalid": "67586", "street_name": "HENRY HUDSON BRG", "borough": "bronx", "direction": "TF", "total_row_ft": 74.2, "roadbed_ft": 44.2, "median_ft": 0.0, "left_sw_ft": 15.0, "right_sw_ft": 15.0}, "geometry": {"type": "LineString", "coordinates": [[-73.92077023034891, 40.87895803039972], [-73.92048880864158, 40.878707322844676]]}}, {"type": "Feature", "properties": {"segment_id": 967327, "physicalid": "67586", "street_name": "HENRY HUDSON BRG", "borough": "bronx", "direction": "TF", "total_row_ft": 74.3, "roadbed_ft": 44.3, "median_ft": 0.0, "left_sw_ft": 15.0, "right_sw_ft": 15.0}, "geometry": {"type": "LineString", "coordinates": [[-73.92071517873737, 40.87899363069352], [-73.92043375708694, 40.87874292300586]]}}, {"type": "Feature", "properties": {"segment_id": 967328, "physicalid": "67586", "street_name": "HENRY HUDSON BRG", "borough": "bronx", "direction": "TF", "total_row_ft": 74.4, "roadbed_ft": 44.4, "median_ft": 0.0, "left_sw_ft": 15.0, "right_sw_ft": 15.0}, "geometry": {"type": "LineString", "coordinates": [[-73.92066012706688, 40.87902923096082], [-73.92037870547335, 40.87877852314053]]}}, {"type": "Feature", "properties": {"segment_id": 967329, "physicalid": "67586", "street_name": "HENRY HUDSON BRG", "borough": "bronx", "direction": "TF", "total_row_ft": 74.4, "roadbed_ft": 44.4, "median_ft": 0.0, "left_sw_ft": 15.0, "right_sw_ft": 15.0}, "geometry": {"type": "LineString", "coordinates": [[-73.92060507533743, 40.87906483120162], [-73.9203236538008, 40.87881412324872]]}}, {"type": "Feature", "properties": {"segment_id": 967330, "physicalid": "67586", "street_name": "HENRY HUDSON BRG", "borough": "bronx", "direction": "TF", "total_row_ft": 85.4, "roadbed_ft": 55.4, "median_ft": 0.0, "left_sw_ft": 15.0, "right_sw_ft": 15.0}, "geometry": {"type": "LineString", "coordinates": [[-73.92055002354907, 40.8791004314159], [-73.92026860206929, 40.87884972333044]]}}, {"type": "Feature", "properties": {"segment_id": 967331, "physicalid": "67586", "street_name": "HENRY HUDSON BRG", "borough": "bronx", "direction": "TF", "total_row_ft": 103.0, "roadbed_ft": 73.0, "median_ft": 0.0, "left_sw_ft": 15.0, "right_sw_ft": 15.0}, "geometry": {"type": "LineString", "coordinates": [[-73.92049497170169, 40.879136031603736], [-73.92021355027886, 40.87888532338563]]}}, {"type": "Feature", "properties": {"segment_id": 967332, "physicalid": "67587", "street_name": "HENRY HUDSON BRG", "borough": "bronx", "direction": "TF", "total_row_ft": 98.9, "roadbed_ft": 68.9, "median_ft": 0.0, "left_sw_ft": 15.0, "right_sw_ft": 15.0}, "geometry": {"type": "LineString", "coordinates": [[-73.92039851376464, 40.87919730714292], [-73.92012361350723, 40.8789424647087]]}}, {"type": "Feature", "properties": {"segment_id": 967333, "physicalid": "67587", "street_name": "HENRY HUDSON BRG", "borough": "bronx", "direction": "TF", "total_row_ft": 73.4, "roadbed_ft": 43.4, "median_ft": 0.0, "left_sw_ft": 15.0, "right_sw_ft": 15.0}, "geometry": {"type": "LineString", "coordinates": [[-73.92034143163376, 40.87923252424751], [-73.9200684516876, 40.87897649531487]]}}, {"type": "Feature", "properties": {"segment_id": 967334, "physicalid": "67587", "street_name": "HENRY HUDSON BRG", "borough": "bronx", "direction": "TF", "total_row_ft": 123.6, "roadbed_ft": 93.6, "median_ft": 0.0, "left_sw_ft": 15.0, "right_sw_ft": 15.0}, "geometry": {"type": "LineString", "coordinates": [[-73.92028521128762, 40.879267056502584], [-73.92001223141617, 40.8790110274386]]}}, {"type": "Feature", "properties": {"segment_id": 967335, "physicalid": "67588", "street_name": "HENRY HUDSON BRG", "borough": "bronx", "direction": "TF", "total_row_ft": 88.3, "roadbed_ft": 58.8, "median_ft": 0.0, "left_sw_ft": 15.0, "right_sw_ft": 14.5}, "geometry": {"type": "LineString", "coordinates": [[-73.92014858889719, 40.87926851461686], [-73.91991926473732, 40.879070456300454]]}}, {"type": "Feature", "properties": {"segment_id": 967336, "physicalid": "67588", "street_name": "HENRY HUDSON BRG", "borough": "bronx", "direction": "TF", "total_row_ft": 71.9, "roadbed_ft": 41.9, "median_ft": 0.0, "left_sw_ft": 15.0, "right_sw_ft": 15.0}, "geometry": {"type": "LineString", "coordinates": [[-73.92015139579694, 40.87935409482624], [-73.91986493884629, 40.87910669323343]]}}, {"type": "Feature", "properties": {"segment_id": 1090427, "physicalid": "75342", "street_name": "PALISADE AVE", "borough": "bronx", "direction": "TW", "total_row_ft": 95.0, "roadbed_ft": 75.5, "median_ft": 0.0, "left_sw_ft": 16.2, "right_sw_ft": 3.3}, "geometry": {"type": "LineString", "coordinates": [[-73.92110417938093, 40.87954245903741], [-73.9207756488444, 40.879618361667056]]}}, {"type": "Feature", "properties": {"segment_id": 1090428, "physicalid": "75342", "street_name": "PALISADE AVE", "borough": "bronx", "direction": "TW", "total_row_ft": 109.5, "roadbed_ft": 77.4, "median_ft": 0.0, "left_sw_ft": 17.1, "right_sw_ft": 15.0}, "geometry": {"type": "LineString", "coordinates": [[-73.9211184191645, 40.879580318303454], [-73.92081199607968, 40.87969514101804]]}}, {"type": "Feature", "properties": {"segment_id": 1090429, "physicalid": "75342", "street_name": "PALISADE AVE", "borough": "bronx", "direction": "TW", "total_row_ft": 52.1, "roadbed_ft": 21.7, "median_ft": 0.0, "left_sw_ft": 15.4, "right_sw_ft": 15.0}, "geometry": {"type": "LineString", "coordinates": [[-73.92113860083087, 40.879633975156594], [-73.9208440131108, 40.87974436292529]]}}, {"type": "Feature", "properties": {"segment_id": 1090430, "physicalid": "75342", "street_name": "PALISADE AVE", "borough": "bronx", "direction": "TW", "total_row_ft": 48.3, "roadbed_ft": 20.7, "median_ft": 0.0, "left_sw_ft": 12.6, "right_sw_ft": 15.0}, "geometry": {"type": "LineString", "coordinates": [[-73.92115416869854, 40.87967536527388], [-73.92090112852077, 40.87981431184981]]}}, {"type": "Feature", "properties": {"segment_id": 1090431, "physicalid": "75342", "street_name": "PALISADE AVE", "borough": "bronx", "direction": "TW", "total_row_ft": 47.2, "roadbed_ft": 21.3, "median_ft": 0.0, "left_sw_ft": 10.9, "right_sw_ft": 15.0}, "geometry": {"type": "LineString", "coordinates": [[-73.92119020526019, 40.879720564552564], [-73.920947803726, 40.8798631272198]]}}, {"type": "Feature", "properties": {"segment_id": 1090432, "physicalid": "75342", "street_name": "PALISADE AVE", "borough": "bronx", "direction": "TW", "total_row_ft": 48.5, "roadbed_ft": 22.3, "median_ft": 0.0, "left_sw_ft": 11.2, "right_sw_ft": 15.0}, "geometry": {"type": "LineString", "coordinates": [[-73.92123111542148, 40.879753988665215], [-73.92101909991726, 40.87991848873151]]}}, {"type": "Feature", "properties": {"segment_id": 1090433, "physicalid": "75342", "street_name": "PALISADE AVE", "borough": "bronx", "direction": "TW", "total_row_ft": 48.6, "roadbed_ft": 23.2, "median_ft": 0.0, "left_sw_ft": 10.5, "right_sw_ft": 15.0}, "geometry": {"type": "LineString", "coordinates": [[-73.92127087163206, 40.87978646993943], [-73.92110188498988, 40.87997225607837]]}}, {"type": "Feature", "properties": {"segment_id": 1090434, "physicalid": "75342", "street_name": "PALISADE AVE", "borough": "bronx", "direction": "TW", "total_row_ft": 49.3, "roadbed_ft": 22.3, "median_ft": 0.0, "left_sw_ft": 12.0, "right_sw_ft": 15.0}, "geometry": {"type": "LineString", "coordinates": [[-73.92133197531345, 40.87981591376232], [-73.92116140350358, 40.880003442845]]}}, {"type": "Feature", "properties": {"segment_id": 1090435, "physicalid": "75342", "street_name": "PALISADE AVE", "borough": "bronx", "direction": "TW", "total_row_ft": 49.1, "roadbed_ft": 22.1, "median_ft": 0.0, "left_sw_ft": 12.0, "right_sw_ft": 15.0}, "geometry": {"type": "LineString", "coordinates": [[-73.92138311563156, 40.87983706049322], [-73.92125670141499, 40.88004272747612]]}}, {"type": "Feature", "properties": {"segment_id": 1090436, "physicalid": "75342", "street_name": "PALISADE AVE", "borough": "bronx", "direction": "TW", "total_row_ft": 50.6, "roadbed_ft": 23.7, "median_ft": 0.0, "left_sw_ft": 11.8, "right_sw_ft": 15.0}, "geometry": {"type": "LineString", "coordinates": [[-73.92143860904498, 40.87985031960957], [-73.92135582409577, 40.88007435635305]]}}, {"type": "Feature", "properties": {"segment_id": 1090437, "physicalid": "75342", "street_name": "PALISADE AVE", "borough": "bronx", "direction": "TW", "total_row_ft": 51.4, "roadbed_ft": 25.1, "median_ft": 0.0, "left_sw_ft": 11.3, "right_sw_ft": 15.0}, "geometry": {"type": "LineString", "coordinates": [[-73.92150881217219, 40.879863611722854], [-73.92142546156603, 40.88008917991943]]}}, {"type": "Feature", "properties": {"segment_id": 1090438, "physicalid": "75342", "street_name": "PALISADE AVE", "borough": "bronx", "direction": "TW", "total_row_ft": 52.1, "roadbed_ft": 25.6, "median_ft": 0.0, "left_sw_ft": 11.4, "right_sw_ft": 15.0}, "geometry": {"type": "LineString", "coordinates": [[-73.92154242422293, 40.879867620134966], [-73.92158580137944, 40.88009560594971]]}}, {"type": "Feature", "properties": {"segment_id": 1090439, "physicalid": "75342", "street_name": "PALISADE AVE", "borough": "bronx", "direction": "TW", "total_row_ft": 51.6, "roadbed_ft": 24.6, "median_ft": 0.0, "left_sw_ft": 12.0, "right_sw_ft": 15.0}, "geometry": {"type": "LineString", "coordinates": [[-73.92161584402702, 40.87986943554995], [-73.92165738326293, 40.88008776017828]]}}, {"type": "Feature", "properties": {"segment_id": 1090440, "physicalid": "75342", "street_name": "PALISADE AVE", "borough": "bronx", "direction": "TW", "total_row_ft": 51.6, "roadbed_ft": 25.2, "median_ft": 0.0, "left_sw_ft": 11.4, "right_sw_ft": 15.0}, "geometry": {"type": "LineString", "coordinates": [[-73.92169957927099, 40.879868645057215], [-73.92169516625862, 40.88008782976748]]}}, {"type": "Feature", "properties": {"segment_id": 1090441, "physicalid": "75342", "street_name": "PALISADE AVE", "borough": "bronx", "direction": "TW", "total_row_ft": 52.7, "roadbed_ft": 26.1, "median_ft": 0.0, "left_sw_ft": 11.6, "right_sw_ft": 15.0}, "geometry": {"type": "LineString", "coordinates": [[-73.92177192563904, 40.879867961994044], [-73.92176748222727, 40.880088668503696]]}}, {"type": "Feature", "properties": {"segment_id": 1090442, "physicalid": "75342", "street_name": "PALISADE AVE", "borough": "bronx", "direction": "TW", "total_row_ft": 54.3, "roadbed_ft": 26.3, "median_ft": 0.0, "left_sw_ft": 13.0, "right_sw_ft": 15.0}, "geometry": {"type": "LineString", "coordinates": [[-73.92185669245488, 40.879871009347326], [-73.92180368778381, 40.880094131097636]]}}, {"type": "Feature", "properties": {"segment_id": 1090443, "physicalid": "75342", "street_name": "PALISADE AVE", "borough": "bronx", "direction": "TW", "total_row_ft": 56.0, "roadbed_ft": 25.7, "median_ft": 0.0, "left_sw_ft": 15.3, "right_sw_ft": 15.0}, "geometry": {"type": "LineString", "coordinates": [[-73.9219289412979, 40.879876235720005], [-73.92187486447038, 40.880103871725524]]}}, {"type": "Feature", "properties": {"segment_id": 1301381, "physicalid": "88996", "street_name": "HENRY HUDSON BRG", "borough": "bronx", "direction": "FT", "total_row_ft": 74.2, "roadbed_ft": 44.2, "median_ft": 0.0, "left_sw_ft": 15.0, "right_sw_ft": 15.0}, "geometry": {"type": "LineString", "coordinates": [[-73.9215691072378, 40.87836030719918], [-73.9212895679622, 40.87810839090361]]}}, {"type": "Feature", "properties": {"segment_id": 1301382, "physicalid": "88997", "street_name": "HENRY HUDSON BRG", "borough": "bronx", "direction": "FT", "total_row_ft": 74.7, "roadbed_ft": 44.7, "median_ft": 0.0, "left_sw_ft": 15.0, "right_sw_ft": 15.0}, "geometry": {"type": "LineString", "coordinates": [[-73.92168013091529, 40.878287207004355], [-73.92139278695633, 40.87804040174297]]}}, {"type": "Feature", "properties": {"segment_id": 1301383, "physicalid": "88998", "street_name": "HENRY HUDSON BRG", "borough": "bronx", "direction": "FT", "total_row_ft": 99.6, "roadbed_ft": 69.6, "median_ft": 0.0, "left_sw_ft": 15.0, "right_sw_ft": 15.0}, "geometry": {"type": "LineString", "coordinates": [[-73.92143377499666, 40.878447562516214], [-73.92114956239608, 40.87819867671836]]}}, {"type": "Feature", "properties": {"segment_id": 1301384, "physicalid": "88998", "street_name": "HENRY HUDSON BRG", "borough": "bronx", "direction": "FT", "total_row_ft": 74.5, "roadbed_ft": 44.5, "median_ft": 0.0, "left_sw_ft": 15.0, "right_sw_ft": 15.0}, "geometry": {"type": "LineString", "coordinates": [[-73.92137912384204, 40.87848351614117], [-73.92109491129239, 40.878234630210336]]}}, {"type": "Feature", "properties": {"segment_id": 1301385, "physicalid": "88998", "street_name": "HENRY HUDSON BRG", "borough": "bronx", "direction": "FT", "total_row_ft": 74.6, "roadbed_ft": 44.6, "median_ft": 0.0, "left_sw_ft": 15.0, "right_sw_ft": 15.0}, "geometry": {"type": "LineString", "coordinates": [[-73.92132695516563, 40.87851807536776], [-73.92103812042305, 40.87827227399238]]}}, {"type": "Feature", "properties": {"segment_id": 1301386, "physicalid": "88998", "street_name": "HENRY HUDSON BRG", "borough": "bronx", "direction": "FT", "total_row_ft": 74.7, "roadbed_ft": 44.7, "median_ft": 0.0, "left_sw_ft": 15.0, "right_sw_ft": 15.0}, "geometry": {"type": "LineString", "coordinates": [[-73.92127298124362, 40.87855461366517], [-73.92098414654185, 40.878308812156355]]}}, {"type": "Feature", "properties": {"segment_id": 1301387, "physicalid": "88998", "street_name": "HENRY HUDSON BRG", "borough": "bronx", "direction": "FT", "total_row_ft": 74.6, "roadbed_ft": 44.6, "median_ft": 0.0, "left_sw_ft": 15.0, "right_sw_ft": 15.0}, "geometry": {"type": "LineString", "coordinates": [[-73.92121900726231, 40.878591151937094], [-73.92093017260132, 40.878345350294836]]}}, {"type": "Feature", "properties": {"segment_id": 1301388, "physicalid": "88998", "street_name": "HENRY HUDSON BRG", "borough": "bronx", "direction": "FT", "total_row_ft": 74.5, "roadbed_ft": 44.5, "median_ft": 0.0, "left_sw_ft": 15.0, "right_sw_ft": 15.0}, "geometry": {"type": "LineString", "coordinates": [[-73.92116503322165, 40.878627690183514], [-73.92087619860148, 40.878381888407816]]}}, {"type": "Feature", "properties": {"segment_id": 1301389, "physicalid": "88998", "street_name": "HENRY HUDSON BRG", "borough": "bronx", "direction": "FT", "total_row_ft": 74.4, "roadbed_ft": 44.4, "median_ft": 0.0, "left_sw_ft": 15.0, "right_sw_ft": 15.0}, "geometry": {"type": "LineString", "coordinates": [[-73.92111105912166, 40.878664228404475], [-73.92082222454232, 40.87841842649533]]}}, {"type": "Feature", "properties": {"segment_id": 1301390, "physicalid": "88998", "street_name": "HENRY HUDSON BRG", "borough": "bronx", "direction": "FT", "total_row_ft": 74.2, "roadbed_ft": 44.2, "median_ft": 0.0, "left_sw_ft": 15.0, "right_sw_ft": 15.0}, "geometry": {"type": "LineString", "coordinates": [[-73.92105708496236, 40.87870076659993], [-73.92076825042383, 40.878454964557335]]}}, {"type": "Feature", "properties": {"segment_id": 1301391, "physicalid": "88998", "street_name": "HENRY HUDSON BRG", "borough": "bronx", "direction": "FT", "total_row_ft": 74.1, "roadbed_ft": 44.1, "median_ft": 0.0, "left_sw_ft": 15.0, "right_sw_ft": 15.0}, "geometry": {"type": "LineString", "coordinates": [[-73.92099990147395, 40.87873868266578], [-73.92071649469692, 40.878489267252036]]}}, {"type": "Feature", "properties": {"segment_id": 1301392, "physicalid": "88998", "street_name": "HENRY HUDSON BRG", "borough": "bronx", "direction": "FT", "total_row_ft": 74.1, "roadbed_ft": 44.1, "median_ft": 0.0, "left_sw_ft": 15.0, "right_sw_ft": 15.0}, "geometry": {"type": "LineString", "coordinates": [[-73.9209451337813, 40.87877453419328], [-73.920661727057, 40.878525118646635]]}}, {"type": "Feature", "properties": {"segment_id": 1301393, "physicalid": "88998", "street_name": "HENRY HUDSON BRG", "borough": "bronx", "direction": "FT", "total_row_ft": 74.1, "roadbed_ft": 44.1, "median_ft": 0.0, "left_sw_ft": 15.0, "right_sw_ft": 15.0}, "geometry": {"type": "LineString", "coordinates": [[-73.92089036602965, 40.87881038569457], [-73.92060695935794, 40.87856097001507]]}}, {"type": "Feature", "properties": {"segment_id": 1301394, "physicalid": "88998", "street_name": "HENRY HUDSON BRG", "borough": "bronx", "direction": "FT", "total_row_ft": 74.1, "roadbed_ft": 44.1, "median_ft": 0.0, "left_sw_ft": 15.0, "right_sw_ft": 15.0}, "geometry": {"type": "LineString", "coordinates": [[-73.92083559821891, 40.8788462371696], [-73.92055219159984, 40.87859682135725]]}}, {"type": "Feature", "properties": {"segment_id": 1301395, "physicalid": "88998", "street_name": "HENRY HUDSON BRG", "borough": "bronx", "direction": "FT", "total_row_ft": 70.5, "roadbed_ft": 44.1, "median_ft": 0.0, "left_sw_ft": 11.3, "right_sw_ft": 15.0}, "geometry": {"type": "LineString", "coordinates": [[-73.9207808303491, 40.87888208861843], [-73.92049742378268, 40.87863267267321]]}}, {"type": "Feature", "properties": {"segment_id": 1301396, "physicalid": "88998", "street_name": "HENRY HUDSON BRG", "borough": "bronx", "direction": "FT", "total_row_ft": 74.2, "roadbed_ft": 44.2, "median_ft": 0.0, "left_sw_ft": 15.0, "right_sw_ft": 15.0}, "geometry": {"type": "LineString", "coordinates": [[-73.92072606242027, 40.87891794004099], [-73.92044265590641, 40.878668523962986]]}}, {"type": "Feature", "properties": {"segment_id": 1301397, "physicalid": "88998", "street_name": "HENRY HUDSON BRG", "borough": "bronx", "direction": "FT", "total_row_ft": 74.3, "roadbed_ft": 44.3, "median_ft": 0.0, "left_sw_ft": 15.0, "right_sw_ft": 15.0}, "geometry": {"type": "LineString", "coordinates": [[-73.92067129443234, 40.87895379143737], [-73.92038788797113, 40.8787043752265]]}}, {"type": "Feature", "properties": {"segment_id": 1301398, "physicalid": "88998", "street_name": "HENRY HUDSON BRG", "borough": "bronx", "direction": "FT", "total_row_ft": 74.4, "roadbed_ft": 44.4, "median_ft": 0.0, "left_sw_ft": 15.0, "right_sw_ft": 15.0}, "geometry": {"type": "LineString", "coordinates": [[-73.92061652638536, 40.878989642807525], [-73.92033311997677, 40.87874022646377]]}}, {"type": "Feature", "properties": {"segment_id": 1301399, "physicalid": "88998", "street_name": "HENRY HUDSON BRG", "borough": "bronx", "direction": "FT", "total_row_ft": 74.4, "roadbed_ft": 44.4, "median_ft": 0.0, "left_sw_ft": 15.0, "right_sw_ft": 15.0}, "geometry": {"type": "LineString", "coordinates": [[-73.92056175827928, 40.87902549415146], [-73.92027835192336, 40.878776077674814]]}}, {"type": "Feature", "properties": {"segment_id": 1301400, "physicalid": "88998", "street_name": "HENRY HUDSON BRG", "borough": "bronx", "direction": "FT", "total_row_ft": 74.5, "roadbed_ft": 44.5, "median_ft": 0.0, "left_sw_ft": 15.0, "right_sw_ft": 15.0}, "geometry": {"type": "LineString", "coordinates": [[-73.92050699011415, 40.87906134546915], [-73.92022358381088, 40.87881192885966]]}}, {"type": "Feature", "properties": {"segment_id": 1301401, "physicalid": "88998", "street_name": "HENRY HUDSON BRG", "borough": "bronx", "direction": "FT", "total_row_ft": 91.9, "roadbed_ft": 61.9, "median_ft": 0.0, "left_sw_ft": 15.0, "right_sw_ft": 15.0}, "geometry": {"type": "LineString", "coordinates": [[-73.92045222188996, 40.87909719676062], [-73.92016881563933, 40.87884778001828]]}}, {"type": "Feature", "properties": {"segment_id": 1301402, "physicalid": "88999", "street_name": "HENRY HUDSON BRG", "borough": "bronx", "direction": "FT", "total_row_ft": 73.9, "roadbed_ft": 43.9, "median_ft": 0.0, "left_sw_ft": 15.0, "right_sw_ft": 15.0}, "geometry": {"type": "LineString", "coordinates": [[-73.92034467187389, 40.87916608478226], [-73.92007005644096, 40.878911065580894]]}}, {"type": "Feature", "properties": {"segment_id": 1301403, "physicalid": "88999", "street_name": "HENRY HUDSON BRG", "borough": "bronx", "direction": "FT", "total_row_ft": 73.1, "roadbed_ft": 43.1, "median_ft": 0.0, "left_sw_ft": 15.0, "right_sw_ft": 15.0}, "geometry": {"type": "LineString", "coordinates": [[-73.9202886733081, 40.87920082396297], [-73.92001405794647, 40.87894580462995]]}}, {"type": "Feature", "properties": {"segment_id": 1301404, "physicalid": "89000", "street_name": "HENRY HUDSON BRG", "borough": "bronx", "direction": "FT", "total_row_ft": 115.8, "roadbed_ft": 85.8, "median_ft": 0.0, "left_sw_ft": 15.0, "right_sw_ft": 15.0}, "geometry": {"type": "LineString", "coordinates": [[-73.92014842097092, 40.879286701494955], [-73.91988071674231, 40.879027483111116]]}}, {"type": "Feature", "properties": {"segment_id": 1700237, "physicalid": "176397", "street_name": "EDSALL AVE", "borough": "bronx", "direction": "TW", "total_row_ft": 74.4, "roadbed_ft": 44.4, "median_ft": 0.0, "left_sw_ft": 15.0, "right_sw_ft": 15.0}, "geometry": {"type": "LineString", "coordinates": [[-73.92046554889068, 40.87892236716831], [-73.92030642229888, 40.87922878604195]]}}, {"type": "Feature", "properties": {"segment_id": 1700238, "physicalid": "176397", "street_name": "EDSALL AVE", "borough": "bronx", "direction": "TW", "total_row_ft": 55.4, "roadbed_ft": 25.4, "median_ft": 0.0, "left_sw_ft": 15.0, "right_sw_ft": 15.0}, "geometry": {"type": "LineString", "coordinates": [[-73.92049514715345, 40.87893076011197], [-73.92041382407692, 40.87925428740882]]}}, {"type": "Feature", "properties": {"segment_id": 1700239, "physicalid": "176397", "street_name": "EDSALL AVE", "borough": "bronx", "direction": "TW", "total_row_ft": 47.8, "roadbed_ft": 17.8, "median_ft": 0.0, "left_sw_ft": 15.0, "right_sw_ft": 15.0}, "geometry": {"type": "LineString", "coordinates": [[-73.92052554880523, 40.878937516375814], [-73.92052565912958, 40.87926687915071]]}}, {"type": "Feature", "properties": {"segment_id": 1700240, "physicalid": "176397", "street_name": "EDSALL AVE", "borough": "bronx", "direction": "TW", "total_row_ft": 49.6, "roadbed_ft": 19.6, "median_ft": 0.0, "left_sw_ft": 15.0, "right_sw_ft": 15.0}, "geometry": {"type": "LineString", "coordinates": [[-73.92059787196251, 40.878937502397065], [-73.92059798264516, 40.87926686517189]]}}, {"type": "Feature", "properties": {"segment_id": 1700241, "physicalid": "176397", "street_name": "EDSALL AVE", "borough": "bronx", "direction": "TW", "total_row_ft": 50.5, "roadbed_ft": 20.5, "median_ft": 0.0, "left_sw_ft": 15.0, "right_sw_ft": 15.0}, "geometry": {"type": "LineString", "coordinates": [[-73.92062881488516, 40.878932244195006], [-73.92070967079614, 40.87925583894001]]}}, {"type": "Feature", "properties": {"segment_id": 1700242, "physicalid": "176397", "street_name": "EDSALL AVE", "borough": "bronx", "direction": "TW", "total_row_ft": 52.0, "roadbed_ft": 22.0, "median_ft": 0.0, "left_sw_ft": 15.0, "right_sw_ft": 15.0}, "geometry": {"type": "LineString", "coordinates": [[-73.92065992802598, 40.87892492990615], [-73.92081666376228, 40.87923205785867]]}}, {"type": "Feature", "properties": {"segment_id": 1700243, "physicalid": "176397", "street_name": "EDSALL AVE", "borough": "bronx", "direction": "TW", "total_row_ft": 52.6, "roadbed_ft": 22.6, "median_ft": 0.0, "left_sw_ft": 15.0, "right_sw_ft": 15.0}, "geometry": {"type": "LineString", "coordinates": [[-73.92075795946572, 40.87890085967226], [-73.92085565808303, 40.8792217662909]]}}, {"type": "Feature", "properties": {"segment_id": 1700244, "physicalid": "176397", "street_name": "EDSALL AVE", "borough": "bronx", "direction": "TW", "total_row_ft": 41.2, "roadbed_ft": 20.5, "median_ft": 0.0, "left_sw_ft": 5.7, "right_sw_ft": 15.0}, "geometry": {"type": "LineString", "coordinates": [[-73.9208473877353, 40.87888584248755], [-73.9209071625823, 40.87921206550711]]}}, {"type": "Feature", "properties": {"segment_id": 1700245, "physicalid": "176397", "street_name": "EDSALL AVE", "borough": "bronx", "direction": "TW", "total_row_ft": 42.7, "roadbed_ft": 20.2, "median_ft": 0.0, "left_sw_ft": 7.5, "right_sw_ft": 15.0}, "geometry": {"type": "LineString", "coordinates": [[-73.920943116101, 40.8788825717133], [-73.92095596706127, 40.87921179004062]]}}, {"type": "Feature", "properties": {"segment_id": 1700246, "physicalid": "176397", "street_name": "EDSALL AVE", "borough": "bronx", "direction": "TW", "total_row_ft": 42.9, "roadbed_ft": 20.8, "median_ft": 0.0, "left_sw_ft": 7.1, "right_sw_ft": 15.0}, "geometry": {"type": "LineString", "coordinates": [[-73.92105879312153, 40.878889609899886], [-73.92098368217536, 40.87921400124733]]}}, {"type": "Feature", "properties": {"segment_id": 1700247, "physicalid": "176397", "street_name": "EDSALL AVE", "borough": "bronx", "direction": "TW", "total_row_ft": 44.6, "roadbed_ft": 21.6, "median_ft": 0.0, "left_sw_ft": 8.0, "right_sw_ft": 15.0}, "geometry": {"type": "LineString", "coordinates": [[-73.92117244611153, 40.87890951412621], [-73.9210116230384, 40.87921542232461]]}}, {"type": "Feature", "properties": {"segment_id": 1700248, "physicalid": "176397", "street_name": "EDSALL AVE", "borough": "bronx", "direction": "TW", "total_row_ft": 45.3, "roadbed_ft": 21.4, "median_ft": 0.0, "left_sw_ft": 8.9, "right_sw_ft": 15.0}, "geometry": {"type": "LineString", "coordinates": [[-73.92123961900973, 40.878929858333535], [-73.92107879619648, 40.879235766624426]]}}, {"type": "Feature", "properties": {"segment_id": 1700249, "physicalid": "176397", "street_name": "EDSALL AVE", "borough": "bronx", "direction": "TW", "total_row_ft": 43.8, "roadbed_ft": 21.0, "median_ft": 0.0, "left_sw_ft": 7.7, "right_sw_ft": 15.0}, "geometry": {"type": "LineString", "coordinates": [[-73.92134142896924, 40.87897214843894], [-73.92110245226216, 40.87924706566826]]}}, {"type": "Feature", "properties": {"segment_id": 1700250, "physicalid": "176397", "street_name": "EDSALL AVE", "borough": "bronx", "direction": "TW", "total_row_ft": 39.1, "roadbed_ft": 21.5, "median_ft": 0.0, "left_sw_ft": 2.6, "right_sw_ft": 15.0}, "geometry": {"type": "LineString", "coordinates": [[-73.9214329589679, 40.87902475897909], [-73.92112756219286, 40.87925874551889]]}}, {"type": "Feature", "properties": {"segment_id": 1700251, "physicalid": "176399", "street_name": "PALISADE AVE", "borough": "bronx", "direction": "TW", "total_row_ft": 50.3, "roadbed_ft": 29.7, "median_ft": 0.0, "left_sw_ft": 15.0, "right_sw_ft": 5.5}, "geometry": {"type": "LineString", "coordinates": [[-73.92029702245335, 40.87908083154451], [-73.92013457122611, 40.87926018486236]]}}, {"type": "Feature", "properties": {"segment_id": 1700252, "physicalid": "176399", "street_name": "PALISADE AVE", "borough": "bronx", "direction": "TW", "total_row_ft": 50.1, "roadbed_ft": 29.4, "median_ft": 0.0, "left_sw_ft": 15.0, "right_sw_ft": 5.7}, "geometry": {"type": "LineString", "coordinates": [[-73.92035662061353, 40.8791119296879], [-73.9201926656716, 40.879292943345554]]}}, {"type": "Feature", "properties": {"segment_id": 1700253, "physicalid": "176399", "street_name": "PALISADE AVE", "borough": "bronx", "direction": "TW", "total_row_ft": 50.2, "roadbed_ft": 29.4, "median_ft": 0.0, "left_sw_ft": 15.0, "right_sw_ft": 5.8}, "geometry": {"type": "LineString", "coordinates": [[-73.92038920041797, 40.87912963557147], [-73.92026248059837, 40.87932693059111]]}}, {"type": "Feature", "properties": {"segment_id": 1700254, "physicalid": "176399", "street_name": "PALISADE AVE", "borough": "bronx", "direction": "TW", "total_row_ft": 50.0, "roadbed_ft": 29.2, "median_ft": 0.0, "left_sw_ft": 15.0, "right_sw_ft": 5.9}, "geometry": {"type": "LineString", "coordinates": [[-73.9204542102978, 40.87915369000341], [-73.92032594251526, 40.87935339540175]]}}, {"type": "Feature", "properties": {"segment_id": 1700255, "physicalid": "176399", "street_name": "PALISADE AVE", "borough": "bronx", "direction": "TW", "total_row_ft": 49.5, "roadbed_ft": 28.4, "median_ft": 0.0, "left_sw_ft": 15.0, "right_sw_ft": 6.0}, "geometry": {"type": "LineString", "coordinates": [[-73.9204904138221, 40.879166824060675], [-73.9204025199036, 40.87937830379961]]}}, {"type": "Feature", "properties": {"segment_id": 1700256, "physicalid": "176399", "street_name": "PALISADE AVE", "borough": "bronx", "direction": "TW", "total_row_ft": 46.8, "roadbed_ft": 25.5, "median_ft": 0.0, "left_sw_ft": 15.0, "right_sw_ft": 6.3}, "geometry": {"type": "LineString", "coordinates": [[-73.92055938687342, 40.87918333820805], [-73.92047298502143, 40.87939122844684]]}}, {"type": "Feature", "properties": {"segment_id": 1700257, "physicalid": "176399", "street_name": "PALISADE AVE", "borough": "bronx", "direction": "TW", "total_row_ft": 43.4, "roadbed_ft": 23.9, "median_ft": 0.0, "left_sw_ft": 15.0, "right_sw_ft": 4.6}, "geometry": {"type": "LineString", "coordinates": [[-73.92055449075642, 40.879185325933705], [-73.92056717301023, 40.879397897827964]]}}, {"type": "Feature", "properties": {"segment_id": 1700258, "physicalid": "176399", "street_name": "PALISADE AVE", "borough": "bronx", "direction": "TW", "total_row_ft": 42.7, "roadbed_ft": 22.9, "median_ft": 0.0, "left_sw_ft": 15.0, "right_sw_ft": 4.8}, "geometry": {"type": "LineString", "coordinates": [[-73.92067291424583, 40.879187445406906], [-73.9206244242364, 40.87940276131977]]}}, {"type": "Feature", "properties": {"segment_id": 1700259, "physicalid": "176399", "street_name": "PALISADE AVE", "borough": "bronx", "direction": "TW", "total_row_ft": 41.7, "roadbed_ft": 21.6, "median_ft": 0.0, "left_sw_ft": 15.0, "right_sw_ft": 5.1}, "geometry": {"type": "LineString", "coordinates": [[-73.92075839793486, 40.87919890836419], [-73.92069130934023, 40.87941056548803]]}}, {"type": "Feature", "properties": {"segment_id": 1700260, "physicalid": "176399", "street_name": "PALISADE AVE", "borough": "bronx", "direction": "TW", "total_row_ft": 41.4, "roadbed_ft": 21.8, "median_ft": 0.0, "left_sw_ft": 15.0, "right_sw_ft": 4.6}, "geometry": {"type": "LineString", "coordinates": [[-73.92085744863437, 40.8792275949175], [-73.92075111662362, 40.87942283888891]]}}, {"type": "Feature", "properties": {"segment_id": 1700261, "physicalid": "176399", "street_name": "PALISADE AVE", "borough": "bronx", "direction": "TW", "total_row_ft": 43.4, "roadbed_ft": 23.6, "median_ft": 0.0, "left_sw_ft": 15.0, "right_sw_ft": 4.7}, "geometry": {"type": "LineString", "coordinates": [[-73.92096126916368, 40.87927433490464], [-73.92080442490983, 40.87944203927185]]}}, {"type": "Feature", "properties": {"segment_id": 1700262, "physicalid": "176399", "street_name": "PALISADE AVE", "borough": "bronx", "direction": "TW", "total_row_ft": 44.1, "roadbed_ft": 23.8, "median_ft": 0.0, "left_sw_ft": 15.0, "right_sw_ft": 5.3}, "geometry": {"type": "LineString", "coordinates": [[-73.92105113836263, 40.87933477369288], [-73.92085198052153, 40.87947029664819]]}}, {"type": "Feature", "properties": {"segment_id": 1700263, "physicalid": "176399", "street_name": "PALISADE AVE", "borough": "bronx", "direction": "TW", "total_row_ft": 63.7, "roadbed_ft": 37.8, "median_ft": 0.0, "left_sw_ft": 15.0, "right_sw_ft": 10.9}, "geometry": {"type": "LineString", "coordinates": [[-73.92112341643498, 40.87940600328422], [-73.92083224228313, 40.879531444281916]]}}, {"type": "Feature", "properties": {"segment_id": 1734184, "physicalid": "185496", "street_name": "INDEPENDENCE AVE", "borough": "bronx", "direction": "TF", "total_row_ft": 90.9, "roadbed_ft": 75.6, "median_ft": 0.0, "left_sw_ft": 5.3, "right_sw_ft": 9.9}, "geometry": {"type": "LineString", "coordinates": [[-73.92111290920991, 40.879659943180656], [-73.92084499607392, 40.8795155227348]]}}, {"type": "Feature", "properties": {"segment_id": 1734185, "physicalid": "185496", "street_name": "INDEPENDENCE AVE", "borough": "bronx", "direction": "TF", "total_row_ft": 86.4, "roadbed_ft": 66.0, "median_ft": 0.0, "left_sw_ft": 5.3, "right_sw_ft": 15.0}, "geometry": {"type": "LineString", "coordinates": [[-73.92107103071902, 40.8797046980311], [-73.9208072534305, 40.879562507005076]]}}, {"type": "Feature", "properties": {"segment_id": 1734186, "physicalid": "185496", "street_name": "INDEPENDENCE AVE", "borough": "bronx", "direction": "TF", "total_row_ft": 60.5, "roadbed_ft": 39.8, "median_ft": 0.0, "left_sw_ft": 5.6, "right_sw_ft": 15.0}, "geometry": {"type": "LineString", "coordinates": [[-73.92102915217176, 40.87974945286599], [-73.92076856060137, 40.87960897908472]]}}, {"type": "Feature", "properties": {"segment_id": 1734187, "physicalid": "185496", "street_name": "INDEPENDENCE AVE", "borough": "bronx", "direction": "TF", "total_row_ft": 58.7, "roadbed_ft": 37.8, "median_ft": 0.0, "left_sw_ft": 5.9, "right_sw_ft": 15.0}, "geometry": {"type": "LineString", "coordinates": [[-73.9209872735681, 40.879794207685315], [-73.92072986794781, 40.87965545127481]]}}, {"type": "Feature", "properties": {"segment_id": 1734188, "physicalid": "185496", "street_name": "INDEPENDENCE AVE", "borough": "bronx", "direction": "TF", "total_row_ft": 56.9, "roadbed_ft": 36.5, "median_ft": 0.0, "left_sw_ft": 5.5, "right_sw_ft": 15.0}, "geometry": {"type": "LineString", "coordinates": [[-73.92094539490807, 40.879838962489096], [-73.92069340199265, 40.879703123804205]]}}, {"type": "Feature", "properties": {"segment_id": 1734189, "physicalid": "185496", "street_name": "INDEPENDENCE AVE", "borough": "bronx", "direction": "TF", "total_row_ft": 55.8, "roadbed_ft": 35.7, "median_ft": 0.0, "left_sw_ft": 5.2, "right_sw_ft": 15.0}, "geometry": {"type": "LineString", "coordinates": [[-73.92090351619166, 40.87988371727727], [-73.9206570867677, 40.87975087760246]]}}, {"type": "Feature", "properties": {"segment_id": 1734190, "physicalid": "185496", "street_name": "INDEPENDENCE AVE", "borough": "bronx", "direction": "TF", "total_row_ft": 55.4, "roadbed_ft": 35.0, "median_ft": 0.0, "left_sw_ft": 5.4, "right_sw_ft": 15.0}, "geometry": {"type": "LineString", "coordinates": [[-73.92086163741885, 40.87992847204993], [-73.92061958807356, 40.8797979934562]]}}, {"type": "Feature", "properties": {"segment_id": 1734191, "physicalid": "185496", "street_name": "INDEPENDENCE AVE", "borough": "bronx", "direction": "TF", "total_row_ft": 55.5, "roadbed_ft": 34.7, "median_ft": 0.0, "left_sw_ft": 5.7, "right_sw_ft": 15.0}, "geometry": {"type": "LineString", "coordinates": [[-73.92081975858969, 40.87997322680701], [-73.9205813995906, 40.87984473748838]]}}, {"type": "Feature", "properties": {"segment_id": 1734192, "physicalid": "185496", "street_name": "INDEPENDENCE AVE", "borough": "bronx", "direction": "TF", "total_row_ft": 55.8, "roadbed_ft": 35.1, "median_ft": 0.0, "left_sw_ft": 5.6, "right_sw_ft": 15.0}, "geometry": {"type": "LineString", "coordinates": [[-73.92077787970413, 40.88001798154852], [-73.92054277695324, 40.879891247501114]]}}]}