{"type": "FeatureCollection", "features": [{"type": "Feature", "properties": {"segment_id": 1226776, "physicalid": "84721", "street_name": "PEDESTRIAN OPAS", "borough": "bronx", "direction": "NV", "total_row_ft": 77.0, "roadbed_ft": 47.0, "median_ft": 0.0, "left_sw_ft": 15.0, "right_sw_ft": 15.0}, "geometry": {"type": "LineString", "coordinates": [[-73.9109632171479, 40.91282738750404], [-73.91057716613132, 40.9129780831452]]}}, {"type": "Feature", "properties": {"segment_id": 1226777, "physicalid": "84721", "street_name": "PEDESTRIAN OPAS", "borough": "bronx", "direction": "NV", "total_row_ft": 85.3, "roadbed_ft": 55.3, "median_ft": 0.0, "left_sw_ft": 15.0, "right_sw_ft": 15.0}, "geometry": {"type": "LineString", "coordinates": [[-73.91099632491708, 40.91287619810193], [-73.91061027369203, 40.913026893852354]]}}, {"type": "Feature", "properties": {"segment_id": 1226778, "physicalid": "84721", "street_name": "PEDESTRIAN OPAS", "borough": "bronx", "direction": "NV", "total_row_ft": 17.6, "roadbed_ft": 0.0, "median_ft": 0.0, "left_sw_ft": 8.9, "right_sw_ft": 8.8}, "geometry": {"type": "LineString", "coordinates": [[-73.91085922773892, 40.912962722592034], [-73.91084330434701, 40.91300962517207]]}}, {"type": "Feature", "properties": {"segment_id": 1226779, "physicalid": "84721", "street_name": "PEDESTRIAN OPAS", "borough": "bronx", "direction": "NV", "total_row_ft": 30.0, "roadbed_ft": 0.0, "median_ft": 0.0, "left_sw_ft": 15.0, "right_sw_ft": 15.0}, "geometry": {"type": "LineString", "coordinates": [[-73.91097544814548, 40.91284048629002], [-73.91086716440235, 40.91315943860285]]}}, {"type": "Feature", "properties": {"segment_id": 1226780, "physicalid": "84721", "street_name": "PEDESTRIAN OPAS", "borough": "bronx", "direction": "NV", "total_row_ft": 30.0, "roadbed_ft": 0.0, "median_ft": 0.0, "left_sw_ft": 15.0, "right_sw_ft": 15.0}, "geometry": {"type": "LineString", "coordinates": [[-73.91104552152406, 40.91285417715444], [-73.91093723809495, 40.91317312953214]]}}, {"type": "Feature", "properties": {"segment_id": 1308944, "physicalid": "89426", "street_name": "MARILLAC HL", "borough": "bronx", "direction": "FT", "total_row_ft": 49.9, "roadbed_ft": 19.9, "median_ft": 0.0, "left_sw_ft": 15.0, "right_sw_ft": 15.0}, "geometry": {"type": "LineString", "coordinates": [[-73.91013751097522, 40.91246004240947], [-73.90994839829168, 40.912756515808425]]}}, {"type": "Feature", "properties": {"segment_id": 1308945, "physicalid": "89426", "street_name": "MARILLAC HL", "borough": "bronx", "direction": "FT", "total_row_ft": 72.4, "roadbed_ft": 42.4, "median_ft": 0.0, "left_sw_ft": 15.0, "right_sw_ft": 15.0}, "geometry": {"type": "LineString", "coordinates": [[-73.91020264542362, 40.91248395305344], [-73.91001353296258, 40.9127804265577]]}}, {"type": "Feature", "properties": {"segment_id": 1308946, "physicalid": "89426", "street_name": "MARILLAC HL", "borough": "bronx", "direction": "FT", "total_row_ft": 72.1, "roadbed_ft": 42.1, "median_ft": 0.0, "left_sw_ft": 15.0, "right_sw_ft": 15.0}, "geometry": {"type": "LineString", "coordinates": [[-73.91026777991883, 40.912507863660544], [-73.91007866768041, 40.91280433727017]]}}, {"type": "Feature", "properties": {"segment_id": 1308947, "physicalid": "89426", "street_name": "MARILLAC HL", "borough": "bronx", "direction": "FT", "total_row_ft": 62.8, "roadbed_ft": 32.8, "median_ft": 0.0, "left_sw_ft": 15.0, "right_sw_ft": 15.0}, "geometry": {"type": "LineString", "coordinates": [[-73.91033291446098, 40.91253177423083], [-73.91014380244503, 40.91282824794571]]}}, {"type": "Feature", "properties": {"segment_id": 1308948, "physicalid": "89426", "street_name": "MARILLAC HL", "borough": "bronx", "direction": "FT", "total_row_ft": 48.5, "roadbed_ft": 18.5, "median_ft": 0.0, "left_sw_ft": 15.0, "right_sw_ft": 15.0}, "geometry": {"type": "LineString", "coordinates": [[-73.91039804904993, 40.912555684764264], [-73.91020893725663, 40.912852158584464]]}}, {"type": "Feature", "properties": {"segment_id": 1308949, "physicalid": "89426", "street_name": "MARILLAC HL", "borough": "bronx", "direction": "FT", "total_row_ft": 48.4, "roadbed_ft": 18.4, "median_ft": 0.0, "left_sw_ft": 15.0, "right_sw_ft": 15.0}, "geometry": {"type": "LineString", "coordinates": [[-73.91046318368585, 40.91257959526083], [-73.91027407211499, 40.912876069186325]]}}, {"type": "Feature", "properties": {"segment_id": 1308950, "physicalid": "89426", "street_name": "MARILLAC HL", "borough": "bronx", "direction": "FT", "total_row_ft": 49.1, "roadbed_ft": 19.1, "median_ft": 0.0, "left_sw_ft": 15.0, "right_sw_ft": 15.0}, "geometry": {"type": "LineString", "coordinates": [[-73.91052831836858, 40.912603505720554], [-73.91033920702029, 40.912899979751344]]}}, {"type": "Feature", "properties": {"segment_id": 1308951, "physicalid": "89426", "street_name": "MARILLAC HL", "borough": "bronx", "direction": "FT", "total_row_ft": 49.8, "roadbed_ft": 19.8, "median_ft": 0.0, "left_sw_ft": 15.0, "right_sw_ft": 15.0}, "geometry": {"type": "LineString", "coordinates": [[-73.91059345309817, 40.91262741614341], [-73.91040434197245, 40.91292389027951]]}}, {"type": "Feature", "properties": {"segment_id": 1308952, "physicalid": "89426", "street_name": "MARILLAC HL", "borough": "bronx", "direction": "FT", "total_row_ft": 50.5, "roadbed_ft": 20.5, "median_ft": 0.0, "left_sw_ft": 15.0, "right_sw_ft": 15.0}, "geometry": {"type": "LineString", "coordinates": [[-73.91065858787466, 40.912651326529435], [-73.91046947697147, 40.91294780077084]]}}, {"type": "Feature", "properties": {"segment_id": 1308953, "physicalid": "89426", "street_name": "MARILLAC HL", "borough": "bronx", "direction": "FT", "total_row_ft": 51.3, "roadbed_ft": 21.3, "median_ft": 0.0, "left_sw_ft": 15.0, "right_sw_ft": 15.0}, "geometry": {"type": "LineString", "coordinates": [[-73.91072372269801, 40.91267523687858], [-73.91053461201739, 40.91297171122532]]}}, {"type": "Feature", "properties": {"segment_id": 1308954, "physicalid": "89426", "street_name": "MARILLAC HL", "borough": "bronx", "direction": "FT", "total_row_ft": 54.9, "roadbed_ft": 24.9, "median_ft": 0.0, "left_sw_ft": 15.0, "right_sw_ft": 15.0}, "geometry": {"type": "LineString", "coordinates": [[-73.91078885756825, 40.91269914719091], [-73.91059974711015, 40.91299562164293]]}}, {"type": "Feature", "properties": {"segment_id": 1560257, "physicalid": "105461", "street_name": "RIVER RD", "borough": "bronx", "direction": "FT", "total_row_ft": 71.3, "roadbed_ft": 41.3, "median_ft": 0.0, "left_sw_ft": 15.0, "right_sw_ft": 15.0}, "geometry": {"type": "LineString", "coordinates": [[-73.91094537789819, 40.91294222539173], [-73.91052167038173, 40.912870386876726]]}}, {"type": "Feature", "properties": {"segment_id": 1560258, "physicalid": "105461", "street_name": "RIVER RD", "borough": "bronx", "direction": "FT", "total_row_ft": 84.3, "roadbed_ft": 43.1, "median_ft": 0.0, "left_sw_ft": 26.2, "right_sw_ft": 15.0}, "geometry": {"type": "LineString", "coordinates": [[-73.91092135662016, 40.912994400385635], [-73.91050588737555, 40.91292395862994]]}}, {"type": "Feature", "properties": {"segment_id": 1560259, "physicalid": "105461", "street_name": "RIVER RD", "borough": "bronx", "direction": "FT", "total_row_ft": 49.7, "roadbed_ft": 19.7, "median_ft": 0.0, "left_sw_ft": 15.0, "right_sw_ft": 15.0}, "geometry": {"type": "LineString", "coordinates": [[-73.9109138125094, 40.91304936900977], [-73.91049010434392, 40.91297753038043]]}}, {"type": "Feature", "properties": {"segment_id": 1560260, "physicalid": "105461", "street_name": "RIVER RD", "borough": "bronx", "direction": "FT", "total_row_ft": 49.4, "roadbed_ft": 19.4, "median_ft": 0.0, "left_sw_ft": 15.0, "right_sw_ft": 15.0}, "geometry": {"type": "LineString", "coordinates": [[-73.91089802977685, 40.91310294081472], [-73.91047432128684, 40.913031102128215]]}}, {"type": "Feature", "properties": {"segment_id": 1560261, "physicalid": "105461", "street_name": "RIVER RD", "borough": "bronx", "direction": "FT", "total_row_ft": 49.7, "roadbed_ft": 19.7, "median_ft": 0.0, "left_sw_ft": 15.0, "right_sw_ft": 15.0}, "geometry": {"type": "LineString", "coordinates": [[-73.91088224701885, 40.91315651261697], [-73.91045853820432, 40.91308467387328]]}}, {"type": "Feature", "properties": {"segment_id": 1560262, "physicalid": "105461", "street_name": "RIVER RD", "borough": "bronx", "direction": "FT", "total_row_ft": 50.1, "roadbed_ft": 20.1, "median_ft": 0.0, "left_sw_ft": 15.0, "right_sw_ft": 15.0}, "geometry": {"type": "LineString", "coordinates": [[-73.91085999381586, 40.913221655528], [-73.9104446419264, 40.91312575820268]]}}, {"type": "Feature", "properties": {"segment_id": 1560263, "physicalid": "105461", "street_name": "RIVER RD", "borough": "bronx", "direction": "FT", "total_row_ft": 49.4, "roadbed_ft": 19.4, "median_ft": 0.0, "left_sw_ft": 15.0, "right_sw_ft": 15.0}, "geometry": {"type": "LineString", "coordinates": [[-73.91082306177549, 40.9132921882228], [-73.91042728209065, 40.91315678983076]]}}, {"type": "Feature", "properties": {"segment_id": 1560264, "physicalid": "105461", "street_name": "RIVER RD", "borough": "bronx", "direction": "FT", "total_row_ft": 49.0, "roadbed_ft": 19.0, "median_ft": 0.0, "left_sw_ft": 15.0, "right_sw_ft": 15.0}, "geometry": {"type": "LineString", "coordinates": [[-73.91075452270827, 40.913373952865], [-73.91041695132529, 40.913166832497886]]}}, {"type": "Feature", "properties": {"segment_id": 1560265, "physicalid": "105461", "street_name": "RIVER RD", "borough": "bronx", "direction": "FT", "total_row_ft": 50.6, "roadbed_ft": 20.6, "median_ft": 0.0, "left_sw_ft": 15.0, "right_sw_ft": 15.0}, "geometry": {"type": "LineString", "coordinates": [[-73.91071311409355, 40.91341380800461], [-73.91036878185936, 40.913213194486566]]}}, {"type": "Feature", "properties": {"segment_id": 1560266, "physicalid": "105461", "street_name": "RIVER RD", "borough": "bronx", "direction": "FT", "total_row_ft": 50.1, "roadbed_ft": 20.1, "median_ft": 0.0, "left_sw_ft": 15.0, "right_sw_ft": 15.0}, "geometry": {"type": "LineString", "coordinates": [[-73.91070924523434, 40.913418674542996], [-73.91030233035768, 40.913303829903754]]}}, {"type": "Feature", "properties": {"segment_id": 1560267, "physicalid": "105461", "street_name": "RIVER RD", "borough": "bronx", "direction": "FT", "total_row_ft": 50.1, "roadbed_ft": 20.1, "median_ft": 0.0, "left_sw_ft": 15.0, "right_sw_ft": 15.0}, "geometry": {"type": "LineString", "coordinates": [[-73.91069792825157, 40.91344759171291], [-73.91027301458307, 40.913379965534546]]}}, {"type": "Feature", "properties": {"segment_id": 1560268, "physicalid": "105461", "street_name": "RIVER RD", "borough": "bronx", "direction": "FT", "total_row_ft": 50.2, "roadbed_ft": 20.2, "median_ft": 0.0, "left_sw_ft": 15.0, "right_sw_ft": 15.0}, "geometry": {"type": "LineString", "coordinates": [[-73.91069441872742, 40.91348108443101], [-73.91026156373411, 40.91345552348163]]}}, {"type": "Feature", "properties": {"segment_id": 1560269, "physicalid": "105461", "street_name": "RIVER RD", "borough": "bronx", "direction": "FT", "total_row_ft": 50.6, "roadbed_ft": 20.6, "median_ft": 0.0, "left_sw_ft": 15.0, "right_sw_ft": 15.0}, "geometry": {"type": "LineString", "coordinates": [[-73.91068234612958, 40.91355005295819], [-73.9102542341532, 40.913495248039304]]}}, {"type": "Feature", "properties": {"segment_id": 1560270, "physicalid": "105461", "street_name": "RIVER RD", "borough": "bronx", "direction": "FT", "total_row_ft": 49.3, "roadbed_ft": 19.3, "median_ft": 0.0, "left_sw_ft": 15.0, "right_sw_ft": 15.0}, "geometry": {"type": "LineString", "coordinates": [[-73.91066322452853, 40.913618094765496], [-73.91024328179057, 40.91353448446473]]}}, {"type": "Feature", "properties": {"segment_id": 1560271, "physicalid": "105461", "street_name": "RIVER RD", "borough": "bronx", "direction": "FT", "total_row_ft": 49.7, "roadbed_ft": 19.7, "median_ft": 0.0, "left_sw_ft": 15.0, "right_sw_ft": 15.0}, "geometry": {"type": "LineString", "coordinates": [[-73.91063716774191, 40.91368480414801], [-73.91022875458434, 40.913573058667296]]}}, {"type": "Feature", "properties": {"segment_id": 1560272, "physicalid": "105461", "street_name": "RIVER RD", "borough": "bronx", "direction": "FT", "total_row_ft": 49.7, "roadbed_ft": 19.7, "median_ft": 0.0, "left_sw_ft": 15.0, "right_sw_ft": 15.0}, "geometry": {"type": "LineString", "coordinates": [[-73.91060432813055, 40.91374978446801], [-73.91021071353565, 40.91361079698421]]}}, {"type": "Feature", "properties": {"segment_id": 1560273, "physicalid": "105461", "street_name": "RIVER RD", "borough": "bronx", "direction": "FT", "total_row_ft": 51.3, "roadbed_ft": 21.3, "median_ft": 0.0, "left_sw_ft": 15.0, "right_sw_ft": 15.0}, "geometry": {"type": "LineString", "coordinates": [[-73.91056994249577, 40.91380550876361], [-73.91018402768078, 40.91365460544203]]}}, {"type": "Feature", "properties": {"segment_id": 1560274, "physicalid": "105462", "street_name": "RIVER RD", "borough": "bronx", "direction": "FT", "total_row_ft": 99.2, "roadbed_ft": 69.2, "median_ft": 0.0, "left_sw_ft": 15.0, "right_sw_ft": 15.0}, "geometry": {"type": "LineString", "coordinates": [[-73.91049868211033, 40.913901202275234], [-73.91011794671346, 40.91374290772022]]}}, {"type": "Feature", "properties": {"segment_id": 1560275, "physicalid": "105462", "street_name": "RIVER RD", "borough": "bronx", "direction": "FT", "total_row_ft": 49.6, "roadbed_ft": 19.6, "median_ft": 0.0, "left_sw_ft": 15.0, "right_sw_ft": 15.0}, "geometry": {"type": "LineString", "coordinates": [[-73.91046390458197, 40.91394934022491], [-73.91008316899217, 40.91379104555667]]}}, {"type": "Feature", "properties": {"segment_id": 1560276, "physicalid": "105462", "street_name": "RIVER RD", "borough": "bronx", "direction": "FT", "total_row_ft": 50.0, "roadbed_ft": 20.0, "median_ft": 0.0, "left_sw_ft": 15.0, "right_sw_ft": 15.0}, "geometry": {"type": "LineString", "coordinates": [[-73.91042912700323, 40.91399747816366], [-73.91004839122049, 40.913839183382194]]}}, {"type": "Feature", "properties": {"segment_id": 1560277, "physicalid": "105462", "street_name": "RIVER RD", "borough": "bronx", "direction": "FT", "total_row_ft": 49.9, "roadbed_ft": 19.9, "median_ft": 0.0, "left_sw_ft": 15.0, "right_sw_ft": 15.0}, "geometry": {"type": "LineString", "coordinates": [[-73.91039434937413, 40.91404561609144], [-73.91001361339838, 40.91388732119685]]}}, {"type": "Feature", "properties": {"segment_id": 1560278, "physicalid": "105462", "street_name": "RIVER RD", "borough": "bronx", "direction": "FT", "total_row_ft": 49.8, "roadbed_ft": 19.8, "median_ft": 0.0, "left_sw_ft": 15.0, "right_sw_ft": 15.0}, "geometry": {"type": "LineString", "coordinates": [[-73.91035957169461, 40.91409375400837], [-73.90997883552593, 40.91393545900052]]}}, {"type": "Feature", "properties": {"segment_id": 1560279, "physicalid": "105462", "street_name": "RIVER RD", "borough": "bronx", "direction": "FT", "total_row_ft": 49.7, "roadbed_ft": 19.7, "median_ft": 0.0, "left_sw_ft": 15.0, "right_sw_ft": 15.0}, "geometry": {"type": "LineString", "coordinates": [[-73.91032479396473, 40.91414189191433], [-73.90994405760308, 40.91398359679329]]}}, {"type": "Feature", "properties": {"segment_id": 1560280, "physicalid": "105462", "street_name": "RIVER RD", "borough": "bronx", "direction": "FT", "total_row_ft": 49.6, "roadbed_ft": 19.6, "median_ft": 0.0, "left_sw_ft": 15.0, "right_sw_ft": 15.0}, "geometry": {"type": "LineString", "coordinates": [[-73.91029001618448, 40.91419002980936], [-73.90990927962983, 40.91403173457517]]}}, {"type": "Feature", "properties": {"segment_id": 1560281, "physicalid": "105462", "street_name": "RIVER RD", "borough": "bronx", "direction": "FT", "total_row_ft": 49.4, "roadbed_ft": 19.4, "median_ft": 0.0, "left_sw_ft": 15.0, "right_sw_ft": 15.0}, "geometry": {"type": "LineString", "coordinates": [[-73.9102552383538, 40.914238167693526], [-73.90987450160623, 40.91407987234608]]}}, {"type": "Feature", "properties": {"segment_id": 1560282, "physicalid": "105462", "street_name": "RIVER RD", "borough": "bronx", "direction": "FT", "total_row_ft": 49.4, "roadbed_ft": 19.4, "median_ft": 0.0, "left_sw_ft": 15.0, "right_sw_ft": 15.0}, "geometry": {"type": "LineString", "coordinates": [[-73.91022046047274, 40.91428630556671], [-73.9098397235322, 40.91412801010609]]}}, {"type": "Feature", "properties": {"segment_id": 1602924, "physicalid": "136944", "street_name": "ADMINISTRATION HL", "borough": "bronx", "direction": "TW", "total_row_ft": 103.5, "roadbed_ft": 73.5, "median_ft": 0.0, "left_sw_ft": 15.0, "right_sw_ft": 15.0}, "geometry": {"type": "LineString", "coordinates": [[-73.91026143372508, 40.91394642261915], [-73.91029923139854, 40.913618312483614]]}}, {"type": "Feature", "properties": {"segment_id": 1602925, "physicalid": "136944", "street_name": "ADMINISTRATION HL", "borough": "bronx", "direction": "TW", "total_row_ft": 54.6, "roadbed_ft": 24.6, "median_ft": 0.0, "left_sw_ft": 15.0, "right_sw_ft": 15.0}, "geometry": {"type": "LineString", "coordinates": [[-73.91018934720789, 40.913941643671144], [-73.91022714523457, 40.913613533558866]]}}, {"type": "Feature", "properties": {"segment_id": 1602926, "physicalid": "136944", "street_name": "ADMINISTRATION HL", "borough": "bronx", "direction": "TW", "total_row_ft": 49.3, "roadbed_ft": 19.3, "median_ft": 0.0, "left_sw_ft": 15.0, "right_sw_ft": 15.0}, "geometry": {"type": "LineString", "coordinates": [[-73.910107739435, 40.913935456699], [-73.910164756144, 40.913608948511715]]}}, {"type": "Feature", "properties": {"segment_id": 1602927, "physicalid": "136944", "street_name": "ADMINISTRATION HL", "borough": "bronx", "direction": "TW", "total_row_ft": 49.2, "roadbed_ft": 19.2, "median_ft": 0.0, "left_sw_ft": 15.0, "right_sw_ft": 15.0}, "geometry": {"type": "LineString", "coordinates": [[-73.91003600488573, 40.91392824780326], [-73.91009302194098, 40.91360173965094]]}}]}