{"type": "FeatureCollection", "features": [{"type": "Feature", "properties": {"segment_id": 892021, "physicalid": "62378", "street_name": "INDEPENDENCE AVE", "borough": "bronx", "direction": "TW", "total_row_ft": 75.4, "roadbed_ft": 57.0, "median_ft": 0.0, "left_sw_ft": 4.4, "right_sw_ft": 14.0}, "geometry": {"type": "LineString", "coordinates": [[-73.9222355818482, 40.880523021605725], [-73.92250048174232, 40.88047345064924]]}}, {"type": "Feature", "properties": {"segment_id": 892022, "physicalid": "62378", "street_name": "INDEPENDENCE AVE", "borough": "bronx", "direction": "TW", "total_row_ft": 82.9, "roadbed_ft": 77.9, "median_ft": 0.0, "left_sw_ft": 4.9, "right_sw_ft": 0.2}, "geometry": {"type": "LineString", "coordinates": [[-73.92221852094987, 40.88048324591597], [-73.92248914440309, 40.880385045475684]]}}, {"type": "Feature", "properties": {"segment_id": 892023, "physicalid": "62378", "street_name": "INDEPENDENCE AVE", "borough": "bronx", "direction": "TW", "total_row_ft": 98.7, "roadbed_ft": 78.0, "median_ft": 0.0, "left_sw_ft": 5.8, "right_sw_ft": 15.0}, "geometry": {"type": "LineString", "coordinates": [[-73.92218479671335, 40.88043463852098], [-73.9224579483587, 40.88033552070242]]}}, {"type": "Feature", "properties": {"segment_id": 892024, "physicalid": "62378", "street_name": "INDEPENDENCE AVE", "borough": "bronx", "direction": "TW", "total_row_ft": 60.4, "roadbed_ft": 39.3, "median_ft": 0.0, "left_sw_ft": 6.1, "right_sw_ft": 15.0}, "geometry": {"type": "LineString", "coordinates": [[-73.92215318433485, 40.88040172142094], [-73.92239076442343, 40.880261044480186]]}}, {"type": "Feature", "properties": {"segment_id": 892025, "physicalid": "62378", "street_name": "INDEPENDENCE AVE", "borough": "bronx", "direction": "TW", "total_row_ft": 53.9, "roadbed_ft": 33.3, "median_ft": 0.0, "left_sw_ft": 5.6, "right_sw_ft": 15.0}, "geometry": {"type": "LineString", "coordinates": [[-73.92211891655775, 40.88037091146768], [-73.92230904015572, 40.88019374179485]]}}, {"type": "Feature", "properties": {"segment_id": 892026, "physicalid": "62378", "street_name": "INDEPENDENCE AVE", "borough": "bronx", "direction": "TW", "total_row_ft": 52.3, "roadbed_ft": 31.9, "median_ft": 0.0, "left_sw_ft": 5.4, "right_sw_ft": 15.0}, "geometry": {"type": "LineString", "coordinates": [[-73.9220667364447, 40.880332612979196], [-73.92225296260523, 40.880159075317536]]}}, {"type": "Feature", "properties": {"segment_id": 892027, "physicalid": "62378", "street_name": "INDEPENDENCE AVE", "borough": "bronx", "direction": "TW", "total_row_ft": 50.8, "roadbed_ft": 30.9, "median_ft": 0.0, "left_sw_ft": 4.8, "right_sw_ft": 15.0}, "geometry": {"type": "LineString", "coordinates": [[-73.92202313998469, 40.88030683190019], [-73.92214951857716, 40.88011115047837]]}}, {"type": "Feature", "properties": {"segment_id": 892028, "physicalid": "62378", "street_name": "INDEPENDENCE AVE", "borough": "bronx", "direction": "TW", "total_row_ft": 50.1, "roadbed_ft": 30.2, "median_ft": 0.0, "left_sw_ft": 4.9, "right_sw_ft": 15.0}, "geometry": {"type": "LineString", "coordinates": [[-73.92197268924181, 40.88028749225727], [-73.92203851226208, 40.88007505016812]]}}, {"type": "Feature", "properties": {"segment_id": 892029, "physicalid": "62378", "street_name": "INDEPENDENCE AVE", "borough": "bronx", "direction": "TW", "total_row_ft": 48.7, "roadbed_ft": 29.1, "median_ft": 0.0, "left_sw_ft": 4.6, "right_sw_ft": 15.0}, "geometry": {"type": "LineString", "coordinates": [[-73.92190363668051, 40.88027056407939], [-73.92196810845216, 40.880062483806604]]}}, {"type": "Feature", "properties": {"segment_id": 892030, "physicalid": "62378", "street_name": "INDEPENDENCE AVE", "borough": "bronx", "direction": "TW", "total_row_ft": 48.2, "roadbed_ft": 28.2, "median_ft": 0.0, "left_sw_ft": 4.9, "right_sw_ft": 15.0}, "geometry": {"type": "LineString", "coordinates": [[-73.92184618380685, 40.8802661576326], [-73.92185026196569, 40.88005107083261]]}}, {"type": "Feature", "properties": {"segment_id": 892031, "physicalid": "62378", "street_name": "INDEPENDENCE AVE", "borough": "bronx", "direction": "TW", "total_row_ft": 47.6, "roadbed_ft": 27.8, "median_ft": 0.0, "left_sw_ft": 4.7, "right_sw_ft": 15.0}, "geometry": {"type": "LineString", "coordinates": [[-73.92177380827891, 40.88026844824112], [-73.92177794508353, 40.88005028092154]]}}, {"type": "Feature", "properties": {"segment_id": 892032, "physicalid": "62378", "street_name": "INDEPENDENCE AVE", "borough": "bronx", "direction": "TW", "total_row_ft": 46.7, "roadbed_ft": 27.6, "median_ft": 0.0, "left_sw_ft": 4.1, "right_sw_ft": 15.0}, "geometry": {"type": "LineString", "coordinates": [[-73.92171603756982, 40.880273489559755], [-73.92166283782787, 40.8800632127484]]}}, {"type": "Feature", "properties": {"segment_id": 892033, "physicalid": "62378", "street_name": "INDEPENDENCE AVE", "borough": "bronx", "direction": "TW", "total_row_ft": 47.4, "roadbed_ft": 27.9, "median_ft": 0.0, "left_sw_ft": 4.5, "right_sw_ft": 15.0}, "geometry": {"type": "LineString", "coordinates": [[-73.92164886465919, 40.880282286120355], [-73.9215783136852, 40.8800780211119]]}}, {"type": "Feature", "properties": {"segment_id": 892034, "physicalid": "62378", "street_name": "INDEPENDENCE AVE", "borough": "bronx", "direction": "TW", "total_row_ft": 48.4, "roadbed_ft": 28.6, "median_ft": 0.0, "left_sw_ft": 4.8, "right_sw_ft": 15.0}, "geometry": {"type": "LineString", "coordinates": [[-73.92157777604976, 40.880292940347054], [-73.9215083532216, 40.88009194101752]]}}, {"type": "Feature", "properties": {"segment_id": 892035, "physicalid": "62378", "street_name": "INDEPENDENCE AVE", "borough": "bronx", "direction": "TW", "total_row_ft": 49.7, "roadbed_ft": 29.5, "median_ft": 0.0, "left_sw_ft": 5.3, "right_sw_ft": 15.0}, "geometry": {"type": "LineString", "coordinates": [[-73.92150693819299, 40.88030432059803], [-73.92143839272869, 40.88010586088068]]}}, {"type": "Feature", "properties": {"segment_id": 892036, "physicalid": "62378", "street_name": "INDEPENDENCE AVE", "borough": "bronx", "direction": "TW", "total_row_ft": 51.0, "roadbed_ft": 30.7, "median_ft": 0.0, "left_sw_ft": 5.3, "right_sw_ft": 15.0}, "geometry": {"type": "LineString", "coordinates": [[-73.92143605319033, 40.880315564374214], [-73.9213684322065, 40.88011978070145]]}}, {"type": "Feature", "properties": {"segment_id": 892037, "physicalid": "62378", "street_name": "INDEPENDENCE AVE", "borough": "bronx", "direction": "TW", "total_row_ft": 49.9, "roadbed_ft": 29.6, "median_ft": 0.0, "left_sw_ft": 5.3, "right_sw_ft": 15.0}, "geometry": {"type": "LineString", "coordinates": [[-73.92136533682869, 40.88032729644417], [-73.92129847165502, 40.88013370047973]]}}, {"type": "Feature", "properties": {"segment_id": 892038, "physicalid": "62378", "street_name": "INDEPENDENCE AVE", "borough": "bronx", "direction": "TW", "total_row_ft": 41.8, "roadbed_ft": 29.0, "median_ft": 0.0, "left_sw_ft": 5.7, "right_sw_ft": 7.1}, "geometry": {"type": "LineString", "coordinates": [[-73.92133854985391, 40.88046621786038], [-73.92125711138686, 40.880230427621264]]}}, {"type": "Feature", "properties": {"segment_id": 892039, "physicalid": "62378", "street_name": "INDEPENDENCE AVE", "borough": "bronx", "direction": "TW", "total_row_ft": 45.2, "roadbed_ft": 28.2, "median_ft": 0.0, "left_sw_ft": 10.0, "right_sw_ft": 7.0}, "geometry": {"type": "LineString", "coordinates": [[-73.92126858893162, 40.880480137619664], [-73.92118783460042, 40.8802463274667]]}}, {"type": "Feature", "properties": {"segment_id": 892040, "physicalid": "62378", "street_name": "INDEPENDENCE AVE", "borough": "bronx", "direction": "TW", "total_row_ft": 48.5, "roadbed_ft": 28.3, "median_ft": 0.0, "left_sw_ft": 13.2, "right_sw_ft": 7.0}, "geometry": {"type": "LineString", "coordinates": [[-73.92119862798005, 40.88049405733653], [-73.92111851343839, 40.88026209888381]]}}, {"type": "Feature", "properties": {"segment_id": 892041, "physicalid": "62378", "street_name": "INDEPENDENCE AVE", "borough": "bronx", "direction": "TW", "total_row_ft": 50.6, "roadbed_ft": 28.3, "median_ft": 0.0, "left_sw_ft": 14.9, "right_sw_ft": 7.4}, "geometry": {"type": "LineString", "coordinates": [[-73.9211276613732, 40.88050506538821], [-73.92104912125774, 40.88027766473034]]}}, {"type": "Feature", "properties": {"segment_id": 892042, "physicalid": "62378", "street_name": "INDEPENDENCE AVE", "borough": "bronx", "direction": "TW", "total_row_ft": 50.7, "roadbed_ft": 28.6, "median_ft": 0.0, "left_sw_ft": 14.4, "right_sw_ft": 7.6}, "geometry": {"type": "LineString", "coordinates": [[-73.92105628842063, 40.88051489695412], [-73.92098010998762, 40.88029433350351]]}}, {"type": "Feature", "properties": {"segment_id": 892043, "physicalid": "62378", "street_name": "INDEPENDENCE AVE", "borough": "bronx", "direction": "TW", "total_row_ft": 50.7, "roadbed_ft": 29.0, "median_ft": 0.0, "left_sw_ft": 14.5, "right_sw_ft": 7.3}, "geometry": {"type": "LineString", "coordinates": [[-73.92098496129091, 40.88052486121025], [-73.92091168156213, 40.88031268988715]]}}, {"type": "Feature", "properties": {"segment_id": 892044, "physicalid": "62378", "street_name": "INDEPENDENCE AVE", "borough": "bronx", "direction": "TW", "total_row_ft": 51.3, "roadbed_ft": 29.5, "median_ft": 0.0, "left_sw_ft": 14.5, "right_sw_ft": 7.3}, "geometry": {"type": "LineString", "coordinates": [[-73.92091366357633, 40.880534910651726], [-73.92084325309884, 40.88033104623013]]}}, {"type": "Feature", "properties": {"segment_id": 892045, "physicalid": "62378", "street_name": "INDEPENDENCE AVE", "borough": "bronx", "direction": "TW", "total_row_ft": 51.7, "roadbed_ft": 29.4, "median_ft": 0.0, "left_sw_ft": 15.1, "right_sw_ft": 7.3}, "geometry": {"type": "LineString", "coordinates": [[-73.9208416789605, 40.88054297127776], [-73.92077482459776, 40.88034940253252]]}}, {"type": "Feature", "properties": {"segment_id": 892046, "physicalid": "62378", "street_name": "INDEPENDENCE AVE", "borough": "bronx", "direction": "TW", "total_row_ft": 43.9, "roadbed_ft": 28.0, "median_ft": 0.0, "left_sw_ft": 15.6, "right_sw_ft": 0.3}, "geometry": {"type": "LineString", "coordinates": [[-73.92076905219055, 40.88054917262921], [-73.9207063960589, 40.880367758794264]]}}, {"type": "Feature", "properties": {"segment_id": 892047, "physicalid": "62378", "street_name": "INDEPENDENCE AVE", "borough": "bronx", "direction": "TW", "total_row_ft": 56.7, "roadbed_ft": 26.7, "median_ft": 0.0, "left_sw_ft": 15.1, "right_sw_ft": 15.0}, "geometry": {"type": "LineString", "coordinates": [[-73.92069619562959, 40.88055470863972], [-73.92059886452897, 40.880272895928215]]}}, {"type": "Feature", "properties": {"segment_id": 892048, "physicalid": "62378", "street_name": "INDEPENDENCE AVE", "borough": "bronx", "direction": "TW", "total_row_ft": 55.1, "roadbed_ft": 25.7, "median_ft": 0.0, "left_sw_ft": 14.4, "right_sw_ft": 15.0}, "geometry": {"type": "LineString", "coordinates": [[-73.92062251907616, 40.880557870433606], [-73.92052890365525, 40.88028681523961]]}}, {"type": "Feature", "properties": {"segment_id": 892049, "physicalid": "62378", "street_name": "INDEPENDENCE AVE", "borough": "bronx", "direction": "TW", "total_row_ft": 54.6, "roadbed_ft": 25.9, "median_ft": 0.0, "left_sw_ft": 13.6, "right_sw_ft": 15.0}, "geometry": {"type": "LineString", "coordinates": [[-73.92054844388858, 40.88055987799167], [-73.92045894275223, 40.880300734508566]]}}, {"type": "Feature", "properties": {"segment_id": 892050, "physicalid": "62378", "street_name": "INDEPENDENCE AVE", "borough": "bronx", "direction": "TW", "total_row_ft": 56.9, "roadbed_ft": 26.7, "median_ft": 0.0, "left_sw_ft": 15.2, "right_sw_ft": 15.0}, "geometry": {"type": "LineString", "coordinates": [[-73.92047377090559, 40.88056015464679], [-73.92038898181991, 40.88031465373508]]}}, {"type": "Feature", "properties": {"segment_id": 892051, "physicalid": "62378", "street_name": "INDEPENDENCE AVE", "borough": "bronx", "direction": "TW", "total_row_ft": 52.5, "roadbed_ft": 28.1, "median_ft": 0.0, "left_sw_ft": 9.4, "right_sw_ft": 15.0}, "geometry": {"type": "LineString", "coordinates": [[-73.92035475071681, 40.88055225157981], [-73.92041908456439, 40.88032283303743]]}}, {"type": "Feature", "properties": {"segment_id": 892052, "physicalid": "62378", "street_name": "INDEPENDENCE AVE", "borough": "bronx", "direction": "TW", "total_row_ft": 50.5, "roadbed_ft": 28.3, "median_ft": 0.0, "left_sw_ft": 7.2, "right_sw_ft": 15.0}, "geometry": {"type": "LineString", "coordinates": [[-73.92028259604142, 40.88054586747184], [-73.92034834440794, 40.88031140557344]]}}, {"type": "Feature", "properties": {"segment_id": 892053, "physicalid": "62378", "street_name": "INDEPENDENCE AVE", "borough": "bronx", "direction": "TW", "total_row_ft": 55.5, "roadbed_ft": 34.1, "median_ft": 0.0, "left_sw_ft": 6.4, "right_sw_ft": 15.0}, "geometry": {"type": "LineString", "coordinates": [[-73.92022401808231, 40.88054014209353], [-73.92024939636715, 40.88029826222223]]}}, {"type": "Feature", "properties": {"segment_id": 892054, "physicalid": "62378", "street_name": "INDEPENDENCE AVE", "borough": "bronx", "direction": "TW", "total_row_ft": 68.2, "roadbed_ft": 46.4, "median_ft": 0.0, "left_sw_ft": 6.8, "right_sw_ft": 15.0}, "geometry": {"type": "LineString", "coordinates": [[-73.92015226535251, 40.880532506543595], [-73.92017729997232, 40.88029390459007]]}}, {"type": "Feature", "properties": {"segment_id": 892055, "physicalid": "62378", "street_name": "INDEPENDENCE AVE", "borough": "bronx", "direction": "TW", "total_row_ft": 78.5, "roadbed_ft": 56.0, "median_ft": 0.0, "left_sw_ft": 7.4, "right_sw_ft": 15.0}, "geometry": {"type": "LineString", "coordinates": [[-73.920093033446, 40.88052674692475], [-73.92007631759361, 40.8802905852656]]}}, {"type": "Feature", "properties": {"segment_id": 892056, "physicalid": "62378", "street_name": "INDEPENDENCE AVE", "borough": "bronx", "direction": "TW", "total_row_ft": 66.3, "roadbed_ft": 56.9, "median_ft": 0.0, "left_sw_ft": 7.7, "right_sw_ft": 1.6}, "geometry": {"type": "LineString", "coordinates": [[-73.92002032482513, 40.88052279893889], [-73.92000409710103, 40.88029353001663]]}}, {"type": "Feature", "properties": {"segment_id": 1090378, "physicalid": "75341", "street_name": "PALISADE AVE", "borough": "bronx", "direction": "TW", "total_row_ft": 52.8, "roadbed_ft": 35.3, "median_ft": 0.0, "left_sw_ft": 13.2, "right_sw_ft": 4.3}, "geometry": {"type": "LineString", "coordinates": [[-73.92242584662331, 40.88061743917693], [-73.92224560366694, 40.88056963920223]]}}, {"type": "Feature", "properties": {"segment_id": 1090379, "physicalid": "75341", "street_name": "PALISADE AVE", "borough": "bronx", "direction": "TW", "total_row_ft": 44.6, "roadbed_ft": 27.9, "median_ft": 0.0, "left_sw_ft": 13.0, "right_sw_ft": 3.8}, "geometry": {"type": "LineString", "coordinates": [[-73.92239622447956, 40.880667731684596], [-73.92224393344554, 40.88062734449888]]}}, {"type": "Feature", "properties": {"segment_id": 1090380, "physicalid": "75341", "street_name": "PALISADE AVE", "borough": "bronx", "direction": "TW", "total_row_ft": 40.8, "roadbed_ft": 24.4, "median_ft": 0.0, "left_sw_ft": 12.3, "right_sw_ft": 4.1}, "geometry": {"type": "LineString", "coordinates": [[-73.92236516448047, 40.880717642881685], [-73.92222578864921, 40.88068068076982]]}}, {"type": "Feature", "properties": {"segment_id": 1090381, "physicalid": "75341", "street_name": "PALISADE AVE", "borough": "bronx", "direction": "TW", "total_row_ft": 51.0, "roadbed_ft": 24.4, "median_ft": 0.0, "left_sw_ft": 11.6, "right_sw_ft": 15.0}, "geometry": {"type": "LineString", "coordinates": [[-73.92233390604409, 40.88076750145743], [-73.92203426127949, 40.88068803614678]]}}, {"type": "Feature", "properties": {"segment_id": 1090382, "physicalid": "75341", "street_name": "PALISADE AVE", "borough": "bronx", "direction": "TW", "total_row_ft": 50.2, "roadbed_ft": 24.4, "median_ft": 0.0, "left_sw_ft": 10.8, "right_sw_ft": 15.0}, "geometry": {"type": "LineString", "coordinates": [[-73.92229992505425, 40.88082170190217], [-73.9220131787721, 40.880728765543786]]}}, {"type": "Feature", "properties": {"segment_id": 1090383, "physicalid": "75341", "street_name": "PALISADE AVE", "borough": "bronx", "direction": "TW", "total_row_ft": 50.5, "roadbed_ft": 24.4, "median_ft": 0.0, "left_sw_ft": 11.1, "right_sw_ft": 15.0}, "geometry": {"type": "LineString", "coordinates": [[-73.92227205491594, 40.88087235829793], [-73.92198477526438, 40.880779249059884]]}}, {"type": "Feature", "properties": {"segment_id": 1090384, "physicalid": "75341", "street_name": "PALISADE AVE", "borough": "bronx", "direction": "TW", "total_row_ft": 50.9, "roadbed_ft": 24.4, "median_ft": 0.0, "left_sw_ft": 11.5, "right_sw_ft": 15.0}, "geometry": {"type": "LineString", "coordinates": [[-73.92224432921098, 40.8809230615118], [-73.92195637171352, 40.88082973256852]]}}, {"type": "Feature", "properties": {"segment_id": 1090385, "physicalid": "75341", "street_name": "PALISADE AVE", "borough": "bronx", "direction": "TW", "total_row_ft": 50.8, "roadbed_ft": 24.3, "median_ft": 0.0, "left_sw_ft": 11.5, "right_sw_ft": 15.0}, "geometry": {"type": "LineString", "coordinates": [[-73.92221553877192, 40.880973419646615], [-73.92192796811953, 40.8808802160697]]}}, {"type": "Feature", "properties": {"segment_id": 1090386, "physicalid": "75341", "street_name": "PALISADE AVE", "borough": "bronx", "direction": "TW", "total_row_ft": 50.4, "roadbed_ft": 23.9, "median_ft": 0.0, "left_sw_ft": 11.4, "right_sw_ft": 15.0}, "geometry": {"type": "LineString", "coordinates": [[-73.92218395232715, 40.88102825266896], [-73.92190437662893, 40.88092005943685]]}}, {"type": "Feature", "properties": {"segment_id": 1090387, "physicalid": "75341", "street_name": "PALISADE AVE", "borough": "bronx", "direction": "TW", "total_row_ft": 50.5, "roadbed_ft": 23.8, "median_ft": 0.0, "left_sw_ft": 11.6, "right_sw_ft": 15.0}, "geometry": {"type": "LineString", "coordinates": [[-73.92215492796994, 40.88107863809053], [-73.92187152334442, 40.88096896308587]]}}, {"type": "Feature", "properties": {"segment_id": 1090388, "physicalid": "75341", "street_name": "PALISADE AVE", "borough": "bronx", "direction": "TW", "total_row_ft": 51.0, "roadbed_ft": 23.8, "median_ft": 0.0, "left_sw_ft": 12.3, "right_sw_ft": 15.0}, "geometry": {"type": "LineString", "coordinates": [[-73.92212584827166, 40.881129002105], [-73.92183867001164, 40.881017866725045]]}}, {"type": "Feature", "properties": {"segment_id": 1090389, "physicalid": "75341", "street_name": "PALISADE AVE", "borough": "bronx", "direction": "TW", "total_row_ft": 50.0, "roadbed_ft": 23.6, "median_ft": 0.0, "left_sw_ft": 11.4, "right_sw_ft": 15.0}, "geometry": {"type": "LineString", "coordinates": [[-73.92208989947736, 40.881176707863446], [-73.92180581663048, 40.881066770354494]]}}, {"type": "Feature", "properties": {"segment_id": 1090390, "physicalid": "75341", "street_name": "PALISADE AVE", "borough": "bronx", "direction": "TW", "total_row_ft": 49.0, "roadbed_ft": 23.4, "median_ft": 0.0, "left_sw_ft": 10.6, "right_sw_ft": 15.0}, "geometry": {"type": "LineString", "coordinates": [[-73.92204959573922, 40.881228378557694], [-73.9217798447242, 40.88110572909363]]}}, {"type": "Feature", "properties": {"segment_id": 1090391, "physicalid": "75341", "street_name": "PALISADE AVE", "borough": "bronx", "direction": "TW", "total_row_ft": 47.8, "roadbed_ft": 23.3, "median_ft": 0.0, "left_sw_ft": 9.5, "right_sw_ft": 15.0}, "geometry": {"type": "LineString", "coordinates": [[-73.92200988743991, 40.88127431425429], [-73.92174267625415, 40.88115281955617]]}}, {"type": "Feature", "properties": {"segment_id": 1090392, "physicalid": "75341", "street_name": "PALISADE AVE", "borough": "bronx", "direction": "TW", "total_row_ft": 47.1, "roadbed_ft": 23.3, "median_ft": 0.0, "left_sw_ft": 8.9, "right_sw_ft": 15.0}, "geometry": {"type": "LineString", "coordinates": [[-73.9219701786183, 40.881320249724304], [-73.92170550773146, 40.88119991000633]]}}, {"type": "Feature", "properties": {"segment_id": 1090393, "physicalid": "75341", "street_name": "PALISADE AVE", "borough": "bronx", "direction": "TW", "total_row_ft": 47.2, "roadbed_ft": 23.6, "median_ft": 0.0, "left_sw_ft": 8.6, "right_sw_ft": 15.0}, "geometry": {"type": "LineString", "coordinates": [[-73.92193023871242, 40.88136608013699], [-73.92166833915611, 40.88124700044413]]}}, {"type": "Feature", "properties": {"segment_id": 1090394, "physicalid": "75341", "street_name": "PALISADE AVE", "borough": "bronx", "direction": "TW", "total_row_ft": 46.8, "roadbed_ft": 24.2, "median_ft": 0.0, "left_sw_ft": 7.6, "right_sw_ft": 15.0}, "geometry": {"type": "LineString", "coordinates": [[-73.9218895133264, 40.88141155342217], [-73.92163117052813, 40.88129409086952]]}}, {"type": "Feature", "properties": {"segment_id": 1090395, "physicalid": "75341", "street_name": "PALISADE AVE", "borough": "bronx", "direction": "TW", "total_row_ft": 43.0, "roadbed_ft": 24.4, "median_ft": 0.0, "left_sw_ft": 3.6, "right_sw_ft": 15.0}, "geometry": {"type": "LineString", "coordinates": [[-73.92182893554643, 40.88145172243926], [-73.92159875690352, 40.88133009657102]]}}, {"type": "Feature", "properties": {"segment_id": 1090396, "physicalid": "75341", "street_name": "PALISADE AVE", "borough": "bronx", "direction": "TW", "total_row_ft": 49.7, "roadbed_ft": 23.9, "median_ft": 0.0, "left_sw_ft": 10.9, "right_sw_ft": 15.0}, "geometry": {"type": "LineString", "coordinates": [[-73.92180446059608, 40.88150567677362], [-73.92155743239022, 40.881375147628724]]}}, {"type": "Feature", "properties": {"segment_id": 1090397, "physicalid": "75341", "street_name": "PALISADE AVE", "borough": "bronx", "direction": "TW", "total_row_ft": 48.9, "roadbed_ft": 22.9, "median_ft": 0.0, "left_sw_ft": 10.9, "right_sw_ft": 15.0}, "geometry": {"type": "LineString", "coordinates": [[-73.92175709685498, 40.88154753678466], [-73.9215161078209, 40.881420198671265]]}}, {"type": "Feature", "properties": {"segment_id": 1090398, "physicalid": "75341", "street_name": "PALISADE AVE", "borough": "bronx", "direction": "TW", "total_row_ft": 48.5, "roadbed_ft": 22.5, "median_ft": 0.0, "left_sw_ft": 11.0, "right_sw_ft": 15.0}, "geometry": {"type": "LineString", "coordinates": [[-73.92170973326209, 40.881589396885786], [-73.92147478319559, 40.88146524969864]]}}, {"type": "Feature", "properties": {"segment_id": 1090399, "physicalid": "75341", "street_name": "PALISADE AVE", "borough": "bronx", "direction": "TW", "total_row_ft": 48.0, "roadbed_ft": 22.0, "median_ft": 0.0, "left_sw_ft": 11.0, "right_sw_ft": 15.0}, "geometry": {"type": "LineString", "coordinates": [[-73.92165953776666, 40.88163373721173], [-73.9214402883884, 40.88150011556217]]}}, {"type": "Feature", "properties": {"segment_id": 1090400, "physicalid": "75341", "street_name": "PALISADE AVE", "borough": "bronx", "direction": "TW", "total_row_ft": 48.3, "roadbed_ft": 22.2, "median_ft": 0.0, "left_sw_ft": 11.1, "right_sw_ft": 15.0}, "geometry": {"type": "LineString", "coordinates": [[-73.92161236255113, 40.88167538725778], [-73.92139500389742, 40.88154291785326]]}}, {"type": "Feature", "properties": {"segment_id": 1090401, "physicalid": "75341", "street_name": "PALISADE AVE", "borough": "bronx", "direction": "TW", "total_row_ft": 48.6, "roadbed_ft": 22.5, "median_ft": 0.0, "left_sw_ft": 11.1, "right_sw_ft": 15.0}, "geometry": {"type": "LineString", "coordinates": [[-73.92156518727649, 40.88171703728424], [-73.92134971934813, 40.88158572012626]]}}, {"type": "Feature", "properties": {"segment_id": 1090402, "physicalid": "75341", "street_name": "PALISADE AVE", "borough": "bronx", "direction": "TW", "total_row_ft": 48.7, "roadbed_ft": 22.5, "median_ft": 0.0, "left_sw_ft": 11.2, "right_sw_ft": 15.0}, "geometry": {"type": "LineString", "coordinates": [[-73.92151801194275, 40.88175868729112], [-73.92130443474052, 40.881628522381156]]}}, {"type": "Feature", "properties": {"segment_id": 1090403, "physicalid": "75341", "street_name": "PALISADE AVE", "borough": "bronx", "direction": "TW", "total_row_ft": 48.5, "roadbed_ft": 22.5, "median_ft": 0.0, "left_sw_ft": 10.9, "right_sw_ft": 15.0}, "geometry": {"type": "LineString", "coordinates": [[-73.92146776277349, 40.881802066430794], [-73.92126787468442, 40.88166220051177]]}}, {"type": "Feature", "properties": {"segment_id": 1090404, "physicalid": "75341", "street_name": "PALISADE AVE", "borough": "bronx", "direction": "TW", "total_row_ft": 48.3, "roadbed_ft": 22.6, "median_ft": 0.0, "left_sw_ft": 10.6, "right_sw_ft": 15.0}, "geometry": {"type": "LineString", "coordinates": [[-73.92141977689367, 40.88184315240182], [-73.92121885018607, 40.88170255967048]]}}, {"type": "Feature", "properties": {"segment_id": 1090405, "physicalid": "75341", "street_name": "PALISADE AVE", "borough": "bronx", "direction": "TW", "total_row_ft": 48.0, "roadbed_ft": 22.7, "median_ft": 0.0, "left_sw_ft": 10.3, "right_sw_ft": 15.0}, "geometry": {"type": "LineString", "coordinates": [[-73.92137179119202, 40.88188423851878], [-73.92116982562821, 40.881742918808]]}}, {"type": "Feature", "properties": {"segment_id": 1090406, "physicalid": "75341", "street_name": "PALISADE AVE", "borough": "bronx", "direction": "TW", "total_row_ft": 47.8, "roadbed_ft": 22.8, "median_ft": 0.0, "left_sw_ft": 10.0, "right_sw_ft": 15.0}, "geometry": {"type": "LineString", "coordinates": [[-73.92132380543107, 40.88192532461549], [-73.92112080101083, 40.88178327792444]]}}, {"type": "Feature", "properties": {"segment_id": 1090407, "physicalid": "75341", "street_name": "PALISADE AVE", "borough": "bronx", "direction": "TW", "total_row_ft": 48.8, "roadbed_ft": 23.5, "median_ft": 0.0, "left_sw_ft": 10.3, "right_sw_ft": 15.0}, "geometry": {"type": "LineString", "coordinates": [[-73.92127528776258, 40.881969283712856], [-73.92107933846316, 40.88181771615524]]}}, {"type": "Feature", "properties": {"segment_id": 1090408, "physicalid": "75341", "street_name": "PALISADE AVE", "borough": "bronx", "direction": "TW", "total_row_ft": 49.9, "roadbed_ft": 24.2, "median_ft": 0.0, "left_sw_ft": 10.7, "right_sw_ft": 15.0}, "geometry": {"type": "LineString", "coordinates": [[-73.92122796288871, 40.882012428028936], [-73.92102963196558, 40.88185342971458]]}}, {"type": "Feature", "properties": {"segment_id": 1090409, "physicalid": "75341", "street_name": "PALISADE AVE", "borough": "bronx", "direction": "TW", "total_row_ft": 51.1, "roadbed_ft": 25.3, "median_ft": 0.0, "left_sw_ft": 10.8, "right_sw_ft": 15.0}, "geometry": {"type": "LineString", "coordinates": [[-73.92118136003151, 40.882054913065005], [-73.92097710952483, 40.88189116904196]]}}, {"type": "Feature", "properties": {"segment_id": 1090410, "physicalid": "75341", "street_name": "PALISADE AVE", "borough": "bronx", "direction": "TW", "total_row_ft": 50.7, "roadbed_ft": 26.0, "median_ft": 0.0, "left_sw_ft": 9.7, "right_sw_ft": 15.0}, "geometry": {"type": "LineString", "coordinates": [[-73.92113027440898, 40.882093804387], [-73.92092458702437, 40.8819289083452]]}}, {"type": "Feature", "properties": {"segment_id": 1090411, "physicalid": "75341", "street_name": "PALISADE AVE", "borough": "bronx", "direction": "TW", "total_row_ft": 50.5, "roadbed_ft": 25.5, "median_ft": 0.0, "left_sw_ft": 10.1, "right_sw_ft": 15.0}, "geometry": {"type": "LineString", "coordinates": [[-73.92107892839343, 40.88213248698202], [-73.92087206446433, 40.88196664762429]]}}, {"type": "Feature", "properties": {"segment_id": 1090412, "physicalid": "75341", "street_name": "PALISADE AVE", "borough": "bronx", "direction": "TW", "total_row_ft": 51.5, "roadbed_ft": 24.4, "median_ft": 0.0, "left_sw_ft": 12.2, "right_sw_ft": 15.0}, "geometry": {"type": "LineString", "coordinates": [[-73.92102338196403, 40.88217433435084], [-73.92082803336342, 40.8819949179056]]}}, {"type": "Feature", "properties": {"segment_id": 1090413, "physicalid": "75341", "street_name": "PALISADE AVE", "borough": "bronx", "direction": "TW", "total_row_ft": 50.8, "roadbed_ft": 23.8, "median_ft": 0.0, "left_sw_ft": 12.1, "right_sw_ft": 15.0}, "geometry": {"type": "LineString", "coordinates": [[-73.92096583444778, 40.88220765447528], [-73.92077228000525, 40.882029885719234]]}}, {"type": "Feature", "properties": {"segment_id": 1090414, "physicalid": "75341", "street_name": "PALISADE AVE", "borough": "bronx", "direction": "TW", "total_row_ft": 52.0, "roadbed_ft": 24.9, "median_ft": 0.0, "left_sw_ft": 12.1, "right_sw_ft": 15.0}, "geometry": {"type": "LineString", "coordinates": [[-73.92091010558786, 40.88224264495154], [-73.92071652658841, 40.88206485350571]]}}, {"type": "Feature", "properties": {"segment_id": 1090415, "physicalid": "75341", "street_name": "PALISADE AVE", "borough": "bronx", "direction": "TW", "total_row_ft": 52.9, "roadbed_ft": 26.5, "median_ft": 0.0, "left_sw_ft": 11.4, "right_sw_ft": 15.0}, "geometry": {"type": "LineString", "coordinates": [[-73.92085419825825, 40.882277471540654], [-73.92066077311296, 40.882099821265015]]}}, {"type": "Feature", "properties": {"segment_id": 1090416, "physicalid": "75341", "street_name": "PALISADE AVE", "borough": "bronx", "direction": "TW", "total_row_ft": 53.6, "roadbed_ft": 27.8, "median_ft": 0.0, "left_sw_ft": 10.9, "right_sw_ft": 15.0}, "geometry": {"type": "LineString", "coordinates": [[-73.9208101127222, 40.88230707405996], [-73.92058506336598, 40.882156204065396]]}}, {"type": "Feature", "properties": {"segment_id": 1090417, "physicalid": "75341", "street_name": "PALISADE AVE", "borough": "bronx", "direction": "TW", "total_row_ft": 54.4, "roadbed_ft": 28.1, "median_ft": 0.0, "left_sw_ft": 11.3, "right_sw_ft": 15.0}, "geometry": {"type": "LineString", "coordinates": [[-73.92076001736633, 40.88234673225829], [-73.92053718197343, 40.88219734639782]]}}, {"type": "Feature", "properties": {"segment_id": 1090418, "physicalid": "75341", "street_name": "PALISADE AVE", "borough": "bronx", "direction": "TW", "total_row_ft": 54.6, "roadbed_ft": 28.2, "median_ft": 0.0, "left_sw_ft": 11.4, "right_sw_ft": 15.0}, "geometry": {"type": "LineString", "coordinates": [[-73.92071103991137, 40.88238713989806], [-73.92048930052164, 40.88223848871005]]}}, {"type": "Feature", "properties": {"segment_id": 1090419, "physicalid": "75341", "street_name": "PALISADE AVE", "borough": "bronx", "direction": "TW", "total_row_ft": 55.1, "roadbed_ft": 30.4, "median_ft": 0.0, "left_sw_ft": 9.7, "right_sw_ft": 15.0}, "geometry": {"type": "LineString", "coordinates": [[-73.92066342887802, 40.882428463584915], [-73.92044141901056, 40.882279631002135]]}}, {"type": "Feature", "properties": {"segment_id": 1090420, "physicalid": "75341", "street_name": "PALISADE AVE", "borough": "bronx", "direction": "TW", "total_row_ft": 55.6, "roadbed_ft": 31.3, "median_ft": 0.0, "left_sw_ft": 9.3, "right_sw_ft": 15.0}, "geometry": {"type": "LineString", "coordinates": [[-73.92061906734864, 40.882471965710394], [-73.92039353744025, 40.882320773274]]}}, {"type": "Feature", "properties": {"segment_id": 1090421, "physicalid": "75341", "street_name": "PALISADE AVE", "borough": "bronx", "direction": "TW", "total_row_ft": 55.8, "roadbed_ft": 31.6, "median_ft": 0.0, "left_sw_ft": 9.2, "right_sw_ft": 15.0}, "geometry": {"type": "LineString", "coordinates": [[-73.92057725372077, 40.88251717593289], [-73.92034565581064, 40.88236191552575]]}}, {"type": "Feature", "properties": {"segment_id": 1090422, "physicalid": "75341", "street_name": "PALISADE AVE", "borough": "bronx", "direction": "TW", "total_row_ft": 56.1, "roadbed_ft": 31.8, "median_ft": 0.0, "left_sw_ft": 9.3, "right_sw_ft": 15.0}, "geometry": {"type": "LineString", "coordinates": [[-73.92053795264833, 40.88256407055834], [-73.92029777412179, 40.88240305775727]]}}, {"type": "Feature", "properties": {"segment_id": 1090423, "physicalid": "75341", "street_name": "PALISADE AVE", "borough": "bronx", "direction": "TW", "total_row_ft": 51.0, "roadbed_ft": 30.9, "median_ft": 0.0, "left_sw_ft": 9.4, "right_sw_ft": 10.6}, "geometry": {"type": "LineString", "coordinates": [[-73.92050136914962, 40.88261278702897], [-73.9203632647501, 40.88252020364504]]}}, {"type": "Feature", "properties": {"segment_id": 1090424, "physicalid": "75341", "street_name": "PALISADE AVE", "borough": "bronx", "direction": "TW", "total_row_ft": 109.9, "roadbed_ft": 61.7, "median_ft": 0.0, "left_sw_ft": 15.0, "right_sw_ft": 33.2}, "geometry": {"type": "LineString", "coordinates": [[-73.92052726074618, 40.88270338587528], [-73.92026997206689, 40.88253090290765]]}}, {"type": "Feature", "properties": {"segment_id": 1090425, "physicalid": "75341", "street_name": "PALISADE AVE", "borough": "bronx", "direction": "TW", "total_row_ft": 102.2, "roadbed_ft": 35.5, "median_ft": 0.0, "left_sw_ft": 7.5, "right_sw_ft": 59.2}, "geometry": {"type": "LineString", "coordinates": [[-73.92043117200885, 40.88271221099077], [-73.92015412869966, 40.882526484330874]]}}, {"type": "Feature", "properties": {"segment_id": 1090426, "physicalid": "75341", "street_name": "PALISADE AVE", "borough": "bronx", "direction": "TW", "total_row_ft": 123.5, "roadbed_ft": 100.7, "median_ft": 0.0, "left_sw_ft": 7.7, "right_sw_ft": 15.0}, "geometry": {"type": "LineString", "coordinates": [[-73.92040024678451, 40.882764720758196], [-73.92010624677376, 40.882567626481716]]}}, {"type": "Feature", "properties": {"segment_id": 1090444, "physicalid": "75342", "street_name": "PALISADE AVE", "borough": "bronx", "direction": "TW", "total_row_ft": 57.3, "roadbed_ft": 25.6, "median_ft": 0.0, "left_sw_ft": 16.7, "right_sw_ft": 15.0}, "geometry": {"type": "LineString", "coordinates": [[-73.92201484311788, 40.87988915808701], [-73.9219088115324, 40.880114153640285]]}}, {"type": "Feature", "properties": {"segment_id": 1090445, "physicalid": "75342", "street_name": "PALISADE AVE", "borough": "bronx", "direction": "TW", "total_row_ft": 56.8, "roadbed_ft": 26.6, "median_ft": 0.0, "left_sw_ft": 15.2, "right_sw_ft": 15.0}, "geometry": {"type": "LineString", "coordinates": [[-73.92208322818753, 40.87990703875252], [-73.92197691080044, 40.88013264125922]]}}, {"type": "Feature", "properties": {"segment_id": 1090446, "physicalid": "75342", "street_name": "PALISADE AVE", "borough": "bronx", "direction": "TW", "total_row_ft": 57.5, "roadbed_ft": 28.3, "median_ft": 0.0, "left_sw_ft": 14.1, "right_sw_ft": 15.0}, "geometry": {"type": "LineString", "coordinates": [[-73.92216690444059, 40.879931037209644], [-73.92200791631032, 40.88014733654444]]}}, {"type": "Feature", "properties": {"segment_id": 1090447, "physicalid": "75342", "street_name": "PALISADE AVE", "borough": "bronx", "direction": "TW", "total_row_ft": 55.8, "roadbed_ft": 27.8, "median_ft": 0.0, "left_sw_ft": 13.1, "right_sw_ft": 15.0}, "geometry": {"type": "LineString", "coordinates": [[-73.9222297008021, 40.87995827629475], [-73.92207107659115, 40.88017408080249]]}}, {"type": "Feature", "properties": {"segment_id": 1090448, "physicalid": "75342", "street_name": "PALISADE AVE", "borough": "bronx", "direction": "TW", "total_row_ft": 53.8, "roadbed_ft": 26.5, "median_ft": 0.0, "left_sw_ft": 12.3, "right_sw_ft": 15.0}, "geometry": {"type": "LineString", "coordinates": [[-73.92230229016117, 40.879998616749326], [-73.92209864589705, 40.88019300410919]]}}, {"type": "Feature", "properties": {"segment_id": 1090449, "physicalid": "75342", "street_name": "PALISADE AVE", "borough": "bronx", "direction": "TW", "total_row_ft": 52.7, "roadbed_ft": 25.7, "median_ft": 0.0, "left_sw_ft": 12.0, "right_sw_ft": 15.0}, "geometry": {"type": "LineString", "coordinates": [[-73.92236710294259, 40.88004505998794], [-73.9221297234939, 40.88020964041334]]}}, {"type": "Feature", "properties": {"segment_id": 1090450, "physicalid": "75342", "street_name": "PALISADE AVE", "borough": "bronx", "direction": "TW", "total_row_ft": 52.1, "roadbed_ft": 25.5, "median_ft": 0.0, "left_sw_ft": 11.6, "right_sw_ft": 15.0}, "geometry": {"type": "LineString", "coordinates": [[-73.92241239931708, 40.880088003916775], [-73.92217850226291, 40.88025016999276]]}}, {"type": "Feature", "properties": {"segment_id": 1090451, "physicalid": "75342", "street_name": "PALISADE AVE", "borough": "bronx", "direction": "TW", "total_row_ft": 52.7, "roadbed_ft": 25.5, "median_ft": 0.0, "left_sw_ft": 12.3, "right_sw_ft": 15.0}, "geometry": {"type": "LineString", "coordinates": [[-73.92246981050391, 40.88015590838226], [-73.92218099376686, 40.880241883615945]]}}, {"type": "Feature", "properties": {"segment_id": 1090452, "physicalid": "75342", "street_name": "PALISADE AVE", "borough": "bronx", "direction": "TW", "total_row_ft": 53.8, "roadbed_ft": 26.5, "median_ft": 0.0, "left_sw_ft": 12.3, "right_sw_ft": 15.0}, "geometry": {"type": "LineString", "coordinates": [[-73.92250370044684, 40.88021925491893], [-73.92219591287159, 40.88026373213538]]}}, {"type": "Feature", "properties": {"segment_id": 1090453, "physicalid": "75342", "street_name": "PALISADE AVE", "borough": "bronx", "direction": "TW", "total_row_ft": 64.9, "roadbed_ft": 38.0, "median_ft": 0.0, "left_sw_ft": 11.9, "right_sw_ft": 15.0}, "geometry": {"type": "LineString", "coordinates": [[-73.92252100640863, 40.88027263395222], [-73.92220943981062, 40.88031765726729]]}}, {"type": "Feature", "properties": {"segment_id": 1090454, "physicalid": "75342", "street_name": "PALISADE AVE", "borough": "bronx", "direction": "TW", "total_row_ft": 78.9, "roadbed_ft": 53.5, "median_ft": 0.0, "left_sw_ft": 10.5, "right_sw_ft": 15.0}, "geometry": {"type": "LineString", "coordinates": [[-73.922530492766, 40.88034177565233], [-73.92220803615781, 40.880341132966734]]}}, {"type": "Feature", "properties": {"segment_id": 1090455, "physicalid": "75342", "street_name": "PALISADE AVE", "borough": "bronx", "direction": "TW", "total_row_ft": 104.5, "roadbed_ft": 78.9, "median_ft": 0.0, "left_sw_ft": 10.6, "right_sw_ft": 15.0}, "geometry": {"type": "LineString", "coordinates": [[-73.92252168310182, 40.88041155815939], [-73.92220407631152, 40.880363976524116]]}}, {"type": "Feature", "properties": {"segment_id": 1090456, "physicalid": "75342", "street_name": "PALISADE AVE", "borough": "bronx", "direction": "TW", "total_row_ft": 104.6, "roadbed_ft": 78.3, "median_ft": 0.0, "left_sw_ft": 11.4, "right_sw_ft": 15.0}, "geometry": {"type": "LineString", "coordinates": [[-73.92249779764254, 40.880479301462316], [-73.92219752860485, 40.880386792526565]]}}, {"type": "Feature", "properties": {"segment_id": 1090457, "physicalid": "75342", "street_name": "PALISADE AVE", "borough": "bronx", "direction": "TW", "total_row_ft": 91.1, "roadbed_ft": 77.8, "median_ft": 0.0, "left_sw_ft": 12.6, "right_sw_ft": 0.7}, "geometry": {"type": "LineString", "coordinates": [[-73.9224645611887, 40.880545181276396], [-73.9221874909437, 40.880410024705306]]}}, {"type": "Feature", "properties": {"segment_id": 1090464, "physicalid": "75346", "street_name": "PALISADE AVE", "borough": "bronx", "direction": "TW", "total_row_ft": 71.7, "roadbed_ft": 48.9, "median_ft": 0.0, "left_sw_ft": 7.8, "right_sw_ft": 15.0}, "geometry": {"type": "LineString", "coordinates": [[-73.92039619157853, 40.88277212691816], [-73.9200074229413, 40.88272376190244]]}}, {"type": "Feature", "properties": {"segment_id": 1090465, "physicalid": "75346", "street_name": "PALISADE AVE", "borough": "bronx", "direction": "TW", "total_row_ft": 58.8, "roadbed_ft": 36.3, "median_ft": 0.0, "left_sw_ft": 7.4, "right_sw_ft": 15.0}, "geometry": {"type": "LineString", "coordinates": [[-73.92036767603277, 40.88282420577384], [-73.9199957233576, 40.88277793272967]]}}, {"type": "Feature", "properties": {"segment_id": 1090466, "physicalid": "75346", "street_name": "PALISADE AVE", "borough": "bronx", "direction": "TW", "total_row_ft": 56.5, "roadbed_ft": 34.6, "median_ft": 0.0, "left_sw_ft": 7.0, "right_sw_ft": 15.0}, "geometry": {"type": "LineString", "coordinates": [[-73.92033916044234, 40.88287628462195], [-73.91998402375485, 40.882832103555195]]}}, {"type": "Feature", "properties": {"segment_id": 1090467, "physicalid": "75346", "street_name": "PALISADE AVE", "borough": "bronx", "direction": "TW", "total_row_ft": 55.7, "roadbed_ft": 33.4, "median_ft": 0.0, "left_sw_ft": 7.3, "right_sw_ft": 15.0}, "geometry": {"type": "LineString", "coordinates": [[-73.92031345281569, 40.882928712790886], [-73.91997232413301, 40.88288627437903]]}}, {"type": "Feature", "properties": {"segment_id": 1090468, "physicalid": "75346", "street_name": "PALISADE AVE", "borough": "bronx", "direction": "TW", "total_row_ft": 67.0, "roadbed_ft": 44.1, "median_ft": 0.0, "left_sw_ft": 8.0, "right_sw_ft": 15.0}, "geometry": {"type": "LineString", "coordinates": [[-73.92028941300214, 40.882981348442044], [-73.91996062449213, 40.88294044520107]]}}, {"type": "Feature", "properties": {"segment_id": 1090469, "physicalid": "75346", "street_name": "PALISADE AVE", "borough": "bronx", "direction": "TW", "total_row_ft": 62.3, "roadbed_ft": 39.4, "median_ft": 0.0, "left_sw_ft": 7.9, "right_sw_ft": 15.0}, "geometry": {"type": "LineString", "coordinates": [[-73.92026537315056, 40.883033984087625], [-73.91994892483217, 40.88299461602147]]}}, {"type": "Feature", "properties": {"segment_id": 1090470, "physicalid": "75346", "street_name": "PALISADE AVE", "borough": "bronx", "direction": "TW", "total_row_ft": 106.4, "roadbed_ft": 76.4, "median_ft": 0.0, "left_sw_ft": 15.0, "right_sw_ft": 15.0}, "geometry": {"type": "LineString", "coordinates": [[-73.92035917380522, 40.88311080104049], [-73.91993567604109, 40.88303889549325]]}}, {"type": "Feature", "properties": {"segment_id": 1090471, "physicalid": "75346", "street_name": "PALISADE AVE", "borough": "bronx", "direction": "TW", "total_row_ft": 64.1, "roadbed_ft": 34.1, "median_ft": 0.0, "left_sw_ft": 15.0, "right_sw_ft": 15.0}, "geometry": {"type": "LineString", "coordinates": [[-73.92034338357382, 40.8831643706691], [-73.91991988548551, 40.88309246506462]]}}, {"type": "Feature", "properties": {"segment_id": 1090472, "physicalid": "75346", "street_name": "PALISADE AVE", "borough": "bronx", "direction": "TW", "total_row_ft": 72.3, "roadbed_ft": 42.3, "median_ft": 0.0, "left_sw_ft": 15.0, "right_sw_ft": 15.0}, "geometry": {"type": "LineString", "coordinates": [[-73.92032759331697, 40.88321794029501], [-73.9199040949045, 40.883146034633306]]}}, {"type": "Feature", "properties": {"segment_id": 1090473, "physicalid": "75346", "street_name": "PALISADE AVE", "borough": "bronx", "direction": "TW", "total_row_ft": 100.3, "roadbed_ft": 70.3, "median_ft": 0.0, "left_sw_ft": 15.0, "right_sw_ft": 15.0}, "geometry": {"type": "LineString", "coordinates": [[-73.92031180303466, 40.88327150991825], [-73.91988830429804, 40.883199604199305]]}}, {"type": "Feature", "properties": {"segment_id": 1090474, "physicalid": "75346", "street_name": "PALISADE AVE", "borough": "bronx", "direction": "TW", "total_row_ft": 60.7, "roadbed_ft": 30.7, "median_ft": 0.0, "left_sw_ft": 15.0, "right_sw_ft": 15.0}, "geometry": {"type": "LineString", "coordinates": [[-73.92029601272692, 40.88332507953879], [-73.91987251366614, 40.883253173762625]]}}, {"type": "Feature", "properties": {"segment_id": 1090475, "physicalid": "75346", "street_name": "PALISADE AVE", "borough": "bronx", "direction": "TW", "total_row_ft": 58.8, "roadbed_ft": 28.8, "median_ft": 0.0, "left_sw_ft": 15.0, "right_sw_ft": 15.0}, "geometry": {"type": "LineString", "coordinates": [[-73.9202765370917, 40.88338775529779], [-73.91985921616482, 40.88329740692084]]}}, {"type": "Feature", "properties": {"segment_id": 1090476, "physicalid": "75346", "street_name": "PALISADE AVE", "borough": "bronx", "direction": "TW", "total_row_ft": 58.2, "roadbed_ft": 28.2, "median_ft": 0.0, "left_sw_ft": 15.0, "right_sw_ft": 15.0}, "geometry": {"type": "LineString", "coordinates": [[-73.92025669674096, 40.883440543389284], [-73.91983937550968, 40.88335019494148]]}}, {"type": "Feature", "properties": {"segment_id": 1090477, "physicalid": "75346", "street_name": "PALISADE AVE", "borough": "bronx", "direction": "TW", "total_row_ft": 58.2, "roadbed_ft": 28.2, "median_ft": 0.0, "left_sw_ft": 15.0, "right_sw_ft": 15.0}, "geometry": {"type": "LineString", "coordinates": [[-73.92023685635871, 40.88349333147686], [-73.91981953482303, 40.8834029829582]]}}, {"type": "Feature", "properties": {"segment_id": 1090478, "physicalid": "75346", "street_name": "PALISADE AVE", "borough": "bronx", "direction": "TW", "total_row_ft": 57.4, "roadbed_ft": 27.4, "median_ft": 0.0, "left_sw_ft": 15.0, "right_sw_ft": 15.0}, "geometry": {"type": "LineString", "coordinates": [[-73.92021701594494, 40.883546119560506], [-73.91979969410488, 40.88345577097099]]}}, {"type": "Feature", "properties": {"segment_id": 1301516, "physicalid": "89008", "street_name": "KAPPOCK ST", "borough": "bronx", "direction": "TW", "total_row_ft": 67.0, "roadbed_ft": 43.7, "median_ft": 0.0, "left_sw_ft": 13.9, "right_sw_ft": 9.5}, "geometry": {"type": "LineString", "coordinates": [[-73.92011543673533, 40.882414657612415], [-73.91990440449021, 40.88250522609249]]}}, {"type": "Feature", "properties": {"segment_id": 1301517, "physicalid": "89008", "street_name": "KAPPOCK ST", "borough": "bronx", "direction": "TW", "total_row_ft": 68.4, "roadbed_ft": 43.9, "median_ft": 0.0, "left_sw_ft": 15.0, "right_sw_ft": 9.5}, "geometry": {"type": "LineString", "coordinates": [[-73.92015049747363, 40.882462672802994], [-73.91993526747876, 40.88255504283916]]}}, {"type": "Feature", "properties": {"segment_id": 1301518, "physicalid": "89008", "street_name": "KAPPOCK ST", "borough": "bronx", "direction": "TW", "total_row_ft": 72.7, "roadbed_ft": 44.7, "median_ft": 0.0, "left_sw_ft": 18.3, "right_sw_ft": 9.8}, "geometry": {"type": "LineString", "coordinates": [[-73.92019458281257, 40.88250681491047], [-73.91996569587917, 40.88260504610805]]}}, {"type": "Feature", "properties": {"segment_id": 1301519, "physicalid": "89008", "street_name": "KAPPOCK ST", "borough": "bronx", "direction": "TW", "total_row_ft": 90.5, "roadbed_ft": 44.8, "median_ft": 0.0, "left_sw_ft": 30.7, "right_sw_ft": 15.0}, "geometry": {"type": "LineString", "coordinates": [[-73.9202615526709, 40.88252898586254], [-73.91995021793136, 40.88269079173596]]}}, {"type": "Feature", "properties": {"segment_id": 1301520, "physicalid": "89008", "street_name": "KAPPOCK ST", "borough": "bronx", "direction": "TW", "total_row_ft": 100.4, "roadbed_ft": 38.4, "median_ft": 0.0, "left_sw_ft": 47.0, "right_sw_ft": 15.0}, "geometry": {"type": "LineString", "coordinates": [[-73.92034914192028, 40.88254999458385], [-73.91999108264486, 40.88273608417909]]}}, {"type": "Feature", "properties": {"segment_id": 1403198, "physicalid": "95145", "street_name": "W 231 ST", "borough": "bronx", "direction": "TW", "total_row_ft": 52.3, "roadbed_ft": 22.3, "median_ft": 0.0, "left_sw_ft": 15.0, "right_sw_ft": 15.0}, "geometry": {"type": "LineString", "coordinates": [[-73.92011515639399, 40.88491058976902], [-73.91989865964185, 40.88519604155167]]}}, {"type": "Feature", "properties": {"segment_id": 1403199, "physicalid": "95145", "street_name": "W 231 ST", "borough": "bronx", "direction": "TW", "total_row_ft": 49.8, "roadbed_ft": 19.8, "median_ft": 0.0, "left_sw_ft": 15.0, "right_sw_ft": 15.0}, "geometry": {"type": "LineString", "coordinates": [[-73.9201778431223, 40.884937974243016], [-73.91996134655021, 40.8852234261418]]}}, {"type": "Feature", "properties": {"segment_id": 1403200, "physicalid": "95145", "street_name": "W 231 ST", "borough": "bronx", "direction": "TW", "total_row_ft": 30.0, "roadbed_ft": 0.0, "median_ft": 0.0, "left_sw_ft": 15.0, "right_sw_ft": 15.0}, "geometry": {"type": "LineString", "coordinates": [[-73.9202405299023, 40.884965358682805], [-73.92002403351019, 40.885250810697734]]}}, {"type": "Feature", "properties": {"segment_id": 1528428, "physicalid": "102936", "street_name": "RIVER DR", "borough": "bronx", "direction": "TW", "total_row_ft": 30.0, "roadbed_ft": 0.0, "median_ft": 0.0, "left_sw_ft": 15.0, "right_sw_ft": 15.0}, "geometry": {"type": "LineString", "coordinates": [[-73.9203711545976, 40.885266740888795], [-73.92000306192018, 40.88509227466899]]}}, {"type": "Feature", "properties": {"segment_id": 1528429, "physicalid": "102936", "street_name": "RIVER DR", "borough": "bronx", "direction": "TW", "total_row_ft": 30.0, "roadbed_ft": 0.0, "median_ft": 0.0, "left_sw_ft": 15.0, "right_sw_ft": 15.0}, "geometry": {"type": "LineString", "coordinates": [[-73.92033284082758, 40.885313300683315], [-73.9199647479929, 40.885138834342825]]}}, {"type": "Feature", "properties": {"segment_id": 1528430, "physicalid": "102936", "street_name": "RIVER DR", "borough": "bronx", "direction": "TW", "total_row_ft": 30.0, "roadbed_ft": 0.0, "median_ft": 0.0, "left_sw_ft": 15.0, "right_sw_ft": 15.0}, "geometry": {"type": "LineString", "coordinates": [[-73.92029452700389, 40.88535986046472], [-73.91992643401197, 40.885185394003535]]}}, {"type": "Feature", "properties": {"segment_id": 1528431, "physicalid": "102936", "street_name": "RIVER DR", "borough": "bronx", "direction": "TW", "total_row_ft": 30.0, "roadbed_ft": 0.0, "median_ft": 0.0, "left_sw_ft": 15.0, "right_sw_ft": 15.0}, "geometry": {"type": "LineString", "coordinates": [[-73.92025621312654, 40.885406420233004], [-73.91988811997737, 40.88523195365113]]}}, {"type": "Feature", "properties": {"segment_id": 1528432, "physicalid": "102936", "street_name": "RIVER DR", "borough": "bronx", "direction": "TW", "total_row_ft": 30.0, "roadbed_ft": 0.0, "median_ft": 0.0, "left_sw_ft": 15.0, "right_sw_ft": 15.0}, "geometry": {"type": "LineString", "coordinates": [[-73.92021789919555, 40.885452979988145], [-73.91984980588909, 40.88527851328564]]}}, {"type": "Feature", "properties": {"segment_id": 1539483, "physicalid": "103624", "street_name": "SCENIC PL", "borough": "bronx", "direction": "TW", "total_row_ft": 49.8, "roadbed_ft": 19.8, "median_ft": 0.0, "left_sw_ft": 15.0, "right_sw_ft": 15.0}, "geometry": {"type": "LineString", "coordinates": [[-73.92055862850084, 40.8844978999179], [-73.92017119665493, 40.884349506191164]]}}, {"type": "Feature", "properties": {"segment_id": 1539484, "physicalid": "103624", "street_name": "SCENIC PL", "borough": "bronx", "direction": "TW", "total_row_ft": 49.6, "roadbed_ft": 19.6, "median_ft": 0.0, "left_sw_ft": 15.0, "right_sw_ft": 15.0}, "geometry": {"type": "LineString", "coordinates": [[-73.92052604081134, 40.88454690646737], [-73.9201386087526, 40.88439851263258]]}}, {"type": "Feature", "properties": {"segment_id": 1539485, "physicalid": "103624", "street_name": "SCENIC PL", "borough": "bronx", "direction": "TW", "total_row_ft": 49.5, "roadbed_ft": 19.5, "median_ft": 0.0, "left_sw_ft": 15.0, "right_sw_ft": 15.0}, "geometry": {"type": "LineString", "coordinates": [[-73.92049345307382, 40.884595913007196], [-73.92010602080222, 40.88444751906436]]}}, {"type": "Feature", "properties": {"segment_id": 1539486, "physicalid": "103624", "street_name": "SCENIC PL", "borough": "bronx", "direction": "TW", "total_row_ft": 49.4, "roadbed_ft": 19.4, "median_ft": 0.0, "left_sw_ft": 15.0, "right_sw_ft": 15.0}, "geometry": {"type": "LineString", "coordinates": [[-73.92046086528823, 40.88464491953737], [-73.92007343280379, 40.88449652548648]]}}, {"type": "Feature", "properties": {"segment_id": 1539487, "physicalid": "103624", "street_name": "SCENIC PL", "borough": "bronx", "direction": "TW", "total_row_ft": 49.5, "roadbed_ft": 19.5, "median_ft": 0.0, "left_sw_ft": 15.0, "right_sw_ft": 15.0}, "geometry": {"type": "LineString", "coordinates": [[-73.92042827745465, 40.884693926057864], [-73.9200408447573, 40.88454553189901]]}}, {"type": "Feature", "properties": {"segment_id": 1539488, "physicalid": "103624", "street_name": "SCENIC PL", "borough": "bronx", "direction": "TW", "total_row_ft": 49.6, "roadbed_ft": 19.6, "median_ft": 0.0, "left_sw_ft": 15.0, "right_sw_ft": 15.0}, "geometry": {"type": "LineString", "coordinates": [[-73.92039568957298, 40.884742932568756], [-73.92000825666278, 40.88459453830184]]}}, {"type": "Feature", "properties": {"segment_id": 1539489, "physicalid": "103624", "street_name": "SCENIC PL", "borough": "bronx", "direction": "TW", "total_row_ft": 49.7, "roadbed_ft": 19.7, "median_ft": 0.0, "left_sw_ft": 15.0, "right_sw_ft": 15.0}, "geometry": {"type": "LineString", "coordinates": [[-73.92036310164328, 40.884791939070006], [-73.91997566852022, 40.88464354469504]]}}, {"type": "Feature", "properties": {"segment_id": 1539490, "physicalid": "103624", "street_name": "SCENIC PL", "borough": "bronx", "direction": "TW", "total_row_ft": 49.9, "roadbed_ft": 19.9, "median_ft": 0.0, "left_sw_ft": 15.0, "right_sw_ft": 15.0}, "geometry": {"type": "LineString", "coordinates": [[-73.92033051366552, 40.884840945561606], [-73.91994308032962, 40.88469255107858]]}}, {"type": "Feature", "properties": {"segment_id": 1539491, "physicalid": "103624", "street_name": "SCENIC PL", "borough": "bronx", "direction": "TW", "total_row_ft": 49.6, "roadbed_ft": 19.6, "median_ft": 0.0, "left_sw_ft": 15.0, "right_sw_ft": 15.0}, "geometry": {"type": "LineString", "coordinates": [[-73.92029792563974, 40.88488995204357], [-73.91991049209096, 40.884741557452514]]}}, {"type": "Feature", "properties": {"segment_id": 1539492, "physicalid": "103624", "street_name": "SCENIC PL", "borough": "bronx", "direction": "TW", "total_row_ft": 48.9, "roadbed_ft": 18.9, "median_ft": 0.0, "left_sw_ft": 15.0, "right_sw_ft": 15.0}, "geometry": {"type": "LineString", "coordinates": [[-73.9202653375659, 40.884938958515875], [-73.91987790380428, 40.88479056381675]]}}, {"type": "Feature", "properties": {"segment_id": 1539493, "physicalid": "103624", "street_name": "SCENIC PL", "borough": "bronx", "direction": "TW", "total_row_ft": 48.1, "roadbed_ft": 18.1, "median_ft": 0.0, "left_sw_ft": 15.0, "right_sw_ft": 15.0}, "geometry": {"type": "LineString", "coordinates": [[-73.92023274944403, 40.884987964978535], [-73.91984531546953, 40.8848395701714]]}}, {"type": "Feature", "properties": {"segment_id": 1539494, "physicalid": "103624", "street_name": "SCENIC PL", "borough": "bronx", "direction": "TW", "total_row_ft": 47.4, "roadbed_ft": 17.4, "median_ft": 0.0, "left_sw_ft": 15.0, "right_sw_ft": 15.0}, "geometry": {"type": "LineString", "coordinates": [[-73.92020016127408, 40.88503697143157], [-73.91981272708675, 40.88488857651635]]}}, {"type": "Feature", "properties": {"segment_id": 1734193, "physicalid": "185496", "street_name": "INDEPENDENCE AVE", "borough": "bronx", "direction": "TF", "total_row_ft": 56.2, "roadbed_ft": 35.9, "median_ft": 0.0, "left_sw_ft": 5.2, "right_sw_ft": 15.0}, "geometry": {"type": "LineString", "coordinates": [[-73.92073600076219, 40.88006273627447], [-73.92050373897035, 40.8799375336334]]}}, {"type": "Feature", "properties": {"segment_id": 1734194, "physicalid": "185496", "street_name": "INDEPENDENCE AVE", "borough": "bronx", "direction": "TF", "total_row_ft": 56.3, "roadbed_ft": 36.0, "median_ft": 0.0, "left_sw_ft": 5.3, "right_sw_ft": 15.0}, "geometry": {"type": "LineString", "coordinates": [[-73.92069412176387, 40.88010749098486], [-73.92046189091589, 40.87998230498291]]}}, {"type": "Feature", "properties": {"segment_id": 1734195, "physicalid": "185496", "street_name": "INDEPENDENCE AVE", "borough": "bronx", "direction": "TF", "total_row_ft": 57.3, "roadbed_ft": 36.4, "median_ft": 0.0, "left_sw_ft": 5.9, "right_sw_ft": 15.0}, "geometry": {"type": "LineString", "coordinates": [[-73.92065224270917, 40.88015224567968], [-73.92041761794425, 40.88002576916976]]}}, {"type": "Feature", "properties": {"segment_id": 1734196, "physicalid": "185496", "street_name": "INDEPENDENCE AVE", "borough": "bronx", "direction": "TF", "total_row_ft": 58.3, "roadbed_ft": 37.5, "median_ft": 0.0, "left_sw_ft": 5.8, "right_sw_ft": 15.0}, "geometry": {"type": "LineString", "coordinates": [[-73.9206103635981, 40.88019700035895], [-73.92037263918425, 40.88006885290757]]}}, {"type": "Feature", "properties": {"segment_id": 1734197, "physicalid": "185496", "street_name": "INDEPENDENCE AVE", "borough": "bronx", "direction": "TF", "total_row_ft": 59.5, "roadbed_ft": 39.3, "median_ft": 0.0, "left_sw_ft": 5.2, "right_sw_ft": 15.0}, "geometry": {"type": "LineString", "coordinates": [[-73.92056848443063, 40.880241755022645], [-73.92032686647399, 40.88011150867116]]}}, {"type": "Feature", "properties": {"segment_id": 1734198, "physicalid": "185496", "street_name": "INDEPENDENCE AVE", "borough": "bronx", "direction": "TF", "total_row_ft": 59.1, "roadbed_ft": 39.9, "median_ft": 0.0, "left_sw_ft": 4.2, "right_sw_ft": 15.0}, "geometry": {"type": "LineString", "coordinates": [[-73.92052660520679, 40.88028650967078], [-73.92027999858871, 40.88015357408129]]}}, {"type": "Feature", "properties": {"segment_id": 1734199, "physicalid": "185496", "street_name": "INDEPENDENCE AVE", "borough": "bronx", "direction": "TF", "total_row_ft": 57.2, "roadbed_ft": 38.0, "median_ft": 0.0, "left_sw_ft": 4.1, "right_sw_ft": 15.0}, "geometry": {"type": "LineString", "coordinates": [[-73.92041244953707, 40.880366315405674], [-73.92025322262023, 40.88017462657967]]}}, {"type": "Feature", "properties": {"segment_id": 1734200, "physicalid": "185496", "street_name": "INDEPENDENCE AVE", "borough": "bronx", "direction": "TF", "total_row_ft": 54.1, "roadbed_ft": 34.2, "median_ft": 0.0, "left_sw_ft": 4.8, "right_sw_ft": 15.0}, "geometry": {"type": "LineString", "coordinates": [[-73.92035126888337, 40.88039559113886], [-73.9201984360503, 40.88021159979397]]}}, {"type": "Feature", "properties": {"segment_id": 1734201, "physicalid": "185496", "street_name": "INDEPENDENCE AVE", "borough": "bronx", "direction": "TF", "total_row_ft": 51.2, "roadbed_ft": 30.2, "median_ft": 0.0, "left_sw_ft": 6.0, "right_sw_ft": 15.0}, "geometry": {"type": "LineString", "coordinates": [[-73.92026408385024, 40.88043119003588], [-73.92014618420859, 40.880240551410665]]}}, {"type": "Feature", "properties": {"segment_id": 1734202, "physicalid": "185496", "street_name": "INDEPENDENCE AVE", "borough": "bronx", "direction": "TF", "total_row_ft": 55.3, "roadbed_ft": 35.5, "median_ft": 0.0, "left_sw_ft": 4.8, "right_sw_ft": 15.0}, "geometry": {"type": "LineString", "coordinates": [[-73.92019861295759, 40.88045451509681], [-73.92008398220459, 40.8802691618454]]}}, {"type": "Feature", "properties": {"segment_id": 1734203, "physicalid": "185496", "street_name": "INDEPENDENCE AVE", "borough": "bronx", "direction": "TF", "total_row_ft": 66.6, "roadbed_ft": 49.4, "median_ft": 0.0, "left_sw_ft": 2.2, "right_sw_ft": 15.0}, "geometry": {"type": "LineString", "coordinates": [[-73.9201061568281, 40.88048182220821], [-73.92002382090408, 40.88028954024723]]}}]}