{"type": "FeatureCollection", "features": [{"type": "Feature", "properties": {"segment_id": 1056309, "physicalid": "73107", "street_name": "DEPOT PL APPROACH", "borough": "bronx", "direction": "TW", "total_row_ft": 106.7, "roadbed_ft": 76.7, "median_ft": 0.0, "left_sw_ft": 15.0, "right_sw_ft": 15.0}, "geometry": {"type": "LineString", "coordinates": [[-73.93034981200513, 40.84042086296889], [-73.93013570468477, 40.84013443483287]]}}, {"type": "Feature", "properties": {"segment_id": 1056310, "physicalid": "73107", "street_name": "DEPOT PL APPROACH", "borough": "bronx", "direction": "TW", "total_row_ft": 87.0, "roadbed_ft": 43.1, "median_ft": 0.0, "left_sw_ft": 28.9, "right_sw_ft": 15.0}, "geometry": {"type": "LineString", "coordinates": [[-73.93028629134895, 40.840447077943026], [-73.93007284638213, 40.840161535525226]]}}, {"type": "Feature", "properties": {"segment_id": 1056311, "physicalid": "73107", "street_name": "DEPOT PL APPROACH", "borough": "bronx", "direction": "TW", "total_row_ft": 52.4, "roadbed_ft": 32.9, "median_ft": 0.0, "left_sw_ft": 4.5, "right_sw_ft": 15.0}, "geometry": {"type": "LineString", "coordinates": [[-73.93016109560102, 40.84039078542923], [-73.93000998802829, 40.84018863618322]]}}, {"type": "Feature", "properties": {"segment_id": 1056312, "physicalid": "73107", "street_name": "DEPOT PL APPROACH", "borough": "bronx", "direction": "TW", "total_row_ft": 53.8, "roadbed_ft": 27.8, "median_ft": 0.0, "left_sw_ft": 11.0, "right_sw_ft": 15.0}, "geometry": {"type": "LineString", "coordinates": [[-73.93028269681467, 40.84042589676113], [-73.92987930636684, 40.84032874422533]]}}, {"type": "Feature", "properties": {"segment_id": 1056339, "physicalid": "73108", "street_name": "DEPOT PL APPROACH", "borough": "bronx", "direction": "TW", "total_row_ft": 49.3, "roadbed_ft": 40.0, "median_ft": 0.0, "left_sw_ft": 5.4, "right_sw_ft": 3.8}, "geometry": {"type": "LineString", "coordinates": [[-73.9302499922176, 40.84040396655744], [-73.93042159127398, 40.8403676723052]]}}, {"type": "Feature", "properties": {"segment_id": 1056340, "physicalid": "73108", "street_name": "DEPOT PL APPROACH", "borough": "bronx", "direction": "TW", "total_row_ft": 113.6, "roadbed_ft": 83.6, "median_ft": 0.0, "left_sw_ft": 15.0, "right_sw_ft": 15.0}, "geometry": {"type": "LineString", "coordinates": [[-73.93010864774926, 40.840376878346675], [-73.93052643539545, 40.840288513698525]]}}, {"type": "Feature", "properties": {"segment_id": 1572931, "physicalid": "117932", "street_name": "DEPOT PL APPROACH", "borough": "bronx", "direction": "TW", "total_row_ft": 37.4, "roadbed_ft": 28.1, "median_ft": 0.0, "left_sw_ft": 4.0, "right_sw_ft": 5.3}, "geometry": {"type": "LineString", "coordinates": [[-73.92990353560502, 40.84092842075114], [-73.93014111481024, 40.840998347867334]]}}, {"type": "Feature", "properties": {"segment_id": 1572932, "physicalid": "117932", "street_name": "DEPOT PL APPROACH", "borough": "bronx", "direction": "TW", "total_row_ft": 37.5, "roadbed_ft": 28.1, "median_ft": 0.0, "left_sw_ft": 3.9, "right_sw_ft": 5.5}, "geometry": {"type": "LineString", "coordinates": [[-73.92992522156392, 40.84087593096724], [-73.9301692271473, 40.840947749566574]]}}, {"type": "Feature", "properties": {"segment_id": 1572933, "physicalid": "117932", "street_name": "DEPOT PL APPROACH", "borough": "bronx", "direction": "TW", "total_row_ft": 37.8, "roadbed_ft": 28.3, "median_ft": 0.0, "left_sw_ft": 4.0, "right_sw_ft": 5.5}, "geometry": {"type": "LineString", "coordinates": [[-73.92994640189909, 40.840823292367], [-73.9301973394416, 40.84089715125856]]}}, {"type": "Feature", "properties": {"segment_id": 1572934, "physicalid": "117932", "street_name": "DEPOT PL APPROACH", "borough": "bronx", "direction": "TW", "total_row_ft": 38.0, "roadbed_ft": 28.5, "median_ft": 0.0, "left_sw_ft": 4.1, "right_sw_ft": 5.4}, "geometry": {"type": "LineString", "coordinates": [[-73.92996758220075, 40.840770653762384], [-73.93022511222826, 40.84084645302845]]}}, {"type": "Feature", "properties": {"segment_id": 1609083, "physicalid": "141424", "street_name": "DEPOT PL APPROACH", "borough": "bronx", "direction": "TW", "total_row_ft": 37.8, "roadbed_ft": 28.5, "median_ft": 0.0, "left_sw_ft": 4.1, "right_sw_ft": 5.2}, "geometry": {"type": "LineString", "coordinates": [[-73.93000812746294, 40.840669888917276], [-73.93027827602437, 40.84074940255695]]}}, {"type": "Feature", "properties": {"segment_id": 1609084, "physicalid": "141424", "street_name": "DEPOT PL APPROACH", "borough": "bronx", "direction": "TW", "total_row_ft": 37.3, "roadbed_ft": 28.4, "median_ft": 0.0, "left_sw_ft": 3.9, "right_sw_ft": 5.1}, "geometry": {"type": "LineString", "coordinates": [[-73.93002975990292, 40.840617383402346], [-73.93030600153774, 40.84069869043045]]}}, {"type": "Feature", "properties": {"segment_id": 1609085, "physicalid": "141424", "street_name": "DEPOT PL APPROACH", "borough": "bronx", "direction": "TW", "total_row_ft": 36.9, "roadbed_ft": 28.4, "median_ft": 0.0, "left_sw_ft": 3.6, "right_sw_ft": 4.9}, "geometry": {"type": "LineString", "coordinates": [[-73.93005151832949, 40.84056491497515], [-73.9303337195919, 40.840647976113814]]}}, {"type": "Feature", "properties": {"segment_id": 1609086, "physicalid": "141424", "street_name": "DEPOT PL APPROACH", "borough": "bronx", "direction": "TW", "total_row_ft": 36.2, "roadbed_ft": 28.5, "median_ft": 0.0, "left_sw_ft": 3.0, "right_sw_ft": 4.7}, "geometry": {"type": "LineString", "coordinates": [[-73.93007426623704, 40.84051273779193], [-73.93036143741232, 40.84059726173373]]}}, {"type": "Feature", "properties": {"segment_id": 1609087, "physicalid": "141424", "street_name": "DEPOT PL APPROACH", "borough": "bronx", "direction": "TW", "total_row_ft": 36.2, "roadbed_ft": 30.2, "median_ft": 0.0, "left_sw_ft": 1.2, "right_sw_ft": 4.8}, "geometry": {"type": "LineString", "coordinates": [[-73.93010038665498, 40.84046155326068], [-73.9303889450091, 40.84054648548359]]}}, {"type": "Feature", "properties": {"segment_id": 1609088, "physicalid": "141424", "street_name": "DEPOT PL APPROACH", "borough": "bronx", "direction": "TW", "total_row_ft": 44.0, "roadbed_ft": 32.7, "median_ft": 0.0, "left_sw_ft": 6.0, "right_sw_ft": 5.3}, "geometry": {"type": "LineString", "coordinates": [[-73.93012650703274, 40.84041036872304], [-73.93041382634334, 40.84049493624765]]}}]}