{"type": "FeatureCollection", "features": [{"type": "Feature", "properties": {"segment_id": 1124882, "physicalid": "77995", "street_name": "UNNAMED ST", "borough": "bronx", "direction": "TW", "total_row_ft": 67.4, "roadbed_ft": 37.4, "median_ft": 0.0, "left_sw_ft": 15.0, "right_sw_ft": 15.0}, "geometry": {"type": "LineString", "coordinates": [[-73.88984948344506, 40.78997107492161], [-73.89028097249091, 40.7899405104627]]}}, {"type": "Feature", "properties": {"segment_id": 1124883, "physicalid": "77995", "street_name": "UNNAMED ST", "borough": "bronx", "direction": "TW", "total_row_ft": 63.5, "roadbed_ft": 33.5, "median_ft": 0.0, "left_sw_ft": 15.0, "right_sw_ft": 15.0}, "geometry": {"type": "LineString", "coordinates": [[-73.88984278119767, 40.78991641715272], [-73.89027426989236, 40.78988585271863]]}}, {"type": "Feature", "properties": {"segment_id": 1124884, "physicalid": "77995", "street_name": "UNNAMED ST", "borough": "bronx", "direction": "TW", "total_row_ft": 59.9, "roadbed_ft": 29.9, "median_ft": 0.0, "left_sw_ft": 15.0, "right_sw_ft": 15.0}, "geometry": {"type": "LineString", "coordinates": [[-73.88983607896128, 40.78986175938296], [-73.8902675673048, 40.789831194973715]]}}, {"type": "Feature", "properties": {"segment_id": 1124885, "physicalid": "77995", "street_name": "UNNAMED ST", "borough": "bronx", "direction": "TW", "total_row_ft": 57.0, "roadbed_ft": 27.0, "median_ft": 0.0, "left_sw_ft": 15.0, "right_sw_ft": 15.0}, "geometry": {"type": "LineString", "coordinates": [[-73.8898293767359, 40.789807101612354], [-73.89026086472828, 40.78977653722793]]}}, {"type": "Feature", "properties": {"segment_id": 1124886, "physicalid": "77995", "street_name": "UNNAMED ST", "borough": "bronx", "direction": "TW", "total_row_ft": 54.9, "roadbed_ft": 24.9, "median_ft": 0.0, "left_sw_ft": 15.0, "right_sw_ft": 15.0}, "geometry": {"type": "LineString", "coordinates": [[-73.88982267452154, 40.78975244384088], [-73.89025416216272, 40.789721879481284]]}}, {"type": "Feature", "properties": {"segment_id": 1124887, "physicalid": "77995", "street_name": "UNNAMED ST", "borough": "bronx", "direction": "TW", "total_row_ft": 53.2, "roadbed_ft": 23.2, "median_ft": 0.0, "left_sw_ft": 15.0, "right_sw_ft": 15.0}, "geometry": {"type": "LineString", "coordinates": [[-73.88981597231816, 40.78969778606856], [-73.8902474596082, 40.789667221733815]]}}, {"type": "Feature", "properties": {"segment_id": 1124888, "physicalid": "77995", "street_name": "UNNAMED ST", "borough": "bronx", "direction": "TW", "total_row_ft": 51.8, "roadbed_ft": 21.8, "median_ft": 0.0, "left_sw_ft": 15.0, "right_sw_ft": 15.0}, "geometry": {"type": "LineString", "coordinates": [[-73.88980459345599, 40.78968478422784], [-73.89021370568082, 40.78957616160539]]}}]}