{"type": "FeatureCollection", "features": [{"type": "Feature", "properties": {"segment_id": 74054, "physicalid": "6274", "street_name": "TOTTEN AVE", "borough": "queens", "direction": "TW", "total_row_ft": 54.8, "roadbed_ft": 30.4, "median_ft": 0.0, "left_sw_ft": 15.0, "right_sw_ft": 9.5}, "geometry": {"type": "LineString", "coordinates": [[-73.78211646518201, 40.79003766157027], [-73.78182696066042, 40.78997750324511]]}}, {"type": "Feature", "properties": {"segment_id": 74055, "physicalid": "6274", "street_name": "TOTTEN AVE", "borough": "queens", "direction": "TW", "total_row_ft": 55.2, "roadbed_ft": 30.6, "median_ft": 0.0, "left_sw_ft": 15.0, "right_sw_ft": 9.5}, "geometry": {"type": "LineString", "coordinates": [[-73.78209741722489, 40.79009061281174], [-73.78180757496239, 40.79003038430131]]}}, {"type": "Feature", "properties": {"segment_id": 74056, "physicalid": "6274", "street_name": "TOTTEN AVE", "borough": "queens", "direction": "TW", "total_row_ft": 55.8, "roadbed_ft": 31.2, "median_ft": 0.0, "left_sw_ft": 15.0, "right_sw_ft": 9.6}, "geometry": {"type": "LineString", "coordinates": [[-73.78207836923744, 40.79014356404964], [-73.78178818923358, 40.7900832653538]]}}, {"type": "Feature", "properties": {"segment_id": 74057, "physicalid": "6274", "street_name": "TOTTEN AVE", "borough": "queens", "direction": "TW", "total_row_ft": 63.6, "roadbed_ft": 38.9, "median_ft": 0.0, "left_sw_ft": 15.0, "right_sw_ft": 9.7}, "geometry": {"type": "LineString", "coordinates": [[-73.7820593212197, 40.790196515283945], [-73.7817688034419, 40.79013614639594]]}}, {"type": "Feature", "properties": {"segment_id": 74058, "physicalid": "6274", "street_name": "TOTTEN AVE", "borough": "queens", "direction": "TW", "total_row_ft": 73.0, "roadbed_ft": 48.4, "median_ft": 0.0, "left_sw_ft": 15.0, "right_sw_ft": 9.6}, "geometry": {"type": "LineString", "coordinates": [[-73.78204027317167, 40.790249466514695], [-73.78174941741752, 40.79018902739242]]}}, {"type": "Feature", "properties": {"segment_id": 74059, "physicalid": "6274", "street_name": "TOTTEN AVE", "borough": "queens", "direction": "TW", "total_row_ft": 79.4, "roadbed_ft": 54.9, "median_ft": 0.0, "left_sw_ft": 15.0, "right_sw_ft": 9.5}, "geometry": {"type": "LineString", "coordinates": [[-73.78202122509335, 40.790302417741835], [-73.7817300313623, 40.790241908385205]]}}, {"type": "Feature", "properties": {"segment_id": 74060, "physicalid": "6274", "street_name": "TOTTEN AVE", "borough": "queens", "direction": "TW", "total_row_ft": 82.7, "roadbed_ft": 58.3, "median_ft": 0.0, "left_sw_ft": 15.0, "right_sw_ft": 9.4}, "geometry": {"type": "LineString", "coordinates": [[-73.7820021769847, 40.7903553689654], [-73.78171064527632, 40.7902947893743]]}}, {"type": "Feature", "properties": {"segment_id": 74061, "physicalid": "6274", "street_name": "TOTTEN AVE", "borough": "queens", "direction": "TW", "total_row_ft": 82.7, "roadbed_ft": 58.3, "median_ft": 0.0, "left_sw_ft": 15.0, "right_sw_ft": 9.4}, "geometry": {"type": "LineString", "coordinates": [[-73.7819831288458, 40.79040832018533], [-73.78169110368232, 40.790347638051685]]}}, {"type": "Feature", "properties": {"segment_id": 74062, "physicalid": "6274", "street_name": "TOTTEN AVE", "borough": "queens", "direction": "TW", "total_row_ft": 76.8, "roadbed_ft": 52.4, "median_ft": 0.0, "left_sw_ft": 15.0, "right_sw_ft": 9.4}, "geometry": {"type": "LineString", "coordinates": [[-73.78196408067654, 40.79046127140176], [-73.78167138424358, 40.790400449775746]]}}, {"type": "Feature", "properties": {"segment_id": 74063, "physicalid": "6274", "street_name": "TOTTEN AVE", "borough": "queens", "direction": "TW", "total_row_ft": 71.8, "roadbed_ft": 47.4, "median_ft": 0.0, "left_sw_ft": 15.0, "right_sw_ft": 9.4}, "geometry": {"type": "LineString", "coordinates": [[-73.78194503247701, 40.79051422261458], [-73.78165166477355, 40.790453261496054]]}}, {"type": "Feature", "properties": {"segment_id": 74071, "physicalid": "6275", "street_name": "TOTTEN AVE", "borough": "queens", "direction": "TF", "total_row_ft": 42.4, "roadbed_ft": 16.9, "median_ft": 0.0, "left_sw_ft": 10.5, "right_sw_ft": 15.0}, "geometry": {"type": "LineString", "coordinates": [[-73.78248873390959, 40.790135429752254], [-73.78225834684756, 40.78987576937916]]}}, {"type": "Feature", "properties": {"segment_id": 74072, "physicalid": "6275", "street_name": "TOTTEN AVE", "borough": "queens", "direction": "TF", "total_row_ft": 46.9, "roadbed_ft": 16.9, "median_ft": 0.0, "left_sw_ft": 15.0, "right_sw_ft": 15.0}, "geometry": {"type": "LineString", "coordinates": [[-73.78242885089306, 40.790166121521516], [-73.78218655877556, 40.78989304307624]]}}, {"type": "Feature", "properties": {"segment_id": 74073, "physicalid": "6275", "street_name": "TOTTEN AVE", "borough": "queens", "direction": "TF", "total_row_ft": 46.8, "roadbed_ft": 16.8, "median_ft": 0.0, "left_sw_ft": 15.0, "right_sw_ft": 15.0}, "geometry": {"type": "LineString", "coordinates": [[-73.78238955322091, 40.79019004388479], [-73.7821123668304, 40.78993686232515]]}}, {"type": "Feature", "properties": {"segment_id": 74074, "physicalid": "6275", "street_name": "TOTTEN AVE", "borough": "queens", "direction": "TF", "total_row_ft": 47.7, "roadbed_ft": 17.7, "median_ft": 0.0, "left_sw_ft": 15.0, "right_sw_ft": 15.0}, "geometry": {"type": "LineString", "coordinates": [[-73.7823340333127, 40.79022515574733], [-73.78205684698712, 40.78997197405552]]}}, {"type": "Feature", "properties": {"segment_id": 74075, "physicalid": "6275", "street_name": "TOTTEN AVE", "borough": "queens", "direction": "TF", "total_row_ft": 48.7, "roadbed_ft": 18.7, "median_ft": 0.0, "left_sw_ft": 15.0, "right_sw_ft": 15.0}, "geometry": {"type": "LineString", "coordinates": [[-73.78227851334593, 40.790260267582916], [-73.78200132708525, 40.79000708575899]]}}, {"type": "Feature", "properties": {"segment_id": 74076, "physicalid": "6275", "street_name": "TOTTEN AVE", "borough": "queens", "direction": "TF", "total_row_ft": 54.0, "roadbed_ft": 24.0, "median_ft": 0.0, "left_sw_ft": 15.0, "right_sw_ft": 15.0}, "geometry": {"type": "LineString", "coordinates": [[-73.78224236519692, 40.79028687953492], [-73.78193307410395, 40.79005617478628]]}}, {"type": "Feature", "properties": {"segment_id": 74077, "physicalid": "6275", "street_name": "TOTTEN AVE", "borough": "queens", "direction": "TF", "total_row_ft": 66.6, "roadbed_ft": 36.6, "median_ft": 0.0, "left_sw_ft": 15.0, "right_sw_ft": 15.0}, "geometry": {"type": "LineString", "coordinates": [[-73.78219177415099, 40.7903260581098], [-73.78188248305126, 40.79009535322687]]}}, {"type": "Feature", "properties": {"segment_id": 74078, "physicalid": "6275", "street_name": "TOTTEN AVE", "borough": "queens", "direction": "TF", "total_row_ft": 78.7, "roadbed_ft": 48.7, "median_ft": 0.0, "left_sw_ft": 15.0, "right_sw_ft": 15.0}, "geometry": {"type": "LineString", "coordinates": [[-73.78214118304545, 40.7903652366623], [-73.78183189193909, 40.790134531644966]]}}, {"type": "Feature", "properties": {"segment_id": 74079, "physicalid": "6275", "street_name": "TOTTEN AVE", "borough": "queens", "direction": "TF", "total_row_ft": 75.7, "roadbed_ft": 56.3, "median_ft": 0.0, "left_sw_ft": 4.5, "right_sw_ft": 15.0}, "geometry": {"type": "LineString", "coordinates": [[-73.7821084318927, 40.79039440142175], [-73.78177033484825, 40.790188361226676]]}}, {"type": "Feature", "properties": {"segment_id": 74080, "physicalid": "6275", "street_name": "TOTTEN AVE", "borough": "queens", "direction": "TF", "total_row_ft": 85.1, "roadbed_ft": 59.8, "median_ft": 0.0, "left_sw_ft": 10.3, "right_sw_ft": 15.0}, "geometry": {"type": "LineString", "coordinates": [[-73.78206324946663, 40.79043722882667], [-73.78173235263253, 40.79023557646347]]}}, {"type": "Feature", "properties": {"segment_id": 74081, "physicalid": "6275", "street_name": "TOTTEN AVE", "borough": "queens", "direction": "TF", "total_row_ft": 86.0, "roadbed_ft": 60.8, "median_ft": 0.0, "left_sw_ft": 10.2, "right_sw_ft": 15.0}, "geometry": {"type": "LineString", "coordinates": [[-73.78201806698247, 40.79048005621357], [-73.78171126840881, 40.79029308960689]]}}, {"type": "Feature", "properties": {"segment_id": 74082, "physicalid": "6275", "street_name": "TOTTEN AVE", "borough": "queens", "direction": "TF", "total_row_ft": 78.3, "roadbed_ft": 53.5, "median_ft": 0.0, "left_sw_ft": 9.8, "right_sw_ft": 15.0}, "geometry": {"type": "LineString", "coordinates": [[-73.78198907871023, 40.79051163124198], [-73.78168583963568, 40.7903617359959]]}}, {"type": "Feature", "properties": {"segment_id": 74083, "physicalid": "6275", "street_name": "TOTTEN AVE", "borough": "queens", "direction": "TF", "total_row_ft": 73.5, "roadbed_ft": 48.7, "median_ft": 0.0, "left_sw_ft": 9.8, "right_sw_ft": 15.0}, "geometry": {"type": "LineString", "coordinates": [[-73.78194969934147, 40.79055764916856], [-73.78166519838955, 40.79041701643694]]}}, {"type": "Feature", "properties": {"segment_id": 74084, "physicalid": "6276", "street_name": "TOTTEN AVE", "borough": "queens", "direction": "TW", "total_row_ft": 63.6, "roadbed_ft": 39.2, "median_ft": 0.0, "left_sw_ft": 15.0, "right_sw_ft": 9.3}, "geometry": {"type": "LineString", "coordinates": [[-73.78190446913676, 40.79061972523258], [-73.78161573076565, 40.79054949797349]]}}, {"type": "Feature", "properties": {"segment_id": 74085, "physicalid": "6276", "street_name": "TOTTEN AVE", "borough": "queens", "direction": "TW", "total_row_ft": 59.8, "roadbed_ft": 34.9, "median_ft": 0.0, "left_sw_ft": 15.0, "right_sw_ft": 9.9}, "geometry": {"type": "LineString", "coordinates": [[-73.78188245511359, 40.79067200797208], [-73.78159600124017, 40.79060233634942]]}}, {"type": "Feature", "properties": {"segment_id": 74086, "physicalid": "6276", "street_name": "TOTTEN AVE", "borough": "queens", "direction": "TW", "total_row_ft": 56.9, "roadbed_ft": 31.1, "median_ft": 0.0, "left_sw_ft": 15.0, "right_sw_ft": 10.8}, "geometry": {"type": "LineString", "coordinates": [[-73.78186044105581, 40.790724290707], [-73.78157478045166, 40.790654812020286]]}}, {"type": "Feature", "properties": {"segment_id": 74087, "physicalid": "6276", "street_name": "TOTTEN AVE", "borough": "queens", "direction": "TW", "total_row_ft": 50.5, "roadbed_ft": 29.0, "median_ft": 0.0, "left_sw_ft": 10.3, "right_sw_ft": 11.2}, "geometry": {"type": "LineString", "coordinates": [[-73.7817243792531, 40.79074883472793], [-73.78155071604691, 40.79070659606318]]}}, {"type": "Feature", "properties": {"segment_id": 74088, "physicalid": "6276", "street_name": "TOTTEN AVE", "borough": "queens", "direction": "TW", "total_row_ft": 47.4, "roadbed_ft": 28.2, "median_ft": 0.0, "left_sw_ft": 8.9, "right_sw_ft": 10.4}, "geometry": {"type": "LineString", "coordinates": [[-73.78168984123272, 40.790798071378916], [-73.78152665160472, 40.79075838010059]]}}, {"type": "Feature", "properties": {"segment_id": 74089, "physicalid": "6276", "street_name": "TOTTEN AVE", "borough": "queens", "direction": "TW", "total_row_ft": 53.2, "roadbed_ft": 28.4, "median_ft": 0.0, "left_sw_ft": 15.0, "right_sw_ft": 9.9}, "geometry": {"type": "LineString", "coordinates": [[-73.7817740171565, 40.79089984103877], [-73.78150245177956, 40.79080009330432]]}}, {"type": "Feature", "properties": {"segment_id": 74090, "physicalid": "6276", "street_name": "TOTTEN AVE", "borough": "queens", "direction": "TW", "total_row_ft": 53.3, "roadbed_ft": 28.5, "median_ft": 0.0, "left_sw_ft": 15.0, "right_sw_ft": 9.9}, "geometry": {"type": "LineString", "coordinates": [[-73.7817425887487, 40.79094926636291], [-73.781470076076, 40.79084917066226]]}}, {"type": "Feature", "properties": {"segment_id": 74091, "physicalid": "6278", "street_name": "TOTTEN AVE", "borough": "queens", "direction": "TW", "total_row_ft": 60.7, "roadbed_ft": 37.5, "median_ft": 0.0, "left_sw_ft": 15.0, "right_sw_ft": 8.2}, "geometry": {"type": "LineString", "coordinates": [[-73.78106758536107, 40.791596012929375], [-73.78080014835263, 40.791461169488606]]}}, {"type": "Feature", "properties": {"segment_id": 74092, "physicalid": "6278", "street_name": "TOTTEN AVE", "borough": "queens", "direction": "TW", "total_row_ft": 60.7, "roadbed_ft": 34.3, "median_ft": 0.0, "left_sw_ft": 15.0, "right_sw_ft": 11.5}, "geometry": {"type": "LineString", "coordinates": [[-73.7810276559719, 40.791641756576745], [-73.78075278383992, 40.79150316424177]]}}, {"type": "Feature", "properties": {"segment_id": 74093, "physicalid": "6278", "street_name": "TOTTEN AVE", "borough": "queens", "direction": "TW", "total_row_ft": 63.7, "roadbed_ft": 37.0, "median_ft": 0.0, "left_sw_ft": 15.0, "right_sw_ft": 11.8}, "geometry": {"type": "LineString", "coordinates": [[-73.78098772652785, 40.791687500209946], [-73.78070578207846, 40.79154534190779]]}}, {"type": "Feature", "properties": {"segment_id": 74094, "physicalid": "6278", "street_name": "TOTTEN AVE", "borough": "queens", "direction": "TW", "total_row_ft": 71.4, "roadbed_ft": 45.0, "median_ft": 0.0, "left_sw_ft": 15.0, "right_sw_ft": 11.3}, "geometry": {"type": "LineString", "coordinates": [[-73.78094779702893, 40.79173324382902], [-73.78066090887425, 40.791588592822805]]}}, {"type": "Feature", "properties": {"segment_id": 74095, "physicalid": "6278", "street_name": "TOTTEN AVE", "borough": "queens", "direction": "TW", "total_row_ft": 76.6, "roadbed_ft": 49.9, "median_ft": 0.0, "left_sw_ft": 15.0, "right_sw_ft": 11.7}, "geometry": {"type": "LineString", "coordinates": [[-73.78090786747518, 40.79177898743389], [-73.78061818313184, 40.791632926520165]]}}, {"type": "Feature", "properties": {"segment_id": 74096, "physicalid": "6278", "street_name": "TOTTEN AVE", "borough": "queens", "direction": "TW", "total_row_ft": 75.2, "roadbed_ft": 48.0, "median_ft": 0.0, "left_sw_ft": 15.0, "right_sw_ft": 12.2}, "geometry": {"type": "LineString", "coordinates": [[-73.78086793786652, 40.79182473102461], [-73.78057605378656, 40.79167756093929]]}}, {"type": "Feature", "properties": {"segment_id": 74097, "physicalid": "6278", "street_name": "TOTTEN AVE", "borough": "queens", "direction": "TW", "total_row_ft": 75.0, "roadbed_ft": 48.1, "median_ft": 0.0, "left_sw_ft": 15.0, "right_sw_ft": 11.8}, "geometry": {"type": "LineString", "coordinates": [[-73.780828008203, 40.79187047460118], [-73.78053918226064, 40.7917248464154]]}}, {"type": "Feature", "properties": {"segment_id": 74098, "physicalid": "6278", "street_name": "TOTTEN AVE", "borough": "queens", "direction": "TW", "total_row_ft": 74.2, "roadbed_ft": 47.5, "median_ft": 0.0, "left_sw_ft": 15.0, "right_sw_ft": 11.7}, "geometry": {"type": "LineString", "coordinates": [[-73.7807880784846, 40.791916218163585], [-73.78050249872625, 40.79177222669296]]}}, {"type": "Feature", "properties": {"segment_id": 74099, "physicalid": "6278", "street_name": "TOTTEN AVE", "borough": "queens", "direction": "TW", "total_row_ft": 73.2, "roadbed_ft": 46.7, "median_ft": 0.0, "left_sw_ft": 15.0, "right_sw_ft": 11.6}, "geometry": {"type": "LineString", "coordinates": [[-73.78074814871134, 40.79196196171185], [-73.78046555539419, 40.79181947599225]]}}, {"type": "Feature", "properties": {"segment_id": 74100, "physicalid": "6278", "street_name": "TOTTEN AVE", "borough": "queens", "direction": "TW", "total_row_ft": 73.5, "roadbed_ft": 46.9, "median_ft": 0.0, "left_sw_ft": 15.0, "right_sw_ft": 11.6}, "geometry": {"type": "LineString", "coordinates": [[-73.78070821888319, 40.79200770524593], [-73.7804283036094, 40.7918665697808]]}}, {"type": "Feature", "properties": {"segment_id": 74101, "physicalid": "6278", "street_name": "TOTTEN AVE", "borough": "queens", "direction": "TW", "total_row_ft": 71.2, "roadbed_ft": 44.5, "median_ft": 0.0, "left_sw_ft": 15.0, "right_sw_ft": 11.7}, "geometry": {"type": "LineString", "coordinates": [[-73.78066828900019, 40.792053448765856], [-73.78039070151478, 40.79191348695375]]}}, {"type": "Feature", "properties": {"segment_id": 74102, "physicalid": "6278", "street_name": "TOTTEN AVE", "borough": "queens", "direction": "TW", "total_row_ft": 66.7, "roadbed_ft": 39.8, "median_ft": 0.0, "left_sw_ft": 15.0, "right_sw_ft": 11.9}, "geometry": {"type": "LineString", "coordinates": [[-73.78062853387326, 40.79209908619984], [-73.78035273615419, 40.79196032317118]]}}, {"type": "Feature", "properties": {"segment_id": 74103, "physicalid": "6278", "street_name": "TOTTEN AVE", "borough": "queens", "direction": "TW", "total_row_ft": 60.8, "roadbed_ft": 33.6, "median_ft": 0.0, "left_sw_ft": 15.0, "right_sw_ft": 12.1}, "geometry": {"type": "LineString", "coordinates": [[-73.78058866303809, 40.79214485948722], [-73.78031479632027, 40.792007067973486]]}}, {"type": "Feature", "properties": {"segment_id": 74104, "physicalid": "6278", "street_name": "TOTTEN AVE", "borough": "queens", "direction": "TW", "total_row_ft": 59.2, "roadbed_ft": 32.0, "median_ft": 0.0, "left_sw_ft": 15.0, "right_sw_ft": 12.2}, "geometry": {"type": "LineString", "coordinates": [[-73.78054879214811, 40.79219063276046], [-73.78027729445655, 40.792054033148275]]}}, {"type": "Feature", "properties": {"segment_id": 74105, "physicalid": "6278", "street_name": "TOTTEN AVE", "borough": "queens", "direction": "TW", "total_row_ft": 58.9, "roadbed_ft": 32.0, "median_ft": 0.0, "left_sw_ft": 15.0, "right_sw_ft": 11.9}, "geometry": {"type": "LineString", "coordinates": [[-73.78050892120328, 40.79223640601964], [-73.78024023122174, 40.79210121902703]]}}, {"type": "Feature", "properties": {"segment_id": 74106, "physicalid": "6278", "street_name": "TOTTEN AVE", "borough": "queens", "direction": "TW", "total_row_ft": 58.4, "roadbed_ft": 32.1, "median_ft": 0.0, "left_sw_ft": 15.0, "right_sw_ft": 11.4}, "geometry": {"type": "LineString", "coordinates": [[-73.78046905020362, 40.792282179264674], [-73.78020367321571, 40.792148659118794]]}}, {"type": "Feature", "properties": {"segment_id": 74107, "physicalid": "6278", "street_name": "TOTTEN AVE", "borough": "queens", "direction": "TW", "total_row_ft": 57.8, "roadbed_ft": 32.1, "median_ft": 0.0, "left_sw_ft": 15.0, "right_sw_ft": 10.7}, "geometry": {"type": "LineString", "coordinates": [[-73.78042917914918, 40.79232795249555], [-73.78016757332666, 40.79219632972004]]}}, {"type": "Feature", "properties": {"segment_id": 74108, "physicalid": "6278", "street_name": "TOTTEN AVE", "borough": "queens", "direction": "TW", "total_row_ft": 57.1, "roadbed_ft": 32.2, "median_ft": 0.0, "left_sw_ft": 15.0, "right_sw_ft": 10.0}, "geometry": {"type": "LineString", "coordinates": [[-73.78038930803986, 40.79237372571235], [-73.78013187097508, 40.792244200351064]]}}, {"type": "Feature", "properties": {"segment_id": 74109, "physicalid": "6278", "street_name": "TOTTEN AVE", "borough": "queens", "direction": "TW", "total_row_ft": 57.7, "roadbed_ft": 32.2, "median_ft": 0.0, "left_sw_ft": 15.0, "right_sw_ft": 10.5}, "geometry": {"type": "LineString", "coordinates": [[-73.78034943687575, 40.79241949891499], [-73.78009209107348, 40.79229001943314]]}}, {"type": "Feature", "properties": {"segment_id": 74110, "physicalid": "6278", "street_name": "TOTTEN AVE", "borough": "queens", "direction": "TW", "total_row_ft": 59.7, "roadbed_ft": 33.1, "median_ft": 0.0, "left_sw_ft": 15.0, "right_sw_ft": 11.6}, "geometry": {"type": "LineString", "coordinates": [[-73.7803095656568, 40.79246527210353], [-73.78004743134787, 40.79233338331102]]}}, {"type": "Feature", "properties": {"segment_id": 74111, "physicalid": "6278", "street_name": "TOTTEN AVE", "borough": "queens", "direction": "TW", "total_row_ft": 63.9, "roadbed_ft": 36.5, "median_ft": 0.0, "left_sw_ft": 15.0, "right_sw_ft": 12.3}, "geometry": {"type": "LineString", "coordinates": [[-73.780269694383, 40.792511045277976], [-73.77999617880229, 40.79237343011002]]}}, {"type": "Feature", "properties": {"segment_id": 74112, "physicalid": "6279", "street_name": "TOTTEN AVE", "borough": "queens", "direction": "TW", "total_row_ft": 83.4, "roadbed_ft": 54.4, "median_ft": 0.0, "left_sw_ft": 15.0, "right_sw_ft": 14.0}, "geometry": {"type": "LineString", "coordinates": [[-73.78006979234038, 40.79263849031742], [-73.77995308720955, 40.79239737275267]]}}, {"type": "Feature", "properties": {"segment_id": 1541846, "physicalid": "103830", "street_name": "DUANE RD", "borough": "queens", "direction": "TW", "total_row_ft": 75.1, "roadbed_ft": 45.1, "median_ft": 0.0, "left_sw_ft": 15.0, "right_sw_ft": 15.0}, "geometry": {"type": "LineString", "coordinates": [[-73.78027683170082, 40.791285142017536], [-73.78050721436296, 40.791006171394045]]}}, {"type": "Feature", "properties": {"segment_id": 1541847, "physicalid": "103830", "street_name": "DUANE RD", "borough": "queens", "direction": "TW", "total_row_ft": 86.6, "roadbed_ft": 56.6, "median_ft": 0.0, "left_sw_ft": 15.0, "right_sw_ft": 15.0}, "geometry": {"type": "LineString", "coordinates": [[-73.78021565554937, 40.791255959341356], [-73.78044603836683, 40.79097698883887]]}}, {"type": "Feature", "properties": {"segment_id": 1541848, "physicalid": "103830", "street_name": "DUANE RD", "borough": "queens", "direction": "TW", "total_row_ft": 100.1, "roadbed_ft": 52.7, "median_ft": 17.4, "left_sw_ft": 15.0, "right_sw_ft": 15.0}, "geometry": {"type": "LineString", "coordinates": [[-73.78016851940349, 40.791235011994914], [-73.78036840979988, 40.79094277391327]]}}, {"type": "Feature", "properties": {"segment_id": 1541849, "physicalid": "103830", "street_name": "DUANE RD", "borough": "queens", "direction": "TW", "total_row_ft": 106.9, "roadbed_ft": 42.4, "median_ft": 34.5, "left_sw_ft": 15.0, "right_sw_ft": 15.0}, "geometry": {"type": "LineString", "coordinates": [[-73.78010443382882, 40.79120969175982], [-73.78030432443052, 40.790917453788154]]}}, {"type": "Feature", "properties": {"segment_id": 1541850, "physicalid": "103830", "street_name": "DUANE RD", "borough": "queens", "direction": "TW", "total_row_ft": 105.3, "roadbed_ft": 28.7, "median_ft": 46.6, "left_sw_ft": 15.0, "right_sw_ft": 15.0}, "geometry": {"type": "LineString", "coordinates": [[-73.78005607150078, 40.791190333128405], [-73.78022415921818, 40.790886749652316]]}}, {"type": "Feature", "properties": {"segment_id": 1541851, "physicalid": "103830", "street_name": "DUANE RD", "borough": "queens", "direction": "TW", "total_row_ft": 104.3, "roadbed_ft": 28.2, "median_ft": 46.2, "left_sw_ft": 15.0, "right_sw_ft": 15.0}, "geometry": {"type": "LineString", "coordinates": [[-73.77998949799652, 40.791169041335216], [-73.78015758596374, 40.790865457955206]]}}, {"type": "Feature", "properties": {"segment_id": 1541852, "physicalid": "103830", "street_name": "DUANE RD", "borough": "queens", "direction": "TW", "total_row_ft": 103.1, "roadbed_ft": 41.7, "median_ft": 31.3, "left_sw_ft": 15.0, "right_sw_ft": 15.0}, "geometry": {"type": "LineString", "coordinates": [[-73.77992292453483, 40.79114774950349], [-73.7800910127519, 40.79084416621957]]}}, {"type": "Feature", "properties": {"segment_id": 1541854, "physicalid": "103831", "street_name": "DUANE RD", "borough": "queens", "direction": "TW", "total_row_ft": 150.0, "roadbed_ft": 120.0, "median_ft": 0.0, "left_sw_ft": 15.0, "right_sw_ft": 15.0}, "geometry": {"type": "LineString", "coordinates": [[-73.7807366988598, 40.79157088647925], [-73.78101397519666, 40.79131775823451]]}}, {"type": "Feature", "properties": {"segment_id": 1541855, "physicalid": "103831", "street_name": "DUANE RD", "borough": "queens", "direction": "TW", "total_row_ft": 61.2, "roadbed_ft": 31.2, "median_ft": 0.0, "left_sw_ft": 15.0, "right_sw_ft": 15.0}, "geometry": {"type": "LineString", "coordinates": [[-73.78068118953831, 40.79153576393214], [-73.78095846593995, 40.79128263581954]]}}, {"type": "Feature", "properties": {"segment_id": 1541856, "physicalid": "103831", "street_name": "DUANE RD", "borough": "queens", "direction": "TW", "total_row_ft": 60.0, "roadbed_ft": 30.0, "median_ft": 0.0, "left_sw_ft": 15.0, "right_sw_ft": 15.0}, "geometry": {"type": "LineString", "coordinates": [[-73.7806256802754, 40.79150064135808], [-73.78090295674183, 40.791247513377655]]}}, {"type": "Feature", "properties": {"segment_id": 1541857, "physicalid": "103831", "street_name": "DUANE RD", "borough": "queens", "direction": "TW", "total_row_ft": 59.8, "roadbed_ft": 29.8, "median_ft": 0.0, "left_sw_ft": 15.0, "right_sw_ft": 15.0}, "geometry": {"type": "LineString", "coordinates": [[-73.78057017107106, 40.79146551875711], [-73.78084744760226, 40.79121239090882]]}}, {"type": "Feature", "properties": {"segment_id": 1541858, "physicalid": "103831", "street_name": "DUANE RD", "borough": "queens", "direction": "TW", "total_row_ft": 60.3, "roadbed_ft": 30.3, "median_ft": 0.0, "left_sw_ft": 15.0, "right_sw_ft": 15.0}, "geometry": {"type": "LineString", "coordinates": [[-73.78051466192527, 40.79143039612918], [-73.78079193852128, 40.7911772684131]]}}, {"type": "Feature", "properties": {"segment_id": 1541859, "physicalid": "103831", "street_name": "DUANE RD", "borough": "queens", "direction": "TW", "total_row_ft": 61.0, "roadbed_ft": 31.0, "median_ft": 0.0, "left_sw_ft": 15.0, "right_sw_ft": 15.0}, "geometry": {"type": "LineString", "coordinates": [[-73.78045915283808, 40.791395273474386], [-73.78073642949882, 40.79114214589041]]}}, {"type": "Feature", "properties": {"segment_id": 1541860, "physicalid": "103831", "street_name": "DUANE RD", "borough": "queens", "direction": "TW", "total_row_ft": 62.2, "roadbed_ft": 32.2, "median_ft": 0.0, "left_sw_ft": 15.0, "right_sw_ft": 15.0}, "geometry": {"type": "LineString", "coordinates": [[-73.78040364380945, 40.79136015079264], [-73.78068092053496, 40.79110702334083]]}}, {"type": "Feature", "properties": {"segment_id": 1541861, "physicalid": "103831", "street_name": "DUANE RD", "borough": "queens", "direction": "TW", "total_row_ft": 64.6, "roadbed_ft": 34.6, "median_ft": 0.0, "left_sw_ft": 15.0, "right_sw_ft": 15.0}, "geometry": {"type": "LineString", "coordinates": [[-73.78034813483939, 40.79132502808396], [-73.78062541162966, 40.791071900764315]]}}, {"type": "Feature", "properties": {"segment_id": 1541862, "physicalid": "103832", "street_name": "DUANE RD", "borough": "queens", "direction": "TW", "total_row_ft": 78.4, "roadbed_ft": 48.4, "median_ft": 0.0, "left_sw_ft": 15.0, "right_sw_ft": 15.0}, "geometry": {"type": "LineString", "coordinates": [[-73.78038098349009, 40.7913316907082], [-73.78038649426595, 40.79100234964786]]}}, {"type": "Feature", "properties": {"segment_id": 1541863, "physicalid": "103832", "street_name": "DUANE RD", "borough": "queens", "direction": "TW", "total_row_ft": 89.5, "roadbed_ft": 59.5, "median_ft": 0.0, "left_sw_ft": 15.0, "right_sw_ft": 15.0}, "geometry": {"type": "LineString", "coordinates": [[-73.78033788418175, 40.791331315770655], [-73.78028536801025, 40.791004375410395]]}}, {"type": "Feature", "properties": {"segment_id": 1541864, "physicalid": "103832", "street_name": "DUANE RD", "borough": "queens", "direction": "TW", "total_row_ft": 100.1, "roadbed_ft": 52.0, "median_ft": 18.1, "left_sw_ft": 15.0, "right_sw_ft": 15.0}, "geometry": {"type": "LineString", "coordinates": [[-73.78026618848408, 40.791337967992014], [-73.7802136726594, 40.79101102759942]]}}, {"type": "Feature", "properties": {"segment_id": 1541865, "physicalid": "103832", "street_name": "DUANE RD", "borough": "queens", "direction": "TW", "total_row_ft": 101.8, "roadbed_ft": 37.0, "median_ft": 34.8, "left_sw_ft": 15.0, "right_sw_ft": 15.0}, "geometry": {"type": "LineString", "coordinates": [[-73.78022450896405, 40.791345122214885], [-73.78011433033963, 40.791026577045514]]}}, {"type": "Feature", "properties": {"segment_id": 1541866, "physicalid": "103832", "street_name": "DUANE RD", "borough": "queens", "direction": "TW", "total_row_ft": 101.5, "roadbed_ft": 18.2, "median_ft": 53.3, "left_sw_ft": 15.0, "right_sw_ft": 15.0}, "geometry": {"type": "LineString", "coordinates": [[-73.78018270126843, 40.791352467983145], [-73.78001688145339, 40.79104816480585]]}}, {"type": "Feature", "properties": {"segment_id": 1541867, "physicalid": "103832", "street_name": "DUANE RD", "borough": "queens", "direction": "TW", "total_row_ft": 99.9, "roadbed_ft": 17.9, "median_ft": 52.0, "left_sw_ft": 15.0, "right_sw_ft": 15.0}, "geometry": {"type": "LineString", "coordinates": [[-73.78011596973188, 40.7913734724097], [-73.77995015016955, 40.791069169137394]]}}, {"type": "Feature", "properties": {"segment_id": 1541930, "physicalid": "103838", "street_name": "LITTLE BAY RD", "borough": "queens", "direction": "TW", "total_row_ft": 108.3, "roadbed_ft": 78.3, "median_ft": 0.0, "left_sw_ft": 15.0, "right_sw_ft": 15.0}, "geometry": {"type": "LineString", "coordinates": [[-73.78052829019346, 40.793170579090045], [-73.78009594899866, 40.79319337016148]]}}, {"type": "Feature", "properties": {"segment_id": 1541931, "physicalid": "103838", "street_name": "LITTLE BAY RD", "borough": "queens", "direction": "TW", "total_row_ft": 74.5, "roadbed_ft": 31.9, "median_ft": 0.0, "left_sw_ft": 27.7, "right_sw_ft": 15.0}, "geometry": {"type": "LineString", "coordinates": [[-73.78047535647501, 40.793228396104595], [-73.78010094688602, 40.79324813318882]]}}, {"type": "Feature", "properties": {"segment_id": 1541932, "physicalid": "103838", "street_name": "LITTLE BAY RD", "borough": "queens", "direction": "TW", "total_row_ft": 52.6, "roadbed_ft": 31.4, "median_ft": 0.0, "left_sw_ft": 6.1, "right_sw_ft": 15.0}, "geometry": {"type": "LineString", "coordinates": [[-73.78053828668426, 40.79328010510692], [-73.78010594478161, 40.79330289621547]]}}, {"type": "Feature", "properties": {"segment_id": 1541933, "physicalid": "103838", "street_name": "LITTLE BAY RD", "borough": "queens", "direction": "TW", "total_row_ft": 49.3, "roadbed_ft": 31.2, "median_ft": 0.0, "left_sw_ft": 3.2, "right_sw_ft": 15.0}, "geometry": {"type": "LineString", "coordinates": [[-73.78040868134264, 40.793337439745926], [-73.78011258574794, 40.79336947167374]]}}, {"type": "Feature", "properties": {"segment_id": 1541934, "physicalid": "103838", "street_name": "LITTLE BAY RD", "borough": "queens", "direction": "TW", "total_row_ft": 48.9, "roadbed_ft": 30.9, "median_ft": 0.0, "left_sw_ft": 3.0, "right_sw_ft": 15.0}, "geometry": {"type": "LineString", "coordinates": [[-73.78041980563384, 40.793391224549595], [-73.78012349105425, 40.793424934749915]]}}, {"type": "Feature", "properties": {"segment_id": 1541935, "physicalid": "103838", "street_name": "LITTLE BAY RD", "borough": "queens", "direction": "TW", "total_row_ft": 59.1, "roadbed_ft": 30.6, "median_ft": 0.0, "left_sw_ft": 13.4, "right_sw_ft": 15.0}, "geometry": {"type": "LineString", "coordinates": [[-73.7805017054401, 40.79343741332426], [-73.78013418407447, 40.793479224477046]]}}, {"type": "Feature", "properties": {"segment_id": 1541936, "physicalid": "103838", "street_name": "LITTLE BAY RD", "borough": "queens", "direction": "TW", "total_row_ft": 48.4, "roadbed_ft": 30.5, "median_ft": 0.0, "left_sw_ft": 2.9, "right_sw_ft": 15.0}, "geometry": {"type": "LineString", "coordinates": [[-73.7804426937614, 40.79349963311679], [-73.78014487711212, 40.79353351420268]]}}, {"type": "Feature", "properties": {"segment_id": 1541937, "physicalid": "103838", "street_name": "LITTLE BAY RD", "borough": "queens", "direction": "TW", "total_row_ft": 48.3, "roadbed_ft": 30.4, "median_ft": 0.0, "left_sw_ft": 2.9, "right_sw_ft": 15.0}, "geometry": {"type": "LineString", "coordinates": [[-73.78045313835037, 40.79354872766696], [-73.78015998096987, 40.79360059867784]]}}, {"type": "Feature", "properties": {"segment_id": 1541938, "physicalid": "103838", "street_name": "LITTLE BAY RD", "borough": "queens", "direction": "TW", "total_row_ft": 48.2, "roadbed_ft": 30.6, "median_ft": 0.0, "left_sw_ft": 2.6, "right_sw_ft": 15.0}, "geometry": {"type": "LineString", "coordinates": [[-73.78046504311318, 40.793602983962664], [-73.78017635930479, 40.79365406341912]]}}, {"type": "Feature", "properties": {"segment_id": 1541939, "physicalid": "103838", "street_name": "LITTLE BAY RD", "borough": "queens", "direction": "TW", "total_row_ft": 47.5, "roadbed_ft": 30.4, "median_ft": 0.0, "left_sw_ft": 2.1, "right_sw_ft": 15.0}, "geometry": {"type": "LineString", "coordinates": [[-73.7804836525875, 40.79365605392509], [-73.78019273766603, 40.79370752815767]]}}, {"type": "Feature", "properties": {"segment_id": 1541940, "physicalid": "103838", "street_name": "LITTLE BAY RD", "borough": "queens", "direction": "TW", "total_row_ft": 45.6, "roadbed_ft": 28.6, "median_ft": 0.0, "left_sw_ft": 2.1, "right_sw_ft": 15.0}, "geometry": {"type": "LineString", "coordinates": [[-73.7805040763471, 40.79370880286867], [-73.78020911605356, 40.79376099289346]]}}, {"type": "Feature", "properties": {"segment_id": 1541941, "physicalid": "103838", "street_name": "LITTLE BAY RD", "borough": "queens", "direction": "TW", "total_row_ft": 45.7, "roadbed_ft": 26.7, "median_ft": 0.0, "left_sw_ft": 4.0, "right_sw_ft": 15.0}, "geometry": {"type": "LineString", "coordinates": [[-73.78052934069365, 40.793754643449375], [-73.78023225571853, 40.79382681005827]]}}, {"type": "Feature", "properties": {"segment_id": 1541942, "physicalid": "103838", "street_name": "LITTLE BAY RD", "borough": "queens", "direction": "TW", "total_row_ft": 46.3, "roadbed_ft": 25.0, "median_ft": 0.0, "left_sw_ft": 6.3, "right_sw_ft": 15.0}, "geometry": {"type": "LineString", "coordinates": [[-73.78055830729622, 40.793805237516615], [-73.7802542466927, 40.79387909863167]]}}, {"type": "Feature", "properties": {"segment_id": 1541943, "physicalid": "103838", "street_name": "LITTLE BAY RD", "borough": "queens", "direction": "TW", "total_row_ft": 46.2, "roadbed_ft": 24.1, "median_ft": 0.0, "left_sw_ft": 7.1, "right_sw_ft": 15.0}, "geometry": {"type": "LineString", "coordinates": [[-73.78058467296489, 40.793856463399045], [-73.78027623770141, 40.79393138720043]]}}, {"type": "Feature", "properties": {"segment_id": 1541944, "physicalid": "103838", "street_name": "LITTLE BAY RD", "borough": "queens", "direction": "TW", "total_row_ft": 100.1, "roadbed_ft": 70.1, "median_ft": 0.0, "left_sw_ft": 15.0, "right_sw_ft": 15.0}, "geometry": {"type": "LineString", "coordinates": [[-73.78071103908611, 40.793883397374216], [-73.78029822874468, 40.79398367576458]]}}, {"type": "Feature", "properties": {"segment_id": 1541945, "physicalid": "103838", "street_name": "LITTLE BAY RD", "borough": "queens", "direction": "TW", "total_row_ft": 109.7, "roadbed_ft": 79.7, "median_ft": 0.0, "left_sw_ft": 15.0, "right_sw_ft": 15.0}, "geometry": {"type": "LineString", "coordinates": [[-73.7807299466105, 40.79392235275298], [-73.78032915853166, 40.79404767395652]]}}, {"type": "Feature", "properties": {"segment_id": 1541946, "physicalid": "103838", "street_name": "LITTLE BAY RD", "borough": "queens", "direction": "TW", "total_row_ft": 103.8, "roadbed_ft": 73.8, "median_ft": 0.0, "left_sw_ft": 15.0, "right_sw_ft": 15.0}, "geometry": {"type": "LineString", "coordinates": [[-73.78075742991363, 40.79397311838842], [-73.78035664158091, 40.794098439686515]]}}, {"type": "Feature", "properties": {"segment_id": 1541947, "physicalid": "103838", "street_name": "LITTLE BAY RD", "borough": "queens", "direction": "TW", "total_row_ft": 56.9, "roadbed_ft": 26.9, "median_ft": 0.0, "left_sw_ft": 15.0, "right_sw_ft": 15.0}, "geometry": {"type": "LineString", "coordinates": [[-73.78078491325869, 40.79402388401689], [-73.78038412467205, 40.79414920540956]]}}, {"type": "Feature", "properties": {"segment_id": 1541948, "physicalid": "103838", "street_name": "LITTLE BAY RD", "borough": "queens", "direction": "TW", "total_row_ft": 57.5, "roadbed_ft": 27.5, "median_ft": 0.0, "left_sw_ft": 15.0, "right_sw_ft": 15.0}, "geometry": {"type": "LineString", "coordinates": [[-73.78081239664564, 40.794074649638404], [-73.78041160780514, 40.79419997112563]]}}, {"type": "Feature", "properties": {"segment_id": 1541949, "physicalid": "103838", "street_name": "LITTLE BAY RD", "borough": "queens", "direction": "TW", "total_row_ft": 57.5, "roadbed_ft": 27.5, "median_ft": 0.0, "left_sw_ft": 15.0, "right_sw_ft": 15.0}, "geometry": {"type": "LineString", "coordinates": [[-73.78083618403296, 40.79411204908182], [-73.78045003011792, 40.79426157330471]]}}, {"type": "Feature", "properties": {"segment_id": 1541950, "physicalid": "103838", "street_name": "LITTLE BAY RD", "borough": "queens", "direction": "TW", "total_row_ft": 57.3, "roadbed_ft": 27.3, "median_ft": 0.0, "left_sw_ft": 15.0, "right_sw_ft": 15.0}, "geometry": {"type": "LineString", "coordinates": [[-73.78086897518146, 40.794160960927584], [-73.78048282105635, 40.79431048525919]]}}, {"type": "Feature", "properties": {"segment_id": 1541951, "physicalid": "103838", "street_name": "LITTLE BAY RD", "borough": "queens", "direction": "TW", "total_row_ft": 56.5, "roadbed_ft": 26.5, "median_ft": 0.0, "left_sw_ft": 15.0, "right_sw_ft": 15.0}, "geometry": {"type": "LineString", "coordinates": [[-73.78090176637816, 40.79420987276369], [-73.78051561204295, 40.79435939720395]]}}, {"type": "Feature", "properties": {"segment_id": 1541952, "physicalid": "103838", "street_name": "LITTLE BAY RD", "borough": "queens", "direction": "TW", "total_row_ft": 55.0, "roadbed_ft": 25.0, "median_ft": 0.0, "left_sw_ft": 15.0, "right_sw_ft": 15.0}, "geometry": {"type": "LineString", "coordinates": [[-73.78093455762303, 40.79425878459007], [-73.78054840307774, 40.794408309139016]]}}, {"type": "Feature", "properties": {"segment_id": 1541953, "physicalid": "103838", "street_name": "LITTLE BAY RD", "borough": "queens", "direction": "TW", "total_row_ft": 86.7, "roadbed_ft": 56.7, "median_ft": 0.0, "left_sw_ft": 15.0, "right_sw_ft": 15.0}, "geometry": {"type": "LineString", "coordinates": [[-73.78096305046027, 40.79429429812612], [-73.78059400704917, 40.794466986582705]]}}, {"type": "Feature", "properties": {"segment_id": 1541954, "physicalid": "103838", "street_name": "LITTLE BAY RD", "borough": "queens", "direction": "TW", "total_row_ft": 72.1, "roadbed_ft": 42.1, "median_ft": 0.0, "left_sw_ft": 15.0, "right_sw_ft": 15.0}, "geometry": {"type": "LineString", "coordinates": [[-73.7810009216699, 40.79434104253765], [-73.7806318780979, 40.794513731114236]]}}, {"type": "Feature", "properties": {"segment_id": 1541955, "physicalid": "103838", "street_name": "LITTLE BAY RD", "borough": "queens", "direction": "TW", "total_row_ft": 71.5, "roadbed_ft": 41.5, "median_ft": 0.0, "left_sw_ft": 15.0, "right_sw_ft": 15.0}, "geometry": {"type": "LineString", "coordinates": [[-73.78103879293273, 40.79438778693644], [-73.78066974919982, 40.79456047563293]]}}, {"type": "Feature", "properties": {"segment_id": 1541956, "physicalid": "103838", "street_name": "LITTLE BAY RD", "borough": "queens", "direction": "TW", "total_row_ft": 60.4, "roadbed_ft": 30.4, "median_ft": 0.0, "left_sw_ft": 15.0, "right_sw_ft": 15.0}, "geometry": {"type": "LineString", "coordinates": [[-73.78106703817802, 40.794423553577815], [-73.7807173656642, 40.794618136964516]]}}, {"type": "Feature", "properties": {"segment_id": 1541957, "physicalid": "103838", "street_name": "LITTLE BAY RD", "borough": "queens", "direction": "TW", "total_row_ft": 62.5, "roadbed_ft": 32.5, "median_ft": 0.0, "left_sw_ft": 15.0, "right_sw_ft": 15.0}, "geometry": {"type": "LineString", "coordinates": [[-73.78110971107837, 40.79446784429598], [-73.78076003845665, 40.794662427810756]]}}, {"type": "Feature", "properties": {"segment_id": 1541958, "physicalid": "103838", "street_name": "LITTLE BAY RD", "borough": "queens", "direction": "TW", "total_row_ft": 64.3, "roadbed_ft": 34.3, "median_ft": 0.0, "left_sw_ft": 15.0, "right_sw_ft": 15.0}, "geometry": {"type": "LineString", "coordinates": [[-73.78115238403554, 40.794512134998016], [-73.78080271130588, 40.794706718640896]]}}, {"type": "Feature", "properties": {"segment_id": 1541959, "physicalid": "103838", "street_name": "LITTLE BAY RD", "borough": "queens", "direction": "TW", "total_row_ft": 47.6, "roadbed_ft": 17.6, "median_ft": 0.0, "left_sw_ft": 15.0, "right_sw_ft": 15.0}, "geometry": {"type": "LineString", "coordinates": [[-73.78119505704946, 40.79455642568394], [-73.7808453842119, 40.79475100945494]]}}, {"type": "Feature", "properties": {"segment_id": 1541960, "physicalid": "103838", "street_name": "LITTLE BAY RD", "borough": "queens", "direction": "TW", "total_row_ft": 75.5, "roadbed_ft": 45.5, "median_ft": 0.0, "left_sw_ft": 15.0, "right_sw_ft": 15.0}, "geometry": {"type": "LineString", "coordinates": [[-73.78122800973385, 40.79458990126964], [-73.78089973013641, 40.79480493561247]]}}, {"type": "Feature", "properties": {"segment_id": 1541961, "physicalid": "103838", "street_name": "LITTLE BAY RD", "borough": "queens", "direction": "TW", "total_row_ft": 54.9, "roadbed_ft": 24.9, "median_ft": 0.0, "left_sw_ft": 15.0, "right_sw_ft": 15.0}, "geometry": {"type": "LineString", "coordinates": [[-73.78127516770036, 40.79463148216773], [-73.78094688805022, 40.7948465166435]]}}, {"type": "Feature", "properties": {"segment_id": 1541962, "physicalid": "103838", "street_name": "LITTLE BAY RD", "borough": "queens", "direction": "TW", "total_row_ft": 55.1, "roadbed_ft": 25.1, "median_ft": 0.0, "left_sw_ft": 15.0, "right_sw_ft": 15.0}, "geometry": {"type": "LineString", "coordinates": [[-73.7813223257258, 40.7946730630463], [-73.78099404602293, 40.79488809765496]]}}, {"type": "Feature", "properties": {"segment_id": 1541963, "physicalid": "103839", "street_name": "CIRCLE DR", "borough": "queens", "direction": "TF", "total_row_ft": 46.1, "roadbed_ft": 16.1, "median_ft": 0.0, "left_sw_ft": 15.0, "right_sw_ft": 15.0}, "geometry": {"type": "LineString", "coordinates": [[-73.78112445944127, 40.79492156175729], [-73.78070031634245, 40.79485388334668]]}}, {"type": "Feature", "properties": {"segment_id": 1541964, "physicalid": "103839", "street_name": "CIRCLE DR", "borough": "queens", "direction": "TF", "total_row_ft": 47.3, "roadbed_ft": 17.3, "median_ft": 0.0, "left_sw_ft": 15.0, "right_sw_ft": 15.0}, "geometry": {"type": "LineString", "coordinates": [[-73.780987405175, 40.79507069279137], [-73.7807573201997, 40.79479157422745]]}}, {"type": "Feature", "properties": {"segment_id": 1541965, "physicalid": "103839", "street_name": "CIRCLE DR", "borough": "queens", "direction": "TF", "total_row_ft": 45.5, "roadbed_ft": 15.5, "median_ft": 0.0, "left_sw_ft": 15.0, "right_sw_ft": 15.0}, "geometry": {"type": "LineString", "coordinates": [[-73.78082030389932, 40.79510977424419], [-73.7807856772126, 40.794781459695365]]}}, {"type": "Feature", "properties": {"segment_id": 1541966, "physicalid": "103839", "street_name": "CIRCLE DR", "borough": "queens", "direction": "TF", "total_row_ft": 47.1, "roadbed_ft": 17.1, "median_ft": 0.0, "left_sw_ft": 15.0, "right_sw_ft": 15.0}, "geometry": {"type": "LineString", "coordinates": [[-73.78071484576937, 40.79511022689018], [-73.78074710431694, 40.79478177304942]]}}, {"type": "Feature", "properties": {"segment_id": 1541967, "physicalid": "103839", "street_name": "CIRCLE DR", "borough": "queens", "direction": "TF", "total_row_ft": 46.9, "roadbed_ft": 16.9, "median_ft": 0.0, "left_sw_ft": 15.0, "right_sw_ft": 15.0}, "geometry": {"type": "LineString", "coordinates": [[-73.7805805103607, 40.795084383768604], [-73.78074265924666, 40.79477893744727]]}}, {"type": "Feature", "properties": {"segment_id": 1541968, "physicalid": "103839", "street_name": "CIRCLE DR", "borough": "queens", "direction": "TF", "total_row_ft": 45.5, "roadbed_ft": 15.5, "median_ft": 0.0, "left_sw_ft": 15.0, "right_sw_ft": 15.0}, "geometry": {"type": "LineString", "coordinates": [[-73.78046129038765, 40.79503074023461], [-73.78073797394948, 40.79477722867362]]}}, {"type": "Feature", "properties": {"segment_id": 1541969, "physicalid": "103839", "street_name": "CIRCLE DR", "borough": "queens", "direction": "TF", "total_row_ft": 53.3, "roadbed_ft": 23.3, "median_ft": 0.0, "left_sw_ft": 15.0, "right_sw_ft": 15.0}, "geometry": {"type": "LineString", "coordinates": [[-73.78036686090569, 40.794953644071725], [-73.78073187533003, 40.79477607549215]]}}, {"type": "Feature", "properties": {"segment_id": 1541970, "physicalid": "103839", "street_name": "CIRCLE DR", "borough": "queens", "direction": "TF", "total_row_ft": 54.7, "roadbed_ft": 24.7, "median_ft": 0.0, "left_sw_ft": 15.0, "right_sw_ft": 15.0}, "geometry": {"type": "LineString", "coordinates": [[-73.7803168843331, 40.79488306848195], [-73.78071350319736, 40.79475029847415]]}}, {"type": "Feature", "properties": {"segment_id": 1541971, "physicalid": "103839", "street_name": "CIRCLE DR", "borough": "queens", "direction": "TF", "total_row_ft": 47.0, "roadbed_ft": 17.0, "median_ft": 0.0, "left_sw_ft": 15.0, "right_sw_ft": 15.0}, "geometry": {"type": "LineString", "coordinates": [[-73.78027787505788, 40.79477732811087], [-73.78070994097966, 40.79475159881933]]}}, {"type": "Feature", "properties": {"segment_id": 1541972, "physicalid": "103839", "street_name": "CIRCLE DR", "borough": "queens", "direction": "TF", "total_row_ft": 44.9, "roadbed_ft": 14.9, "median_ft": 0.0, "left_sw_ft": 15.0, "right_sw_ft": 15.0}, "geometry": {"type": "LineString", "coordinates": [[-73.78028525882594, 40.79467409013276], [-73.78070826159737, 40.79474576828738]]}}, {"type": "Feature", "properties": {"segment_id": 1541973, "physicalid": "103839", "street_name": "CIRCLE DR", "borough": "queens", "direction": "TF", "total_row_ft": 47.3, "roadbed_ft": 17.3, "median_ft": 0.0, "left_sw_ft": 15.0, "right_sw_ft": 15.0}, "geometry": {"type": "LineString", "coordinates": [[-73.78033478364728, 40.79457780757873], [-73.78071154149296, 40.794740592553154]]}}, {"type": "Feature", "properties": {"segment_id": 1541974, "physicalid": "103841", "street_name": "CIRCLE DR", "borough": "queens", "direction": "TW", "total_row_ft": 52.0, "roadbed_ft": 22.0, "median_ft": 0.0, "left_sw_ft": 15.0, "right_sw_ft": 15.0}, "geometry": {"type": "LineString", "coordinates": [[-73.78043309595022, 40.794721244458096], [-73.78066651366868, 40.794443729294144]]}}, {"type": "Feature", "properties": {"segment_id": 1541975, "physicalid": "103841", "street_name": "CIRCLE DR", "borough": "queens", "direction": "TW", "total_row_ft": 46.4, "roadbed_ft": 16.4, "median_ft": 0.0, "left_sw_ft": 15.0, "right_sw_ft": 15.0}, "geometry": {"type": "LineString", "coordinates": [[-73.7803722357981, 40.79469167887287], [-73.78060565366665, 40.79441416383089]]}}, {"type": "Feature", "properties": {"segment_id": 1541976, "physicalid": "103841", "street_name": "CIRCLE DR", "borough": "queens", "direction": "TW", "total_row_ft": 45.6, "roadbed_ft": 15.6, "median_ft": 0.0, "left_sw_ft": 15.0, "right_sw_ft": 15.0}, "geometry": {"type": "LineString", "coordinates": [[-73.78031137570008, 40.7946621132554], [-73.78054479371865, 40.79438459833536]]}}, {"type": "Feature", "properties": {"segment_id": 1541977, "physicalid": "103841", "street_name": "CIRCLE DR", "borough": "queens", "direction": "TW", "total_row_ft": 45.5, "roadbed_ft": 15.5, "median_ft": 0.0, "left_sw_ft": 15.0, "right_sw_ft": 15.0}, "geometry": {"type": "LineString", "coordinates": [[-73.78023679439791, 40.79462412663067], [-73.78049906619012, 40.79436191725744]]}}, {"type": "Feature", "properties": {"segment_id": 1541978, "physicalid": "103841", "street_name": "CIRCLE DR", "borough": "queens", "direction": "TW", "total_row_ft": 46.1, "roadbed_ft": 16.1, "median_ft": 0.0, "left_sw_ft": 15.0, "right_sw_ft": 15.0}, "geometry": {"type": "LineString", "coordinates": [[-73.78017929096941, 40.794590906239954], [-73.78044156285725, 40.79432869699619]]}}, {"type": "Feature", "properties": {"segment_id": 1541979, "physicalid": "103841", "street_name": "CIRCLE DR", "borough": "queens", "direction": "TW", "total_row_ft": 47.1, "roadbed_ft": 17.1, "median_ft": 0.0, "left_sw_ft": 15.0, "right_sw_ft": 15.0}, "geometry": {"type": "LineString", "coordinates": [[-73.78012178759832, 40.79455768582042], [-73.78038405958176, 40.79429547670612]]}}, {"type": "Feature", "properties": {"segment_id": 1541980, "physicalid": "103841", "street_name": "CIRCLE DR", "borough": "queens", "direction": "TW", "total_row_ft": 46.5, "roadbed_ft": 16.5, "median_ft": 0.0, "left_sw_ft": 15.0, "right_sw_ft": 15.0}, "geometry": {"type": "LineString", "coordinates": [[-73.7800642842846, 40.79452446537197], [-73.78032655636366, 40.79426225638715]]}}, {"type": "Feature", "properties": {"segment_id": 1541981, "physicalid": "103841", "street_name": "CIRCLE DR", "borough": "queens", "direction": "TW", "total_row_ft": 45.3, "roadbed_ft": 15.3, "median_ft": 0.0, "left_sw_ft": 15.0, "right_sw_ft": 15.0}, "geometry": {"type": "LineString", "coordinates": [[-73.77999566839577, 40.79448045369761], [-73.78028509189114, 40.79423529695391]]}}, {"type": "Feature", "properties": {"segment_id": 1541982, "physicalid": "103841", "street_name": "CIRCLE DR", "borough": "queens", "direction": "TW", "total_row_ft": 44.3, "roadbed_ft": 14.3, "median_ft": 0.0, "left_sw_ft": 15.0, "right_sw_ft": 15.0}, "geometry": {"type": "LineString", "coordinates": [[-73.77994190480676, 40.79444379409667], [-73.78023132834076, 40.794198637486566]]}}, {"type": "Feature", "properties": {"segment_id": 1541983, "physicalid": "103841", "street_name": "CIRCLE DR", "borough": "queens", "direction": "TW", "total_row_ft": 43.7, "roadbed_ft": 13.7, "median_ft": 0.0, "left_sw_ft": 15.0, "right_sw_ft": 15.0}, "geometry": {"type": "LineString", "coordinates": [[-73.77988814127698, 40.794407134470454], [-73.78017756484957, 40.79416197799392]]}}, {"type": "Feature", "properties": {"segment_id": 1542007, "physicalid": "103845", "street_name": "WILLETS ST", "borough": "queens", "direction": "TW", "total_row_ft": 72.4, "roadbed_ft": 31.9, "median_ft": 0.0, "left_sw_ft": 15.0, "right_sw_ft": 25.5}, "geometry": {"type": "LineString", "coordinates": [[-73.78017871083718, 40.7928872434907], [-73.77992373091645, 40.793089665735515]]}}, {"type": "Feature", "properties": {"segment_id": 1542008, "physicalid": "103845", "street_name": "WILLETS ST", "borough": "queens", "direction": "TW", "total_row_ft": 63.8, "roadbed_ft": 32.0, "median_ft": 0.0, "left_sw_ft": 15.0, "right_sw_ft": 16.7}, "geometry": {"type": "LineString", "coordinates": [[-73.78021140043442, 40.79290610042646], [-73.78001707683403, 40.79311287306177]]}}, {"type": "Feature", "properties": {"segment_id": 1542009, "physicalid": "103845", "street_name": "WILLETS ST", "borough": "queens", "direction": "TW", "total_row_ft": 59.5, "roadbed_ft": 32.7, "median_ft": 0.0, "left_sw_ft": 15.0, "right_sw_ft": 11.8}, "geometry": {"type": "LineString", "coordinates": [[-73.78027017743598, 40.79293800591911], [-73.78008815731746, 40.7931316870984]]}}, {"type": "Feature", "properties": {"segment_id": 1542010, "physicalid": "103845", "street_name": "WILLETS ST", "borough": "queens", "direction": "TW", "total_row_ft": 56.2, "roadbed_ft": 31.9, "median_ft": 0.0, "left_sw_ft": 15.0, "right_sw_ft": 9.4}, "geometry": {"type": "LineString", "coordinates": [[-73.78030551663478, 40.79295427810871], [-73.78016686992439, 40.79315752606842]]}}, {"type": "Feature", "properties": {"segment_id": 1542054, "physicalid": "103852", "street_name": "BAYSIDE ST", "borough": "queens", "direction": "TW", "total_row_ft": 81.7, "roadbed_ft": 51.0, "median_ft": 0.0, "left_sw_ft": 15.7, "right_sw_ft": 15.0}, "geometry": {"type": "LineString", "coordinates": [[-73.77986382929177, 40.79244087909764], [-73.78019899802173, 40.792595351353974]]}}, {"type": "Feature", "properties": {"segment_id": 1562338, "physicalid": "105686", "street_name": "LITTLE BAY RD", "borough": "queens", "direction": "TW", "total_row_ft": 66.7, "roadbed_ft": 40.6, "median_ft": 0.0, "left_sw_ft": 15.0, "right_sw_ft": 11.0}, "geometry": {"type": "LineString", "coordinates": [[-73.78109605141137, 40.79157210959007], [-73.7807859706013, 40.79147370893698]]}}, {"type": "Feature", "properties": {"segment_id": 1562339, "physicalid": "105686", "street_name": "LITTLE BAY RD", "borough": "queens", "direction": "TW", "total_row_ft": 62.7, "roadbed_ft": 35.7, "median_ft": 0.0, "left_sw_ft": 15.0, "right_sw_ft": 12.0}, "geometry": {"type": "LineString", "coordinates": [[-73.78106822170884, 40.79162276581707], [-73.78073673018278, 40.79151757065974]]}}, {"type": "Feature", "properties": {"segment_id": 1562340, "physicalid": "105686", "street_name": "LITTLE BAY RD", "borough": "queens", "direction": "TW", "total_row_ft": 64.8, "roadbed_ft": 37.7, "median_ft": 0.0, "left_sw_ft": 15.0, "right_sw_ft": 12.1}, "geometry": {"type": "LineString", "coordinates": [[-73.78104039196393, 40.791673422037015], [-73.78068853010753, 40.79156176252538]]}}, {"type": "Feature", "properties": {"segment_id": 1562341, "physicalid": "105686", "street_name": "LITTLE BAY RD", "borough": "queens", "direction": "TW", "total_row_ft": 72.1, "roadbed_ft": 45.7, "median_ft": 0.0, "left_sw_ft": 15.0, "right_sw_ft": 11.4}, "geometry": {"type": "LineString", "coordinates": [[-73.78101256217668, 40.791724078249814], [-73.78064287816424, 40.79160676301867]]}}, {"type": "Feature", "properties": {"segment_id": 1562342, "physicalid": "105686", "street_name": "LITTLE BAY RD", "borough": "queens", "direction": "TW", "total_row_ft": 78.4, "roadbed_ft": 50.8, "median_ft": 0.0, "left_sw_ft": 15.0, "right_sw_ft": 12.6}, "geometry": {"type": "LineString", "coordinates": [[-73.78099610241868, 40.79176009980005], [-73.7805870353783, 40.79166592641138]]}}, {"type": "Feature", "properties": {"segment_id": 1562343, "physicalid": "105686", "street_name": "LITTLE BAY RD", "borough": "queens", "direction": "TW", "total_row_ft": 72.3, "roadbed_ft": 48.8, "median_ft": 0.0, "left_sw_ft": 15.0, "right_sw_ft": 8.5}, "geometry": {"type": "LineString", "coordinates": [[-73.78097516346479, 40.79181263708665], [-73.78056040313209, 40.79171715299821]]}}, {"type": "Feature", "properties": {"segment_id": 1562344, "physicalid": "105686", "street_name": "LITTLE BAY RD", "borough": "queens", "direction": "TW", "total_row_ft": 67.1, "roadbed_ft": 48.6, "median_ft": 0.0, "left_sw_ft": 15.0, "right_sw_ft": 3.5}, "geometry": {"type": "LineString", "coordinates": [[-73.78095422447785, 40.791865174369036], [-73.78053946384786, 40.79176969020607]]}}, {"type": "Feature", "properties": {"segment_id": 1562345, "physicalid": "105686", "street_name": "LITTLE BAY RD", "borough": "queens", "direction": "TW", "total_row_ft": 76.2, "roadbed_ft": 46.2, "median_ft": 0.0, "left_sw_ft": 15.0, "right_sw_ft": 15.0}, "geometry": {"type": "LineString", "coordinates": [[-73.78093328545783, 40.79191771164725], [-73.7805185245306, 40.79182222740962]]}}, {"type": "Feature", "properties": {"segment_id": 1562346, "physicalid": "105686", "street_name": "LITTLE BAY RD", "borough": "queens", "direction": "TW", "total_row_ft": 70.3, "roadbed_ft": 40.3, "median_ft": 0.0, "left_sw_ft": 15.0, "right_sw_ft": 15.0}, "geometry": {"type": "LineString", "coordinates": [[-73.7809123464048, 40.791970248921174], [-73.78049758518029, 40.79187476460899]]}}, {"type": "Feature", "properties": {"segment_id": 1562347, "physicalid": "105686", "street_name": "LITTLE BAY RD", "borough": "queens", "direction": "TW", "total_row_ft": 65.3, "roadbed_ft": 35.3, "median_ft": 0.0, "left_sw_ft": 15.0, "right_sw_ft": 15.0}, "geometry": {"type": "LineString", "coordinates": [[-73.7808914073187, 40.79202278619088], [-73.78047664579692, 40.791927301804115]]}}, {"type": "Feature", "properties": {"segment_id": 1562348, "physicalid": "105686", "street_name": "LITTLE BAY RD", "borough": "queens", "direction": "TW", "total_row_ft": 61.3, "roadbed_ft": 31.3, "median_ft": 0.0, "left_sw_ft": 15.0, "right_sw_ft": 15.0}, "geometry": {"type": "LineString", "coordinates": [[-73.78087046819957, 40.792075323456345], [-73.78045570638051, 40.791979838995005]]}}, {"type": "Feature", "properties": {"segment_id": 1562349, "physicalid": "105686", "street_name": "LITTLE BAY RD", "borough": "queens", "direction": "TW", "total_row_ft": 57.2, "roadbed_ft": 27.2, "median_ft": 0.0, "left_sw_ft": 15.0, "right_sw_ft": 15.0}, "geometry": {"type": "LineString", "coordinates": [[-73.7808495290474, 40.79212786071752], [-73.78043476693104, 40.79203237618171]]}}, {"type": "Feature", "properties": {"segment_id": 1562350, "physicalid": "105686", "street_name": "LITTLE BAY RD", "borough": "queens", "direction": "TW", "total_row_ft": 51.9, "roadbed_ft": 21.9, "median_ft": 0.0, "left_sw_ft": 15.0, "right_sw_ft": 15.0}, "geometry": {"type": "LineString", "coordinates": [[-73.78082858986217, 40.792180397974526], [-73.78041382744853, 40.79208491336414]]}}, {"type": "Feature", "properties": {"segment_id": 1562351, "physicalid": "105686", "street_name": "LITTLE BAY RD", "borough": "queens", "direction": "TW", "total_row_ft": 45.3, "roadbed_ft": 15.3, "median_ft": 0.0, "left_sw_ft": 15.0, "right_sw_ft": 15.0}, "geometry": {"type": "LineString", "coordinates": [[-73.78080765064387, 40.79223293522732], [-73.78039288793298, 40.792137450542285]]}}, {"type": "Feature", "properties": {"segment_id": 1562352, "physicalid": "105686", "street_name": "LITTLE BAY RD", "borough": "queens", "direction": "TW", "total_row_ft": 48.2, "roadbed_ft": 18.2, "median_ft": 0.0, "left_sw_ft": 15.0, "right_sw_ft": 15.0}, "geometry": {"type": "LineString", "coordinates": [[-73.78075535265249, 40.79231813710177], [-73.7803824307772, 40.79215034537478]]}}, {"type": "Feature", "properties": {"segment_id": 1562353, "physicalid": "105686", "street_name": "LITTLE BAY RD", "borough": "queens", "direction": "TW", "total_row_ft": 59.1, "roadbed_ft": 29.1, "median_ft": 0.0, "left_sw_ft": 15.0, "right_sw_ft": 15.0}, "geometry": {"type": "LineString", "coordinates": [[-73.7807185566761, 40.79236537443276], [-73.78034563462896, 40.79219758258796]]}}, {"type": "Feature", "properties": {"segment_id": 1562354, "physicalid": "105686", "street_name": "LITTLE BAY RD", "borough": "queens", "direction": "TW", "total_row_ft": 60.0, "roadbed_ft": 30.0, "median_ft": 0.0, "left_sw_ft": 15.0, "right_sw_ft": 15.0}, "geometry": {"type": "LineString", "coordinates": [[-73.7806817606475, 40.79241261175168], [-73.78030883842848, 40.79224481978906]]}}, {"type": "Feature", "properties": {"segment_id": 1562355, "physicalid": "105686", "street_name": "LITTLE BAY RD", "borough": "queens", "direction": "TW", "total_row_ft": 61.0, "roadbed_ft": 31.0, "median_ft": 0.0, "left_sw_ft": 15.0, "right_sw_ft": 15.0}, "geometry": {"type": "LineString", "coordinates": [[-73.78064496456669, 40.79245984905849], [-73.78027204217582, 40.792292056978084]]}}, {"type": "Feature", "properties": {"segment_id": 1562356, "physicalid": "105686", "street_name": "LITTLE BAY RD", "borough": "queens", "direction": "TW", "total_row_ft": 64.0, "roadbed_ft": 34.0, "median_ft": 0.0, "left_sw_ft": 15.0, "right_sw_ft": 15.0}, "geometry": {"type": "LineString", "coordinates": [[-73.78060816843364, 40.79250708635322], [-73.78023524587091, 40.79233929415498]]}}, {"type": "Feature", "properties": {"segment_id": 1562357, "physicalid": "105686", "street_name": "LITTLE BAY RD", "borough": "queens", "direction": "TW", "total_row_ft": 67.2, "roadbed_ft": 37.2, "median_ft": 0.0, "left_sw_ft": 15.0, "right_sw_ft": 15.0}, "geometry": {"type": "LineString", "coordinates": [[-73.7805713722484, 40.79255432363584], [-73.7801984495138, 40.792386531319785]]}}, {"type": "Feature", "properties": {"segment_id": 1562358, "physicalid": "105686", "street_name": "LITTLE BAY RD", "borough": "queens", "direction": "TW", "total_row_ft": 83.7, "roadbed_ft": 53.7, "median_ft": 0.0, "left_sw_ft": 15.0, "right_sw_ft": 15.0}, "geometry": {"type": "LineString", "coordinates": [[-73.78053457601094, 40.79260156090638], [-73.78016165310447, 40.79243376847247]]}}, {"type": "Feature", "properties": {"segment_id": 1562359, "physicalid": "105686", "street_name": "LITTLE BAY RD", "borough": "queens", "direction": "TW", "total_row_ft": 101.9, "roadbed_ft": 71.9, "median_ft": 0.0, "left_sw_ft": 15.0, "right_sw_ft": 15.0}, "geometry": {"type": "LineString", "coordinates": [[-73.78049777972124, 40.792648798164805], [-73.78012485664293, 40.792481005613105]]}}, {"type": "Feature", "properties": {"segment_id": 1562360, "physicalid": "105686", "street_name": "LITTLE BAY RD", "borough": "queens", "direction": "TW", "total_row_ft": 30.0, "roadbed_ft": 0.0, "median_ft": 0.0, "left_sw_ft": 15.0, "right_sw_ft": 15.0}, "geometry": {"type": "LineString", "coordinates": [[-73.78046098341927, 40.79269603538317], [-73.78008806011611, 40.79252824278166]]}}, {"type": "Feature", "properties": {"segment_id": 1562361, "physicalid": "105686", "street_name": "LITTLE BAY RD", "borough": "queens", "direction": "TW", "total_row_ft": 30.0, "roadbed_ft": 0.0, "median_ft": 0.0, "left_sw_ft": 15.0, "right_sw_ft": 15.0}, "geometry": {"type": "LineString", "coordinates": [[-73.78042418704007, 40.792743272624136], [-73.78005126356506, 40.79257547990481]]}}, {"type": "Feature", "properties": {"segment_id": 1562362, "physicalid": "105686", "street_name": "LITTLE BAY RD", "borough": "queens", "direction": "TW", "total_row_ft": 30.0, "roadbed_ft": 0.0, "median_ft": 0.0, "left_sw_ft": 15.0, "right_sw_ft": 15.0}, "geometry": {"type": "LineString", "coordinates": [[-73.78038739060867, 40.79279050985298], [-73.78001446696179, 40.79262271701585]]}}, {"type": "Feature", "properties": {"segment_id": 1562363, "physicalid": "105686", "street_name": "LITTLE BAY RD", "borough": "queens", "direction": "TW", "total_row_ft": 30.0, "roadbed_ft": 0.0, "median_ft": 0.0, "left_sw_ft": 15.0, "right_sw_ft": 15.0}, "geometry": {"type": "LineString", "coordinates": [[-73.78035059412504, 40.79283774706974], [-73.77997767030628, 40.7926699541148]]}}, {"type": "Feature", "properties": {"segment_id": 1562364, "physicalid": "105686", "street_name": "LITTLE BAY RD", "borough": "queens", "direction": "TW", "total_row_ft": 30.0, "roadbed_ft": 0.0, "median_ft": 0.0, "left_sw_ft": 15.0, "right_sw_ft": 15.0}, "geometry": {"type": "LineString", "coordinates": [[-73.78031379758919, 40.792884984274394], [-73.77994087359858, 40.79271719120164]]}}, {"type": "Feature", "properties": {"segment_id": 1562365, "physicalid": "105686", "street_name": "LITTLE BAY RD", "borough": "queens", "direction": "TW", "total_row_ft": 30.0, "roadbed_ft": 0.0, "median_ft": 0.0, "left_sw_ft": 15.0, "right_sw_ft": 15.0}, "geometry": {"type": "LineString", "coordinates": [[-73.78027700100111, 40.792932221467], [-73.77990407683865, 40.792764428276385]]}}, {"type": "Feature", "properties": {"segment_id": 1562366, "physicalid": "105686", "street_name": "LITTLE BAY RD", "borough": "queens", "direction": "TW", "total_row_ft": 30.0, "roadbed_ft": 0.0, "median_ft": 0.0, "left_sw_ft": 15.0, "right_sw_ft": 15.0}, "geometry": {"type": "LineString", "coordinates": [[-73.78024020436082, 40.79297945864745], [-73.7798672800265, 40.792811665339045]]}}, {"type": "Feature", "properties": {"segment_id": 1655641, "physicalid": "165595", "street_name": "CIRCLE DR", "borough": "queens", "direction": "FT", "total_row_ft": 71.9, "roadbed_ft": 41.9, "median_ft": 0.0, "left_sw_ft": 15.0, "right_sw_ft": 15.0}, "geometry": {"type": "LineString", "coordinates": [[-73.78070934075228, 40.7949323858369], [-73.78102181717429, 40.794704156948235]]}}, {"type": "Feature", "properties": {"segment_id": 1655642, "physicalid": "165595", "street_name": "CIRCLE DR", "borough": "queens", "direction": "FT", "total_row_ft": 45.5, "roadbed_ft": 15.5, "median_ft": 0.0, "left_sw_ft": 15.0, "right_sw_ft": 15.0}, "geometry": {"type": "LineString", "coordinates": [[-73.7806592891688, 40.794892806539266], [-73.78097176557657, 40.79466457778483]]}}, {"type": "Feature", "properties": {"segment_id": 1655643, "physicalid": "165595", "street_name": "CIRCLE DR", "borough": "queens", "direction": "FT", "total_row_ft": 65.3, "roadbed_ft": 35.3, "median_ft": 0.0, "left_sw_ft": 15.0, "right_sw_ft": 15.0}, "geometry": {"type": "LineString", "coordinates": [[-73.7806092376448, 40.79485322721964], [-73.78092171403836, 40.79462499859947]]}}, {"type": "Feature", "properties": {"segment_id": 1655644, "physicalid": "165595", "street_name": "CIRCLE DR", "borough": "queens", "direction": "FT", "total_row_ft": 67.2, "roadbed_ft": 37.2, "median_ft": 0.0, "left_sw_ft": 15.0, "right_sw_ft": 15.0}, "geometry": {"type": "LineString", "coordinates": [[-73.7805591861803, 40.79481364787804], [-73.78087166255969, 40.794585419392135]]}}, {"type": "Feature", "properties": {"segment_id": 1655645, "physicalid": "165595", "street_name": "CIRCLE DR", "borough": "queens", "direction": "FT", "total_row_ft": 73.0, "roadbed_ft": 43.0, "median_ft": 0.0, "left_sw_ft": 15.0, "right_sw_ft": 15.0}, "geometry": {"type": "LineString", "coordinates": [[-73.78050913477531, 40.794774068514435], [-73.78082161114054, 40.79454584016281]]}}, {"type": "Feature", "properties": {"segment_id": 1697790, "physicalid": "175592", "street_name": "TOTTEN AVE", "borough": "queens", "direction": "TW", "total_row_ft": 52.6, "roadbed_ft": 30.4, "median_ft": 0.0, "left_sw_ft": 15.0, "right_sw_ft": 7.2}, "geometry": {"type": "LineString", "coordinates": [[-73.7816325367489, 40.79109172962744], [-73.78139900257594, 40.790949676301935]]}}, {"type": "Feature", "properties": {"segment_id": 1697791, "physicalid": "175592", "street_name": "TOTTEN AVE", "borough": "queens", "direction": "TW", "total_row_ft": 54.1, "roadbed_ft": 30.6, "median_ft": 0.0, "left_sw_ft": 15.0, "right_sw_ft": 8.5}, "geometry": {"type": "LineString", "coordinates": [[-73.78158740478828, 40.79113458804113], [-73.78135576639694, 40.79099368782197]]}}, {"type": "Feature", "properties": {"segment_id": 1697792, "physicalid": "175592", "street_name": "TOTTEN AVE", "borough": "queens", "direction": "TW", "total_row_ft": 58.9, "roadbed_ft": 30.6, "median_ft": 0.0, "left_sw_ft": 15.0, "right_sw_ft": 13.3}, "geometry": {"type": "LineString", "coordinates": [[-73.78154227276958, 40.79117744643684], [-73.78129889843248, 40.79102940742777]]}}, {"type": "Feature", "properties": {"segment_id": 1697793, "physicalid": "175592", "street_name": "TOTTEN AVE", "borough": "queens", "direction": "TW", "total_row_ft": 61.9, "roadbed_ft": 31.8, "median_ft": 0.0, "left_sw_ft": 15.0, "right_sw_ft": 15.1}, "geometry": {"type": "LineString", "coordinates": [[-73.78149714069279, 40.79122030481456], [-73.78124395118986, 40.79106629537889]]}}, {"type": "Feature", "properties": {"segment_id": 1697794, "physicalid": "175592", "street_name": "TOTTEN AVE", "borough": "queens", "direction": "TW", "total_row_ft": 62.6, "roadbed_ft": 33.0, "median_ft": 0.0, "left_sw_ft": 15.0, "right_sw_ft": 14.6}, "geometry": {"type": "LineString", "coordinates": [[-73.78145200855786, 40.791263163174385], [-73.7811952684184, 40.79110699389452]]}}, {"type": "Feature", "properties": {"segment_id": 1697795, "physicalid": "175592", "street_name": "TOTTEN AVE", "borough": "queens", "direction": "TW", "total_row_ft": 67.6, "roadbed_ft": 45.7, "median_ft": 1.0, "left_sw_ft": 15.0, "right_sw_ft": 5.8}, "geometry": {"type": "LineString", "coordinates": [[-73.7813965398565, 40.79131184310322], [-73.78115420569219, 40.7911460938431]]}}, {"type": "Feature", "properties": {"segment_id": 1697796, "physicalid": "175592", "street_name": "TOTTEN AVE", "borough": "queens", "direction": "TW", "total_row_ft": 74.1, "roadbed_ft": 45.7, "median_ft": 7.8, "left_sw_ft": 15.0, "right_sw_ft": 5.6}, "geometry": {"type": "LineString", "coordinates": [[-73.78134822380869, 40.79135264726871], [-73.78110829128943, 40.79118854058756]]}}, {"type": "Feature", "properties": {"segment_id": 1697797, "physicalid": "175592", "street_name": "TOTTEN AVE", "borough": "queens", "direction": "TW", "total_row_ft": 54.6, "roadbed_ft": 33.7, "median_ft": 0.0, "left_sw_ft": 15.0, "right_sw_ft": 5.9}, "geometry": {"type": "LineString", "coordinates": [[-73.78129990770164, 40.79139345141368], [-73.7810610826881, 40.791230102156355]]}}, {"type": "Feature", "properties": {"segment_id": 1697798, "physicalid": "175592", "street_name": "TOTTEN AVE", "borough": "queens", "direction": "TW", "total_row_ft": 75.1, "roadbed_ft": 45.6, "median_ft": 7.9, "left_sw_ft": 15.0, "right_sw_ft": 6.7}, "geometry": {"type": "LineString", "coordinates": [[-73.78125159153538, 40.791434255538135], [-73.78101264837883, 40.79127082539408]]}}, {"type": "Feature", "properties": {"segment_id": 1697799, "physicalid": "175592", "street_name": "TOTTEN AVE", "borough": "queens", "direction": "TW", "total_row_ft": 68.0, "roadbed_ft": 45.6, "median_ft": 0.0, "left_sw_ft": 15.0, "right_sw_ft": 7.4}, "geometry": {"type": "LineString", "coordinates": [[-73.78120327530988, 40.79147505964208], [-73.78096379429789, 40.79131126153889]]}}, {"type": "Feature", "properties": {"segment_id": 1697800, "physicalid": "175592", "street_name": "TOTTEN AVE", "borough": "queens", "direction": "TW", "total_row_ft": 68.7, "roadbed_ft": 46.2, "median_ft": 0.0, "left_sw_ft": 15.0, "right_sw_ft": 7.5}, "geometry": {"type": "LineString", "coordinates": [[-73.78115495902516, 40.79151586372551], [-73.78091524488403, 40.79135190608772]]}}]}