{"type": "FeatureCollection", "features": [{"type": "Feature", "properties": {"segment_id": 1633377, "physicalid": "156243", "street_name": "CONCH PL", "borough": "queens", "direction": "TW", "total_row_ft": 53.4, "roadbed_ft": 23.4, "median_ft": 0.0, "left_sw_ft": 15.0, "right_sw_ft": 15.0}, "geometry": {"type": "LineString", "coordinates": [[-73.78231260752874, 40.600067052163034], [-73.78188931550427, 40.60000079158056]]}}, {"type": "Feature", "properties": {"segment_id": 1633378, "physicalid": "156243", "street_name": "CONCH PL", "borough": "queens", "direction": "TW", "total_row_ft": 52.4, "roadbed_ft": 22.4, "median_ft": 0.0, "left_sw_ft": 15.0, "right_sw_ft": 15.0}, "geometry": {"type": "LineString", "coordinates": [[-73.78229811918952, 40.60012082585932], [-73.78187482683852, 40.60005456522382]]}}, {"type": "Feature", "properties": {"segment_id": 1633379, "physicalid": "156243", "street_name": "CONCH PL", "borough": "queens", "direction": "TW", "total_row_ft": 52.3, "roadbed_ft": 22.3, "median_ft": 0.0, "left_sw_ft": 15.0, "right_sw_ft": 15.0}, "geometry": {"type": "LineString", "coordinates": [[-73.78228979842422, 40.600136690713605], [-73.78185786278421, 40.60014649145638]]}}, {"type": "Feature", "properties": {"segment_id": 1633380, "physicalid": "156243", "street_name": "CONCH PL", "borough": "queens", "direction": "TW", "total_row_ft": 52.7, "roadbed_ft": 22.7, "median_ft": 0.0, "left_sw_ft": 15.0, "right_sw_ft": 15.0}, "geometry": {"type": "LineString", "coordinates": [[-73.78229194163008, 40.600191562348606], [-73.7818600056354, 40.60020136309937]]}}, {"type": "Feature", "properties": {"segment_id": 1633381, "physicalid": "156243", "street_name": "CONCH PL", "borough": "queens", "direction": "TW", "total_row_ft": 52.7, "roadbed_ft": 22.7, "median_ft": 0.0, "left_sw_ft": 15.0, "right_sw_ft": 15.0}, "geometry": {"type": "LineString", "coordinates": [[-73.78229408483945, 40.60024643398325], [-73.78186214849012, 40.60025623474203]]}}, {"type": "Feature", "properties": {"segment_id": 1633382, "physicalid": "156243", "street_name": "CONCH PL", "borough": "queens", "direction": "TW", "total_row_ft": 52.6, "roadbed_ft": 22.6, "median_ft": 0.0, "left_sw_ft": 15.0, "right_sw_ft": 15.0}, "geometry": {"type": "LineString", "coordinates": [[-73.78229622805237, 40.6003013056176], [-73.78186429134837, 40.600311106384375]]}}, {"type": "Feature", "properties": {"segment_id": 1633383, "physicalid": "156243", "street_name": "CONCH PL", "borough": "queens", "direction": "TW", "total_row_ft": 52.5, "roadbed_ft": 22.5, "median_ft": 0.0, "left_sw_ft": 15.0, "right_sw_ft": 15.0}, "geometry": {"type": "LineString", "coordinates": [[-73.7822983712688, 40.60035617725158], [-73.78186643421014, 40.60036597802633]]}}, {"type": "Feature", "properties": {"segment_id": 1633384, "physicalid": "156243", "street_name": "CONCH PL", "borough": "queens", "direction": "TW", "total_row_ft": 52.2, "roadbed_ft": 22.2, "median_ft": 0.0, "left_sw_ft": 15.0, "right_sw_ft": 15.0}, "geometry": {"type": "LineString", "coordinates": [[-73.78230051448875, 40.600411048885235], [-73.78186857707544, 40.600420849668005]]}}, {"type": "Feature", "properties": {"segment_id": 1633385, "physicalid": "156243", "street_name": "CONCH PL", "borough": "queens", "direction": "TW", "total_row_ft": 51.9, "roadbed_ft": 21.9, "median_ft": 0.0, "left_sw_ft": 15.0, "right_sw_ft": 15.0}, "geometry": {"type": "LineString", "coordinates": [[-73.78230265771224, 40.60046592051854], [-73.78187071994424, 40.60047572130931]]}}, {"type": "Feature", "properties": {"segment_id": 1633386, "physicalid": "156243", "street_name": "CONCH PL", "borough": "queens", "direction": "TW", "total_row_ft": 51.7, "roadbed_ft": 21.7, "median_ft": 0.0, "left_sw_ft": 15.0, "right_sw_ft": 15.0}, "geometry": {"type": "LineString", "coordinates": [[-73.78230480093923, 40.60052079215157], [-73.78187286281657, 40.60053059295027]]}}, {"type": "Feature", "properties": {"segment_id": 1633387, "physicalid": "156243", "street_name": "CONCH PL", "borough": "queens", "direction": "TW", "total_row_ft": 51.9, "roadbed_ft": 21.9, "median_ft": 0.0, "left_sw_ft": 15.0, "right_sw_ft": 15.0}, "geometry": {"type": "LineString", "coordinates": [[-73.78230694416975, 40.60057566378418], [-73.78187500569243, 40.60058546459095]]}}, {"type": "Feature", "properties": {"segment_id": 1633388, "physicalid": "156243", "street_name": "CONCH PL", "borough": "queens", "direction": "TW", "total_row_ft": 52.2, "roadbed_ft": 22.2, "median_ft": 0.0, "left_sw_ft": 15.0, "right_sw_ft": 15.0}, "geometry": {"type": "LineString", "coordinates": [[-73.78230661143512, 40.60059463597797], [-73.78188766679575, 40.600675379872904]]}}, {"type": "Feature", "properties": {"segment_id": 1633389, "physicalid": "156243", "street_name": "CONCH PL", "borough": "queens", "direction": "TW", "total_row_ft": 52.2, "roadbed_ft": 22.2, "median_ft": 0.0, "left_sw_ft": 15.0, "right_sw_ft": 15.0}, "geometry": {"type": "LineString", "coordinates": [[-73.78232426716686, 40.60064785685509], [-73.78190532221494, 40.600728600814016]]}}, {"type": "Feature", "properties": {"segment_id": 1633390, "physicalid": "156243", "street_name": "CONCH PL", "borough": "queens", "direction": "TW", "total_row_ft": 52.2, "roadbed_ft": 22.2, "median_ft": 0.0, "left_sw_ft": 15.0, "right_sw_ft": 15.0}, "geometry": {"type": "LineString", "coordinates": [[-73.78234192292676, 40.60070107772926], [-73.78192297766222, 40.60078182175207]]}}, {"type": "Feature", "properties": {"segment_id": 1633391, "physicalid": "156243", "street_name": "CONCH PL", "borough": "queens", "direction": "TW", "total_row_ft": 52.3, "roadbed_ft": 22.3, "median_ft": 0.0, "left_sw_ft": 15.0, "right_sw_ft": 15.0}, "geometry": {"type": "LineString", "coordinates": [[-73.78235957871482, 40.600754298600435], [-73.78194063313768, 40.60083504268715]]}}, {"type": "Feature", "properties": {"segment_id": 1633392, "physicalid": "156243", "street_name": "CONCH PL", "borough": "queens", "direction": "TW", "total_row_ft": 52.4, "roadbed_ft": 22.4, "median_ft": 0.0, "left_sw_ft": 15.0, "right_sw_ft": 15.0}, "geometry": {"type": "LineString", "coordinates": [[-73.782377234531, 40.600807519468546], [-73.7819582886413, 40.60088826361931]]}}, {"type": "Feature", "properties": {"segment_id": 1633393, "physicalid": "156243", "street_name": "CONCH PL", "borough": "queens", "direction": "TW", "total_row_ft": 52.4, "roadbed_ft": 22.4, "median_ft": 0.0, "left_sw_ft": 15.0, "right_sw_ft": 15.0}, "geometry": {"type": "LineString", "coordinates": [[-73.78239489037534, 40.60086074033378], [-73.78197594417304, 40.6009414845484]]}}, {"type": "Feature", "properties": {"segment_id": 1633394, "physicalid": "156243", "street_name": "CONCH PL", "borough": "queens", "direction": "TW", "total_row_ft": 52.5, "roadbed_ft": 22.5, "median_ft": 0.0, "left_sw_ft": 15.0, "right_sw_ft": 15.0}, "geometry": {"type": "LineString", "coordinates": [[-73.78241254624783, 40.600913961195914], [-73.78199359973294, 40.60099470547454]]}}, {"type": "Feature", "properties": {"segment_id": 1633395, "physicalid": "156243", "street_name": "CONCH PL", "borough": "queens", "direction": "TW", "total_row_ft": 52.3, "roadbed_ft": 22.3, "median_ft": 0.0, "left_sw_ft": 15.0, "right_sw_ft": 15.0}, "geometry": {"type": "LineString", "coordinates": [[-73.78243020214848, 40.60096718205515], [-73.78201125532098, 40.601047926397634]]}}, {"type": "Feature", "properties": {"segment_id": 1633396, "physicalid": "156243", "street_name": "CONCH PL", "borough": "queens", "direction": "TW", "total_row_ft": 51.9, "roadbed_ft": 21.9, "median_ft": 0.0, "left_sw_ft": 15.0, "right_sw_ft": 15.0}, "geometry": {"type": "LineString", "coordinates": [[-73.78244785807725, 40.60102040291132], [-73.78202891093717, 40.601101147317834]]}}, {"type": "Feature", "properties": {"segment_id": 1633397, "physicalid": "156243", "street_name": "CONCH PL", "borough": "queens", "direction": "TW", "total_row_ft": 51.5, "roadbed_ft": 21.5, "median_ft": 0.0, "left_sw_ft": 15.0, "right_sw_ft": 15.0}, "geometry": {"type": "LineString", "coordinates": [[-73.78246551403419, 40.60107362376458], [-73.7820465665815, 40.60115436823496]]}}, {"type": "Feature", "properties": {"segment_id": 1633398, "physicalid": "156243", "street_name": "CONCH PL", "borough": "queens", "direction": "TW", "total_row_ft": 53.9, "roadbed_ft": 23.9, "median_ft": 0.0, "left_sw_ft": 15.0, "right_sw_ft": 15.0}, "geometry": {"type": "LineString", "coordinates": [[-73.78248317001928, 40.6011268446148], [-73.78206422225398, 40.60120758914912]]}}]}