{"type": "FeatureCollection", "features": [{"type": "Feature", "properties": {"segment_id": 274653, "physicalid": "20989", "street_name": "JFK ACCESS RD", "borough": "queens", "direction": "TW", "total_row_ft": 103.7, "roadbed_ft": 73.7, "median_ft": 0.0, "left_sw_ft": 15.0, "right_sw_ft": 15.0}, "geometry": {"type": "LineString", "coordinates": [[-73.77491192075043, 40.63990906903256], [-73.77528428847754, 40.6400764818202]]}}, {"type": "Feature", "properties": {"segment_id": 274654, "physicalid": "20989", "street_name": "JFK ACCESS RD", "borough": "queens", "direction": "TW", "total_row_ft": 103.6, "roadbed_ft": 73.6, "median_ft": 0.0, "left_sw_ft": 15.0, "right_sw_ft": 15.0}, "geometry": {"type": "LineString", "coordinates": [[-73.77494854924211, 40.63986179318198], [-73.77532091679731, 40.64002920585189]]}}, {"type": "Feature", "properties": {"segment_id": 274655, "physicalid": "20989", "street_name": "JFK ACCESS RD", "borough": "queens", "direction": "TW", "total_row_ft": 103.5, "roadbed_ft": 73.5, "median_ft": 0.0, "left_sw_ft": 15.0, "right_sw_ft": 15.0}, "geometry": {"type": "LineString", "coordinates": [[-73.7749851776819, 40.6398145173195], [-73.77535754506518, 40.639981929871674]]}}, {"type": "Feature", "properties": {"segment_id": 274656, "physicalid": "20989", "street_name": "JFK ACCESS RD", "borough": "queens", "direction": "TW", "total_row_ft": 103.4, "roadbed_ft": 73.4, "median_ft": 0.0, "left_sw_ft": 15.0, "right_sw_ft": 15.0}, "geometry": {"type": "LineString", "coordinates": [[-73.77502180606979, 40.63976724144511], [-73.77539417328114, 40.63993465387955]]}}, {"type": "Feature", "properties": {"segment_id": 274657, "physicalid": "20989", "street_name": "JFK ACCESS RD", "borough": "queens", "direction": "TW", "total_row_ft": 103.4, "roadbed_ft": 73.4, "median_ft": 0.0, "left_sw_ft": 15.0, "right_sw_ft": 15.0}, "geometry": {"type": "LineString", "coordinates": [[-73.77505843440576, 40.639719965558825], [-73.77543080144524, 40.63988737787549]]}}, {"type": "Feature", "properties": {"segment_id": 274658, "physicalid": "20989", "street_name": "JFK ACCESS RD", "borough": "queens", "direction": "TW", "total_row_ft": 103.3, "roadbed_ft": 73.3, "median_ft": 0.0, "left_sw_ft": 15.0, "right_sw_ft": 15.0}, "geometry": {"type": "LineString", "coordinates": [[-73.77509506268987, 40.63967268966058], [-73.77546742955738, 40.63984010185955]]}}, {"type": "Feature", "properties": {"segment_id": 274659, "physicalid": "20989", "street_name": "JFK ACCESS RD", "borough": "queens", "direction": "TW", "total_row_ft": 103.2, "roadbed_ft": 73.2, "median_ft": 0.0, "left_sw_ft": 15.0, "right_sw_ft": 15.0}, "geometry": {"type": "LineString", "coordinates": [[-73.77513169092204, 40.63962541375048], [-73.77550405761767, 40.639792825831655]]}}, {"type": "Feature", "properties": {"segment_id": 274660, "physicalid": "20989", "street_name": "JFK ACCESS RD", "borough": "queens", "direction": "TW", "total_row_ft": 103.2, "roadbed_ft": 73.2, "median_ft": 0.0, "left_sw_ft": 15.0, "right_sw_ft": 15.0}, "geometry": {"type": "LineString", "coordinates": [[-73.77516831910235, 40.639578137828394], [-73.775540685626, 40.63974554979189]]}}, {"type": "Feature", "properties": {"segment_id": 274661, "physicalid": "20989", "street_name": "JFK ACCESS RD", "borough": "queens", "direction": "TW", "total_row_ft": 103.1, "roadbed_ft": 73.1, "median_ft": 0.0, "left_sw_ft": 15.0, "right_sw_ft": 15.0}, "geometry": {"type": "LineString", "coordinates": [[-73.77520494723073, 40.63953086189444], [-73.77557731358247, 40.63969827374022]]}}, {"type": "Feature", "properties": {"segment_id": 274662, "physicalid": "20989", "street_name": "JFK ACCESS RD", "borough": "queens", "direction": "TW", "total_row_ft": 103.1, "roadbed_ft": 73.1, "median_ft": 0.0, "left_sw_ft": 15.0, "right_sw_ft": 15.0}, "geometry": {"type": "LineString", "coordinates": [[-73.7752415753072, 40.63948358594857], [-73.77561394148704, 40.6396509976766]]}}, {"type": "Feature", "properties": {"segment_id": 274663, "physicalid": "20989", "street_name": "JFK ACCESS RD", "borough": "queens", "direction": "TW", "total_row_ft": 103.0, "roadbed_ft": 73.0, "median_ft": 0.0, "left_sw_ft": 15.0, "right_sw_ft": 15.0}, "geometry": {"type": "LineString", "coordinates": [[-73.7752782033318, 40.63943630999079], [-73.7756505693397, 40.63960372160106]]}}, {"type": "Feature", "properties": {"segment_id": 274664, "physicalid": "20989", "street_name": "JFK ACCESS RD", "borough": "queens", "direction": "TW", "total_row_ft": 103.0, "roadbed_ft": 73.0, "median_ft": 0.0, "left_sw_ft": 15.0, "right_sw_ft": 15.0}, "geometry": {"type": "LineString", "coordinates": [[-73.77531483130446, 40.639389034021136], [-73.77568719714048, 40.63955644551362]]}}, {"type": "Feature", "properties": {"segment_id": 274665, "physicalid": "20989", "street_name": "JFK ACCESS RD", "borough": "queens", "direction": "TW", "total_row_ft": 102.9, "roadbed_ft": 72.9, "median_ft": 0.0, "left_sw_ft": 15.0, "right_sw_ft": 15.0}, "geometry": {"type": "LineString", "coordinates": [[-73.77535145922526, 40.63934175803948], [-73.77572382488933, 40.6395091694143]]}}, {"type": "Feature", "properties": {"segment_id": 274666, "physicalid": "20989", "street_name": "JFK ACCESS RD", "borough": "queens", "direction": "TW", "total_row_ft": 102.9, "roadbed_ft": 72.9, "median_ft": 0.0, "left_sw_ft": 15.0, "right_sw_ft": 15.0}, "geometry": {"type": "LineString", "coordinates": [[-73.77538808709414, 40.63929448204596], [-73.77576045258628, 40.63946189330303]]}}, {"type": "Feature", "properties": {"segment_id": 274667, "physicalid": "20989", "street_name": "JFK ACCESS RD", "borough": "queens", "direction": "TW", "total_row_ft": 102.8, "roadbed_ft": 72.8, "median_ft": 0.0, "left_sw_ft": 15.0, "right_sw_ft": 15.0}, "geometry": {"type": "LineString", "coordinates": [[-73.77542471491113, 40.63924720604054], [-73.77579708023134, 40.63941461717986]]}}, {"type": "Feature", "properties": {"segment_id": 274668, "physicalid": "20989", "street_name": "JFK ACCESS RD", "borough": "queens", "direction": "TW", "total_row_ft": 102.8, "roadbed_ft": 72.8, "median_ft": 0.0, "left_sw_ft": 15.0, "right_sw_ft": 15.0}, "geometry": {"type": "LineString", "coordinates": [[-73.77546134267621, 40.639199930023196], [-73.7758337078245, 40.63936734104479]]}}, {"type": "Feature", "properties": {"segment_id": 274669, "physicalid": "20989", "street_name": "JFK ACCESS RD", "borough": "queens", "direction": "TW", "total_row_ft": 102.7, "roadbed_ft": 72.7, "median_ft": 0.0, "left_sw_ft": 15.0, "right_sw_ft": 15.0}, "geometry": {"type": "LineString", "coordinates": [[-73.7754979703894, 40.639152653993925], [-73.77587033536577, 40.639320064897774]]}}, {"type": "Feature", "properties": {"segment_id": 274670, "physicalid": "20989", "street_name": "JFK ACCESS RD", "borough": "queens", "direction": "TW", "total_row_ft": 102.6, "roadbed_ft": 72.6, "median_ft": 0.0, "left_sw_ft": 15.0, "right_sw_ft": 15.0}, "geometry": {"type": "LineString", "coordinates": [[-73.77553459805068, 40.63910537795277], [-73.77590696285513, 40.63927278873888]]}}, {"type": "Feature", "properties": {"segment_id": 274671, "physicalid": "20989", "street_name": "JFK ACCESS RD", "borough": "queens", "direction": "TW", "total_row_ft": 102.6, "roadbed_ft": 72.6, "median_ft": 0.0, "left_sw_ft": 15.0, "right_sw_ft": 15.0}, "geometry": {"type": "LineString", "coordinates": [[-73.77557122566003, 40.63905810189969], [-73.77594359029263, 40.63922551256803]]}}, {"type": "Feature", "properties": {"segment_id": 274672, "physicalid": "20989", "street_name": "JFK ACCESS RD", "borough": "queens", "direction": "TW", "total_row_ft": 102.5, "roadbed_ft": 72.5, "median_ft": 0.0, "left_sw_ft": 15.0, "right_sw_ft": 15.0}, "geometry": {"type": "LineString", "coordinates": [[-73.77560785321755, 40.63901082583469], [-73.77598021767817, 40.63917823638532]]}}, {"type": "Feature", "properties": {"segment_id": 274673, "physicalid": "20989", "street_name": "JFK ACCESS RD", "borough": "queens", "direction": "TW", "total_row_ft": 102.5, "roadbed_ft": 72.5, "median_ft": 0.0, "left_sw_ft": 15.0, "right_sw_ft": 15.0}, "geometry": {"type": "LineString", "coordinates": [[-73.77564448072313, 40.63896354975776], [-73.77601684501182, 40.63913096019068]]}}, {"type": "Feature", "properties": {"segment_id": 274674, "physicalid": "20989", "street_name": "JFK ACCESS RD", "borough": "queens", "direction": "TW", "total_row_ft": 102.5, "roadbed_ft": 72.5, "median_ft": 0.0, "left_sw_ft": 15.0, "right_sw_ft": 15.0}, "geometry": {"type": "LineString", "coordinates": [[-73.77568110817681, 40.63891627366896], [-73.77605347229358, 40.639083683984126]]}}, {"type": "Feature", "properties": {"segment_id": 274675, "physicalid": "20989", "street_name": "JFK ACCESS RD", "borough": "queens", "direction": "TW", "total_row_ft": 102.6, "roadbed_ft": 72.6, "median_ft": 0.0, "left_sw_ft": 15.0, "right_sw_ft": 15.0}, "geometry": {"type": "LineString", "coordinates": [[-73.7757177355786, 40.638868997568224], [-73.77609009952344, 40.63903640776566]]}}, {"type": "Feature", "properties": {"segment_id": 274676, "physicalid": "20989", "street_name": "JFK ACCESS RD", "borough": "queens", "direction": "TW", "total_row_ft": 102.6, "roadbed_ft": 72.6, "median_ft": 0.0, "left_sw_ft": 15.0, "right_sw_ft": 15.0}, "geometry": {"type": "LineString", "coordinates": [[-73.77575436292845, 40.638821721455614], [-73.77612672670145, 40.63898913153525]]}}, {"type": "Feature", "properties": {"segment_id": 274677, "physicalid": "20989", "street_name": "JFK ACCESS RD", "borough": "queens", "direction": "TW", "total_row_ft": 102.6, "roadbed_ft": 72.6, "median_ft": 0.0, "left_sw_ft": 15.0, "right_sw_ft": 15.0}, "geometry": {"type": "LineString", "coordinates": [[-73.77579099022647, 40.63877444533102], [-73.77616335382749, 40.63894185529298]]}}, {"type": "Feature", "properties": {"segment_id": 274678, "physicalid": "20989", "street_name": "JFK ACCESS RD", "borough": "queens", "direction": "TW", "total_row_ft": 102.6, "roadbed_ft": 72.6, "median_ft": 0.0, "left_sw_ft": 15.0, "right_sw_ft": 15.0}, "geometry": {"type": "LineString", "coordinates": [[-73.77582761747253, 40.63872716919458], [-73.77619998090168, 40.638894579038755]]}}, {"type": "Feature", "properties": {"segment_id": 274679, "physicalid": "20989", "street_name": "JFK ACCESS RD", "borough": "queens", "direction": "TW", "total_row_ft": 102.6, "roadbed_ft": 72.6, "median_ft": 0.0, "left_sw_ft": 15.0, "right_sw_ft": 15.0}, "geometry": {"type": "LineString", "coordinates": [[-73.77586424466675, 40.638679893046195], [-73.77623660792392, 40.63884730277267]]}}, {"type": "Feature", "properties": {"segment_id": 274680, "physicalid": "20989", "street_name": "JFK ACCESS RD", "borough": "queens", "direction": "TW", "total_row_ft": 102.6, "roadbed_ft": 72.6, "median_ft": 0.0, "left_sw_ft": 15.0, "right_sw_ft": 15.0}, "geometry": {"type": "LineString", "coordinates": [[-73.77590087180904, 40.638632616885886], [-73.77627323489429, 40.63880002649463]]}}, {"type": "Feature", "properties": {"segment_id": 274681, "physicalid": "20989", "street_name": "JFK ACCESS RD", "borough": "queens", "direction": "TW", "total_row_ft": 102.6, "roadbed_ft": 72.6, "median_ft": 0.0, "left_sw_ft": 15.0, "right_sw_ft": 15.0}, "geometry": {"type": "LineString", "coordinates": [[-73.77593749889944, 40.63858534071369], [-73.77630986181276, 40.63875275020469]]}}, {"type": "Feature", "properties": {"segment_id": 274682, "physicalid": "20989", "street_name": "JFK ACCESS RD", "borough": "queens", "direction": "TW", "total_row_ft": 102.6, "roadbed_ft": 72.6, "median_ft": 0.0, "left_sw_ft": 15.0, "right_sw_ft": 15.0}, "geometry": {"type": "LineString", "coordinates": [[-73.77597412593794, 40.63853806452957], [-73.77634648867934, 40.638705473902846]]}}, {"type": "Feature", "properties": {"segment_id": 274683, "physicalid": "20989", "street_name": "JFK ACCESS RD", "borough": "queens", "direction": "TW", "total_row_ft": 102.8, "roadbed_ft": 72.8, "median_ft": 0.0, "left_sw_ft": 15.0, "right_sw_ft": 15.0}, "geometry": {"type": "LineString", "coordinates": [[-73.77601075292449, 40.63849078833357], [-73.77638311549403, 40.63865819758905]]}}, {"type": "Feature", "properties": {"segment_id": 274684, "physicalid": "20989", "street_name": "JFK ACCESS RD", "borough": "queens", "direction": "TW", "total_row_ft": 103.0, "roadbed_ft": 73.0, "median_ft": 0.0, "left_sw_ft": 15.0, "right_sw_ft": 15.0}, "geometry": {"type": "LineString", "coordinates": [[-73.77604737985921, 40.6384435121256], [-73.77641974225678, 40.63861092126342]]}}, {"type": "Feature", "properties": {"segment_id": 274685, "physicalid": "20989", "street_name": "JFK ACCESS RD", "borough": "queens", "direction": "TW", "total_row_ft": 103.2, "roadbed_ft": 73.2, "median_ft": 0.0, "left_sw_ft": 15.0, "right_sw_ft": 15.0}, "geometry": {"type": "LineString", "coordinates": [[-73.77608400674201, 40.63839623590577], [-73.77645636896766, 40.638563644925824]]}}, {"type": "Feature", "properties": {"segment_id": 274686, "physicalid": "20989", "street_name": "JFK ACCESS RD", "borough": "queens", "direction": "TW", "total_row_ft": 103.2, "roadbed_ft": 73.2, "median_ft": 0.0, "left_sw_ft": 15.0, "right_sw_ft": 15.0}, "geometry": {"type": "LineString", "coordinates": [[-73.77612063357292, 40.63834895967401], [-73.77649299562664, 40.638516368576326]]}}, {"type": "Feature", "properties": {"segment_id": 274687, "physicalid": "20989", "street_name": "JFK ACCESS RD", "borough": "queens", "direction": "TW", "total_row_ft": 103.2, "roadbed_ft": 73.2, "median_ft": 0.0, "left_sw_ft": 15.0, "right_sw_ft": 15.0}, "geometry": {"type": "LineString", "coordinates": [[-73.77615726035191, 40.638301683430335], [-73.77652962223371, 40.638469092214926]]}}, {"type": "Feature", "properties": {"segment_id": 274688, "physicalid": "20989", "street_name": "JFK ACCESS RD", "borough": "queens", "direction": "TW", "total_row_ft": 103.2, "roadbed_ft": 73.2, "median_ft": 0.0, "left_sw_ft": 15.0, "right_sw_ft": 15.0}, "geometry": {"type": "LineString", "coordinates": [[-73.77619388707902, 40.638254407174756], [-73.7765662487889, 40.63842181584161]]}}, {"type": "Feature", "properties": {"segment_id": 274689, "physicalid": "20989", "street_name": "JFK ACCESS RD", "borough": "queens", "direction": "TW", "total_row_ft": 103.2, "roadbed_ft": 73.2, "median_ft": 0.0, "left_sw_ft": 15.0, "right_sw_ft": 15.0}, "geometry": {"type": "LineString", "coordinates": [[-73.77623051375423, 40.63820713090726], [-73.77660287529218, 40.63837453945637]]}}, {"type": "Feature", "properties": {"segment_id": 274690, "physicalid": "20989", "street_name": "JFK ACCESS RD", "borough": "queens", "direction": "TW", "total_row_ft": 109.7, "roadbed_ft": 79.7, "median_ft": 0.0, "left_sw_ft": 15.0, "right_sw_ft": 15.0}, "geometry": {"type": "LineString", "coordinates": [[-73.77626714037751, 40.63815985462789], [-73.77663950174359, 40.63832726305921]]}}, {"type": "Feature", "properties": {"segment_id": 274691, "physicalid": "20989", "street_name": "JFK ACCESS RD", "borough": "queens", "direction": "TW", "total_row_ft": 139.9, "roadbed_ft": 109.9, "median_ft": 0.0, "left_sw_ft": 15.0, "right_sw_ft": 15.0}, "geometry": {"type": "LineString", "coordinates": [[-73.77630376694894, 40.638112578336546], [-73.77667612814307, 40.638279986650176]]}}, {"type": "Feature", "properties": {"segment_id": 274692, "physicalid": "20989", "street_name": "JFK ACCESS RD", "borough": "queens", "direction": "TW", "total_row_ft": 150.0, "roadbed_ft": 120.0, "median_ft": 0.0, "left_sw_ft": 15.0, "right_sw_ft": 15.0}, "geometry": {"type": "LineString", "coordinates": [[-73.77634039346846, 40.63806530203332], [-73.77671275449065, 40.63823271022921]]}}, {"type": "Feature", "properties": {"segment_id": 274693, "physicalid": "20989", "street_name": "JFK ACCESS RD", "borough": "queens", "direction": "TW", "total_row_ft": 150.0, "roadbed_ft": 120.0, "median_ft": 0.0, "left_sw_ft": 15.0, "right_sw_ft": 15.0}, "geometry": {"type": "LineString", "coordinates": [[-73.77637701993606, 40.63801802571818], [-73.77674938078634, 40.63818543379633]]}}, {"type": "Feature", "properties": {"segment_id": 274694, "physicalid": "20989", "street_name": "JFK ACCESS RD", "borough": "queens", "direction": "TW", "total_row_ft": 150.0, "roadbed_ft": 120.0, "median_ft": 0.0, "left_sw_ft": 15.0, "right_sw_ft": 15.0}, "geometry": {"type": "LineString", "coordinates": [[-73.77641460550863, 40.637969794401734], [-73.77678536270415, 40.63813925506032]]}}, {"type": "Feature", "properties": {"segment_id": 274695, "physicalid": "20989", "street_name": "JFK ACCESS RD", "borough": "queens", "direction": "TW", "total_row_ft": 150.0, "roadbed_ft": 120.0, "median_ft": 0.0, "left_sw_ft": 15.0, "right_sw_ft": 15.0}, "geometry": {"type": "LineString", "coordinates": [[-73.776451680969, 40.6379227216477], [-73.77682243799714, 40.638092182187606]]}}, {"type": "Feature", "properties": {"segment_id": 274696, "physicalid": "20989", "street_name": "JFK ACCESS RD", "borough": "queens", "direction": "TW", "total_row_ft": 150.0, "roadbed_ft": 120.0, "median_ft": 0.0, "left_sw_ft": 15.0, "right_sw_ft": 15.0}, "geometry": {"type": "LineString", "coordinates": [[-73.77648875637706, 40.6378756488815], [-73.77685951323785, 40.63804510930268]]}}, {"type": "Feature", "properties": {"segment_id": 274697, "physicalid": "20989", "street_name": "JFK ACCESS RD", "borough": "queens", "direction": "TW", "total_row_ft": 150.0, "roadbed_ft": 120.0, "median_ft": 0.0, "left_sw_ft": 15.0, "right_sw_ft": 15.0}, "geometry": {"type": "LineString", "coordinates": [[-73.77652583173284, 40.637828576103054], [-73.77689658842621, 40.63799803640561]]}}, {"type": "Feature", "properties": {"segment_id": 274698, "physicalid": "20989", "street_name": "JFK ACCESS RD", "borough": "queens", "direction": "TW", "total_row_ft": 150.0, "roadbed_ft": 120.0, "median_ft": 0.0, "left_sw_ft": 15.0, "right_sw_ft": 15.0}, "geometry": {"type": "LineString", "coordinates": [[-73.7765629070363, 40.63778150331241], [-73.77693366356228, 40.63795096349632]]}}, {"type": "Feature", "properties": {"segment_id": 274699, "physicalid": "20989", "street_name": "JFK ACCESS RD", "borough": "queens", "direction": "TW", "total_row_ft": 150.0, "roadbed_ft": 120.0, "median_ft": 0.0, "left_sw_ft": 15.0, "right_sw_ft": 15.0}, "geometry": {"type": "LineString", "coordinates": [[-73.77659998228744, 40.63773443050962], [-73.77697073864606, 40.63790389057482]]}}, {"type": "Feature", "properties": {"segment_id": 274700, "physicalid": "20989", "street_name": "JFK ACCESS RD", "borough": "queens", "direction": "TW", "total_row_ft": 150.0, "roadbed_ft": 120.0, "median_ft": 0.0, "left_sw_ft": 15.0, "right_sw_ft": 15.0}, "geometry": {"type": "LineString", "coordinates": [[-73.77663705748628, 40.63768735769459], [-73.7770078136775, 40.63785681764117]]}}, {"type": "Feature", "properties": {"segment_id": 274701, "physicalid": "20989", "street_name": "JFK ACCESS RD", "borough": "queens", "direction": "TW", "total_row_ft": 150.0, "roadbed_ft": 120.0, "median_ft": 0.0, "left_sw_ft": 15.0, "right_sw_ft": 15.0}, "geometry": {"type": "LineString", "coordinates": [[-73.77667413263282, 40.63764028486737], [-73.77704488865665, 40.63780974469529]]}}, {"type": "Feature", "properties": {"segment_id": 274702, "physicalid": "20989", "street_name": "JFK ACCESS RD", "borough": "queens", "direction": "TW", "total_row_ft": 150.0, "roadbed_ft": 120.0, "median_ft": 0.0, "left_sw_ft": 15.0, "right_sw_ft": 15.0}, "geometry": {"type": "LineString", "coordinates": [[-73.77671120772703, 40.63759321202799], [-73.77708196358351, 40.637762671737164]]}}, {"type": "Feature", "properties": {"segment_id": 274703, "physicalid": "20989", "street_name": "JFK ACCESS RD", "borough": "queens", "direction": "TW", "total_row_ft": 150.0, "roadbed_ft": 120.0, "median_ft": 0.0, "left_sw_ft": 15.0, "right_sw_ft": 15.0}, "geometry": {"type": "LineString", "coordinates": [[-73.77674828276899, 40.63754613917635], [-73.77711903845803, 40.63771559876692]]}}, {"type": "Feature", "properties": {"segment_id": 274704, "physicalid": "20989", "street_name": "JFK ACCESS RD", "borough": "queens", "direction": "TW", "total_row_ft": 150.0, "roadbed_ft": 120.0, "median_ft": 0.0, "left_sw_ft": 15.0, "right_sw_ft": 15.0}, "geometry": {"type": "LineString", "coordinates": [[-73.7767853577586, 40.637499066312564], [-73.77715611328026, 40.63766852578446]]}}, {"type": "Feature", "properties": {"segment_id": 274705, "physicalid": "20989", "street_name": "JFK ACCESS RD", "borough": "queens", "direction": "TW", "total_row_ft": 150.0, "roadbed_ft": 120.0, "median_ft": 0.0, "left_sw_ft": 15.0, "right_sw_ft": 15.0}, "geometry": {"type": "LineString", "coordinates": [[-73.77682243269588, 40.63745199343659], [-73.7771931880502, 40.63762145278977]]}}, {"type": "Feature", "properties": {"segment_id": 274706, "physicalid": "20989", "street_name": "JFK ACCESS RD", "borough": "queens", "direction": "TW", "total_row_ft": 150.0, "roadbed_ft": 120.0, "median_ft": 0.0, "left_sw_ft": 15.0, "right_sw_ft": 15.0}, "geometry": {"type": "LineString", "coordinates": [[-73.77685950758092, 40.63740492054837], [-73.7772302627678, 40.63757437978295]]}}, {"type": "Feature", "properties": {"segment_id": 274707, "physicalid": "20989", "street_name": "JFK ACCESS RD", "borough": "queens", "direction": "TW", "total_row_ft": 150.0, "roadbed_ft": 120.0, "median_ft": 0.0, "left_sw_ft": 15.0, "right_sw_ft": 15.0}, "geometry": {"type": "LineString", "coordinates": [[-73.77689658241361, 40.63735784764797], [-73.77726733743312, 40.63752730676391]]}}, {"type": "Feature", "properties": {"segment_id": 274708, "physicalid": "20989", "street_name": "JFK ACCESS RD", "borough": "queens", "direction": "TW", "total_row_ft": 150.0, "roadbed_ft": 120.0, "median_ft": 0.0, "left_sw_ft": 15.0, "right_sw_ft": 15.0}, "geometry": {"type": "LineString", "coordinates": [[-73.77693365719398, 40.637310774735425], [-73.77730441204613, 40.63748023373262]]}}, {"type": "Feature", "properties": {"segment_id": 274709, "physicalid": "20989", "street_name": "JFK ACCESS RD", "borough": "queens", "direction": "TW", "total_row_ft": 150.0, "roadbed_ft": 120.0, "median_ft": 0.0, "left_sw_ft": 15.0, "right_sw_ft": 15.0}, "geometry": {"type": "LineString", "coordinates": [[-73.77697073192209, 40.63726370181062], [-73.77734148660682, 40.63743316068917]]}}, {"type": "Feature", "properties": {"segment_id": 274710, "physicalid": "20989", "street_name": "JFK ACCESS RD", "borough": "queens", "direction": "TW", "total_row_ft": 150.0, "roadbed_ft": 120.0, "median_ft": 0.0, "left_sw_ft": 15.0, "right_sw_ft": 15.0}, "geometry": {"type": "LineString", "coordinates": [[-73.77700780659787, 40.63721662887365], [-73.7773785611152, 40.63738608763355]]}}, {"type": "Feature", "properties": {"segment_id": 274711, "physicalid": "20989", "street_name": "JFK ACCESS RD", "borough": "queens", "direction": "TW", "total_row_ft": 150.0, "roadbed_ft": 120.0, "median_ft": 0.0, "left_sw_ft": 15.0, "right_sw_ft": 15.0}, "geometry": {"type": "LineString", "coordinates": [[-73.77704488122131, 40.6371695559245], [-73.77741563557132, 40.637339014565676]]}}, {"type": "Feature", "properties": {"segment_id": 274712, "physicalid": "20989", "street_name": "JFK ACCESS RD", "borough": "queens", "direction": "TW", "total_row_ft": 150.0, "roadbed_ft": 120.0, "median_ft": 0.0, "left_sw_ft": 15.0, "right_sw_ft": 15.0}, "geometry": {"type": "LineString", "coordinates": [[-73.77708195579251, 40.63712248296309], [-73.77745270997508, 40.63729194148567]]}}, {"type": "Feature", "properties": {"segment_id": 274713, "physicalid": "20989", "street_name": "JFK ACCESS RD", "borough": "queens", "direction": "TW", "total_row_ft": 113.4, "roadbed_ft": 83.4, "median_ft": 0.0, "left_sw_ft": 15.0, "right_sw_ft": 15.0}, "geometry": {"type": "LineString", "coordinates": [[-73.77711903031137, 40.63707540998952], [-73.77748978432653, 40.63724486839344]]}}, {"type": "Feature", "properties": {"segment_id": 274714, "physicalid": "20989", "street_name": "JFK ACCESS RD", "borough": "queens", "direction": "TW", "total_row_ft": 103.6, "roadbed_ft": 73.6, "median_ft": 0.0, "left_sw_ft": 15.0, "right_sw_ft": 15.0}, "geometry": {"type": "LineString", "coordinates": [[-73.7771561047779, 40.637028337003805], [-73.77752685862573, 40.63719779528898]]}}, {"type": "Feature", "properties": {"segment_id": 274715, "physicalid": "20989", "street_name": "JFK ACCESS RD", "borough": "queens", "direction": "TW", "total_row_ft": 103.3, "roadbed_ft": 73.3, "median_ft": 0.0, "left_sw_ft": 15.0, "right_sw_ft": 15.0}, "geometry": {"type": "LineString", "coordinates": [[-73.77719317919218, 40.63698126400582], [-73.77756393287258, 40.63715072217239]]}}, {"type": "Feature", "properties": {"segment_id": 274716, "physicalid": "20989", "street_name": "JFK ACCESS RD", "borough": "queens", "direction": "TW", "total_row_ft": 103.0, "roadbed_ft": 73.0, "median_ft": 0.0, "left_sw_ft": 15.0, "right_sw_ft": 15.0}, "geometry": {"type": "LineString", "coordinates": [[-73.77723025355412, 40.63693419099569], [-73.77760100706713, 40.63710364904357]]}}, {"type": "Feature", "properties": {"segment_id": 274717, "physicalid": "20989", "street_name": "JFK ACCESS RD", "borough": "queens", "direction": "TW", "total_row_ft": 102.9, "roadbed_ft": 72.9, "median_ft": 0.0, "left_sw_ft": 15.0, "right_sw_ft": 15.0}, "geometry": {"type": "LineString", "coordinates": [[-73.77726732786375, 40.636887117973345], [-73.7776380812094, 40.63705657590254]]}}, {"type": "Feature", "properties": {"segment_id": 274718, "physicalid": "20989", "street_name": "JFK ACCESS RD", "borough": "queens", "direction": "TW", "total_row_ft": 102.8, "roadbed_ft": 72.8, "median_ft": 0.0, "left_sw_ft": 15.0, "right_sw_ft": 15.0}, "geometry": {"type": "LineString", "coordinates": [[-73.7773044021211, 40.63684004493879], [-73.77767515529933, 40.63700950274936]]}}, {"type": "Feature", "properties": {"segment_id": 274719, "physicalid": "20989", "street_name": "JFK ACCESS RD", "borough": "queens", "direction": "TW", "total_row_ft": 102.8, "roadbed_ft": 72.8, "median_ft": 0.0, "left_sw_ft": 15.0, "right_sw_ft": 15.0}, "geometry": {"type": "LineString", "coordinates": [[-73.77734147632613, 40.63679297189205], [-73.77771222933697, 40.63696242958395]]}}, {"type": "Feature", "properties": {"segment_id": 274720, "physicalid": "20989", "street_name": "JFK ACCESS RD", "borough": "queens", "direction": "TW", "total_row_ft": 102.9, "roadbed_ft": 72.9, "median_ft": 0.0, "left_sw_ft": 15.0, "right_sw_ft": 15.0}, "geometry": {"type": "LineString", "coordinates": [[-73.77737855047883, 40.636745898833155], [-73.77774930332234, 40.636915356406334]]}}, {"type": "Feature", "properties": {"segment_id": 274721, "physicalid": "20989", "street_name": "JFK ACCESS RD", "borough": "queens", "direction": "TW", "total_row_ft": 102.9, "roadbed_ft": 72.9, "median_ft": 0.0, "left_sw_ft": 15.0, "right_sw_ft": 15.0}, "geometry": {"type": "LineString", "coordinates": [[-73.77741562457928, 40.636698825762], [-73.77778637725535, 40.636868283216565]]}}, {"type": "Feature", "properties": {"segment_id": 274722, "physicalid": "20989", "street_name": "JFK ACCESS RD", "borough": "queens", "direction": "TW", "total_row_ft": 103.0, "roadbed_ft": 73.0, "median_ft": 0.0, "left_sw_ft": 15.0, "right_sw_ft": 15.0}, "geometry": {"type": "LineString", "coordinates": [[-73.77745269862739, 40.63665175267869], [-73.77782345113607, 40.63682121001458]]}}, {"type": "Feature", "properties": {"segment_id": 274723, "physicalid": "20989", "street_name": "JFK ACCESS RD", "borough": "queens", "direction": "TW", "total_row_ft": 103.0, "roadbed_ft": 73.0, "median_ft": 0.0, "left_sw_ft": 15.0, "right_sw_ft": 15.0}, "geometry": {"type": "LineString", "coordinates": [[-73.77748977262318, 40.6366046795832], [-73.77786052496452, 40.63677413680037]]}}, {"type": "Feature", "properties": {"segment_id": 274724, "physicalid": "20989", "street_name": "JFK ACCESS RD", "borough": "queens", "direction": "TW", "total_row_ft": 103.2, "roadbed_ft": 73.2, "median_ft": 0.0, "left_sw_ft": 15.0, "right_sw_ft": 15.0}, "geometry": {"type": "LineString", "coordinates": [[-73.7775268465667, 40.636557606475456], [-73.77789759874061, 40.63672706357403]]}}, {"type": "Feature", "properties": {"segment_id": 274725, "physicalid": "20989", "street_name": "JFK ACCESS RD", "borough": "queens", "direction": "TW", "total_row_ft": 103.4, "roadbed_ft": 73.4, "median_ft": 0.0, "left_sw_ft": 15.0, "right_sw_ft": 15.0}, "geometry": {"type": "LineString", "coordinates": [[-73.77756392045791, 40.636510533355555], [-73.77793467246443, 40.63667999033543]]}}, {"type": "Feature", "properties": {"segment_id": 274726, "physicalid": "20989", "street_name": "JFK ACCESS RD", "borough": "queens", "direction": "TW", "total_row_ft": 103.6, "roadbed_ft": 73.6, "median_ft": 0.0, "left_sw_ft": 15.0, "right_sw_ft": 15.0}, "geometry": {"type": "LineString", "coordinates": [[-73.77760099429678, 40.63646346022348], [-73.77797174613596, 40.63663291708464]]}}, {"type": "Feature", "properties": {"segment_id": 274727, "physicalid": "20989", "street_name": "JFK ACCESS RD", "borough": "queens", "direction": "TW", "total_row_ft": 103.8, "roadbed_ft": 73.8, "median_ft": 0.0, "left_sw_ft": 15.0, "right_sw_ft": 15.0}, "geometry": {"type": "LineString", "coordinates": [[-73.7776380680834, 40.63641638707916], [-73.77800881975513, 40.63658584382173]]}}, {"type": "Feature", "properties": {"segment_id": 274728, "physicalid": "20989", "street_name": "JFK ACCESS RD", "borough": "queens", "direction": "TW", "total_row_ft": 104.0, "roadbed_ft": 74.0, "median_ft": 0.0, "left_sw_ft": 15.0, "right_sw_ft": 15.0}, "geometry": {"type": "LineString", "coordinates": [[-73.77767514181768, 40.63636931392268], [-73.77804589332204, 40.63653877054655]]}}, {"type": "Feature", "properties": {"segment_id": 274729, "physicalid": "20989", "street_name": "JFK ACCESS RD", "borough": "queens", "direction": "TW", "total_row_ft": 104.0, "roadbed_ft": 74.0, "median_ft": 0.0, "left_sw_ft": 15.0, "right_sw_ft": 15.0}, "geometry": {"type": "LineString", "coordinates": [[-73.77771221549966, 40.636322240754005], [-73.77808296683665, 40.636491697259196]]}}, {"type": "Feature", "properties": {"segment_id": 274730, "physicalid": "20989", "street_name": "JFK ACCESS RD", "borough": "queens", "direction": "TW", "total_row_ft": 104.1, "roadbed_ft": 74.1, "median_ft": 0.0, "left_sw_ft": 15.0, "right_sw_ft": 15.0}, "geometry": {"type": "LineString", "coordinates": [[-73.77774928912935, 40.63627516757311], [-73.77812004029893, 40.63644462395966]]}}, {"type": "Feature", "properties": {"segment_id": 274731, "physicalid": "20989", "street_name": "JFK ACCESS RD", "borough": "queens", "direction": "TW", "total_row_ft": 104.1, "roadbed_ft": 74.1, "median_ft": 0.0, "left_sw_ft": 15.0, "right_sw_ft": 15.0}, "geometry": {"type": "LineString", "coordinates": [[-73.77778636270673, 40.63622809438002], [-73.7781571137089, 40.63639755064793]]}}, {"type": "Feature", "properties": {"segment_id": 274732, "physicalid": "20989", "street_name": "JFK ACCESS RD", "borough": "queens", "direction": "TW", "total_row_ft": 150.0, "roadbed_ft": 120.0, "median_ft": 0.0, "left_sw_ft": 15.0, "right_sw_ft": 15.0}, "geometry": {"type": "LineString", "coordinates": [[-73.77782343623177, 40.63618102117479], [-73.77819418706663, 40.63635047732396]]}}, {"type": "Feature", "properties": {"segment_id": 274733, "physicalid": "20989", "street_name": "JFK ACCESS RD", "borough": "queens", "direction": "TW", "total_row_ft": 150.0, "roadbed_ft": 120.0, "median_ft": 0.0, "left_sw_ft": 15.0, "right_sw_ft": 15.0}, "geometry": {"type": "LineString", "coordinates": [[-73.77786050970457, 40.63613394795729], [-73.77823126037198, 40.63630340398787]]}}, {"type": "Feature", "properties": {"segment_id": 274734, "physicalid": "20989", "street_name": "JFK ACCESS RD", "borough": "queens", "direction": "TW", "total_row_ft": 150.0, "roadbed_ft": 120.0, "median_ft": 0.0, "left_sw_ft": 15.0, "right_sw_ft": 15.0}, "geometry": {"type": "LineString", "coordinates": [[-73.77789758312502, 40.636086874727646], [-73.77826833362506, 40.63625633063954]]}}, {"type": "Feature", "properties": {"segment_id": 274735, "physicalid": "20989", "street_name": "JFK ACCESS RD", "borough": "queens", "direction": "TW", "total_row_ft": 150.0, "roadbed_ft": 120.0, "median_ft": 0.0, "left_sw_ft": 15.0, "right_sw_ft": 15.0}, "geometry": {"type": "LineString", "coordinates": [[-73.77793465649317, 40.636039801485815], [-73.77830540682585, 40.63620925727898]]}}, {"type": "Feature", "properties": {"segment_id": 274736, "physicalid": "20989", "street_name": "JFK ACCESS RD", "borough": "queens", "direction": "TW", "total_row_ft": 150.0, "roadbed_ft": 120.0, "median_ft": 0.0, "left_sw_ft": 15.0, "right_sw_ft": 15.0}, "geometry": {"type": "LineString", "coordinates": [[-73.77797172980905, 40.63599272823173], [-73.7783424799743, 40.63616218390632]]}}, {"type": "Feature", "properties": {"segment_id": 274737, "physicalid": "20989", "street_name": "JFK ACCESS RD", "borough": "queens", "direction": "TW", "total_row_ft": 150.0, "roadbed_ft": 120.0, "median_ft": 0.0, "left_sw_ft": 15.0, "right_sw_ft": 15.0}, "geometry": {"type": "LineString", "coordinates": [[-73.77800880307261, 40.635945654965504], [-73.77837955307047, 40.6361151105214]]}}, {"type": "Feature", "properties": {"segment_id": 274738, "physicalid": "20989", "street_name": "JFK ACCESS RD", "borough": "queens", "direction": "TW", "total_row_ft": 150.0, "roadbed_ft": 120.0, "median_ft": 0.0, "left_sw_ft": 15.0, "right_sw_ft": 15.0}, "geometry": {"type": "LineString", "coordinates": [[-73.77804587628384, 40.6358985816871], [-73.77841662611435, 40.636068037124275]]}}, {"type": "Feature", "properties": {"segment_id": 274739, "physicalid": "20989", "street_name": "JFK ACCESS RD", "borough": "queens", "direction": "TW", "total_row_ft": 150.0, "roadbed_ft": 120.0, "median_ft": 0.0, "left_sw_ft": 15.0, "right_sw_ft": 15.0}, "geometry": {"type": "LineString", "coordinates": [[-73.7780829494428, 40.63585150839644], [-73.77845369910588, 40.63602096371501]]}}, {"type": "Feature", "properties": {"segment_id": 274740, "physicalid": "20989", "street_name": "JFK ACCESS RD", "borough": "queens", "direction": "TW", "total_row_ft": 150.0, "roadbed_ft": 120.0, "median_ft": 0.0, "left_sw_ft": 15.0, "right_sw_ft": 15.0}, "geometry": {"type": "LineString", "coordinates": [[-73.77812002254944, 40.63580443509362], [-73.77849077204515, 40.63597389029352]]}}, {"type": "Feature", "properties": {"segment_id": 274741, "physicalid": "20989", "street_name": "JFK ACCESS RD", "borough": "queens", "direction": "TW", "total_row_ft": 150.0, "roadbed_ft": 120.0, "median_ft": 0.0, "left_sw_ft": 15.0, "right_sw_ft": 15.0}, "geometry": {"type": "LineString", "coordinates": [[-73.77815709560376, 40.635757361778644], [-73.77852784493211, 40.635926816859794]]}}, {"type": "Feature", "properties": {"segment_id": 274742, "physicalid": "20989", "street_name": "JFK ACCESS RD", "borough": "queens", "direction": "TW", "total_row_ft": 150.0, "roadbed_ft": 120.0, "median_ft": 0.0, "left_sw_ft": 15.0, "right_sw_ft": 15.0}, "geometry": {"type": "LineString", "coordinates": [[-73.77819416860582, 40.6357102884514], [-73.77856491776674, 40.635879743413945]]}}, {"type": "Feature", "properties": {"segment_id": 274743, "physicalid": "20989", "street_name": "JFK ACCESS RD", "borough": "queens", "direction": "TW", "total_row_ft": 150.0, "roadbed_ft": 120.0, "median_ft": 0.0, "left_sw_ft": 15.0, "right_sw_ft": 15.0}, "geometry": {"type": "LineString", "coordinates": [[-73.77823124155556, 40.63566321511198], [-73.77860199054909, 40.63583266995589]]}}, {"type": "Feature", "properties": {"segment_id": 274744, "physicalid": "20989", "street_name": "JFK ACCESS RD", "borough": "queens", "direction": "TW", "total_row_ft": 150.0, "roadbed_ft": 120.0, "median_ft": 0.0, "left_sw_ft": 15.0, "right_sw_ft": 15.0}, "geometry": {"type": "LineString", "coordinates": [[-73.77830858345484, 40.63558546307287], [-73.7786089132891, 40.63582240315359]]}}, {"type": "Feature", "properties": {"segment_id": 274745, "physicalid": "20989", "street_name": "JFK ACCESS RD", "borough": "queens", "direction": "TW", "total_row_ft": 150.0, "roadbed_ft": 120.0, "median_ft": 0.0, "left_sw_ft": 15.0, "right_sw_ft": 15.0}, "geometry": {"type": "LineString", "coordinates": [[-73.77836042044909, 40.635547330705826], [-73.7786607502958, 40.6357842706521]]}}, {"type": "Feature", "properties": {"segment_id": 274746, "physicalid": "20989", "street_name": "JFK ACCESS RD", "borough": "queens", "direction": "TW", "total_row_ft": 150.0, "roadbed_ft": 120.0, "median_ft": 0.0, "left_sw_ft": 15.0, "right_sw_ft": 15.0}, "geometry": {"type": "LineString", "coordinates": [[-73.7784649215165, 40.63548221922876], [-73.77866203775787, 40.6357753708538]]}}, {"type": "Feature", "properties": {"segment_id": 274747, "physicalid": "20989", "street_name": "JFK ACCESS RD", "borough": "queens", "direction": "TW", "total_row_ft": 150.0, "roadbed_ft": 120.0, "median_ft": 0.0, "left_sw_ft": 15.0, "right_sw_ft": 15.0}, "geometry": {"type": "LineString", "coordinates": [[-73.7785290561366, 40.6354571916875], [-73.77872617258573, 40.63575034320342]]}}, {"type": "Feature", "properties": {"segment_id": 274748, "physicalid": "20989", "street_name": "JFK ACCESS RD", "borough": "queens", "direction": "TW", "total_row_ft": 150.0, "roadbed_ft": 120.0, "median_ft": 0.0, "left_sw_ft": 15.0, "right_sw_ft": 15.0}, "geometry": {"type": "LineString", "coordinates": [[-73.77859319070856, 40.63543216411042], [-73.7787903073655, 40.6357253155172]]}}, {"type": "Feature", "properties": {"segment_id": 274749, "physicalid": "20989", "street_name": "JFK ACCESS RD", "borough": "queens", "direction": "TW", "total_row_ft": 150.0, "roadbed_ft": 120.0, "median_ft": 0.0, "left_sw_ft": 15.0, "right_sw_ft": 15.0}, "geometry": {"type": "LineString", "coordinates": [[-73.7786573252324, 40.63540713649751], [-73.77885444209718, 40.635700287795125]]}}, {"type": "Feature", "properties": {"segment_id": 274750, "physicalid": "20989", "street_name": "JFK ACCESS RD", "borough": "queens", "direction": "TW", "total_row_ft": 150.0, "roadbed_ft": 120.0, "median_ft": 0.0, "left_sw_ft": 15.0, "right_sw_ft": 15.0}, "geometry": {"type": "LineString", "coordinates": [[-73.77876885205117, 40.63537088326431], [-73.77887317189148, 40.635690526370084]]}}, {"type": "Feature", "properties": {"segment_id": 274751, "physicalid": "20989", "street_name": "JFK ACCESS RD", "borough": "queens", "direction": "TW", "total_row_ft": 150.0, "roadbed_ft": 120.0, "median_ft": 0.0, "left_sw_ft": 15.0, "right_sw_ft": 15.0}, "geometry": {"type": "LineString", "coordinates": [[-73.77883878224364, 40.635357637908356], [-73.77894310239822, 40.63567728095114]]}}, {"type": "Feature", "properties": {"segment_id": 274752, "physicalid": "20989", "street_name": "JFK ACCESS RD", "borough": "queens", "direction": "TW", "total_row_ft": 150.0, "roadbed_ft": 120.0, "median_ft": 0.0, "left_sw_ft": 15.0, "right_sw_ft": 15.0}, "geometry": {"type": "LineString", "coordinates": [[-73.77890871240835, 40.635344392509836], [-73.7790130328772, 40.635664035489654]]}}, {"type": "Feature", "properties": {"segment_id": 274753, "physicalid": "20989", "street_name": "JFK ACCESS RD", "borough": "queens", "direction": "TW", "total_row_ft": 150.0, "roadbed_ft": 120.0, "median_ft": 0.0, "left_sw_ft": 15.0, "right_sw_ft": 15.0}, "geometry": {"type": "LineString", "coordinates": [[-73.77897864254533, 40.63533114706877], [-73.7790829633284, 40.63565078998562]]}}, {"type": "Feature", "properties": {"segment_id": 274754, "physicalid": "20989", "street_name": "JFK ACCESS RD", "borough": "queens", "direction": "TW", "total_row_ft": 150.0, "roadbed_ft": 120.0, "median_ft": 0.0, "left_sw_ft": 15.0, "right_sw_ft": 15.0}, "geometry": {"type": "LineString", "coordinates": [[-73.77904857265453, 40.63531790158519], [-73.77915289375186, 40.63563754443903]]}}, {"type": "Feature", "properties": {"segment_id": 274755, "physicalid": "20989", "street_name": "JFK ACCESS RD", "borough": "queens", "direction": "TW", "total_row_ft": 150.0, "roadbed_ft": 120.0, "median_ft": 0.0, "left_sw_ft": 15.0, "right_sw_ft": 15.0}, "geometry": {"type": "LineString", "coordinates": [[-73.77911850273597, 40.63530465605905], [-73.77922282414754, 40.635624298849905]]}}, {"type": "Feature", "properties": {"segment_id": 274756, "physicalid": "20989", "street_name": "JFK ACCESS RD", "borough": "queens", "direction": "TW", "total_row_ft": 150.0, "roadbed_ft": 120.0, "median_ft": 0.0, "left_sw_ft": 15.0, "right_sw_ft": 15.0}, "geometry": {"type": "LineString", "coordinates": [[-73.77918843278965, 40.63529141049034], [-73.77929275451547, 40.63561105321821]]}}, {"type": "Feature", "properties": {"segment_id": 274757, "physicalid": "20989", "street_name": "JFK ACCESS RD", "borough": "queens", "direction": "TW", "total_row_ft": 150.0, "roadbed_ft": 120.0, "median_ft": 0.0, "left_sw_ft": 15.0, "right_sw_ft": 15.0}, "geometry": {"type": "LineString", "coordinates": [[-73.77925836281557, 40.63527816487909], [-73.77936268485564, 40.63559780754398]]}}, {"type": "Feature", "properties": {"segment_id": 274758, "physicalid": "20989", "street_name": "JFK ACCESS RD", "borough": "queens", "direction": "TW", "total_row_ft": 150.0, "roadbed_ft": 120.0, "median_ft": 0.0, "left_sw_ft": 15.0, "right_sw_ft": 15.0}, "geometry": {"type": "LineString", "coordinates": [[-73.77932829281373, 40.6352649192253], [-73.77943261516805, 40.63558456182722]]}}, {"type": "Feature", "properties": {"segment_id": 274759, "physicalid": "20989", "street_name": "JFK ACCESS RD", "borough": "queens", "direction": "TW", "total_row_ft": 150.0, "roadbed_ft": 120.0, "median_ft": 0.0, "left_sw_ft": 15.0, "right_sw_ft": 15.0}, "geometry": {"type": "LineString", "coordinates": [[-73.7793803938116, 40.635254400462415], [-73.77951947937198, 40.635566266756406]]}}, {"type": "Feature", "properties": {"segment_id": 274760, "physicalid": "20989", "street_name": "JFK ACCESS RD", "borough": "queens", "direction": "TW", "total_row_ft": 150.0, "roadbed_ft": 120.0, "median_ft": 0.0, "left_sw_ft": 15.0, "right_sw_ft": 15.0}, "geometry": {"type": "LineString", "coordinates": [[-73.77944862250928, 40.63523674092268], [-73.7795877083517, 40.635548607134766]]}}, {"type": "Feature", "properties": {"segment_id": 274761, "physicalid": "20989", "street_name": "JFK ACCESS RD", "borough": "queens", "direction": "TW", "total_row_ft": 150.0, "roadbed_ft": 120.0, "median_ft": 0.0, "left_sw_ft": 15.0, "right_sw_ft": 15.0}, "geometry": {"type": "LineString", "coordinates": [[-73.77951685117083, 40.635219081342456], [-73.7796559372953, 40.63553094747259]]}}, {"type": "Feature", "properties": {"segment_id": 274762, "physicalid": "20989", "street_name": "JFK ACCESS RD", "borough": "queens", "direction": "TW", "total_row_ft": 150.0, "roadbed_ft": 120.0, "median_ft": 0.0, "left_sw_ft": 15.0, "right_sw_ft": 15.0}, "geometry": {"type": "LineString", "coordinates": [[-73.77958507979629, 40.635201421721696], [-73.7797241662028, 40.6355132877699]]}}, {"type": "Feature", "properties": {"segment_id": 274763, "physicalid": "20989", "street_name": "JFK ACCESS RD", "borough": "queens", "direction": "TW", "total_row_ft": 150.0, "roadbed_ft": 120.0, "median_ft": 0.0, "left_sw_ft": 15.0, "right_sw_ft": 15.0}, "geometry": {"type": "LineString", "coordinates": [[-73.77965330838562, 40.63518376206042], [-73.77979239507418, 40.6354956280267]]}}, {"type": "Feature", "properties": {"segment_id": 274764, "physicalid": "20989", "street_name": "JFK ACCESS RD", "borough": "queens", "direction": "TW", "total_row_ft": 150.0, "roadbed_ft": 120.0, "median_ft": 0.0, "left_sw_ft": 15.0, "right_sw_ft": 15.0}, "geometry": {"type": "LineString", "coordinates": [[-73.77972153693885, 40.63516610235862], [-73.77986062390944, 40.63547796824296]]}}, {"type": "Feature", "properties": {"segment_id": 274765, "physicalid": "20989", "street_name": "JFK ACCESS RD", "borough": "queens", "direction": "TW", "total_row_ft": 150.0, "roadbed_ft": 120.0, "median_ft": 0.0, "left_sw_ft": 15.0, "right_sw_ft": 15.0}, "geometry": {"type": "LineString", "coordinates": [[-73.77978976545596, 40.63514844261632], [-73.77992885270864, 40.635460308418736]]}}, {"type": "Feature", "properties": {"segment_id": 274766, "physicalid": "20989", "street_name": "JFK ACCESS RD", "borough": "queens", "direction": "TW", "total_row_ft": 150.0, "roadbed_ft": 120.0, "median_ft": 0.0, "left_sw_ft": 15.0, "right_sw_ft": 15.0}, "geometry": {"type": "LineString", "coordinates": [[-73.77985799393696, 40.63513078283349], [-73.77999708147168, 40.63544264855398]]}}, {"type": "Feature", "properties": {"segment_id": 274767, "physicalid": "20989", "street_name": "JFK ACCESS RD", "borough": "queens", "direction": "TW", "total_row_ft": 150.0, "roadbed_ft": 120.0, "median_ft": 0.0, "left_sw_ft": 15.0, "right_sw_ft": 15.0}, "geometry": {"type": "LineString", "coordinates": [[-73.77992622238186, 40.63511312301014], [-73.78006531019861, 40.635424988648694]]}}]}