{"type": "FeatureCollection", "features": [{"type": "Feature", "properties": {"segment_id": 180974, "physicalid": "14128", "street_name": "MOTT AVE", "borough": "queens", "direction": "TW", "total_row_ft": 48.0, "roadbed_ft": 28.9, "median_ft": 0.0, "left_sw_ft": 10.1, "right_sw_ft": 9.1}, "geometry": {"type": "LineString", "coordinates": [[-73.77005750420413, 40.61172215871106], [-73.76995030120453, 40.61182555369176]]}}, {"type": "Feature", "properties": {"segment_id": 180975, "physicalid": "14128", "street_name": "MOTT AVE", "borough": "queens", "direction": "TW", "total_row_ft": 98.4, "roadbed_ft": 73.2, "median_ft": 0.0, "left_sw_ft": 10.2, "right_sw_ft": 15.0}, "geometry": {"type": "LineString", "coordinates": [[-73.77011409043703, 40.61175612811072], [-73.76992788673735, 40.61193571743935]]}}, {"type": "Feature", "properties": {"segment_id": 180976, "physicalid": "14130", "street_name": "MOTT AVE", "borough": "queens", "direction": "TW", "total_row_ft": 85.7, "roadbed_ft": 40.1, "median_ft": 0.0, "left_sw_ft": 35.1, "right_sw_ft": 10.5}, "geometry": {"type": "LineString", "coordinates": [[-73.7703555938668, 40.61177308923307], [-73.77016504390052, 40.61195831405781]]}}, {"type": "Feature", "properties": {"segment_id": 180977, "physicalid": "14130", "street_name": "MOTT AVE", "borough": "queens", "direction": "TW", "total_row_ft": 51.7, "roadbed_ft": 33.4, "median_ft": 0.0, "left_sw_ft": 8.2, "right_sw_ft": 10.1}, "geometry": {"type": "LineString", "coordinates": [[-73.77033618316572, 40.61188093214399], [-73.77022132918546, 40.611992576324255]]}}, {"type": "Feature", "properties": {"segment_id": 180978, "physicalid": "14130", "street_name": "MOTT AVE", "borough": "queens", "direction": "TW", "total_row_ft": 52.0, "roadbed_ft": 34.2, "median_ft": 0.0, "left_sw_ft": 8.0, "right_sw_ft": 9.7}, "geometry": {"type": "LineString", "coordinates": [[-73.7703930908497, 40.61191458934208], [-73.77027761452818, 40.61202683856301]]}}, {"type": "Feature", "properties": {"segment_id": 180979, "physicalid": "14130", "street_name": "MOTT AVE", "borough": "queens", "direction": "TW", "total_row_ft": 52.2, "roadbed_ft": 35.1, "median_ft": 0.0, "left_sw_ft": 7.8, "right_sw_ft": 9.3}, "geometry": {"type": "LineString", "coordinates": [[-73.77044999859105, 40.6119482465119], [-73.77033407139773, 40.61206093409718]]}}, {"type": "Feature", "properties": {"segment_id": 180980, "physicalid": "14130", "street_name": "MOTT AVE", "borough": "queens", "direction": "TW", "total_row_ft": 52.3, "roadbed_ft": 35.6, "median_ft": 0.0, "left_sw_ft": 7.5, "right_sw_ft": 9.1}, "geometry": {"type": "LineString", "coordinates": [[-73.77050675587269, 40.61198204996467], [-73.77039057469239, 40.61209498453185]]}}, {"type": "Feature", "properties": {"segment_id": 180981, "physicalid": "14130", "street_name": "MOTT AVE", "borough": "queens", "direction": "TW", "total_row_ft": 52.3, "roadbed_ft": 36.0, "median_ft": 0.0, "left_sw_ft": 7.1, "right_sw_ft": 9.2}, "geometry": {"type": "LineString", "coordinates": [[-73.77056319103372, 40.612016166565326], [-73.77044707804467, 40.612129034938654]]}}, {"type": "Feature", "properties": {"segment_id": 180982, "physicalid": "14130", "street_name": "MOTT AVE", "borough": "queens", "direction": "TW", "total_row_ft": 52.2, "roadbed_ft": 35.8, "median_ft": 0.0, "left_sw_ft": 7.2, "right_sw_ft": 9.2}, "geometry": {"type": "LineString", "coordinates": [[-73.77061962625243, 40.61205028313817], [-73.77050358145459, 40.61216308531754]]}}, {"type": "Feature", "properties": {"segment_id": 180983, "physicalid": "14130", "street_name": "MOTT AVE", "borough": "queens", "direction": "TW", "total_row_ft": 52.2, "roadbed_ft": 35.6, "median_ft": 0.0, "left_sw_ft": 7.4, "right_sw_ft": 9.3}, "geometry": {"type": "LineString", "coordinates": [[-73.77067606152882, 40.61208439968318], [-73.77056008492215, 40.61219713566854]]}}, {"type": "Feature", "properties": {"segment_id": 180984, "physicalid": "14130", "street_name": "MOTT AVE", "borough": "queens", "direction": "TW", "total_row_ft": 52.2, "roadbed_ft": 35.3, "median_ft": 0.0, "left_sw_ft": 7.5, "right_sw_ft": 9.3}, "geometry": {"type": "LineString", "coordinates": [[-73.77073249688132, 40.61211851618241], [-73.77061657999079, 40.61223119421194]]}}, {"type": "Feature", "properties": {"segment_id": 180985, "physicalid": "14130", "street_name": "MOTT AVE", "borough": "queens", "direction": "TW", "total_row_ft": 52.2, "roadbed_ft": 35.1, "median_ft": 0.0, "left_sw_ft": 7.7, "right_sw_ft": 9.4}, "geometry": {"type": "LineString", "coordinates": [[-73.77078893240792, 40.612152632540685], [-73.77067300290464, 40.61226532292206]]}}, {"type": "Feature", "properties": {"segment_id": 180986, "physicalid": "14130", "street_name": "MOTT AVE", "borough": "queens", "direction": "TW", "total_row_ft": 52.2, "roadbed_ft": 34.9, "median_ft": 0.0, "left_sw_ft": 7.8, "right_sw_ft": 9.5}, "geometry": {"type": "LineString", "coordinates": [[-73.77084536799222, 40.6121867488711], [-73.77072942583864, 40.61229945164086]]}}, {"type": "Feature", "properties": {"segment_id": 180987, "physicalid": "14131", "street_name": "MOTT AVE", "borough": "queens", "direction": "TW", "total_row_ft": 102.1, "roadbed_ft": 77.7, "median_ft": 0.0, "left_sw_ft": 15.0, "right_sw_ft": 9.3}, "geometry": {"type": "LineString", "coordinates": [[-73.77106354423243, 40.612196428155244], [-73.77086836434763, 40.61238349154949]]}}, {"type": "Feature", "properties": {"segment_id": 180988, "physicalid": "14131", "street_name": "MOTT AVE", "borough": "queens", "direction": "TW", "total_row_ft": 52.0, "roadbed_ft": 34.2, "median_ft": 0.0, "left_sw_ft": 8.6, "right_sw_ft": 9.3}, "geometry": {"type": "LineString", "coordinates": [[-73.7710414150356, 40.612305841060675], [-73.77092478650763, 40.61241761955401]]}}, {"type": "Feature", "properties": {"segment_id": 180989, "physicalid": "14131", "street_name": "MOTT AVE", "borough": "queens", "direction": "TW", "total_row_ft": 51.6, "roadbed_ft": 34.5, "median_ft": 0.0, "left_sw_ft": 7.9, "right_sw_ft": 9.2}, "geometry": {"type": "LineString", "coordinates": [[-73.77109681339161, 40.612340950234106], [-73.77098120873107, 40.612451747525206]]}}, {"type": "Feature", "properties": {"segment_id": 180990, "physicalid": "14131", "street_name": "MOTT AVE", "borough": "queens", "direction": "TW", "total_row_ft": 51.6, "roadbed_ft": 34.8, "median_ft": 0.0, "left_sw_ft": 7.8, "right_sw_ft": 9.1}, "geometry": {"type": "LineString", "coordinates": [[-73.77115335099595, 40.61237496756016], [-73.77103763097641, 40.61248587550291]]}}, {"type": "Feature", "properties": {"segment_id": 180991, "physicalid": "14131", "street_name": "MOTT AVE", "borough": "queens", "direction": "TW", "total_row_ft": 51.7, "roadbed_ft": 35.1, "median_ft": 0.0, "left_sw_ft": 7.6, "right_sw_ft": 9.0}, "geometry": {"type": "LineString", "coordinates": [[-73.77120988865792, 40.612408984858256], [-73.77109398924873, 40.61252006482078]]}}, {"type": "Feature", "properties": {"segment_id": 180992, "physicalid": "14131", "street_name": "MOTT AVE", "borough": "queens", "direction": "TW", "total_row_ft": 51.8, "roadbed_ft": 35.4, "median_ft": 0.0, "left_sw_ft": 7.5, "right_sw_ft": 9.0}, "geometry": {"type": "LineString", "coordinates": [[-73.77126642641703, 40.61244300209057], [-73.77115029539156, 40.61255430412792]]}}, {"type": "Feature", "properties": {"segment_id": 180993, "physicalid": "14131", "street_name": "MOTT AVE", "borough": "queens", "direction": "TW", "total_row_ft": 51.9, "roadbed_ft": 35.7, "median_ft": 0.0, "left_sw_ft": 7.3, "right_sw_ft": 8.9}, "geometry": {"type": "LineString", "coordinates": [[-73.77132296425575, 40.61247701927387], [-73.77120660148708, 40.61258854350809]]}}, {"type": "Feature", "properties": {"segment_id": 180994, "physicalid": "14131", "street_name": "MOTT AVE", "borough": "queens", "direction": "TW", "total_row_ft": 51.7, "roadbed_ft": 36.0, "median_ft": 0.0, "left_sw_ft": 7.0, "right_sw_ft": 8.8}, "geometry": {"type": "LineString", "coordinates": [[-73.7713791657246, 40.61251135886857], [-73.7712632012235, 40.61262250148541]]}}, {"type": "Feature", "properties": {"segment_id": 180995, "physicalid": "14131", "street_name": "MOTT AVE", "borough": "queens", "direction": "TW", "total_row_ft": 51.4, "roadbed_ft": 36.3, "median_ft": 0.0, "left_sw_ft": 6.6, "right_sw_ft": 8.5}, "geometry": {"type": "LineString", "coordinates": [[-73.77143526999255, 40.612545791650554], [-73.77131999353708, 40.61265627492052]]}}, {"type": "Feature", "properties": {"segment_id": 180996, "physicalid": "14131", "street_name": "MOTT AVE", "borough": "queens", "direction": "TW", "total_row_ft": 51.1, "roadbed_ft": 36.6, "median_ft": 0.0, "left_sw_ft": 6.3, "right_sw_ft": 8.2}, "geometry": {"type": "LineString", "coordinates": [[-73.7714913744398, 40.61258022428868], [-73.77137678590813, 40.61269004832746]]}}, {"type": "Feature", "properties": {"segment_id": 183463, "physicalid": "14318", "street_name": "BAY CT", "borough": "queens", "direction": "TW", "total_row_ft": 84.8, "roadbed_ft": 38.7, "median_ft": 0.0, "left_sw_ft": 8.7, "right_sw_ft": 37.4}, "geometry": {"type": "LineString", "coordinates": [[-73.77156067928095, 40.611717890209725], [-73.77138810277013, 40.61190978782121]]}}, {"type": "Feature", "properties": {"segment_id": 183464, "physicalid": "14318", "street_name": "BAY CT", "borough": "queens", "direction": "TW", "total_row_ft": 43.9, "roadbed_ft": 28.4, "median_ft": 0.0, "left_sw_ft": 7.6, "right_sw_ft": 7.8}, "geometry": {"type": "LineString", "coordinates": [[-73.77160061887166, 40.61177058378283], [-73.77151130832988, 40.611869893428974]]}}, {"type": "Feature", "properties": {"segment_id": 183465, "physicalid": "14318", "street_name": "BAY CT", "borough": "queens", "direction": "TW", "total_row_ft": 43.9, "roadbed_ft": 28.9, "median_ft": 0.0, "left_sw_ft": 7.3, "right_sw_ft": 7.6}, "geometry": {"type": "LineString", "coordinates": [[-73.77165718617715, 40.611804788033716], [-73.77156788608153, 40.61190408615046]]}}, {"type": "Feature", "properties": {"segment_id": 183466, "physicalid": "14318", "street_name": "BAY CT", "borough": "queens", "direction": "TW", "total_row_ft": 43.9, "roadbed_ft": 29.4, "median_ft": 0.0, "left_sw_ft": 6.9, "right_sw_ft": 7.5}, "geometry": {"type": "LineString", "coordinates": [[-73.77171375354062, 40.61183899225666], [-73.77162446389114, 40.61193827884403]]}}, {"type": "Feature", "properties": {"segment_id": 183467, "physicalid": "14318", "street_name": "BAY CT", "borough": "queens", "direction": "TW", "total_row_ft": 43.8, "roadbed_ft": 29.9, "median_ft": 0.0, "left_sw_ft": 6.6, "right_sw_ft": 7.3}, "geometry": {"type": "LineString", "coordinates": [[-73.77177032096206, 40.61187319645163], [-73.77168104175871, 40.61197247150959]]}}, {"type": "Feature", "properties": {"segment_id": 183468, "physicalid": "14318", "street_name": "BAY CT", "borough": "queens", "direction": "TW", "total_row_ft": 43.8, "roadbed_ft": 30.4, "median_ft": 0.0, "left_sw_ft": 6.2, "right_sw_ft": 7.2}, "geometry": {"type": "LineString", "coordinates": [[-73.77182688844147, 40.611907400618634], [-73.77173761968423, 40.612006664147195]]}}, {"type": "Feature", "properties": {"segment_id": 183469, "physicalid": "14318", "street_name": "BAY CT", "borough": "queens", "direction": "TW", "total_row_ft": 46.5, "roadbed_ft": 31.4, "median_ft": 0.0, "left_sw_ft": 8.3, "right_sw_ft": 6.8}, "geometry": {"type": "LineString", "coordinates": [[-73.77188943607061, 40.61193495509987], [-73.77179469080929, 40.61204030840233]]}}, {"type": "Feature", "properties": {"segment_id": 183470, "physicalid": "14318", "street_name": "BAY CT", "borough": "queens", "direction": "TW", "total_row_ft": 71.9, "roadbed_ft": 52.1, "median_ft": 0.0, "left_sw_ft": 13.4, "right_sw_ft": 6.3}, "geometry": {"type": "LineString", "coordinates": [[-73.77199820835618, 40.61191110925216], [-73.77185189769348, 40.61207380173387]]}}, {"type": "Feature", "properties": {"segment_id": 183471, "physicalid": "14318", "street_name": "BAY CT", "borough": "queens", "direction": "TW", "total_row_ft": 82.5, "roadbed_ft": 68.4, "median_ft": 0.0, "left_sw_ft": 8.3, "right_sw_ft": 5.8}, "geometry": {"type": "LineString", "coordinates": [[-73.77207707475439, 40.61192051772523], [-73.77190910463509, 40.612107295036814]]}}, {"type": "Feature", "properties": {"segment_id": 1475813, "physicalid": "99733", "street_name": "BEACON PL", "borough": "queens", "direction": "TW", "total_row_ft": 99.0, "roadbed_ft": 75.4, "median_ft": 0.0, "left_sw_ft": 15.0, "right_sw_ft": 8.6}, "geometry": {"type": "LineString", "coordinates": [[-73.77160031737293, 40.61188592055247], [-73.77136454583227, 40.611741533529596]]}}, {"type": "Feature", "properties": {"segment_id": 1475814, "physicalid": "99733", "street_name": "BEACON PL", "borough": "queens", "direction": "TW", "total_row_ft": 43.2, "roadbed_ft": 28.6, "median_ft": 0.0, "left_sw_ft": 6.1, "right_sw_ft": 8.6}, "geometry": {"type": "LineString", "coordinates": [[-73.77144117176019, 40.611858883788635], [-73.77131980301782, 40.61178455712908]]}}, {"type": "Feature", "properties": {"segment_id": 1475815, "physicalid": "99733", "street_name": "BEACON PL", "borough": "queens", "direction": "TW", "total_row_ft": 43.8, "roadbed_ft": 28.5, "median_ft": 0.0, "left_sw_ft": 6.6, "right_sw_ft": 8.6}, "geometry": {"type": "LineString", "coordinates": [[-73.7713979358474, 40.61190283026595], [-73.7712750601457, 40.61182758071099]]}}, {"type": "Feature", "properties": {"segment_id": 1475816, "physicalid": "99733", "street_name": "BEACON PL", "borough": "queens", "direction": "TW", "total_row_ft": 44.3, "roadbed_ft": 28.4, "median_ft": 0.0, "left_sw_ft": 7.1, "right_sw_ft": 8.8}, "geometry": {"type": "LineString", "coordinates": [[-73.77135469987769, 40.61194677672683], [-73.77123031721591, 40.61187060427524]]}}, {"type": "Feature", "properties": {"segment_id": 1475817, "physicalid": "99733", "street_name": "BEACON PL", "borough": "queens", "direction": "TW", "total_row_ft": 44.9, "roadbed_ft": 28.3, "median_ft": 0.0, "left_sw_ft": 7.6, "right_sw_ft": 9.0}, "geometry": {"type": "LineString", "coordinates": [[-73.77131146385106, 40.61199072317121], [-73.77118548958977, 40.611913575988744]]}}, {"type": "Feature", "properties": {"segment_id": 1475818, "physicalid": "99733", "street_name": "BEACON PL", "borough": "queens", "direction": "TW", "total_row_ft": 45.2, "roadbed_ft": 28.3, "median_ft": 0.0, "left_sw_ft": 7.8, "right_sw_ft": 9.1}, "geometry": {"type": "LineString", "coordinates": [[-73.77126748169705, 40.612034212703165], [-73.77114063800751, 40.61195653304902]]}}, {"type": "Feature", "properties": {"segment_id": 1475819, "physicalid": "99733", "street_name": "BEACON PL", "borough": "queens", "direction": "TW", "total_row_ft": 45.2, "roadbed_ft": 28.6, "median_ft": 0.0, "left_sw_ft": 7.7, "right_sw_ft": 8.8}, "geometry": {"type": "LineString", "coordinates": [[-73.77122256292502, 40.61207712866498], [-73.7710957863675, 40.61199949009162]]}}, {"type": "Feature", "properties": {"segment_id": 1475820, "physicalid": "99733", "street_name": "BEACON PL", "borough": "queens", "direction": "TW", "total_row_ft": 45.1, "roadbed_ft": 28.9, "median_ft": 0.0, "left_sw_ft": 7.6, "right_sw_ft": 8.6}, "geometry": {"type": "LineString", "coordinates": [[-73.7711776440952, 40.61212004460906], [-73.77105093469744, 40.612042447133454]]}}, {"type": "Feature", "properties": {"segment_id": 1475821, "physicalid": "99733", "street_name": "BEACON PL", "borough": "queens", "direction": "TW", "total_row_ft": 45.1, "roadbed_ft": 29.3, "median_ft": 0.0, "left_sw_ft": 7.5, "right_sw_ft": 8.4}, "geometry": {"type": "LineString", "coordinates": [[-73.77113272514912, 40.61216296049953], [-73.77100608303833, 40.612085404199675]]}}, {"type": "Feature", "properties": {"segment_id": 1475822, "physicalid": "99733", "street_name": "BEACON PL", "borough": "queens", "direction": "TW", "total_row_ft": 45.1, "roadbed_ft": 29.6, "median_ft": 0.0, "left_sw_ft": 7.4, "right_sw_ft": 8.1}, "geometry": {"type": "LineString", "coordinates": [[-73.77108780604965, 40.612205876313745], [-73.77096123132151, 40.61212836124819]]}}, {"type": "Feature", "properties": {"segment_id": 1475823, "physicalid": "99733", "street_name": "BEACON PL", "borough": "queens", "direction": "TW", "total_row_ft": 45.1, "roadbed_ft": 29.9, "median_ft": 0.0, "left_sw_ft": 7.3, "right_sw_ft": 7.9}, "geometry": {"type": "LineString", "coordinates": [[-73.77104288689246, 40.6122487921102], [-73.77091637954695, 40.612171318279046]]}}, {"type": "Feature", "properties": {"segment_id": 1475824, "physicalid": "99733", "street_name": "BEACON PL", "borough": "queens", "direction": "TW", "total_row_ft": 120.0, "roadbed_ft": 34.1, "median_ft": 0.0, "left_sw_ft": 43.5, "right_sw_ft": 42.5}, "geometry": {"type": "LineString", "coordinates": [[-73.77110397385718, 40.6123566264674], [-73.77076707020028, 40.61215030463869]]}}, {"type": "Feature", "properties": {"segment_id": 1475825, "physicalid": "99734", "street_name": "BEACON PL", "borough": "queens", "direction": "TW", "total_row_ft": 45.0, "roadbed_ft": 29.9, "median_ft": 0.0, "left_sw_ft": 6.3, "right_sw_ft": 8.8}, "geometry": {"type": "LineString", "coordinates": [[-73.77187183131925, 40.611451217191494], [-73.77174445322959, 40.61137490142864]]}}, {"type": "Feature", "properties": {"segment_id": 1475826, "physicalid": "99734", "street_name": "BEACON PL", "borough": "queens", "direction": "TW", "total_row_ft": 45.1, "roadbed_ft": 29.7, "median_ft": 0.0, "left_sw_ft": 6.6, "right_sw_ft": 8.7}, "geometry": {"type": "LineString", "coordinates": [[-73.77182744235351, 40.611494451623294], [-73.7716998825432, 40.61141802695645]]}}, {"type": "Feature", "properties": {"segment_id": 1475827, "physicalid": "99734", "street_name": "BEACON PL", "borough": "queens", "direction": "TW", "total_row_ft": 45.1, "roadbed_ft": 29.6, "median_ft": 0.0, "left_sw_ft": 6.9, "right_sw_ft": 8.7}, "geometry": {"type": "LineString", "coordinates": [[-73.77178305333025, 40.61153768603778], [-73.77165531185481, 40.6114611525001]]}}, {"type": "Feature", "properties": {"segment_id": 1475828, "physicalid": "99734", "street_name": "BEACON PL", "borough": "queens", "direction": "TW", "total_row_ft": 45.2, "roadbed_ft": 29.4, "median_ft": 0.0, "left_sw_ft": 7.2, "right_sw_ft": 8.6}, "geometry": {"type": "LineString", "coordinates": [[-73.77173866421569, 40.611580920414674], [-73.77161074110886, 40.611504278026274]]}}, {"type": "Feature", "properties": {"segment_id": 1475829, "physicalid": "99734", "street_name": "BEACON PL", "borough": "queens", "direction": "TW", "total_row_ft": 45.2, "roadbed_ft": 29.2, "median_ft": 0.0, "left_sw_ft": 7.5, "right_sw_ft": 8.6}, "geometry": {"type": "LineString", "coordinates": [[-73.7716942750426, 40.61162415477359], [-73.77156617030528, 40.61154740353496]]}}, {"type": "Feature", "properties": {"segment_id": 1475830, "physicalid": "99734", "street_name": "BEACON PL", "borough": "queens", "direction": "TW", "total_row_ft": 45.3, "roadbed_ft": 29.0, "median_ft": 0.0, "left_sw_ft": 7.7, "right_sw_ft": 8.5}, "geometry": {"type": "LineString", "coordinates": [[-73.77164988581204, 40.61166738911519], [-73.77152158983382, 40.611590523268376]]}}, {"type": "Feature", "properties": {"segment_id": 1475831, "physicalid": "99734", "street_name": "BEACON PL", "borough": "queens", "direction": "TW", "total_row_ft": 45.4, "roadbed_ft": 28.9, "median_ft": 0.0, "left_sw_ft": 8.0, "right_sw_ft": 8.5}, "geometry": {"type": "LineString", "coordinates": [[-73.77160549652396, 40.611710623439464], [-73.77147684789729, 40.6116335462801]]}}, {"type": "Feature", "properties": {"segment_id": 1475832, "physicalid": "99734", "street_name": "BEACON PL", "borough": "queens", "direction": "TW", "total_row_ft": 84.0, "roadbed_ft": 30.2, "median_ft": 0.0, "left_sw_ft": 45.3, "right_sw_ft": 8.5}, "geometry": {"type": "LineString", "coordinates": [[-73.77167000017334, 40.61181909850172], [-73.77143210590306, 40.61167656927428]]}}, {"type": "Feature", "properties": {"segment_id": 1503104, "physicalid": "101412", "street_name": "ANCHOR DR", "borough": "queens", "direction": "TW", "total_row_ft": 72.3, "roadbed_ft": 45.2, "median_ft": 0.0, "left_sw_ft": 17.1, "right_sw_ft": 10.0}, "geometry": {"type": "LineString", "coordinates": [[-73.77010166817225, 40.61074516343441], [-73.76996578252376, 40.61091448869112]]}}, {"type": "Feature", "properties": {"segment_id": 1503105, "physicalid": "101412", "street_name": "ANCHOR DR", "borough": "queens", "direction": "TW", "total_row_ft": 85.2, "roadbed_ft": 67.3, "median_ft": 0.0, "left_sw_ft": 8.8, "right_sw_ft": 9.0}, "geometry": {"type": "LineString", "coordinates": [[-73.77018601804802, 40.61074527114691], [-73.77002595556554, 40.61094472315132]]}}, {"type": "Feature", "properties": {"segment_id": 1571526, "physicalid": "117472", "street_name": "PT BREEZE PL", "borough": "queens", "direction": "TW", "total_row_ft": 40.1, "roadbed_ft": 29.2, "median_ft": 0.0, "left_sw_ft": 7.5, "right_sw_ft": 3.4}, "geometry": {"type": "LineString", "coordinates": [[-73.77125446771038, 40.61093824502614], [-73.77114070602445, 40.61087031825497]]}}, {"type": "Feature", "properties": {"segment_id": 1571527, "physicalid": "117472", "street_name": "PT BREEZE PL", "borough": "queens", "direction": "TW", "total_row_ft": 40.2, "roadbed_ft": 29.1, "median_ft": 0.0, "left_sw_ft": 7.7, "right_sw_ft": 3.5}, "geometry": {"type": "LineString", "coordinates": [[-73.77121034389499, 40.610981637406375], [-73.77109623944047, 40.61091350594257]]}}, {"type": "Feature", "properties": {"segment_id": 1571528, "physicalid": "117472", "street_name": "PT BREEZE PL", "borough": "queens", "direction": "TW", "total_row_ft": 44.9, "roadbed_ft": 28.9, "median_ft": 0.0, "left_sw_ft": 7.9, "right_sw_ft": 8.1}, "geometry": {"type": "LineString", "coordinates": [[-73.77116622002224, 40.61102502976948], [-73.77103892708242, 40.61094902345106]]}}, {"type": "Feature", "properties": {"segment_id": 1571529, "physicalid": "117472", "street_name": "PT BREEZE PL", "borough": "queens", "direction": "TW", "total_row_ft": 45.0, "roadbed_ft": 28.8, "median_ft": 0.0, "left_sw_ft": 8.1, "right_sw_ft": 8.1}, "geometry": {"type": "LineString", "coordinates": [[-73.77112209609213, 40.61106842211545], [-73.77099446565855, 40.61099221425069]]}}, {"type": "Feature", "properties": {"segment_id": 1571530, "physicalid": "117472", "street_name": "PT BREEZE PL", "borough": "queens", "direction": "TW", "total_row_ft": 45.1, "roadbed_ft": 28.6, "median_ft": 0.0, "left_sw_ft": 8.4, "right_sw_ft": 8.2}, "geometry": {"type": "LineString", "coordinates": [[-73.77107797210465, 40.6111118144443], [-73.77095000417717, 40.61103540503293]]}}, {"type": "Feature", "properties": {"segment_id": 1571531, "physicalid": "117472", "street_name": "PT BREEZE PL", "borough": "queens", "direction": "TW", "total_row_ft": 45.0, "roadbed_ft": 28.4, "median_ft": 0.0, "left_sw_ft": 8.3, "right_sw_ft": 8.2}, "geometry": {"type": "LineString", "coordinates": [[-73.77103302469764, 40.61115471512886], [-73.77090554263825, 40.61107859579781]]}}, {"type": "Feature", "properties": {"segment_id": 1571532, "physicalid": "117472", "street_name": "PT BREEZE PL", "borough": "queens", "direction": "TW", "total_row_ft": 44.7, "roadbed_ft": 28.3, "median_ft": 0.0, "left_sw_ft": 8.1, "right_sw_ft": 8.3}, "geometry": {"type": "LineString", "coordinates": [[-73.7709877120987, 40.611197397774966], [-73.77086108107709, 40.611121786566315]]}}, {"type": "Feature", "properties": {"segment_id": 1571533, "physicalid": "117472", "street_name": "PT BREEZE PL", "borough": "queens", "direction": "TW", "total_row_ft": 44.4, "roadbed_ft": 28.1, "median_ft": 0.0, "left_sw_ft": 7.9, "right_sw_ft": 8.3}, "geometry": {"type": "LineString", "coordinates": [[-73.77094239944182, 40.611240080403], [-73.77081661947429, 40.61116497732698]]}}, {"type": "Feature", "properties": {"segment_id": 1571534, "physicalid": "117473", "street_name": "PT BREEZE PL", "borough": "queens", "direction": "TW", "total_row_ft": 43.7, "roadbed_ft": 28.0, "median_ft": 0.0, "left_sw_ft": 7.5, "right_sw_ft": 8.2}, "geometry": {"type": "LineString", "coordinates": [[-73.77083998153054, 40.61133655352531], [-73.77071672377744, 40.6112619215322]]}}, {"type": "Feature", "properties": {"segment_id": 1571535, "physicalid": "117473", "street_name": "PT BREEZE PL", "borough": "queens", "direction": "TW", "total_row_ft": 43.4, "roadbed_ft": 28.0, "median_ft": 0.0, "left_sw_ft": 7.3, "right_sw_ft": 8.1}, "geometry": {"type": "LineString", "coordinates": [[-73.77079467245177, 40.61137923254618], [-73.77067222492694, 40.611305091112456]]}}, {"type": "Feature", "properties": {"segment_id": 1571536, "physicalid": "117473", "street_name": "PT BREEZE PL", "borough": "queens", "direction": "TW", "total_row_ft": 43.3, "roadbed_ft": 28.0, "median_ft": 0.0, "left_sw_ft": 7.2, "right_sw_ft": 8.0}, "geometry": {"type": "LineString", "coordinates": [[-73.77074974600473, 40.61142214326551], [-73.77062772601892, 40.6113482606753]]}}, {"type": "Feature", "properties": {"segment_id": 1571537, "physicalid": "117473", "street_name": "PT BREEZE PL", "borough": "queens", "direction": "TW", "total_row_ft": 43.3, "roadbed_ft": 28.0, "median_ft": 0.0, "left_sw_ft": 7.4, "right_sw_ft": 7.9}, "geometry": {"type": "LineString", "coordinates": [[-73.77070545712986, 40.61146544004872], [-73.77058322705334, 40.61139143022073]]}}, {"type": "Feature", "properties": {"segment_id": 1571538, "physicalid": "117473", "street_name": "PT BREEZE PL", "borough": "queens", "direction": "TW", "total_row_ft": 43.4, "roadbed_ft": 28.0, "median_ft": 0.0, "left_sw_ft": 7.5, "right_sw_ft": 7.9}, "geometry": {"type": "LineString", "coordinates": [[-73.77066116819753, 40.611508736814706], [-73.77053872803019, 40.61143459974874]]}}, {"type": "Feature", "properties": {"segment_id": 1571539, "physicalid": "117473", "street_name": "PT BREEZE PL", "borough": "queens", "direction": "TW", "total_row_ft": 43.5, "roadbed_ft": 28.0, "median_ft": 0.0, "left_sw_ft": 7.7, "right_sw_ft": 7.8}, "geometry": {"type": "LineString", "coordinates": [[-73.77061687891413, 40.61155203338563], [-73.77049422894952, 40.61147776925935]]}}, {"type": "Feature", "properties": {"segment_id": 1571540, "physicalid": "117473", "street_name": "PT BREEZE PL", "borough": "queens", "direction": "TW", "total_row_ft": 43.7, "roadbed_ft": 28.0, "median_ft": 0.0, "left_sw_ft": 7.9, "right_sw_ft": 7.8}, "geometry": {"type": "LineString", "coordinates": [[-73.7705725895253, 40.61159532991024], [-73.77044927510472, 40.611520663428635]]}}, {"type": "Feature", "properties": {"segment_id": 1571541, "physicalid": "117473", "street_name": "PT BREEZE PL", "borough": "queens", "direction": "TW", "total_row_ft": 44.1, "roadbed_ft": 28.0, "median_ft": 0.0, "left_sw_ft": 8.0, "right_sw_ft": 8.1}, "geometry": {"type": "LineString", "coordinates": [[-73.77052830007901, 40.61163862641761], [-73.77040384576168, 40.61156326970178]]}}, {"type": "Feature", "properties": {"segment_id": 1571542, "physicalid": "117473", "street_name": "PT BREEZE PL", "borough": "queens", "direction": "TW", "total_row_ft": 44.4, "roadbed_ft": 28.0, "median_ft": 0.0, "left_sw_ft": 8.1, "right_sw_ft": 8.3}, "geometry": {"type": "LineString", "coordinates": [[-73.77048368189202, 40.61168172389133], [-73.77035841636065, 40.6116058759568]]}}, {"type": "Feature", "properties": {"segment_id": 1571543, "physicalid": "117473", "street_name": "PT BREEZE PL", "borough": "queens", "direction": "TW", "total_row_ft": 44.5, "roadbed_ft": 28.0, "median_ft": 0.0, "left_sw_ft": 8.0, "right_sw_ft": 8.5}, "geometry": {"type": "LineString", "coordinates": [[-73.77043858629982, 40.61172453231532], [-73.77031298690164, 40.61164848219367]]}}, {"type": "Feature", "properties": {"segment_id": 1571544, "physicalid": "117473", "street_name": "PT BREEZE PL", "borough": "queens", "direction": "TW", "total_row_ft": 44.7, "roadbed_ft": 28.1, "median_ft": 0.0, "left_sw_ft": 7.8, "right_sw_ft": 8.8}, "geometry": {"type": "LineString", "coordinates": [[-73.77039349064978, 40.611767340721435], [-73.77026755738463, 40.61169108841243]]}}, {"type": "Feature", "properties": {"segment_id": 1571545, "physicalid": "117473", "street_name": "PT BREEZE PL", "borough": "queens", "direction": "TW", "total_row_ft": 44.8, "roadbed_ft": 28.1, "median_ft": 0.0, "left_sw_ft": 7.7, "right_sw_ft": 9.0}, "geometry": {"type": "LineString", "coordinates": [[-73.77034839494189, 40.6118101491097], [-73.77022212780965, 40.61173369461301]]}}, {"type": "Feature", "properties": {"segment_id": 1571546, "physicalid": "117473", "street_name": "PT BREEZE PL", "borough": "queens", "direction": "TW", "total_row_ft": 44.9, "roadbed_ft": 28.1, "median_ft": 0.0, "left_sw_ft": 7.6, "right_sw_ft": 9.2}, "geometry": {"type": "LineString", "coordinates": [[-73.77030329917619, 40.6118529574801], [-73.77017669817666, 40.61177630079546]]}}, {"type": "Feature", "properties": {"segment_id": 1663631, "physicalid": "167198", "street_name": "PT BREEZE PL", "borough": "queens", "direction": "TW", "total_row_ft": 133.3, "roadbed_ft": 67.4, "median_ft": 0.0, "left_sw_ft": 50.9, "right_sw_ft": 15.0}, "geometry": {"type": "LineString", "coordinates": [[-73.7702264994332, 40.61199572358076], [-73.76994804798186, 40.611749831053785]]}}]}