{"type": "FeatureCollection", "features": [{"type": "Feature", "properties": {"segment_id": 184497, "physicalid": "14411", "street_name": "BCH CHANNEL DR", "borough": "queens", "direction": "TW", "total_row_ft": 74.6, "roadbed_ft": 50.5, "median_ft": 0.0, "left_sw_ft": 8.1, "right_sw_ft": 15.9}, "geometry": {"type": "LineString", "coordinates": [[-73.75373072941981, 40.61002834992769], [-73.75346735890837, 40.60998832158255]]}}, {"type": "Feature", "properties": {"segment_id": 184498, "physicalid": "14411", "street_name": "BCH CHANNEL DR", "borough": "queens", "direction": "TW", "total_row_ft": 74.5, "roadbed_ft": 50.4, "median_ft": 0.0, "left_sw_ft": 8.2, "right_sw_ft": 15.8}, "geometry": {"type": "LineString", "coordinates": [[-73.75371922812025, 40.61008257879193], [-73.75345623762173, 40.61004260820881]]}}, {"type": "Feature", "properties": {"segment_id": 184499, "physicalid": "14411", "street_name": "BCH CHANNEL DR", "borough": "queens", "direction": "TW", "total_row_ft": 74.3, "roadbed_ft": 50.4, "median_ft": 0.0, "left_sw_ft": 8.2, "right_sw_ft": 15.8}, "geometry": {"type": "LineString", "coordinates": [[-73.75370756061918, 40.61013678239767], [-73.753445116317, 40.61009689483373]]}}, {"type": "Feature", "properties": {"segment_id": 184500, "physicalid": "14411", "street_name": "BCH CHANNEL DR", "borough": "queens", "direction": "TW", "total_row_ft": 74.1, "roadbed_ft": 50.3, "median_ft": 0.0, "left_sw_ft": 8.2, "right_sw_ft": 15.7}, "geometry": {"type": "LineString", "coordinates": [[-73.75369588415904, 40.61019098464316], [-73.75343399499418, 40.61015118145725]]}}, {"type": "Feature", "properties": {"segment_id": 184501, "physicalid": "14411", "street_name": "BCH CHANNEL DR", "borough": "queens", "direction": "TW", "total_row_ft": 74.0, "roadbed_ft": 50.2, "median_ft": 0.0, "left_sw_ft": 8.2, "right_sw_ft": 15.6}, "geometry": {"type": "LineString", "coordinates": [[-73.75368420767995, 40.61024518688718], [-73.75342287365326, 40.61020546807942]]}}, {"type": "Feature", "properties": {"segment_id": 184502, "physicalid": "14411", "street_name": "BCH CHANNEL DR", "borough": "queens", "direction": "TW", "total_row_ft": 74.1, "roadbed_ft": 50.1, "median_ft": 0.0, "left_sw_ft": 8.2, "right_sw_ft": 15.8}, "geometry": {"type": "LineString", "coordinates": [[-73.75367253118189, 40.61029938912966], [-73.75341071856295, 40.610259597587515]]}}, {"type": "Feature", "properties": {"segment_id": 184503, "physicalid": "14411", "street_name": "BCH CHANNEL DR", "borough": "queens", "direction": "TW", "total_row_ft": 74.5, "roadbed_ft": 50.1, "median_ft": 0.0, "left_sw_ft": 8.4, "right_sw_ft": 16.1}, "geometry": {"type": "LineString", "coordinates": [[-73.75366180713335, 40.61035373613033], [-73.75339856261239, 40.610313726966176]]}}, {"type": "Feature", "properties": {"segment_id": 184504, "physicalid": "14411", "street_name": "BCH CHANNEL DR", "borough": "queens", "direction": "TW", "total_row_ft": 75.2, "roadbed_ft": 50.7, "median_ft": 0.0, "left_sw_ft": 8.7, "right_sw_ft": 15.8}, "geometry": {"type": "LineString", "coordinates": [[-73.75365205211989, 40.610408230409654], [-73.75338640664208, 40.61036785634331]]}}, {"type": "Feature", "properties": {"segment_id": 184505, "physicalid": "14411", "street_name": "BCH CHANNEL DR", "borough": "queens", "direction": "TW", "total_row_ft": 75.9, "roadbed_ft": 51.5, "median_ft": 0.0, "left_sw_ft": 8.7, "right_sw_ft": 15.6}, "geometry": {"type": "LineString", "coordinates": [[-73.75364229709051, 40.61046272468784], [-73.75337425065209, 40.61042198571888]]}}, {"type": "Feature", "properties": {"segment_id": 207472, "physicalid": "16114", "street_name": "GIPSON ST", "borough": "queens", "direction": "TW", "total_row_ft": 43.5, "roadbed_ft": 29.1, "median_ft": 0.0, "left_sw_ft": 6.6, "right_sw_ft": 7.9}, "geometry": {"type": "LineString", "coordinates": [[-73.75742481175745, 40.61004437572647], [-73.75727367121269, 40.61001249853414]]}}, {"type": "Feature", "properties": {"segment_id": 1109761, "physicalid": "76836", "street_name": "REDFERN AVE", "borough": "queens", "direction": "TW", "total_row_ft": 65.1, "roadbed_ft": 44.2, "median_ft": 0.0, "left_sw_ft": 8.0, "right_sw_ft": 12.9}, "geometry": {"type": "LineString", "coordinates": [[-73.74993072609432, 40.61018400390209], [-73.75009844650066, 40.61030892029431]]}}, {"type": "Feature", "properties": {"segment_id": 1109762, "physicalid": "76836", "street_name": "REDFERN AVE", "borough": "queens", "direction": "TW", "total_row_ft": 65.2, "roadbed_ft": 44.2, "median_ft": 0.0, "left_sw_ft": 8.0, "right_sw_ft": 12.9}, "geometry": {"type": "LineString", "coordinates": [[-73.74998118373432, 40.6101448265673], [-73.7501490417813, 40.61026984540231]]}}, {"type": "Feature", "properties": {"segment_id": 1109763, "physicalid": "76836", "street_name": "REDFERN AVE", "borough": "queens", "direction": "TW", "total_row_ft": 65.2, "roadbed_ft": 44.3, "median_ft": 0.0, "left_sw_ft": 8.1, "right_sw_ft": 12.9}, "geometry": {"type": "LineString", "coordinates": [[-73.75003164131428, 40.61010564920961], [-73.75019963700272, 40.61023077048791]]}}, {"type": "Feature", "properties": {"segment_id": 1109764, "physicalid": "76836", "street_name": "REDFERN AVE", "borough": "queens", "direction": "TW", "total_row_ft": 65.3, "roadbed_ft": 44.3, "median_ft": 0.0, "left_sw_ft": 8.1, "right_sw_ft": 12.9}, "geometry": {"type": "LineString", "coordinates": [[-73.75008206347663, 40.61006644549499], [-73.7502502321649, 40.61019169555107]]}}, {"type": "Feature", "properties": {"segment_id": 1109765, "physicalid": "76836", "street_name": "REDFERN AVE", "borough": "queens", "direction": "TW", "total_row_ft": 66.9, "roadbed_ft": 44.3, "median_ft": 0.0, "left_sw_ft": 8.3, "right_sw_ft": 14.3}, "geometry": {"type": "LineString", "coordinates": [[-73.75013236219615, 40.61002714986325], [-73.75030470738139, 40.61015551044449]]}}, {"type": "Feature", "properties": {"segment_id": 1109766, "physicalid": "76836", "street_name": "REDFERN AVE", "borough": "queens", "direction": "TW", "total_row_ft": 65.6, "roadbed_ft": 44.3, "median_ft": 0.0, "left_sw_ft": 8.4, "right_sw_ft": 12.8}, "geometry": {"type": "LineString", "coordinates": [[-73.75018266091121, 40.609987854250114], [-73.75035152027304, 40.61011361857036]]}}, {"type": "Feature", "properties": {"segment_id": 1109767, "physicalid": "76836", "street_name": "REDFERN AVE", "borough": "queens", "direction": "TW", "total_row_ft": 65.7, "roadbed_ft": 44.3, "median_ft": 0.0, "left_sw_ft": 8.6, "right_sw_ft": 12.8}, "geometry": {"type": "LineString", "coordinates": [[-73.75023295956704, 40.60994855861482], [-73.75040219684749, 40.61007460433314]]}}, {"type": "Feature", "properties": {"segment_id": 1416532, "physicalid": "96010", "street_name": "EGGERT PL", "borough": "queens", "direction": "TW", "total_row_ft": 38.7, "roadbed_ft": 17.5, "median_ft": 0.0, "left_sw_ft": 15.0, "right_sw_ft": 6.2}, "geometry": {"type": "LineString", "coordinates": [[-73.7585892406478, 40.61006270279989], [-73.75832866270429, 40.610006309536956]]}}, {"type": "Feature", "properties": {"segment_id": 1469378, "physicalid": "99263", "street_name": "PEARL ST", "borough": "queens", "direction": "TW", "total_row_ft": 29.1, "roadbed_ft": 18.3, "median_ft": 0.0, "left_sw_ft": 4.8, "right_sw_ft": 6.0}, "geometry": {"type": "LineString", "coordinates": [[-73.75928124650444, 40.61003819167354], [-73.75918014228598, 40.610016719207934]]}}, {"type": "Feature", "properties": {"segment_id": 1469379, "physicalid": "99263", "street_name": "PEARL ST", "borough": "queens", "direction": "TW", "total_row_ft": 29.7, "roadbed_ft": 18.6, "median_ft": 0.0, "left_sw_ft": 5.4, "right_sw_ft": 5.7}, "geometry": {"type": "LineString", "coordinates": [[-73.75926414078519, 40.61009154640424], [-73.75916127228474, 40.61006969924147]]}}, {"type": "Feature", "properties": {"segment_id": 1469380, "physicalid": "99263", "street_name": "PEARL ST", "borough": "queens", "direction": "TW", "total_row_ft": 29.9, "roadbed_ft": 18.8, "median_ft": 0.0, "left_sw_ft": 5.9, "right_sw_ft": 5.2}, "geometry": {"type": "LineString", "coordinates": [[-73.7592470350386, 40.61014490113211], [-73.75914319257916, 40.610122847120984]]}}, {"type": "Feature", "properties": {"segment_id": 1469381, "physicalid": "99263", "street_name": "PEARL ST", "borough": "queens", "direction": "TW", "total_row_ft": 29.9, "roadbed_ft": 19.1, "median_ft": 0.0, "left_sw_ft": 6.5, "right_sw_ft": 4.3}, "geometry": {"type": "LineString", "coordinates": [[-73.75922992926466, 40.61019825585716], [-73.75912629780072, 40.61017624665836]]}}]}