{"type": "FeatureCollection", "features": [{"type": "Feature", "properties": {"segment_id": 386815, "physicalid": "28495", "street_name": "KNOLLWOOD AVE", "borough": "queens", "direction": "TW", "total_row_ft": 39.5, "roadbed_ft": 23.0, "median_ft": 0.0, "left_sw_ft": 9.5, "right_sw_ft": 7.1}, "geometry": {"type": "LineString", "coordinates": [[-73.74999025401021, 40.78011165102243], [-73.74995866519248, 40.780005815349135]]}}, {"type": "Feature", "properties": {"segment_id": 386816, "physicalid": "28495", "street_name": "KNOLLWOOD AVE", "borough": "queens", "direction": "TW", "total_row_ft": 39.9, "roadbed_ft": 23.0, "median_ft": 0.0, "left_sw_ft": 9.8, "right_sw_ft": 7.2}, "geometry": {"type": "LineString", "coordinates": [[-73.74992007106121, 40.78012461116861], [-73.74988818405227, 40.78001777605349]]}}, {"type": "Feature", "properties": {"segment_id": 386817, "physicalid": "28495", "street_name": "KNOLLWOOD AVE", "borough": "queens", "direction": "TW", "total_row_ft": 40.6, "roadbed_ft": 23.0, "median_ft": 0.0, "left_sw_ft": 10.0, "right_sw_ft": 7.5}, "geometry": {"type": "LineString", "coordinates": [[-73.749849878018, 40.78013753754365], [-73.74981745807328, 40.78002891648065]]}}, {"type": "Feature", "properties": {"segment_id": 386818, "physicalid": "28495", "street_name": "KNOLLWOOD AVE", "borough": "queens", "direction": "TW", "total_row_ft": 41.0, "roadbed_ft": 23.1, "median_ft": 0.0, "left_sw_ft": 10.2, "right_sw_ft": 7.6}, "geometry": {"type": "LineString", "coordinates": [[-73.74977958457185, 40.78015012757263], [-73.7497468552783, 40.78004046966645]]}}, {"type": "Feature", "properties": {"segment_id": 386819, "physicalid": "28495", "street_name": "KNOLLWOOD AVE", "borough": "queens", "direction": "TW", "total_row_ft": 45.8, "roadbed_ft": 23.2, "median_ft": 0.0, "left_sw_ft": 15.0, "right_sw_ft": 7.5}, "geometry": {"type": "LineString", "coordinates": [[-73.74974001974951, 40.78026567243159], [-73.74967644022495, 40.780052651913564]]}}, {"type": "Feature", "properties": {"segment_id": 386820, "physicalid": "28495", "street_name": "KNOLLWOOD AVE", "borough": "queens", "direction": "TW", "total_row_ft": 45.7, "roadbed_ft": 23.2, "median_ft": 0.0, "left_sw_ft": 15.0, "right_sw_ft": 7.4}, "geometry": {"type": "LineString", "coordinates": [[-73.74966959356895, 40.78027781819496], [-73.74960602514584, 40.7800648341176]]}}, {"type": "Feature", "properties": {"segment_id": 386821, "physicalid": "28495", "street_name": "KNOLLWOOD AVE", "borough": "queens", "direction": "TW", "total_row_ft": 45.6, "roadbed_ft": 23.2, "median_ft": 0.0, "left_sw_ft": 15.0, "right_sw_ft": 7.4}, "geometry": {"type": "LineString", "coordinates": [[-73.74959916736267, 40.78028996391526], [-73.74953556903053, 40.780076878873466]]}}, {"type": "Feature", "properties": {"segment_id": 386822, "physicalid": "28495", "street_name": "KNOLLWOOD AVE", "borough": "queens", "direction": "TW", "total_row_ft": 45.7, "roadbed_ft": 23.2, "median_ft": 0.0, "left_sw_ft": 15.0, "right_sw_ft": 7.5}, "geometry": {"type": "LineString", "coordinates": [[-73.74952874113073, 40.78030210959247], [-73.74946495940799, 40.78008840934494]]}}, {"type": "Feature", "properties": {"segment_id": 386823, "physicalid": "28495", "street_name": "KNOLLWOOD AVE", "borough": "queens", "direction": "TW", "total_row_ft": 46.2, "roadbed_ft": 23.5, "median_ft": 0.0, "left_sw_ft": 15.0, "right_sw_ft": 7.7}, "geometry": {"type": "LineString", "coordinates": [[-73.74945831487314, 40.78031425522661], [-73.74939434976096, 40.78009993977313]]}}, {"type": "Feature", "properties": {"segment_id": 386824, "physicalid": "28495", "street_name": "KNOLLWOOD AVE", "borough": "queens", "direction": "TW", "total_row_ft": 48.0, "roadbed_ft": 24.2, "median_ft": 0.0, "left_sw_ft": 15.0, "right_sw_ft": 8.8}, "geometry": {"type": "LineString", "coordinates": [[-73.74938788858981, 40.78032640081772], [-73.74932293843159, 40.7801087841802]]}}, {"type": "Feature", "properties": {"segment_id": 1327200, "physicalid": "90534", "street_name": "MARINETTE ST", "borough": "queens", "direction": "TW", "total_row_ft": 40.5, "roadbed_ft": 17.5, "median_ft": 0.0, "left_sw_ft": 15.0, "right_sw_ft": 8.1}, "geometry": {"type": "LineString", "coordinates": [[-73.74986928989271, 40.78173941591881], [-73.75012212784254, 40.78166697510373]]}}, {"type": "Feature", "properties": {"segment_id": 1327201, "physicalid": "90534", "street_name": "MARINETTE ST", "borough": "queens", "direction": "TW", "total_row_ft": 40.8, "roadbed_ft": 17.4, "median_ft": 0.0, "left_sw_ft": 15.0, "right_sw_ft": 8.4}, "geometry": {"type": "LineString", "coordinates": [[-73.7498438187907, 40.78168804894251], [-73.75009970898289, 40.78161473363008]]}}, {"type": "Feature", "properties": {"segment_id": 1327202, "physicalid": "90534", "street_name": "MARINETTE ST", "borough": "queens", "direction": "TW", "total_row_ft": 41.0, "roadbed_ft": 17.7, "median_ft": 0.0, "left_sw_ft": 15.0, "right_sw_ft": 8.3}, "geometry": {"type": "LineString", "coordinates": [[-73.74981834772804, 40.78163668196031], [-73.75007613924396, 40.78156282190272]]}}, {"type": "Feature", "properties": {"segment_id": 1327203, "physicalid": "90534", "street_name": "MARINETTE ST", "borough": "queens", "direction": "TW", "total_row_ft": 76.6, "roadbed_ft": 18.0, "median_ft": 0.0, "left_sw_ft": 15.0, "right_sw_ft": 43.5}, "geometry": {"type": "LineString", "coordinates": [[-73.74979287670465, 40.78158531497199], [-73.75019833499806, 40.78146914646331]]}}, {"type": "Feature", "properties": {"segment_id": 1327204, "physicalid": "90535", "street_name": "MARINETTE ST", "borough": "queens", "direction": "TW", "total_row_ft": 57.5, "roadbed_ft": 19.4, "median_ft": 0.0, "left_sw_ft": 15.0, "right_sw_ft": 23.1}, "geometry": {"type": "LineString", "coordinates": [[-73.74974666930011, 40.78149892274433], [-73.75005120568471, 40.78139338380526]]}}, {"type": "Feature", "properties": {"segment_id": 1327205, "physicalid": "90535", "street_name": "MARINETTE ST", "borough": "queens", "direction": "TW", "total_row_ft": 41.9, "roadbed_ft": 18.8, "median_ft": 0.0, "left_sw_ft": 15.0, "right_sw_ft": 8.1}, "geometry": {"type": "LineString", "coordinates": [[-73.74971671111393, 40.78144897421641], [-73.74997002365987, 40.78136118730346]]}}, {"type": "Feature", "properties": {"segment_id": 1327206, "physicalid": "90535", "street_name": "MARINETTE ST", "borough": "queens", "direction": "TW", "total_row_ft": 41.3, "roadbed_ft": 18.8, "median_ft": 0.0, "left_sw_ft": 15.0, "right_sw_ft": 7.4}, "geometry": {"type": "LineString", "coordinates": [[-73.74968675297274, 40.781399025680386], [-73.74993715313346, 40.78131224808847]]}}, {"type": "Feature", "properties": {"segment_id": 1327207, "physicalid": "90535", "street_name": "MARINETTE ST", "borough": "queens", "direction": "TW", "total_row_ft": 40.7, "roadbed_ft": 18.8, "median_ft": 0.0, "left_sw_ft": 15.0, "right_sw_ft": 6.8}, "geometry": {"type": "LineString", "coordinates": [[-73.74965679487642, 40.781349077136056], [-73.74990428292344, 40.781263308770875]]}}, {"type": "Feature", "properties": {"segment_id": 1327208, "physicalid": "90535", "street_name": "MARINETTE ST", "borough": "queens", "direction": "TW", "total_row_ft": 41.1, "roadbed_ft": 18.9, "median_ft": 0.0, "left_sw_ft": 15.0, "right_sw_ft": 7.2}, "geometry": {"type": "LineString", "coordinates": [[-73.7496268368251, 40.78129912858368], [-73.74987472899939, 40.78121322017797]]}}, {"type": "Feature", "properties": {"segment_id": 1327209, "physicalid": "90535", "street_name": "MARINETTE ST", "borough": "queens", "direction": "TW", "total_row_ft": 41.3, "roadbed_ft": 18.9, "median_ft": 0.0, "left_sw_ft": 15.0, "right_sw_ft": 7.4}, "geometry": {"type": "LineString", "coordinates": [[-73.74959687881866, 40.78124918002302], [-73.74984520439978, 40.781163121429955]]}}, {"type": "Feature", "properties": {"segment_id": 1327210, "physicalid": "90535", "street_name": "MARINETTE ST", "borough": "queens", "direction": "TW", "total_row_ft": 41.5, "roadbed_ft": 18.9, "median_ft": 0.0, "left_sw_ft": 15.0, "right_sw_ft": 7.6}, "geometry": {"type": "LineString", "coordinates": [[-73.74956692085722, 40.78119923145425], [-73.74981567979638, 40.7811130226907]]}}, {"type": "Feature", "properties": {"segment_id": 1327211, "physicalid": "90535", "street_name": "MARINETTE ST", "borough": "queens", "direction": "TW", "total_row_ft": 41.4, "roadbed_ft": 18.9, "median_ft": 0.0, "left_sw_ft": 15.0, "right_sw_ft": 7.6}, "geometry": {"type": "LineString", "coordinates": [[-73.74953696294071, 40.781149282877315], [-73.74978533377362, 40.78106320862745]]}}, {"type": "Feature", "properties": {"segment_id": 1327212, "physicalid": "90535", "street_name": "MARINETTE ST", "borough": "queens", "direction": "TW", "total_row_ft": 40.9, "roadbed_ft": 19.1, "median_ft": 0.0, "left_sw_ft": 15.0, "right_sw_ft": 6.7}, "geometry": {"type": "LineString", "coordinates": [[-73.74950700506915, 40.781099334292186], [-73.74975410576302, 40.78101370023049]]}}, {"type": "Feature", "properties": {"segment_id": 1327213, "physicalid": "90535", "street_name": "MARINETTE ST", "borough": "queens", "direction": "TW", "total_row_ft": 40.4, "roadbed_ft": 19.4, "median_ft": 0.0, "left_sw_ft": 15.0, "right_sw_ft": 6.1}, "geometry": {"type": "LineString", "coordinates": [[-73.74947704724256, 40.781049385699006], [-73.74972332342892, 40.780964037388564]]}}, {"type": "Feature", "properties": {"segment_id": 1327214, "physicalid": "90535", "street_name": "MARINETTE ST", "borough": "queens", "direction": "TW", "total_row_ft": 40.3, "roadbed_ft": 19.2, "median_ft": 0.0, "left_sw_ft": 15.0, "right_sw_ft": 6.0}, "geometry": {"type": "LineString", "coordinates": [[-73.74944708946086, 40.78099943709747], [-73.74969464727262, 40.78091364464388]]}}, {"type": "Feature", "properties": {"segment_id": 1327215, "physicalid": "90535", "street_name": "MARINETTE ST", "borough": "queens", "direction": "TW", "total_row_ft": 82.0, "roadbed_ft": 18.7, "median_ft": 0.0, "left_sw_ft": 15.0, "right_sw_ft": 48.3}, "geometry": {"type": "LineString", "coordinates": [[-73.74941713172414, 40.78094948848785], [-73.74980490518082, 40.78081510325508]]}}, {"type": "Feature", "properties": {"segment_id": 1327216, "physicalid": "90536", "street_name": "MARINETTE ST", "borough": "queens", "direction": "TW", "total_row_ft": 62.1, "roadbed_ft": 17.1, "median_ft": 0.0, "left_sw_ft": 15.0, "right_sw_ft": 30.0}, "geometry": {"type": "LineString", "coordinates": [[-73.74936080484915, 40.78084781167636], [-73.74969343743471, 40.7807529412203]]}}, {"type": "Feature", "properties": {"segment_id": 1327217, "physicalid": "90536", "street_name": "MARINETTE ST", "borough": "queens", "direction": "TW", "total_row_ft": 41.0, "roadbed_ft": 18.0, "median_ft": 0.0, "left_sw_ft": 15.0, "right_sw_ft": 8.0}, "geometry": {"type": "LineString", "coordinates": [[-73.74933543569468, 40.78079641564777], [-73.74959381160969, 40.78072272412162]]}}, {"type": "Feature", "properties": {"segment_id": 1327218, "physicalid": "90536", "street_name": "MARINETTE ST", "borough": "queens", "direction": "TW", "total_row_ft": 41.2, "roadbed_ft": 18.5, "median_ft": 0.0, "left_sw_ft": 15.0, "right_sw_ft": 7.7}, "geometry": {"type": "LineString", "coordinates": [[-73.74931006657937, 40.780745019613214], [-73.74956789249481, 40.780671484960884]]}}, {"type": "Feature", "properties": {"segment_id": 1327219, "physicalid": "90536", "street_name": "MARINETTE ST", "borough": "queens", "direction": "TW", "total_row_ft": 41.2, "roadbed_ft": 18.4, "median_ft": 0.0, "left_sw_ft": 15.0, "right_sw_ft": 7.7}, "geometry": {"type": "LineString", "coordinates": [[-73.74928469750321, 40.78069362357265], [-73.74954288589635, 40.780619985544824]]}}, {"type": "Feature", "properties": {"segment_id": 1327220, "physicalid": "90536", "street_name": "MARINETTE ST", "borough": "queens", "direction": "TW", "total_row_ft": 41.4, "roadbed_ft": 18.3, "median_ft": 0.0, "left_sw_ft": 15.0, "right_sw_ft": 8.0}, "geometry": {"type": "LineString", "coordinates": [[-73.74925932846622, 40.78064222752613], [-73.74951879293123, 40.78056822555486]]}}, {"type": "Feature", "properties": {"segment_id": 1327221, "physicalid": "90536", "street_name": "MARINETTE ST", "borough": "queens", "direction": "TW", "total_row_ft": 41.9, "roadbed_ft": 18.3, "median_ft": 0.0, "left_sw_ft": 15.0, "right_sw_ft": 8.6}, "geometry": {"type": "LineString", "coordinates": [[-73.7492339594684, 40.78059083147361], [-73.7494956131351, 40.78051620512351]]}}, {"type": "Feature", "properties": {"segment_id": 1327222, "physicalid": "90536", "street_name": "MARINETTE ST", "borough": "queens", "direction": "TW", "total_row_ft": 48.9, "roadbed_ft": 18.9, "median_ft": 0.0, "left_sw_ft": 15.0, "right_sw_ft": 15.0}, "geometry": {"type": "LineString", "coordinates": [[-73.74920859050974, 40.780539435415086], [-73.74961427183042, 40.780423730564884]]}}, {"type": "Feature", "properties": {"segment_id": 1327223, "physicalid": "90536", "street_name": "MARINETTE ST", "borough": "queens", "direction": "TW", "total_row_ft": 49.5, "roadbed_ft": 19.5, "median_ft": 0.0, "left_sw_ft": 15.0, "right_sw_ft": 15.0}, "geometry": {"type": "LineString", "coordinates": [[-73.74918322159024, 40.78048803935059], [-73.74958890264188, 40.78037233458878]]}}, {"type": "Feature", "properties": {"segment_id": 1327224, "physicalid": "90536", "street_name": "MARINETTE ST", "borough": "queens", "direction": "TW", "total_row_ft": 50.0, "roadbed_ft": 20.0, "median_ft": 0.0, "left_sw_ft": 15.0, "right_sw_ft": 15.0}, "geometry": {"type": "LineString", "coordinates": [[-73.74915785270991, 40.7804366432801], [-73.74956353349249, 40.780320938606685]]}}, {"type": "Feature", "properties": {"segment_id": 1327225, "physicalid": "90536", "street_name": "MARINETTE ST", "borough": "queens", "direction": "TW", "total_row_ft": 49.9, "roadbed_ft": 19.9, "median_ft": 0.0, "left_sw_ft": 15.0, "right_sw_ft": 15.0}, "geometry": {"type": "LineString", "coordinates": [[-73.74913248386873, 40.780385247203625], [-73.74953816438227, 40.78026954261862]]}}, {"type": "Feature", "properties": {"segment_id": 1327226, "physicalid": "90536", "street_name": "MARINETTE ST", "borough": "queens", "direction": "TW", "total_row_ft": 49.9, "roadbed_ft": 19.9, "median_ft": 0.0, "left_sw_ft": 15.0, "right_sw_ft": 15.0}, "geometry": {"type": "LineString", "coordinates": [[-73.74910711506674, 40.78033385112117], [-73.74951279531122, 40.780218146624534]]}}, {"type": "Feature", "properties": {"segment_id": 1327227, "physicalid": "90536", "street_name": "MARINETTE ST", "borough": "queens", "direction": "TW", "total_row_ft": 60.7, "roadbed_ft": 30.7, "median_ft": 0.0, "left_sw_ft": 15.0, "right_sw_ft": 15.0}, "geometry": {"type": "LineString", "coordinates": [[-73.74908174630389, 40.78028245503268], [-73.74948742627933, 40.78016675062449]]}}, {"type": "Feature", "properties": {"segment_id": 1327228, "physicalid": "90537", "street_name": "MARINETTE ST", "borough": "queens", "direction": "TW", "total_row_ft": 85.3, "roadbed_ft": 22.4, "median_ft": 0.0, "left_sw_ft": 15.0, "right_sw_ft": 47.9}, "geometry": {"type": "LineString", "coordinates": [[-73.74903919763213, 40.780188462253705], [-73.74945320338648, 40.7800912825611]]}}, {"type": "Feature", "properties": {"segment_id": 1327229, "physicalid": "90537", "street_name": "MARINETTE ST", "borough": "queens", "direction": "TW", "total_row_ft": 44.7, "roadbed_ft": 19.8, "median_ft": 0.0, "left_sw_ft": 15.0, "right_sw_ft": 10.0}, "geometry": {"type": "LineString", "coordinates": [[-73.74901789059982, 40.78013601129676], [-73.74929022583359, 40.78007208617096]]}}, {"type": "Feature", "properties": {"segment_id": 1327230, "physicalid": "90537", "street_name": "MARINETTE ST", "borough": "queens", "direction": "TW", "total_row_ft": 44.4, "roadbed_ft": 19.3, "median_ft": 0.0, "left_sw_ft": 15.0, "right_sw_ft": 10.1}, "geometry": {"type": "LineString", "coordinates": [[-73.74899658360103, 40.78008356033542], [-73.74926826178681, 40.78001978944347]]}}, {"type": "Feature", "properties": {"segment_id": 1360158, "physicalid": "92773", "street_name": "KENMORE RD", "borough": "queens", "direction": "TW", "total_row_ft": 41.2, "roadbed_ft": 18.2, "median_ft": 0.0, "left_sw_ft": 13.1, "right_sw_ft": 10.0}, "geometry": {"type": "LineString", "coordinates": [[-73.74997482131715, 40.78082344722329], [-73.74994317373744, 40.78071282814902]]}}, {"type": "Feature", "properties": {"segment_id": 1360159, "physicalid": "92773", "street_name": "KENMORE RD", "borough": "queens", "direction": "TW", "total_row_ft": 41.9, "roadbed_ft": 18.4, "median_ft": 0.0, "left_sw_ft": 13.2, "right_sw_ft": 10.3}, "geometry": {"type": "LineString", "coordinates": [[-73.74990438802402, 40.780835580564954], [-73.74987224772356, 40.78072323884633]]}}, {"type": "Feature", "properties": {"segment_id": 1360160, "physicalid": "92773", "street_name": "KENMORE RD", "borough": "queens", "direction": "TW", "total_row_ft": 42.3, "roadbed_ft": 18.7, "median_ft": 0.0, "left_sw_ft": 13.3, "right_sw_ft": 10.2}, "geometry": {"type": "LineString", "coordinates": [[-73.74983396907321, 40.780847764084726], [-73.74980154196406, 40.78073441944876]]}}, {"type": "Feature", "properties": {"segment_id": 1360161, "physicalid": "92773", "street_name": "KENMORE RD", "borough": "queens", "direction": "TW", "total_row_ft": 42.4, "roadbed_ft": 18.5, "median_ft": 0.0, "left_sw_ft": 13.5, "right_sw_ft": 10.3}, "geometry": {"type": "LineString", "coordinates": [[-73.74976357606347, 40.78086003832531], [-73.74973105650565, 40.78074637012813]]}}, {"type": "Feature", "properties": {"segment_id": 1360162, "physicalid": "92773", "street_name": "KENMORE RD", "borough": "queens", "direction": "TW", "total_row_ft": 51.2, "roadbed_ft": 18.2, "median_ft": 0.0, "left_sw_ft": 22.7, "right_sw_ft": 10.3}, "geometry": {"type": "LineString", "coordinates": [[-73.74972226471981, 40.78097396411058], [-73.74966067720327, 40.780758691910265]]}}]}