{"type": "FeatureCollection", "features": [{"type": "Feature", "properties": {"segment_id": 290452, "physicalid": "21976", "street_name": "CROSS ISLAND PKWY", "borough": "queens", "direction": "FT", "total_row_ft": 117.1, "roadbed_ft": 75.7, "median_ft": 11.4, "left_sw_ft": 15.0, "right_sw_ft": 15.0}, "geometry": {"type": "LineString", "coordinates": [[-73.76981682011753, 40.78100465907498], [-73.7701559447587, 40.78079964211416]]}}, {"type": "Feature", "properties": {"segment_id": 290453, "physicalid": "21976", "street_name": "CROSS ISLAND PKWY", "borough": "queens", "direction": "FT", "total_row_ft": 117.6, "roadbed_ft": 76.8, "median_ft": 10.9, "left_sw_ft": 15.0, "right_sw_ft": 15.0}, "geometry": {"type": "LineString", "coordinates": [[-73.76977186853999, 40.7809616953643], [-73.77011099310076, 40.78075667853442]]}}, {"type": "Feature", "properties": {"segment_id": 290454, "physicalid": "21976", "street_name": "CROSS ISLAND PKWY", "borough": "queens", "direction": "FT", "total_row_ft": 118.1, "roadbed_ft": 77.2, "median_ft": 10.9, "left_sw_ft": 15.0, "right_sw_ft": 15.0}, "geometry": {"type": "LineString", "coordinates": [[-73.76972691702049, 40.78091873163584], [-73.7700660415008, 40.78071371493682]]}}, {"type": "Feature", "properties": {"segment_id": 290455, "physicalid": "21976", "street_name": "CROSS ISLAND PKWY", "borough": "queens", "direction": "FT", "total_row_ft": 118.1, "roadbed_ft": 76.9, "median_ft": 11.2, "left_sw_ft": 15.0, "right_sw_ft": 15.0}, "geometry": {"type": "LineString", "coordinates": [[-73.76967521081227, 40.78086610351978], [-73.77003131352537, 40.78067845649126]]}}, {"type": "Feature", "properties": {"segment_id": 290456, "physicalid": "21976", "street_name": "CROSS ISLAND PKWY", "borough": "queens", "direction": "FT", "total_row_ft": 117.4, "roadbed_ft": 75.9, "median_ft": 11.6, "left_sw_ft": 15.0, "right_sw_ft": 15.0}, "geometry": {"type": "LineString", "coordinates": [[-73.76963406783696, 40.78082098877545], [-73.76999017042473, 40.780633341872786]]}}, {"type": "Feature", "properties": {"segment_id": 290457, "physicalid": "21976", "street_name": "CROSS ISLAND PKWY", "borough": "queens", "direction": "FT", "total_row_ft": 116.7, "roadbed_ft": 74.9, "median_ft": 11.9, "left_sw_ft": 15.0, "right_sw_ft": 15.0}, "geometry": {"type": "LineString", "coordinates": [[-73.76959292491739, 40.780775874016086], [-73.7699490273799, 40.78058822723932]]}}, {"type": "Feature", "properties": {"segment_id": 290458, "physicalid": "21976", "street_name": "CROSS ISLAND PKWY", "borough": "queens", "direction": "FT", "total_row_ft": 116.0, "roadbed_ft": 74.4, "median_ft": 11.6, "left_sw_ft": 15.0, "right_sw_ft": 15.0}, "geometry": {"type": "LineString", "coordinates": [[-73.7695517820536, 40.78073075924176], [-73.76990788439076, 40.78054311259085]]}}, {"type": "Feature", "properties": {"segment_id": 290459, "physicalid": "21976", "street_name": "CROSS ISLAND PKWY", "borough": "queens", "direction": "FT", "total_row_ft": 115.4, "roadbed_ft": 74.3, "median_ft": 11.0, "left_sw_ft": 15.0, "right_sw_ft": 15.0}, "geometry": {"type": "LineString", "coordinates": [[-73.76951063924558, 40.78068564445246], [-73.76986674145738, 40.78049799792734]]}}, {"type": "Feature", "properties": {"segment_id": 290460, "physicalid": "21976", "street_name": "CROSS ISLAND PKWY", "borough": "queens", "direction": "FT", "total_row_ft": 115.1, "roadbed_ft": 74.0, "median_ft": 11.1, "left_sw_ft": 15.0, "right_sw_ft": 15.0}, "geometry": {"type": "LineString", "coordinates": [[-73.76946949649329, 40.78064052964814], [-73.76982559857976, 40.780452883248856]]}}, {"type": "Feature", "properties": {"segment_id": 290461, "physicalid": "21976", "street_name": "CROSS ISLAND PKWY", "borough": "queens", "direction": "FT", "total_row_ft": 115.1, "roadbed_ft": 73.8, "median_ft": 11.3, "left_sw_ft": 15.0, "right_sw_ft": 15.0}, "geometry": {"type": "LineString", "coordinates": [[-73.76942835379676, 40.78059541482881], [-73.76978445575789, 40.78040776855537]]}}, {"type": "Feature", "properties": {"segment_id": 290462, "physicalid": "21976", "street_name": "CROSS ISLAND PKWY", "borough": "queens", "direction": "FT", "total_row_ft": 115.2, "roadbed_ft": 73.7, "median_ft": 11.4, "left_sw_ft": 15.0, "right_sw_ft": 15.0}, "geometry": {"type": "LineString", "coordinates": [[-73.76938721115597, 40.780550299994495], [-73.76974331299178, 40.780362653846886]]}}, {"type": "Feature", "properties": {"segment_id": 290463, "physicalid": "21976", "street_name": "CROSS ISLAND PKWY", "borough": "queens", "direction": "FT", "total_row_ft": 114.9, "roadbed_ft": 73.7, "median_ft": 11.2, "left_sw_ft": 15.0, "right_sw_ft": 15.0}, "geometry": {"type": "LineString", "coordinates": [[-73.76934606857093, 40.78050518514515], [-73.7697021702814, 40.780317539123416]]}}, {"type": "Feature", "properties": {"segment_id": 290464, "physicalid": "21976", "street_name": "CROSS ISLAND PKWY", "borough": "queens", "direction": "FT", "total_row_ft": 114.5, "roadbed_ft": 73.6, "median_ft": 10.9, "left_sw_ft": 15.0, "right_sw_ft": 15.0}, "geometry": {"type": "LineString", "coordinates": [[-73.76929466727516, 40.78044684159617], [-73.76967220673946, 40.78028521489719]]}}, {"type": "Feature", "properties": {"segment_id": 290465, "physicalid": "21976", "street_name": "CROSS ISLAND PKWY", "borough": "queens", "direction": "FT", "total_row_ft": 114.2, "roadbed_ft": 73.2, "median_ft": 11.0, "left_sw_ft": 15.0, "right_sw_ft": 15.0}, "geometry": {"type": "LineString", "coordinates": [[-73.76925922970474, 40.78039901074107], [-73.76963676898391, 40.78023738415707]]}}, {"type": "Feature", "properties": {"segment_id": 290466, "physicalid": "21976", "street_name": "CROSS ISLAND PKWY", "borough": "queens", "direction": "FT", "total_row_ft": 113.8, "roadbed_ft": 72.9, "median_ft": 11.0, "left_sw_ft": 15.0, "right_sw_ft": 15.0}, "geometry": {"type": "LineString", "coordinates": [[-73.76922379218527, 40.78035117987475], [-73.76960133127925, 40.78018955340568]]}}, {"type": "Feature", "properties": {"segment_id": 290467, "physicalid": "21976", "street_name": "CROSS ISLAND PKWY", "borough": "queens", "direction": "FT", "total_row_ft": 114.0, "roadbed_ft": 73.0, "median_ft": 11.0, "left_sw_ft": 15.0, "right_sw_ft": 15.0}, "geometry": {"type": "LineString", "coordinates": [[-73.76918835471672, 40.78030334899722], [-73.76956589362548, 40.78014172264301]]}}, {"type": "Feature", "properties": {"segment_id": 290468, "physicalid": "21976", "street_name": "CROSS ISLAND PKWY", "borough": "queens", "direction": "FT", "total_row_ft": 113.8, "roadbed_ft": 72.7, "median_ft": 11.1, "left_sw_ft": 15.0, "right_sw_ft": 15.0}, "geometry": {"type": "LineString", "coordinates": [[-73.76915291729904, 40.78025551810838], [-73.76953045602268, 40.78009389186915]]}}, {"type": "Feature", "properties": {"segment_id": 290469, "physicalid": "21976", "street_name": "CROSS ISLAND PKWY", "borough": "queens", "direction": "FT", "total_row_ft": 113.6, "roadbed_ft": 72.4, "median_ft": 11.2, "left_sw_ft": 15.0, "right_sw_ft": 15.0}, "geometry": {"type": "LineString", "coordinates": [[-73.7691174799323, 40.78020768720835], [-73.76949501847076, 40.780046061084015]]}}, {"type": "Feature", "properties": {"segment_id": 290470, "physicalid": "21976", "street_name": "CROSS ISLAND PKWY", "borough": "queens", "direction": "FT", "total_row_ft": 113.5, "roadbed_ft": 72.3, "median_ft": 11.2, "left_sw_ft": 15.0, "right_sw_ft": 15.0}, "geometry": {"type": "LineString", "coordinates": [[-73.76908204261647, 40.78015985629707], [-73.76945958096972, 40.7799982302876]]}}, {"type": "Feature", "properties": {"segment_id": 290471, "physicalid": "21976", "street_name": "CROSS ISLAND PKWY", "borough": "queens", "direction": "FT", "total_row_ft": 114.0, "roadbed_ft": 72.7, "median_ft": 11.3, "left_sw_ft": 15.0, "right_sw_ft": 15.0}, "geometry": {"type": "LineString", "coordinates": [[-73.76904660535155, 40.780112025374486], [-73.76942414351964, 40.779950399480015]]}}, {"type": "Feature", "properties": {"segment_id": 292280, "physicalid": "22038", "street_name": "CROSS ISLAND PKWY", "borough": "queens", "direction": "TF", "total_row_ft": 106.3, "roadbed_ft": 64.6, "median_ft": 11.7, "left_sw_ft": 15.0, "right_sw_ft": 15.0}, "geometry": {"type": "LineString", "coordinates": [[-73.7698156826293, 40.78120738945953], [-73.7701560402056, 40.78100355547105]]}}, {"type": "Feature", "properties": {"segment_id": 292281, "physicalid": "22038", "street_name": "CROSS ISLAND PKWY", "borough": "queens", "direction": "TF", "total_row_ft": 106.4, "roadbed_ft": 64.5, "median_ft": 11.9, "left_sw_ft": 15.0, "right_sw_ft": 15.0}, "geometry": {"type": "LineString", "coordinates": [[-73.76977099029183, 40.781164269681774], [-73.77011134778454, 40.78096043582396]]}}, {"type": "Feature", "properties": {"segment_id": 292282, "physicalid": "22038", "street_name": "CROSS ISLAND PKWY", "borough": "queens", "direction": "TF", "total_row_ft": 106.3, "roadbed_ft": 64.4, "median_ft": 11.9, "left_sw_ft": 15.0, "right_sw_ft": 15.0}, "geometry": {"type": "LineString", "coordinates": [[-73.76972629801223, 40.781121149886395], [-73.77006665542135, 40.780917316159226]]}}, {"type": "Feature", "properties": {"segment_id": 292283, "physicalid": "22038", "street_name": "CROSS ISLAND PKWY", "borough": "queens", "direction": "TF", "total_row_ft": 105.7, "roadbed_ft": 64.4, "median_ft": 11.4, "left_sw_ft": 15.0, "right_sw_ft": 15.0}, "geometry": {"type": "LineString", "coordinates": [[-73.7696816057905, 40.781078030073374], [-73.77002196311605, 40.78087419647691]]}}, {"type": "Feature", "properties": {"segment_id": 292284, "physicalid": "22038", "street_name": "CROSS ISLAND PKWY", "borough": "queens", "direction": "TF", "total_row_ft": 105.2, "roadbed_ft": 64.4, "median_ft": 10.8, "left_sw_ft": 15.0, "right_sw_ft": 15.0}, "geometry": {"type": "LineString", "coordinates": [[-73.76963691362667, 40.78103491024279], [-73.76997727086861, 40.78083107677695]]}}, {"type": "Feature", "properties": {"segment_id": 292285, "physicalid": "22038", "street_name": "CROSS ISLAND PKWY", "borough": "queens", "direction": "TF", "total_row_ft": 105.0, "roadbed_ft": 64.1, "median_ft": 10.9, "left_sw_ft": 15.0, "right_sw_ft": 15.0}, "geometry": {"type": "LineString", "coordinates": [[-73.76958470847335, 40.780982091527], [-73.7699425015761, 40.78079631105824]]}}, {"type": "Feature", "properties": {"segment_id": 292286, "physicalid": "22038", "street_name": "CROSS ISLAND PKWY", "borough": "queens", "direction": "TF", "total_row_ft": 105.7, "roadbed_ft": 64.5, "median_ft": 11.2, "left_sw_ft": 15.0, "right_sw_ft": 15.0}, "geometry": {"type": "LineString", "coordinates": [[-73.76954397208029, 40.78093675763668], [-73.76990177292542, 40.78075098605374]]}}, {"type": "Feature", "properties": {"segment_id": 292287, "physicalid": "22038", "street_name": "CROSS ISLAND PKWY", "borough": "queens", "direction": "TF", "total_row_ft": 105.8, "roadbed_ft": 64.3, "median_ft": 11.5, "left_sw_ft": 15.0, "right_sw_ft": 15.0}, "geometry": {"type": "LineString", "coordinates": [[-73.76950324026889, 40.780891427805614], [-73.76986104098408, 40.78070565634784]]}}, {"type": "Feature", "properties": {"segment_id": 292288, "physicalid": "22038", "street_name": "CROSS ISLAND PKWY", "borough": "queens", "direction": "TF", "total_row_ft": 105.9, "roadbed_ft": 64.1, "median_ft": 11.9, "left_sw_ft": 15.0, "right_sw_ft": 15.0}, "geometry": {"type": "LineString", "coordinates": [[-73.76946250851294, 40.78084609795986], [-73.76982030909821, 40.78066032662724]]}}, {"type": "Feature", "properties": {"segment_id": 292289, "physicalid": "22038", "street_name": "CROSS ISLAND PKWY", "borough": "queens", "direction": "TF", "total_row_ft": 106.0, "roadbed_ft": 64.4, "median_ft": 11.7, "left_sw_ft": 15.0, "right_sw_ft": 15.0}, "geometry": {"type": "LineString", "coordinates": [[-73.76942177681246, 40.780800768099354], [-73.76977957726777, 40.78061499689195]]}}, {"type": "Feature", "properties": {"segment_id": 292290, "physicalid": "22038", "street_name": "CROSS ISLAND PKWY", "borough": "queens", "direction": "TF", "total_row_ft": 106.2, "roadbed_ft": 65.1, "median_ft": 11.1, "left_sw_ft": 15.0, "right_sw_ft": 15.0}, "geometry": {"type": "LineString", "coordinates": [[-73.76938104516742, 40.78075543822415], [-73.76973884549281, 40.780569667141926]]}}, {"type": "Feature", "properties": {"segment_id": 292291, "physicalid": "22038", "street_name": "CROSS ISLAND PKWY", "borough": "queens", "direction": "TF", "total_row_ft": 106.4, "roadbed_ft": 65.3, "median_ft": 11.1, "left_sw_ft": 15.0, "right_sw_ft": 15.0}, "geometry": {"type": "LineString", "coordinates": [[-73.76933896851295, 40.78070756974165], [-73.76970069486578, 40.78052624535803]]}}, {"type": "Feature", "properties": {"segment_id": 292292, "physicalid": "22038", "street_name": "CROSS ISLAND PKWY", "borough": "queens", "direction": "TF", "total_row_ft": 106.5, "roadbed_ft": 65.2, "median_ft": 11.3, "left_sw_ft": 15.0, "right_sw_ft": 15.0}, "geometry": {"type": "LineString", "coordinates": [[-73.76929921192746, 40.78066174243172], [-73.76966093813955, 40.780480418171585]]}}, {"type": "Feature", "properties": {"segment_id": 292293, "physicalid": "22038", "street_name": "CROSS ISLAND PKWY", "borough": "queens", "direction": "TF", "total_row_ft": 106.6, "roadbed_ft": 65.2, "median_ft": 11.4, "left_sw_ft": 15.0, "right_sw_ft": 15.0}, "geometry": {"type": "LineString", "coordinates": [[-73.7692594553321, 40.78061591502981], [-73.76962118153686, 40.7804345910469]]}}, {"type": "Feature", "properties": {"segment_id": 292294, "physicalid": "22038", "street_name": "CROSS ISLAND PKWY", "borough": "queens", "direction": "TF", "total_row_ft": 106.4, "roadbed_ft": 65.2, "median_ft": 11.2, "left_sw_ft": 15.0, "right_sw_ft": 15.0}, "geometry": {"type": "LineString", "coordinates": [[-73.76921969888974, 40.780570087674896], [-73.7695814249538, 40.78038876381553]]}}, {"type": "Feature", "properties": {"segment_id": 292295, "physicalid": "22038", "street_name": "CROSS ISLAND PKWY", "borough": "queens", "direction": "TF", "total_row_ft": 105.9, "roadbed_ft": 64.9, "median_ft": 10.9, "left_sw_ft": 15.0, "right_sw_ft": 15.0}, "geometry": {"type": "LineString", "coordinates": [[-73.76917484162828, 40.78051793823386], [-73.7695469398432, 40.780349177274616]]}}, {"type": "Feature", "properties": {"segment_id": 292296, "physicalid": "22038", "street_name": "CROSS ISLAND PKWY", "borough": "queens", "direction": "TF", "total_row_ft": 106.3, "roadbed_ft": 65.4, "median_ft": 10.9, "left_sw_ft": 15.0, "right_sw_ft": 15.0}, "geometry": {"type": "LineString", "coordinates": [[-73.76913756624637, 40.7804701034921], [-73.76951060765369, 40.780302550364695]]}}, {"type": "Feature", "properties": {"segment_id": 292297, "physicalid": "22038", "street_name": "CROSS ISLAND PKWY", "borough": "queens", "direction": "TF", "total_row_ft": 106.8, "roadbed_ft": 65.8, "median_ft": 10.9, "left_sw_ft": 15.0, "right_sw_ft": 15.0}, "geometry": {"type": "LineString", "coordinates": [[-73.76910082925149, 40.7804228425124], [-73.76947387048648, 40.78025528950274]]}}, {"type": "Feature", "properties": {"segment_id": 292298, "physicalid": "22038", "street_name": "CROSS ISLAND PKWY", "borough": "queens", "direction": "TF", "total_row_ft": 107.0, "roadbed_ft": 66.1, "median_ft": 11.0, "left_sw_ft": 15.0, "right_sw_ft": 15.0}, "geometry": {"type": "LineString", "coordinates": [[-73.76906409230877, 40.78037558152069], [-73.76943713337138, 40.78020802862868]]}}, {"type": "Feature", "properties": {"segment_id": 292299, "physicalid": "22038", "street_name": "CROSS ISLAND PKWY", "borough": "queens", "direction": "TF", "total_row_ft": 107.2, "roadbed_ft": 66.1, "median_ft": 11.1, "left_sw_ft": 15.0, "right_sw_ft": 15.0}, "geometry": {"type": "LineString", "coordinates": [[-73.76902735541816, 40.780328320516865], [-73.76940039630848, 40.78016076774262]]}}, {"type": "Feature", "properties": {"segment_id": 292300, "physicalid": "22038", "street_name": "CROSS ISLAND PKWY", "borough": "queens", "direction": "TF", "total_row_ft": 107.4, "roadbed_ft": 66.3, "median_ft": 11.1, "left_sw_ft": 15.0, "right_sw_ft": 15.0}, "geometry": {"type": "LineString", "coordinates": [[-73.76899061857974, 40.780281059501064], [-73.7693636592977, 40.78011350684447]]}}, {"type": "Feature", "properties": {"segment_id": 292301, "physicalid": "22038", "street_name": "CROSS ISLAND PKWY", "borough": "queens", "direction": "TF", "total_row_ft": 107.6, "roadbed_ft": 66.4, "median_ft": 11.2, "left_sw_ft": 15.0, "right_sw_ft": 15.0}, "geometry": {"type": "LineString", "coordinates": [[-73.76895388179342, 40.780233798473134], [-73.7693269223391, 40.78006624593431]]}}, {"type": "Feature", "properties": {"segment_id": 292302, "physicalid": "22038", "street_name": "CROSS ISLAND PKWY", "borough": "queens", "direction": "TF", "total_row_ft": 107.7, "roadbed_ft": 66.4, "median_ft": 11.3, "left_sw_ft": 15.0, "right_sw_ft": 15.0}, "geometry": {"type": "LineString", "coordinates": [[-73.76891714505929, 40.78018653743318], [-73.76929018543264, 40.78001898501207]]}}, {"type": "Feature", "properties": {"segment_id": 292303, "physicalid": "22038", "street_name": "CROSS ISLAND PKWY", "borough": "queens", "direction": "TF", "total_row_ft": 107.6, "roadbed_ft": 66.3, "median_ft": 11.3, "left_sw_ft": 15.0, "right_sw_ft": 15.0}, "geometry": {"type": "LineString", "coordinates": [[-73.76888040803516, 40.78013927584654], [-73.76925344902932, 40.779971724563524]]}}]}