{"type": "FeatureCollection", "features": [{"type": "Feature", "properties": {"segment_id": 95498, "physicalid": "7736", "street_name": "CRAFT AVE", "borough": "queens", "direction": "TW", "total_row_ft": 135.0, "roadbed_ft": 104.0, "median_ft": 0.0, "left_sw_ft": 15.0, "right_sw_ft": 16.0}, "geometry": {"type": "LineString", "coordinates": [[-73.73706618684356, 40.64974790093872], [-73.73686683599891, 40.64945561152281]]}}, {"type": "Feature", "properties": {"segment_id": 95499, "physicalid": "7736", "street_name": "CRAFT AVE", "borough": "queens", "direction": "TW", "total_row_ft": 66.1, "roadbed_ft": 49.0, "median_ft": 0.0, "left_sw_ft": 8.4, "right_sw_ft": 8.7}, "geometry": {"type": "LineString", "coordinates": [[-73.7369573027705, 40.64970733876437], [-73.73684750425899, 40.64954635129474]]}}, {"type": "Feature", "properties": {"segment_id": 95500, "physicalid": "7736", "street_name": "CRAFT AVE", "borough": "queens", "direction": "TW", "total_row_ft": 66.3, "roadbed_ft": 48.9, "median_ft": 0.0, "left_sw_ft": 8.7, "right_sw_ft": 8.7}, "geometry": {"type": "LineString", "coordinates": [[-73.73689387942979, 40.64973343117215], [-73.73678370019914, 40.64957188526522]]}}, {"type": "Feature", "properties": {"segment_id": 95501, "physicalid": "7736", "street_name": "CRAFT AVE", "borough": "queens", "direction": "TW", "total_row_ft": 66.5, "roadbed_ft": 48.9, "median_ft": 0.0, "left_sw_ft": 9.0, "right_sw_ft": 8.6}, "geometry": {"type": "LineString", "coordinates": [[-73.73683032896494, 40.64975933722718], [-73.73671989609043, 40.64959741920023]]}}, {"type": "Feature", "properties": {"segment_id": 95502, "physicalid": "7736", "street_name": "CRAFT AVE", "borough": "queens", "direction": "TW", "total_row_ft": 66.6, "roadbed_ft": 48.8, "median_ft": 0.0, "left_sw_ft": 9.2, "right_sw_ft": 8.5}, "geometry": {"type": "LineString", "coordinates": [[-73.73676667528872, 40.64978509198985], [-73.7366560919329, 40.64962295309979]]}}, {"type": "Feature", "properties": {"segment_id": 95503, "physicalid": "7736", "street_name": "CRAFT AVE", "borough": "queens", "direction": "TW", "total_row_ft": 66.5, "roadbed_ft": 48.7, "median_ft": 0.0, "left_sw_ft": 9.3, "right_sw_ft": 8.5}, "geometry": {"type": "LineString", "coordinates": [[-73.73670280049578, 40.64981052258518], [-73.73659228772654, 40.64964848696385]]}}, {"type": "Feature", "properties": {"segment_id": 95504, "physicalid": "7736", "street_name": "CRAFT AVE", "borough": "queens", "direction": "TW", "total_row_ft": 66.4, "roadbed_ft": 48.7, "median_ft": 0.0, "left_sw_ft": 9.3, "right_sw_ft": 8.4}, "geometry": {"type": "LineString", "coordinates": [[-73.73663883163127, 40.64983581528728], [-73.73652848347133, 40.64967402079246]]}}, {"type": "Feature", "properties": {"segment_id": 95505, "physicalid": "7736", "street_name": "CRAFT AVE", "borough": "queens", "direction": "TW", "total_row_ft": 66.2, "roadbed_ft": 48.6, "median_ft": 0.0, "left_sw_ft": 9.3, "right_sw_ft": 8.3}, "geometry": {"type": "LineString", "coordinates": [[-73.73657471689776, 40.64986089414936], [-73.7364646791673, 40.649699554585574]]}}, {"type": "Feature", "properties": {"segment_id": 95506, "physicalid": "7736", "street_name": "CRAFT AVE", "borough": "queens", "direction": "TW", "total_row_ft": 65.9, "roadbed_ft": 48.6, "median_ft": 0.0, "left_sw_ft": 9.1, "right_sw_ft": 8.2}, "geometry": {"type": "LineString", "coordinates": [[-73.73651042356384, 40.64988571117908], [-73.73640087481442, 40.64972508834325]]}}, {"type": "Feature", "properties": {"segment_id": 95507, "physicalid": "7736", "street_name": "CRAFT AVE", "borough": "queens", "direction": "TW", "total_row_ft": 65.6, "roadbed_ft": 48.6, "median_ft": 0.0, "left_sw_ft": 8.8, "right_sw_ft": 8.2}, "geometry": {"type": "LineString", "coordinates": [[-73.73644603630332, 40.649910390525775], [-73.73633707041269, 40.64975062206544]]}}, {"type": "Feature", "properties": {"segment_id": 95508, "physicalid": "7736", "street_name": "CRAFT AVE", "borough": "queens", "direction": "TW", "total_row_ft": 65.2, "roadbed_ft": 48.6, "median_ft": 0.0, "left_sw_ft": 8.5, "right_sw_ft": 8.1}, "geometry": {"type": "LineString", "coordinates": [[-73.7363814611688, 40.64993479444116], [-73.73627314586408, 40.64977597966069]]}}, {"type": "Feature", "properties": {"segment_id": 95509, "physicalid": "7736", "street_name": "CRAFT AVE", "borough": "queens", "direction": "TW", "total_row_ft": 64.9, "roadbed_ft": 48.5, "median_ft": 0.0, "left_sw_ft": 8.1, "right_sw_ft": 8.3}, "geometry": {"type": "LineString", "coordinates": [[-73.73631674947654, 40.64995899816507], [-73.73620892798131, 40.64980090719552]]}}, {"type": "Feature", "properties": {"segment_id": 95510, "physicalid": "7736", "street_name": "CRAFT AVE", "borough": "queens", "direction": "TW", "total_row_ft": 64.6, "roadbed_ft": 48.5, "median_ft": 0.0, "left_sw_ft": 7.6, "right_sw_ft": 8.5}, "geometry": {"type": "LineString", "coordinates": [[-73.7362519434303, 40.649983063577075], [-73.73614471005058, 40.6498258346944]]}}, {"type": "Feature", "properties": {"segment_id": 95511, "physicalid": "7736", "street_name": "CRAFT AVE", "borough": "queens", "direction": "TW", "total_row_ft": 65.1, "roadbed_ft": 48.5, "median_ft": 0.0, "left_sw_ft": 7.9, "right_sw_ft": 8.6}, "geometry": {"type": "LineString", "coordinates": [[-73.73618857422214, 40.65000923575451], [-73.73608049207182, 40.64985076215736]]}}, {"type": "Feature", "properties": {"segment_id": 95512, "physicalid": "7736", "street_name": "CRAFT AVE", "borough": "queens", "direction": "TW", "total_row_ft": 65.6, "roadbed_ft": 48.6, "median_ft": 0.0, "left_sw_ft": 8.3, "right_sw_ft": 8.7}, "geometry": {"type": "LineString", "coordinates": [[-73.73612520530983, 40.65003540840373], [-73.73601627404513, 40.64987568958439]]}}, {"type": "Feature", "properties": {"segment_id": 95513, "physicalid": "7736", "street_name": "CRAFT AVE", "borough": "queens", "direction": "TW", "total_row_ft": 66.1, "roadbed_ft": 48.7, "median_ft": 0.0, "left_sw_ft": 8.7, "right_sw_ft": 8.7}, "geometry": {"type": "LineString", "coordinates": [[-73.73606183634784, 40.65006158101794], [-73.7359520559704, 40.64990061697551]]}}, {"type": "Feature", "properties": {"segment_id": 427787, "physicalid": "31312", "street_name": "HUXLEY ST", "borough": "queens", "direction": "TW", "total_row_ft": 54.3, "roadbed_ft": 36.1, "median_ft": 0.0, "left_sw_ft": 9.0, "right_sw_ft": 9.1}, "geometry": {"type": "LineString", "coordinates": [[-73.73714587428321, 40.649996613580186], [-73.73732692421362, 40.64994018551789]]}}, {"type": "Feature", "properties": {"segment_id": 427788, "physicalid": "31312", "street_name": "HUXLEY ST", "borough": "queens", "direction": "TW", "total_row_ft": 54.3, "roadbed_ft": 36.3, "median_ft": 0.0, "left_sw_ft": 8.9, "right_sw_ft": 9.1}, "geometry": {"type": "LineString", "coordinates": [[-73.73711748168371, 40.6499461487353], [-73.73729853857309, 40.6498897185132]]}}, {"type": "Feature", "properties": {"segment_id": 427789, "physicalid": "31312", "street_name": "HUXLEY ST", "borough": "queens", "direction": "TW", "total_row_ft": 54.4, "roadbed_ft": 36.5, "median_ft": 0.0, "left_sw_ft": 8.8, "right_sw_ft": 9.1}, "geometry": {"type": "LineString", "coordinates": [[-73.73708861383844, 40.649895832016355], [-73.73727015297555, 40.64983925150126]]}}, {"type": "Feature", "properties": {"segment_id": 427790, "physicalid": "31312", "street_name": "HUXLEY ST", "borough": "queens", "direction": "TW", "total_row_ft": 54.6, "roadbed_ft": 36.7, "median_ft": 0.0, "left_sw_ft": 8.9, "right_sw_ft": 9.0}, "geometry": {"type": "LineString", "coordinates": [[-73.7370596065253, 40.64984555877141], [-73.73724176742095, 40.649788784482]]}}, {"type": "Feature", "properties": {"segment_id": 427791, "physicalid": "31312", "street_name": "HUXLEY ST", "borough": "queens", "direction": "TW", "total_row_ft": 54.9, "roadbed_ft": 36.9, "median_ft": 0.0, "left_sw_ft": 8.9, "right_sw_ft": 9.0}, "geometry": {"type": "LineString", "coordinates": [[-73.73703059925589, 40.6497952855189], [-73.7372135539357, 40.64973826383961]]}}, {"type": "Feature", "properties": {"segment_id": 427792, "physicalid": "31312", "street_name": "HUXLEY ST", "borough": "queens", "direction": "TW", "total_row_ft": 55.2, "roadbed_ft": 37.1, "median_ft": 0.0, "left_sw_ft": 8.9, "right_sw_ft": 9.2}, "geometry": {"type": "LineString", "coordinates": [[-73.73700159203018, 40.64974501225874], [-73.73718567460662, 40.64968763905616]]}}, {"type": "Feature", "properties": {"segment_id": 427793, "physicalid": "31312", "street_name": "HUXLEY ST", "borough": "queens", "direction": "TW", "total_row_ft": 89.3, "roadbed_ft": 38.0, "median_ft": 0.0, "left_sw_ft": 42.0, "right_sw_ft": 9.3}, "geometry": {"type": "LineString", "coordinates": [[-73.73685987919096, 40.64972986587625], [-73.73715779531986, 40.6496370142657]]}}, {"type": "Feature", "properties": {"segment_id": 427794, "physicalid": "31313", "street_name": "HUXLEY ST", "borough": "queens", "direction": "TW", "total_row_ft": 104.1, "roadbed_ft": 79.3, "median_ft": 0.0, "left_sw_ft": 15.0, "right_sw_ft": 9.7}, "geometry": {"type": "LineString", "coordinates": [[-73.7367942833251, 40.649609025996334], [-73.73708992057509, 40.64951376310297]]}}, {"type": "Feature", "properties": {"segment_id": 427795, "physicalid": "31313", "street_name": "HUXLEY ST", "borough": "queens", "direction": "TW", "total_row_ft": 57.2, "roadbed_ft": 37.7, "median_ft": 0.0, "left_sw_ft": 9.6, "right_sw_ft": 9.9}, "geometry": {"type": "LineString", "coordinates": [[-73.73687210909598, 40.649524342098395], [-73.73706204236575, 40.64946313998089]]}}, {"type": "Feature", "properties": {"segment_id": 427796, "physicalid": "31313", "street_name": "HUXLEY ST", "borough": "queens", "direction": "TW", "total_row_ft": 57.2, "roadbed_ft": 37.3, "median_ft": 0.0, "left_sw_ft": 9.9, "right_sw_ft": 9.9}, "geometry": {"type": "LineString", "coordinates": [[-73.7368436803705, 40.64947389636738], [-73.73703343648032, 40.64941275134506]]}}, {"type": "Feature", "properties": {"segment_id": 427797, "physicalid": "31313", "street_name": "HUXLEY ST", "borough": "queens", "direction": "TW", "total_row_ft": 56.9, "roadbed_ft": 36.9, "median_ft": 0.0, "left_sw_ft": 10.2, "right_sw_ft": 9.9}, "geometry": {"type": "LineString", "coordinates": [[-73.73681574706032, 40.6494232910061], [-73.7370045994898, 40.64936243718479]]}}, {"type": "Feature", "properties": {"segment_id": 427798, "physicalid": "31313", "street_name": "HUXLEY ST", "borough": "queens", "direction": "TW", "total_row_ft": 56.6, "roadbed_ft": 36.5, "median_ft": 0.0, "left_sw_ft": 10.4, "right_sw_ft": 9.8}, "geometry": {"type": "LineString", "coordinates": [[-73.73678781379249, 40.649372685637694], [-73.73697576254278, 40.649312123017076]]}}]}