{"type": "FeatureCollection", "features": [{"type": "Feature", "properties": {"segment_id": 1653108, "physicalid": "165159", "street_name": "HOOK CREEK BRG", "borough": "queens", "direction": "TW", "total_row_ft": 110.3, "roadbed_ft": 85.2, "median_ft": 7.7, "left_sw_ft": 9.9, "right_sw_ft": 7.5}, "geometry": {"type": "LineString", "coordinates": [[-73.73980952622784, 40.635335396155234], [-73.74017149610356, 40.63527897632209]]}}, {"type": "Feature", "properties": {"segment_id": 1653109, "physicalid": "165159", "street_name": "HOOK CREEK BRG", "borough": "queens", "direction": "TW", "total_row_ft": 110.2, "roadbed_ft": 85.2, "median_ft": 7.6, "left_sw_ft": 9.9, "right_sw_ft": 7.5}, "geometry": {"type": "LineString", "coordinates": [[-73.73979017188933, 40.635282379897156], [-73.74015227866808, 40.63522593874308]]}}, {"type": "Feature", "properties": {"segment_id": 1653110, "physicalid": "165159", "street_name": "HOOK CREEK BRG", "borough": "queens", "direction": "TW", "total_row_ft": 108.8, "roadbed_ft": 85.2, "median_ft": 6.2, "left_sw_ft": 9.8, "right_sw_ft": 7.5}, "geometry": {"type": "LineString", "coordinates": [[-73.73977105446582, 40.63522932671292], [-73.7401330612632, 40.635172901160665]]}}]}