{"type": "FeatureCollection", "features": [{"type": "Feature", "properties": {"segment_id": 209533, "physicalid": "16279", "street_name": "READS LN", "borough": "queens", "direction": "TW", "total_row_ft": 135.0, "roadbed_ft": 107.5, "median_ft": 0.0, "left_sw_ft": 15.0, "right_sw_ft": 12.5}, "geometry": {"type": "LineString", "coordinates": [[-73.73991679705404, 40.60067108937908], [-73.7396026384601, 40.60089725164716]]}}, {"type": "Feature", "properties": {"segment_id": 209534, "physicalid": "16279", "street_name": "READS LN", "borough": "queens", "direction": "TW", "total_row_ft": 60.6, "roadbed_ft": 43.3, "median_ft": 0.0, "left_sw_ft": 8.9, "right_sw_ft": 8.4}, "geometry": {"type": "LineString", "coordinates": [[-73.73987640558842, 40.60077567777769], [-73.73971779525571, 40.60088986111579]]}}, {"type": "Feature", "properties": {"segment_id": 209535, "physicalid": "16279", "street_name": "READS LN", "borough": "queens", "direction": "TW", "total_row_ft": 59.8, "roadbed_ft": 39.6, "median_ft": 0.0, "left_sw_ft": 9.9, "right_sw_ft": 10.2}, "geometry": {"type": "LineString", "coordinates": [[-73.73992813498705, 40.600813948284745], [-73.73977169225326, 40.60092657124411]]}}, {"type": "Feature", "properties": {"segment_id": 209536, "physicalid": "16279", "street_name": "READS LN", "borough": "queens", "direction": "TW", "total_row_ft": 59.8, "roadbed_ft": 39.8, "median_ft": 0.0, "left_sw_ft": 10.0, "right_sw_ft": 10.0}, "geometry": {"type": "LineString", "coordinates": [[-73.73997986421357, 40.60085221893504], [-73.7398232933422, 40.60096493420849]]}}, {"type": "Feature", "properties": {"segment_id": 209537, "physicalid": "16279", "street_name": "READS LN", "borough": "queens", "direction": "TW", "total_row_ft": 59.9, "roadbed_ft": 40.0, "median_ft": 0.0, "left_sw_ft": 10.0, "right_sw_ft": 9.9}, "geometry": {"type": "LineString", "coordinates": [[-73.74003159349932, 40.600890489561856], [-73.73987478071116, 40.601003379059115]]}}, {"type": "Feature", "properties": {"segment_id": 209544, "physicalid": "16280", "street_name": "READS LN", "borough": "queens", "direction": "TW", "total_row_ft": 150.0, "roadbed_ft": 120.0, "median_ft": 0.0, "left_sw_ft": 15.0, "right_sw_ft": 15.0}, "geometry": {"type": "LineString", "coordinates": [[-73.73935255083127, 40.60015095111263], [-73.73901851738871, 40.60035991021845]]}}, {"type": "Feature", "properties": {"segment_id": 209545, "physicalid": "16280", "street_name": "READS LN", "borough": "queens", "direction": "TW", "total_row_ft": 59.7, "roadbed_ft": 40.7, "median_ft": 0.0, "left_sw_ft": 9.7, "right_sw_ft": 9.3}, "geometry": {"type": "LineString", "coordinates": [[-73.73931286160543, 40.600246796466436], [-73.7391466287008, 40.60035078573137]]}}, {"type": "Feature", "properties": {"segment_id": 209546, "physicalid": "16280", "street_name": "READS LN", "borough": "queens", "direction": "TW", "total_row_ft": 59.8, "roadbed_ft": 40.7, "median_ft": 0.0, "left_sw_ft": 9.7, "right_sw_ft": 9.4}, "geometry": {"type": "LineString", "coordinates": [[-73.73935848936162, 40.600289270437315], [-73.73919198363613, 40.60039343041254]]}}, {"type": "Feature", "properties": {"segment_id": 209547, "physicalid": "16280", "street_name": "READS LN", "borough": "queens", "direction": "TW", "total_row_ft": 59.6, "roadbed_ft": 40.7, "median_ft": 0.0, "left_sw_ft": 9.7, "right_sw_ft": 9.2}, "geometry": {"type": "LineString", "coordinates": [[-73.73940411717585, 40.60033174438989], [-73.7392383311553, 40.600435454188634]]}}, {"type": "Feature", "properties": {"segment_id": 209548, "physicalid": "16280", "street_name": "READS LN", "borough": "queens", "direction": "TW", "total_row_ft": 58.2, "roadbed_ft": 40.7, "median_ft": 0.0, "left_sw_ft": 8.4, "right_sw_ft": 9.2}, "geometry": {"type": "LineString", "coordinates": [[-73.73944618319295, 40.600376446500086], [-73.73928412254374, 40.60047782587709]]}}, {"type": "Feature", "properties": {"segment_id": 209549, "physicalid": "16280", "street_name": "READS LN", "borough": "queens", "direction": "TW", "total_row_ft": 58.2, "roadbed_ft": 40.7, "median_ft": 0.0, "left_sw_ft": 8.3, "right_sw_ft": 9.3}, "geometry": {"type": "LineString", "coordinates": [[-73.73949161658706, 40.600419042112385], [-73.73932959341951, 40.600520398084335]]}}, {"type": "Feature", "properties": {"segment_id": 209550, "physicalid": "16280", "street_name": "READS LN", "borough": "queens", "direction": "TW", "total_row_ft": 58.2, "roadbed_ft": 40.6, "median_ft": 0.0, "left_sw_ft": 8.2, "right_sw_ft": 9.4}, "geometry": {"type": "LineString", "coordinates": [[-73.7395370500391, 40.6004616377065], [-73.7393750643533, 40.60056297027339]]}}, {"type": "Feature", "properties": {"segment_id": 209551, "physicalid": "16280", "street_name": "READS LN", "borough": "queens", "direction": "TW", "total_row_ft": 58.8, "roadbed_ft": 40.6, "median_ft": 0.0, "left_sw_ft": 8.7, "right_sw_ft": 9.5}, "geometry": {"type": "LineString", "coordinates": [[-73.73958433900056, 40.60050307257354], [-73.73942053534503, 40.60060554244424]]}}, {"type": "Feature", "properties": {"segment_id": 209552, "physicalid": "16280", "street_name": "READS LN", "borough": "queens", "direction": "TW", "total_row_ft": 59.4, "roadbed_ft": 40.5, "median_ft": 0.0, "left_sw_ft": 9.3, "right_sw_ft": 9.7}, "geometry": {"type": "LineString", "coordinates": [[-73.73963148830546, 40.60054459482223], [-73.73946600639478, 40.60064811459698]]}}, {"type": "Feature", "properties": {"segment_id": 209553, "physicalid": "16280", "street_name": "READS LN", "borough": "queens", "direction": "TW", "total_row_ft": 60.1, "roadbed_ft": 40.4, "median_ft": 0.0, "left_sw_ft": 9.8, "right_sw_ft": 9.9}, "geometry": {"type": "LineString", "coordinates": [[-73.73967863766899, 40.60058611705136], [-73.73951147750253, 40.60069068673156]]}}, {"type": "Feature", "properties": {"segment_id": 209554, "physicalid": "16280", "street_name": "READS LN", "borough": "queens", "direction": "TW", "total_row_ft": 64.7, "roadbed_ft": 43.9, "median_ft": 0.0, "left_sw_ft": 9.5, "right_sw_ft": 11.3}, "geometry": {"type": "LineString", "coordinates": [[-73.73972578709122, 40.60062763926104], [-73.73954565208588, 40.6007403255856]]}}, {"type": "Feature", "properties": {"segment_id": 209555, "physicalid": "16280", "street_name": "READS LN", "borough": "queens", "direction": "TW", "total_row_ft": 135.0, "roadbed_ft": 103.5, "median_ft": 0.0, "left_sw_ft": 15.0, "right_sw_ft": 16.5}, "geometry": {"type": "LineString", "coordinates": [[-73.73985515571312, 40.600617727711565], [-73.73952112150839, 40.60082668826876]]}}, {"type": "Feature", "properties": {"segment_id": 209563, "physicalid": "16281", "street_name": "READS LN", "borough": "queens", "direction": "TW", "total_row_ft": 59.9, "roadbed_ft": 45.4, "median_ft": 0.0, "left_sw_ft": 7.0, "right_sw_ft": 7.5}, "geometry": {"type": "LineString", "coordinates": [[-73.7390087944368, 40.59996265134425], [-73.73884130519112, 40.600066237918]]}}, {"type": "Feature", "properties": {"segment_id": 209564, "physicalid": "16281", "street_name": "READS LN", "borough": "queens", "direction": "TW", "total_row_ft": 60.6, "roadbed_ft": 45.5, "median_ft": 0.0, "left_sw_ft": 7.4, "right_sw_ft": 7.7}, "geometry": {"type": "LineString", "coordinates": [[-73.73905568184422, 40.60000434679614], [-73.73888620291811, 40.60010916396696]]}}, {"type": "Feature", "properties": {"segment_id": 209565, "physicalid": "16281", "street_name": "READS LN", "borough": "queens", "direction": "TW", "total_row_ft": 61.3, "roadbed_ft": 45.6, "median_ft": 0.0, "left_sw_ft": 7.9, "right_sw_ft": 7.9}, "geometry": {"type": "LineString", "coordinates": [[-73.73910256931018, 40.6000460422287], [-73.738931059539, 40.60015211545667]]}}, {"type": "Feature", "properties": {"segment_id": 209566, "physicalid": "16281", "street_name": "READS LN", "borough": "queens", "direction": "TW", "total_row_ft": 62.1, "roadbed_ft": 45.7, "median_ft": 0.0, "left_sw_ft": 8.3, "right_sw_ft": 8.1}, "geometry": {"type": "LineString", "coordinates": [[-73.73914945683471, 40.60008773764196], [-73.7389758662121, 40.600195097855355]]}}, {"type": "Feature", "properties": {"segment_id": 209567, "physicalid": "16281", "street_name": "READS LN", "borough": "queens", "direction": "TW", "total_row_ft": 135.0, "roadbed_ft": 87.2, "median_ft": 0.0, "left_sw_ft": 15.0, "right_sw_ft": 32.8}, "geometry": {"type": "LineString", "coordinates": [[-73.73927649202564, 40.60007986409147], [-73.73894093218014, 40.60028739714747]]}}, {"type": "Feature", "properties": {"segment_id": 1166857, "physicalid": "81075", "street_name": "MEEHAN AVE", "borough": "queens", "direction": "TW", "total_row_ft": 150.0, "roadbed_ft": 120.0, "median_ft": 0.0, "left_sw_ft": 15.0, "right_sw_ft": 15.0}, "geometry": {"type": "LineString", "coordinates": [[-73.73905548130121, 40.6000703506514], [-73.73933040070757, 40.60032447195793]]}}, {"type": "Feature", "properties": {"segment_id": 1166858, "physicalid": "81075", "street_name": "MEEHAN AVE", "borough": "queens", "direction": "TW", "total_row_ft": 53.7, "roadbed_ft": 37.8, "median_ft": 0.0, "left_sw_ft": 7.8, "right_sw_ft": 8.1}, "geometry": {"type": "LineString", "coordinates": [[-73.73918066993603, 40.60009978161968], [-73.73930369847277, 40.60021350278737]]}}, {"type": "Feature", "properties": {"segment_id": 1166859, "physicalid": "81075", "street_name": "MEEHAN AVE", "borough": "queens", "direction": "TW", "total_row_ft": 53.7, "roadbed_ft": 37.7, "median_ft": 0.0, "left_sw_ft": 8.0, "right_sw_ft": 8.0}, "geometry": {"type": "LineString", "coordinates": [[-73.73923639656113, 40.600065005273315], [-73.73935947026871, 40.60017876810676]]}}, {"type": "Feature", "properties": {"segment_id": 1166860, "physicalid": "81075", "street_name": "MEEHAN AVE", "borough": "queens", "direction": "TW", "total_row_ft": 53.7, "roadbed_ft": 37.6, "median_ft": 0.0, "left_sw_ft": 8.2, "right_sw_ft": 7.9}, "geometry": {"type": "LineString", "coordinates": [[-73.73929212312814, 40.600030228899826], [-73.73941524200666, 40.60014403339896]]}}, {"type": "Feature", "properties": {"segment_id": 1166861, "physicalid": "81075", "street_name": "MEEHAN AVE", "borough": "queens", "direction": "TW", "total_row_ft": 53.7, "roadbed_ft": 37.7, "median_ft": 0.0, "left_sw_ft": 8.2, "right_sw_ft": 7.8}, "geometry": {"type": "LineString", "coordinates": [[-73.73934784963711, 40.5999954524992], [-73.73947095051817, 40.60010924027465]]}}, {"type": "Feature", "properties": {"segment_id": 1166862, "physicalid": "81075", "street_name": "MEEHAN AVE", "borough": "queens", "direction": "TW", "total_row_ft": 53.7, "roadbed_ft": 37.8, "median_ft": 0.0, "left_sw_ft": 8.2, "right_sw_ft": 7.7}, "geometry": {"type": "LineString", "coordinates": [[-73.73940357608802, 40.599960676071426], [-73.73952655880362, 40.600074354533646]]}}, {"type": "Feature", "properties": {"segment_id": 1166882, "physicalid": "81076", "street_name": "MEEHAN AVE", "borough": "queens", "direction": "TW", "total_row_ft": 75.0, "roadbed_ft": 56.5, "median_ft": 0.0, "left_sw_ft": 10.1, "right_sw_ft": 8.4}, "geometry": {"type": "LineString", "coordinates": [[-73.73846437117966, 40.60049232778625], [-73.73862992453685, 40.60065499123277]]}}, {"type": "Feature", "properties": {"segment_id": 1166883, "physicalid": "81076", "street_name": "MEEHAN AVE", "borough": "queens", "direction": "TW", "total_row_ft": 50.2, "roadbed_ft": 32.5, "median_ft": 0.0, "left_sw_ft": 10.4, "right_sw_ft": 7.3}, "geometry": {"type": "LineString", "coordinates": [[-73.73856293063285, 40.60049960595479], [-73.73867370989619, 40.6006084512974]]}}, {"type": "Feature", "properties": {"segment_id": 1166884, "physicalid": "81076", "street_name": "MEEHAN AVE", "borough": "queens", "direction": "TW", "total_row_ft": 45.8, "roadbed_ft": 29.5, "median_ft": 0.0, "left_sw_ft": 9.0, "right_sw_ft": 7.3}, "geometry": {"type": "LineString", "coordinates": [[-73.73862845723916, 40.60047442782866], [-73.73872960592458, 40.60057381062102]]}}, {"type": "Feature", "properties": {"segment_id": 1166885, "physicalid": "81076", "street_name": "MEEHAN AVE", "borough": "queens", "direction": "TW", "total_row_ft": 45.7, "roadbed_ft": 29.2, "median_ft": 0.0, "left_sw_ft": 9.0, "right_sw_ft": 7.4}, "geometry": {"type": "LineString", "coordinates": [[-73.73868456106389, 40.600439991429795], [-73.73878550189497, 40.60053916991733]]}}, {"type": "Feature", "properties": {"segment_id": 1166886, "physicalid": "81076", "street_name": "MEEHAN AVE", "borough": "queens", "direction": "TW", "total_row_ft": 45.6, "roadbed_ft": 29.1, "median_ft": 0.0, "left_sw_ft": 9.0, "right_sw_ft": 7.5}, "geometry": {"type": "LineString", "coordinates": [[-73.73874066483077, 40.600405555003455], [-73.73884139780736, 40.60050452918636]]}}, {"type": "Feature", "properties": {"segment_id": 1166887, "physicalid": "81076", "street_name": "MEEHAN AVE", "borough": "queens", "direction": "TW", "total_row_ft": 45.5, "roadbed_ft": 29.1, "median_ft": 0.0, "left_sw_ft": 8.8, "right_sw_ft": 7.6}, "geometry": {"type": "LineString", "coordinates": [[-73.73879681470694, 40.600371163910786], [-73.7388973069993, 40.60046990153274]]}}, {"type": "Feature", "properties": {"segment_id": 1166888, "physicalid": "81076", "street_name": "MEEHAN AVE", "borough": "queens", "direction": "TW", "total_row_ft": 45.4, "roadbed_ft": 29.1, "median_ft": 0.0, "left_sw_ft": 8.6, "right_sw_ft": 7.7}, "geometry": {"type": "LineString", "coordinates": [[-73.73885299087388, 40.60033679867908], [-73.73895324070807, 40.60043529799744]]}}, {"type": "Feature", "properties": {"segment_id": 1166889, "physicalid": "81076", "street_name": "MEEHAN AVE", "borough": "queens", "direction": "TW", "total_row_ft": 45.3, "roadbed_ft": 29.1, "median_ft": 0.0, "left_sw_ft": 8.3, "right_sw_ft": 7.9}, "geometry": {"type": "LineString", "coordinates": [[-73.73890916698298, 40.60030243341983], [-73.73900917435886, 40.60040069443482]]}}, {"type": "Feature", "properties": {"segment_id": 1166890, "physicalid": "81076", "street_name": "MEEHAN AVE", "borough": "queens", "direction": "TW", "total_row_ft": 45.2, "roadbed_ft": 28.9, "median_ft": 0.0, "left_sw_ft": 8.1, "right_sw_ft": 8.2}, "geometry": {"type": "LineString", "coordinates": [[-73.7389653029471, 40.60026802874581], [-73.73906510795167, 40.60036609084485]]}}, {"type": "Feature", "properties": {"segment_id": 1166891, "physicalid": "81076", "street_name": "MEEHAN AVE", "borough": "queens", "direction": "TW", "total_row_ft": 85.5, "roadbed_ft": 32.7, "median_ft": 0.0, "left_sw_ft": 44.7, "right_sw_ft": 8.1}, "geometry": {"type": "LineString", "coordinates": [[-73.73893141388426, 40.60014517093976], [-73.73912007805203, 40.60033054062016]]}}, {"type": "Feature", "properties": {"segment_id": 1167299, "physicalid": "81099", "street_name": "HICKSVILLE RD", "borough": "queens", "direction": "TW", "total_row_ft": 150.0, "roadbed_ft": 120.0, "median_ft": 0.0, "left_sw_ft": 15.0, "right_sw_ft": 15.0}, "geometry": {"type": "LineString", "coordinates": [[-73.73962816669462, 40.60060050764519], [-73.7399008903101, 40.60085600118745]]}}, {"type": "Feature", "properties": {"segment_id": 1167300, "physicalid": "81099", "street_name": "HICKSVILLE RD", "borough": "queens", "direction": "TW", "total_row_ft": 52.7, "roadbed_ft": 35.0, "median_ft": 0.0, "left_sw_ft": 10.0, "right_sw_ft": 7.7}, "geometry": {"type": "LineString", "coordinates": [[-73.73975471298313, 40.60063207666679], [-73.73987449661851, 40.600744292574404]]}}, {"type": "Feature", "properties": {"segment_id": 1167301, "physicalid": "81099", "street_name": "HICKSVILLE RD", "borough": "queens", "direction": "TW", "total_row_ft": 49.6, "roadbed_ft": 29.7, "median_ft": 0.0, "left_sw_ft": 11.2, "right_sw_ft": 8.7}, "geometry": {"type": "LineString", "coordinates": [[-73.73981104133067, 40.600597863738145], [-73.73992386406692, 40.600703558453944]]}}, {"type": "Feature", "properties": {"segment_id": 1167302, "physicalid": "81099", "street_name": "HICKSVILLE RD", "borough": "queens", "direction": "TW", "total_row_ft": 50.0, "roadbed_ft": 29.7, "median_ft": 0.0, "left_sw_ft": 10.8, "right_sw_ft": 9.5}, "geometry": {"type": "LineString", "coordinates": [[-73.73986736962048, 40.60056365078176], [-73.73998111621778, 40.60067021090316]]}}, {"type": "Feature", "properties": {"segment_id": 1167303, "physicalid": "81099", "street_name": "HICKSVILLE RD", "borough": "queens", "direction": "TW", "total_row_ft": 50.4, "roadbed_ft": 29.8, "median_ft": 0.0, "left_sw_ft": 10.4, "right_sw_ft": 10.3}, "geometry": {"type": "LineString", "coordinates": [[-73.73992369785259, 40.60052943779765], [-73.7400382137545, 40.60063671853218]]}}, {"type": "Feature", "properties": {"segment_id": 1167311, "physicalid": "81100", "street_name": "HICKSVILLE RD", "borough": "queens", "direction": "TW", "total_row_ft": 74.1, "roadbed_ft": 53.8, "median_ft": 0.0, "left_sw_ft": 9.6, "right_sw_ft": 10.8}, "geometry": {"type": "LineString", "coordinates": [[-73.73840966677162, 40.6014920596766], [-73.73858518082804, 40.60164537510398]]}}, {"type": "Feature", "properties": {"segment_id": 1167312, "physicalid": "81100", "street_name": "HICKSVILLE RD", "borough": "queens", "direction": "TW", "total_row_ft": 48.7, "roadbed_ft": 30.6, "median_ft": 0.0, "left_sw_ft": 7.3, "right_sw_ft": 10.7}, "geometry": {"type": "LineString", "coordinates": [[-73.73849766297828, 40.601485429949], [-73.7386128955675, 40.60158608809144]]}}, {"type": "Feature", "properties": {"segment_id": 1167313, "physicalid": "81100", "street_name": "HICKSVILLE RD", "borough": "queens", "direction": "TW", "total_row_ft": 47.9, "roadbed_ft": 29.9, "median_ft": 0.0, "left_sw_ft": 8.9, "right_sw_ft": 9.1}, "geometry": {"type": "LineString", "coordinates": [[-73.73854942885662, 40.601447152173314], [-73.73866290111516, 40.60154627257122]]}}, {"type": "Feature", "properties": {"segment_id": 1167314, "physicalid": "81100", "street_name": "HICKSVILLE RD", "borough": "queens", "direction": "TW", "total_row_ft": 49.2, "roadbed_ft": 29.9, "median_ft": 0.0, "left_sw_ft": 10.3, "right_sw_ft": 9.0}, "geometry": {"type": "LineString", "coordinates": [[-73.73859820582061, 40.60140626354274], [-73.73871472753255, 40.60150804764485]]}}, {"type": "Feature", "properties": {"segment_id": 1167315, "physicalid": "81100", "street_name": "HICKSVILLE RD", "borough": "queens", "direction": "TW", "total_row_ft": 49.9, "roadbed_ft": 29.8, "median_ft": 0.0, "left_sw_ft": 10.9, "right_sw_ft": 9.2}, "geometry": {"type": "LineString", "coordinates": [[-73.73864880829024, 40.601366969562534], [-73.73876689591795, 40.60147012146209]]}}, {"type": "Feature", "properties": {"segment_id": 1167316, "physicalid": "81100", "street_name": "HICKSVILLE RD", "borough": "queens", "direction": "TW", "total_row_ft": 49.9, "roadbed_ft": 29.7, "median_ft": 0.0, "left_sw_ft": 10.9, "right_sw_ft": 9.3}, "geometry": {"type": "LineString", "coordinates": [[-73.7387008536699, 40.601328936024636], [-73.73881908228734, 40.60143221101657]]}}, {"type": "Feature", "properties": {"segment_id": 1167317, "physicalid": "81100", "street_name": "HICKSVILLE RD", "borough": "queens", "direction": "TW", "total_row_ft": 50.7, "roadbed_ft": 29.7, "median_ft": 0.0, "left_sw_ft": 11.5, "right_sw_ft": 9.5}, "geometry": {"type": "LineString", "coordinates": [[-73.73875151210343, 40.601289690988565], [-73.73887161382109, 40.60139460210593]]}}, {"type": "Feature", "properties": {"segment_id": 1167318, "physicalid": "81100", "street_name": "HICKSVILLE RD", "borough": "queens", "direction": "TW", "total_row_ft": 51.0, "roadbed_ft": 29.8, "median_ft": 0.0, "left_sw_ft": 11.6, "right_sw_ft": 9.6}, "geometry": {"type": "LineString", "coordinates": [[-73.73880332221134, 40.6012514519929], [-73.73892416051858, 40.601357006468604]]}}, {"type": "Feature", "properties": {"segment_id": 1167319, "physicalid": "81100", "street_name": "HICKSVILLE RD", "borough": "queens", "direction": "TW", "total_row_ft": 50.6, "roadbed_ft": 29.2, "median_ft": 0.0, "left_sw_ft": 12.1, "right_sw_ft": 9.2}, "geometry": {"type": "LineString", "coordinates": [[-73.73885628239977, 40.60121421764358], [-73.73897609227456, 40.601318873697636]]}}, {"type": "Feature", "properties": {"segment_id": 1167320, "physicalid": "81100", "street_name": "HICKSVILLE RD", "borough": "queens", "direction": "TW", "total_row_ft": 50.2, "roadbed_ft": 28.7, "median_ft": 0.0, "left_sw_ft": 12.5, "right_sw_ft": 9.1}, "geometry": {"type": "LineString", "coordinates": [[-73.73891044694452, 40.60117803534945], [-73.73902937894218, 40.60128192449095]]}}, {"type": "Feature", "properties": {"segment_id": 1167321, "physicalid": "81100", "street_name": "HICKSVILLE RD", "borough": "queens", "direction": "TW", "total_row_ft": 50.0, "roadbed_ft": 28.3, "median_ft": 0.0, "left_sw_ft": 12.4, "right_sw_ft": 9.3}, "geometry": {"type": "LineString", "coordinates": [[-73.73896570069816, 40.601142804525075], [-73.73908408095507, 40.60124621163577]]}}, {"type": "Feature", "properties": {"segment_id": 1167322, "physicalid": "81100", "street_name": "HICKSVILLE RD", "borough": "queens", "direction": "TW", "total_row_ft": 49.9, "roadbed_ft": 28.3, "median_ft": 0.0, "left_sw_ft": 11.8, "right_sw_ft": 9.8}, "geometry": {"type": "LineString", "coordinates": [[-73.73902221769018, 40.601108677186], [-73.73914032724424, 40.60121184775253]]}}, {"type": "Feature", "properties": {"segment_id": 1167323, "physicalid": "81100", "street_name": "HICKSVILLE RD", "borough": "queens", "direction": "TW", "total_row_ft": 49.9, "roadbed_ft": 28.5, "median_ft": 0.0, "left_sw_ft": 11.3, "right_sw_ft": 10.1}, "geometry": {"type": "LineString", "coordinates": [[-73.73907831521143, 40.60107418345465], [-73.73919653371694, 40.60117744911197]]}}, {"type": "Feature", "properties": {"segment_id": 1167324, "physicalid": "81100", "street_name": "HICKSVILLE RD", "borough": "queens", "direction": "TW", "total_row_ft": 49.9, "roadbed_ft": 29.1, "median_ft": 0.0, "left_sw_ft": 11.0, "right_sw_ft": 9.8}, "geometry": {"type": "LineString", "coordinates": [[-73.73913399649061, 40.60103932615216], [-73.73925216653682, 40.60114254940146]]}}, {"type": "Feature", "properties": {"segment_id": 1167325, "physicalid": "81100", "street_name": "HICKSVILLE RD", "borough": "queens", "direction": "TW", "total_row_ft": 49.9, "roadbed_ft": 29.6, "median_ft": 0.0, "left_sw_ft": 10.8, "right_sw_ft": 9.4}, "geometry": {"type": "LineString", "coordinates": [[-73.73918967784304, 40.60100446893735], [-73.73930779929854, 40.60110764966387]]}}, {"type": "Feature", "properties": {"segment_id": 1167326, "physicalid": "81100", "street_name": "HICKSVILLE RD", "borough": "queens", "direction": "TW", "total_row_ft": 49.9, "roadbed_ft": 29.8, "median_ft": 0.0, "left_sw_ft": 10.8, "right_sw_ft": 9.4}, "geometry": {"type": "LineString", "coordinates": [[-73.7392453306913, 40.6009695868474], [-73.73936356172014, 40.6010728632094]]}}, {"type": "Feature", "properties": {"segment_id": 1167327, "physicalid": "81100", "street_name": "HICKSVILLE RD", "borough": "queens", "direction": "TW", "total_row_ft": 50.0, "roadbed_ft": 29.9, "median_ft": 0.0, "left_sw_ft": 10.7, "right_sw_ft": 9.3}, "geometry": {"type": "LineString", "coordinates": [[-73.73930097837827, 40.60093470027271], [-73.73941933584855, 40.60103808700456]]}}, {"type": "Feature", "properties": {"segment_id": 1167328, "physicalid": "81100", "street_name": "HICKSVILLE RD", "borough": "queens", "direction": "TW", "total_row_ft": 50.1, "roadbed_ft": 30.1, "median_ft": 0.0, "left_sw_ft": 10.7, "right_sw_ft": 9.3}, "geometry": {"type": "LineString", "coordinates": [[-73.73935662557518, 40.600899813293694], [-73.73947522114696, 40.601003407931366]]}}, {"type": "Feature", "properties": {"segment_id": 1167329, "physicalid": "81100", "street_name": "HICKSVILLE RD", "borough": "queens", "direction": "TW", "total_row_ft": 50.2, "roadbed_ft": 30.2, "median_ft": 0.0, "left_sw_ft": 10.7, "right_sw_ft": 9.3}, "geometry": {"type": "LineString", "coordinates": [[-73.73941223977556, 40.60086489751551], [-73.7395311371208, 40.60096875567687]]}}, {"type": "Feature", "properties": {"segment_id": 1167330, "physicalid": "81100", "street_name": "HICKSVILLE RD", "borough": "queens", "direction": "TW", "total_row_ft": 50.2, "roadbed_ft": 30.3, "median_ft": 0.0, "left_sw_ft": 10.7, "right_sw_ft": 9.2}, "geometry": {"type": "LineString", "coordinates": [[-73.73946785391776, 40.60082998171027], [-73.7395866602422, 40.60093376028574]]}}, {"type": "Feature", "properties": {"segment_id": 1167331, "physicalid": "81100", "street_name": "HICKSVILLE RD", "borough": "queens", "direction": "TW", "total_row_ft": 51.5, "roadbed_ft": 30.4, "median_ft": 0.0, "left_sw_ft": 11.0, "right_sw_ft": 10.1}, "geometry": {"type": "LineString", "coordinates": [[-73.73952270713728, 40.6007944012539], [-73.73964459895349, 40.600900874955485]]}}, {"type": "Feature", "properties": {"segment_id": 1167332, "physicalid": "81100", "street_name": "HICKSVILLE RD", "borough": "queens", "direction": "TW", "total_row_ft": 90.8, "roadbed_ft": 50.3, "median_ft": 0.0, "left_sw_ft": 16.5, "right_sw_ft": 24.0}, "geometry": {"type": "LineString", "coordinates": [[-73.73954264850364, 40.600728324910435], [-73.73975765664379, 40.600916136421915]]}}, {"type": "Feature", "properties": {"segment_id": 1167461, "physicalid": "81112", "street_name": "VIRGINIA ST", "borough": "queens", "direction": "TW", "total_row_ft": 87.1, "roadbed_ft": 44.2, "median_ft": 0.0, "left_sw_ft": 35.0, "right_sw_ft": 8.0}, "geometry": {"type": "LineString", "coordinates": [[-73.73980431617595, 40.6036750392743], [-73.73964526020426, 40.60388122026321]]}}, {"type": "Feature", "properties": {"segment_id": 1167462, "physicalid": "81112", "street_name": "VIRGINIA ST", "borough": "queens", "direction": "TW", "total_row_ft": 46.5, "roadbed_ft": 32.0, "median_ft": 0.0, "left_sw_ft": 6.7, "right_sw_ft": 7.8}, "geometry": {"type": "LineString", "coordinates": [[-73.73978700428528, 40.60380578804627], [-73.73970218869206, 40.603915732677486]]}}, {"type": "Feature", "properties": {"segment_id": 1167463, "physicalid": "81112", "street_name": "VIRGINIA ST", "borough": "queens", "direction": "TW", "total_row_ft": 45.3, "roadbed_ft": 30.5, "median_ft": 0.0, "left_sw_ft": 6.8, "right_sw_ft": 8.0}, "geometry": {"type": "LineString", "coordinates": [[-73.73984585868334, 40.603837803878754], [-73.73976310794131, 40.60394507200601]]}}, {"type": "Feature", "properties": {"segment_id": 1167464, "physicalid": "81112", "street_name": "VIRGINIA ST", "borough": "queens", "direction": "TW", "total_row_ft": 44.9, "roadbed_ft": 30.3, "median_ft": 0.0, "left_sw_ft": 6.6, "right_sw_ft": 8.1}, "geometry": {"type": "LineString", "coordinates": [[-73.73990918855905, 40.60386401826457], [-73.73982723434743, 40.60397025400117]]}}, {"type": "Feature", "properties": {"segment_id": 1167465, "physicalid": "81112", "street_name": "VIRGINIA ST", "borough": "queens", "direction": "TW", "total_row_ft": 44.7, "roadbed_ft": 30.6, "median_ft": 0.0, "left_sw_ft": 6.3, "right_sw_ft": 7.8}, "geometry": {"type": "LineString", "coordinates": [[-73.7399725185972, 40.60389023246935], [-73.73989087853334, 40.603996061115964]]}}, {"type": "Feature", "properties": {"segment_id": 1167466, "physicalid": "81112", "street_name": "VIRGINIA ST", "borough": "queens", "direction": "TW", "total_row_ft": 44.5, "roadbed_ft": 31.0, "median_ft": 0.0, "left_sw_ft": 5.9, "right_sw_ft": 7.6}, "geometry": {"type": "LineString", "coordinates": [[-73.74003794206935, 40.60391779598176], [-73.73995068578411, 40.604020312339536]]}}, {"type": "Feature", "properties": {"segment_id": 1432952, "physicalid": "97200", "street_name": "ELVIRA AVE", "borough": "queens", "direction": "TW", "total_row_ft": 70.3, "roadbed_ft": 47.7, "median_ft": 0.0, "left_sw_ft": 7.1, "right_sw_ft": 15.5}, "geometry": {"type": "LineString", "coordinates": [[-73.73958248871449, 40.60371884575877], [-73.73980072240632, 40.60381680423512]]}}, {"type": "Feature", "properties": {"segment_id": 1432953, "physicalid": "97200", "street_name": "ELVIRA AVE", "borough": "queens", "direction": "TW", "total_row_ft": 46.6, "roadbed_ft": 33.2, "median_ft": 0.0, "left_sw_ft": 7.3, "right_sw_ft": 6.1}, "geometry": {"type": "LineString", "coordinates": [[-73.73962061282607, 40.603672249953874], [-73.73976516817638, 40.60373713651996]]}}, {"type": "Feature", "properties": {"segment_id": 1432954, "physicalid": "97200", "street_name": "ELVIRA AVE", "borough": "queens", "direction": "TW", "total_row_ft": 44.2, "roadbed_ft": 30.8, "median_ft": 0.0, "left_sw_ft": 7.2, "right_sw_ft": 6.2}, "geometry": {"type": "LineString", "coordinates": [[-73.73967411213559, 40.603623246533736], [-73.73980154535782, 40.603696031907496]]}}, {"type": "Feature", "properties": {"segment_id": 1432955, "physicalid": "97200", "street_name": "ELVIRA AVE", "borough": "queens", "direction": "TW", "total_row_ft": 45.0, "roadbed_ft": 31.3, "median_ft": 0.0, "left_sw_ft": 7.2, "right_sw_ft": 6.5}, "geometry": {"type": "LineString", "coordinates": [[-73.73972204659003, 40.6035820254124], [-73.73985167573242, 40.603656064977486]]}}, {"type": "Feature", "properties": {"segment_id": 1432956, "physicalid": "97200", "street_name": "ELVIRA AVE", "borough": "queens", "direction": "TW", "total_row_ft": 45.1, "roadbed_ft": 30.8, "median_ft": 0.0, "left_sw_ft": 7.2, "right_sw_ft": 7.1}, "geometry": {"type": "LineString", "coordinates": [[-73.73977822943257, 40.603536742754045], [-73.73989659555286, 40.603621643723535]]}}, {"type": "Feature", "properties": {"segment_id": 1432957, "physicalid": "97200", "street_name": "ELVIRA AVE", "borough": "queens", "direction": "TW", "total_row_ft": 44.9, "roadbed_ft": 30.6, "median_ft": 0.0, "left_sw_ft": 6.8, "right_sw_ft": 7.5}, "geometry": {"type": "LineString", "coordinates": [[-73.7398305534978, 40.603498891252585], [-73.73994842806323, 40.6035834395902]]}}, {"type": "Feature", "properties": {"segment_id": 1432958, "physicalid": "97200", "street_name": "ELVIRA AVE", "borough": "queens", "direction": "TW", "total_row_ft": 44.6, "roadbed_ft": 30.5, "median_ft": 0.0, "left_sw_ft": 6.5, "right_sw_ft": 7.5}, "geometry": {"type": "LineString", "coordinates": [[-73.73988433209153, 40.60346208306633], [-73.74000123979867, 40.60354593784652]]}}, {"type": "Feature", "properties": {"segment_id": 1432959, "physicalid": "97200", "street_name": "ELVIRA AVE", "borough": "queens", "direction": "TW", "total_row_ft": 44.1, "roadbed_ft": 30.2, "median_ft": 0.0, "left_sw_ft": 6.7, "right_sw_ft": 7.2}, "geometry": {"type": "LineString", "coordinates": [[-73.73994457591932, 40.60342190850187], [-73.7400471942306, 40.60351411425046]]}}, {"type": "Feature", "properties": {"segment_id": 1629912, "physicalid": "153583", "street_name": "CEDAR HILL RD", "borough": "queens", "direction": "TW", "total_row_ft": 103.8, "roadbed_ft": 93.0, "median_ft": 0.0, "left_sw_ft": 8.5, "right_sw_ft": 2.3}, "geometry": {"type": "LineString", "coordinates": [[-73.73895097172857, 40.60315976001158], [-73.7393030131919, 40.603063788711275]]}}, {"type": "Feature", "properties": {"segment_id": 1629913, "physicalid": "153583", "street_name": "CEDAR HILL RD", "borough": "queens", "direction": "TW", "total_row_ft": 105.6, "roadbed_ft": 81.9, "median_ft": 0.0, "left_sw_ft": 8.7, "right_sw_ft": 15.0}, "geometry": {"type": "LineString", "coordinates": [[-73.73897150728946, 40.60309586010099], [-73.7392787567575, 40.603012099641624]]}}, {"type": "Feature", "properties": {"segment_id": 1629914, "physicalid": "153583", "street_name": "CEDAR HILL RD", "borough": "queens", "direction": "TW", "total_row_ft": 84.6, "roadbed_ft": 50.8, "median_ft": 0.0, "left_sw_ft": 8.1, "right_sw_ft": 25.8}, "geometry": {"type": "LineString", "coordinates": [[-73.73896748269216, 40.60303865558166], [-73.73925450036062, 40.60296041056652]]}}, {"type": "Feature", "properties": {"segment_id": 1629915, "physicalid": "153583", "street_name": "CEDAR HILL RD", "borough": "queens", "direction": "TW", "total_row_ft": 48.8, "roadbed_ft": 33.6, "median_ft": 0.0, "left_sw_ft": 7.0, "right_sw_ft": 8.2}, "geometry": {"type": "LineString", "coordinates": [[-73.7389465261945, 40.60298606691081], [-73.73911196901979, 40.602940964999966]]}}, {"type": "Feature", "properties": {"segment_id": 1629916, "physicalid": "153583", "street_name": "CEDAR HILL RD", "borough": "queens", "direction": "TW", "total_row_ft": 44.2, "roadbed_ft": 31.1, "median_ft": 0.0, "left_sw_ft": 7.3, "right_sw_ft": 5.8}, "geometry": {"type": "LineString", "coordinates": [[-73.7389210637136, 40.602934706631665], [-73.73907109108063, 40.60289380719783]]}}, {"type": "Feature", "properties": {"segment_id": 1629917, "physicalid": "153583", "street_name": "CEDAR HILL RD", "borough": "queens", "direction": "TW", "total_row_ft": 44.6, "roadbed_ft": 31.0, "median_ft": 0.0, "left_sw_ft": 7.3, "right_sw_ft": 6.3}, "geometry": {"type": "LineString", "coordinates": [[-73.73889668477601, 40.602883050969965], [-73.7390478627474, 40.60284183786945]]}}, {"type": "Feature", "properties": {"segment_id": 1629918, "physicalid": "153583", "street_name": "CEDAR HILL RD", "borough": "queens", "direction": "TW", "total_row_ft": 44.7, "roadbed_ft": 31.1, "median_ft": 0.0, "left_sw_ft": 7.3, "right_sw_ft": 6.3}, "geometry": {"type": "LineString", "coordinates": [[-73.73887224402762, 40.602831412163546], [-73.73902366279427, 40.602790133423056]]}}, {"type": "Feature", "properties": {"segment_id": 1629919, "physicalid": "153583", "street_name": "CEDAR HILL RD", "borough": "queens", "direction": "TW", "total_row_ft": 44.5, "roadbed_ft": 31.1, "median_ft": 0.0, "left_sw_ft": 7.3, "right_sw_ft": 6.1}, "geometry": {"type": "LineString", "coordinates": [[-73.73884759278215, 40.60277983074605], [-73.73899849189766, 40.602738693674176]]}}, {"type": "Feature", "properties": {"segment_id": 1629920, "physicalid": "153583", "street_name": "CEDAR HILL RD", "borough": "queens", "direction": "TW", "total_row_ft": 44.5, "roadbed_ft": 31.1, "median_ft": 0.0, "left_sw_ft": 7.4, "right_sw_ft": 6.1}, "geometry": {"type": "LineString", "coordinates": [[-73.73882287369139, 40.60272826782882], [-73.73897380369307, 40.60268712234164]]}}, {"type": "Feature", "properties": {"segment_id": 1629921, "physicalid": "153583", "street_name": "CEDAR HILL RD", "borough": "queens", "direction": "TW", "total_row_ft": 44.9, "roadbed_ft": 31.1, "median_ft": 0.0, "left_sw_ft": 7.5, "right_sw_ft": 6.3}, "geometry": {"type": "LineString", "coordinates": [[-73.73879795056473, 40.602676760539154], [-73.7389500376093, 40.60263529963096]]}}, {"type": "Feature", "properties": {"segment_id": 1629922, "physicalid": "153583", "street_name": "CEDAR HILL RD", "borough": "queens", "direction": "TW", "total_row_ft": 45.4, "roadbed_ft": 31.6, "median_ft": 0.0, "left_sw_ft": 6.7, "right_sw_ft": 7.1}, "geometry": {"type": "LineString", "coordinates": [[-73.73877453243938, 40.60262484297257], [-73.7389283771972, 40.60258290288997]]}}, {"type": "Feature", "properties": {"segment_id": 1629923, "physicalid": "153583", "street_name": "CEDAR HILL RD", "borough": "queens", "direction": "TW", "total_row_ft": 45.6, "roadbed_ft": 31.8, "median_ft": 0.0, "left_sw_ft": 6.3, "right_sw_ft": 7.5}, "geometry": {"type": "LineString", "coordinates": [[-73.73875901922773, 40.60257077043504], [-73.73891380749052, 40.602528573129064]]}}, {"type": "Feature", "properties": {"segment_id": 1629924, "physicalid": "153583", "street_name": "CEDAR HILL RD", "borough": "queens", "direction": "TW", "total_row_ft": 47.9, "roadbed_ft": 33.0, "median_ft": 0.0, "left_sw_ft": 6.9, "right_sw_ft": 8.0}, "geometry": {"type": "LineString", "coordinates": [[-73.73875011238755, 40.60251489692352], [-73.73891262499019, 40.602470593831455]]}}, {"type": "Feature", "properties": {"segment_id": 1629925, "physicalid": "153583", "street_name": "CEDAR HILL RD", "borough": "queens", "direction": "TW", "total_row_ft": 52.8, "roadbed_ft": 35.4, "median_ft": 0.0, "left_sw_ft": 8.0, "right_sw_ft": 9.4}, "geometry": {"type": "LineString", "coordinates": [[-73.73875047055358, 40.6024564976579], [-73.7389296358612, 40.602407654757535]]}}, {"type": "Feature", "properties": {"segment_id": 1629926, "physicalid": "153583", "street_name": "CEDAR HILL RD", "borough": "queens", "direction": "TW", "total_row_ft": 56.2, "roadbed_ft": 37.7, "median_ft": 0.0, "left_sw_ft": 5.3, "right_sw_ft": 13.2}, "geometry": {"type": "LineString", "coordinates": [[-73.73876729071773, 40.60238891272154], [-73.7389117993324, 40.60249690978626]]}}, {"type": "Feature", "properties": {"segment_id": 1629927, "physicalid": "153583", "street_name": "CEDAR HILL RD", "borough": "queens", "direction": "TW", "total_row_ft": 50.1, "roadbed_ft": 33.4, "median_ft": 0.0, "left_sw_ft": 8.3, "right_sw_ft": 8.5}, "geometry": {"type": "LineString", "coordinates": [[-73.7387923518834, 40.602330760084804], [-73.73892128882947, 40.60242711987401]]}}, {"type": "Feature", "properties": {"segment_id": 1629928, "physicalid": "153583", "street_name": "CEDAR HILL RD", "borough": "queens", "direction": "TW", "total_row_ft": 47.9, "roadbed_ft": 31.0, "median_ft": 0.0, "left_sw_ft": 8.4, "right_sw_ft": 8.5}, "geometry": {"type": "LineString", "coordinates": [[-73.7388263353129, 40.60227927545878], [-73.73894952501247, 40.60237134010755]]}}, {"type": "Feature", "properties": {"segment_id": 1629929, "physicalid": "153583", "street_name": "CEDAR HILL RD", "borough": "queens", "direction": "TW", "total_row_ft": 46.5, "roadbed_ft": 29.7, "median_ft": 0.0, "left_sw_ft": 8.8, "right_sw_ft": 8.0}, "geometry": {"type": "LineString", "coordinates": [[-73.73886737310337, 40.60223306288159], [-73.73898694040733, 40.602322420351534]]}}, {"type": "Feature", "properties": {"segment_id": 1629930, "physicalid": "153583", "street_name": "CEDAR HILL RD", "borough": "queens", "direction": "TW", "total_row_ft": 47.1, "roadbed_ft": 29.5, "median_ft": 0.0, "left_sw_ft": 10.1, "right_sw_ft": 7.5}, "geometry": {"type": "LineString", "coordinates": [[-73.73891296239076, 40.602190251855085], [-73.73903407139254, 40.602280761459824]]}}, {"type": "Feature", "properties": {"segment_id": 1629931, "physicalid": "153583", "street_name": "CEDAR HILL RD", "borough": "queens", "direction": "TW", "total_row_ft": 47.3, "roadbed_ft": 29.5, "median_ft": 0.0, "left_sw_ft": 10.4, "right_sw_ft": 7.3}, "geometry": {"type": "LineString", "coordinates": [[-73.73896246751536, 40.602150367320604], [-73.73908399476315, 40.60224118944859]]}}, {"type": "Feature", "properties": {"segment_id": 1629932, "physicalid": "153583", "street_name": "CEDAR HILL RD", "borough": "queens", "direction": "TW", "total_row_ft": 47.5, "roadbed_ft": 29.6, "median_ft": 0.0, "left_sw_ft": 10.5, "right_sw_ft": 7.4}, "geometry": {"type": "LineString", "coordinates": [[-73.7390125881009, 40.602110942767936], [-73.73913464655115, 40.602202161833496]]}}, {"type": "Feature", "properties": {"segment_id": 1629933, "physicalid": "153583", "street_name": "CEDAR HILL RD", "borough": "queens", "direction": "TW", "total_row_ft": 47.7, "roadbed_ft": 29.6, "median_ft": 0.0, "left_sw_ft": 10.6, "right_sw_ft": 7.5}, "geometry": {"type": "LineString", "coordinates": [[-73.73906270862727, 40.602071518193235], [-73.7391852982799, 40.60216313419594]]}}, {"type": "Feature", "properties": {"segment_id": 1629934, "physicalid": "153583", "street_name": "CEDAR HILL RD", "borough": "queens", "direction": "TW", "total_row_ft": 48.2, "roadbed_ft": 29.6, "median_ft": 0.0, "left_sw_ft": 10.6, "right_sw_ft": 7.9}, "geometry": {"type": "LineString", "coordinates": [[-73.73911282909448, 40.602032093596506], [-73.73923668484265, 40.602124655748646]]}}, {"type": "Feature", "properties": {"segment_id": 1629935, "physicalid": "153583", "street_name": "CEDAR HILL RD", "borough": "queens", "direction": "TW", "total_row_ft": 49.0, "roadbed_ft": 29.7, "median_ft": 0.0, "left_sw_ft": 10.7, "right_sw_ft": 8.6}, "geometry": {"type": "LineString", "coordinates": [[-73.73916294950247, 40.60199266897778], [-73.73928893833641, 40.60208682521153]]}}, {"type": "Feature", "properties": {"segment_id": 1629936, "physicalid": "153583", "street_name": "CEDAR HILL RD", "borough": "queens", "direction": "TW", "total_row_ft": 49.8, "roadbed_ft": 29.7, "median_ft": 0.0, "left_sw_ft": 10.8, "right_sw_ft": 9.3}, "geometry": {"type": "LineString", "coordinates": [[-73.73921306985127, 40.60195324433704], [-73.73934119177096, 40.602048994650524]]}}, {"type": "Feature", "properties": {"segment_id": 1629937, "physicalid": "153583", "street_name": "CEDAR HILL RD", "borough": "queens", "direction": "TW", "total_row_ft": 49.9, "roadbed_ft": 29.8, "median_ft": 0.0, "left_sw_ft": 10.8, "right_sw_ft": 9.3}, "geometry": {"type": "LineString", "coordinates": [[-73.73926347707287, 40.60191403410964], [-73.73939166542084, 40.602009834013714]]}}, {"type": "Feature", "properties": {"segment_id": 1629938, "physicalid": "153583", "street_name": "CEDAR HILL RD", "borough": "queens", "direction": "TW", "total_row_ft": 49.6, "roadbed_ft": 29.8, "median_ft": 0.0, "left_sw_ft": 10.7, "right_sw_ft": 9.0}, "geometry": {"type": "LineString", "coordinates": [[-73.73931408818133, 40.60187497627677], [-73.73944164513338, 40.60197030426216]]}}, {"type": "Feature", "properties": {"segment_id": 1629939, "physicalid": "153583", "street_name": "CEDAR HILL RD", "borough": "queens", "direction": "TW", "total_row_ft": 49.4, "roadbed_ft": 29.9, "median_ft": 0.0, "left_sw_ft": 10.7, "right_sw_ft": 8.8}, "geometry": {"type": "LineString", "coordinates": [[-73.73936469923062, 40.601835918421436], [-73.73949162478671, 40.60193077448875]]}}, {"type": "Feature", "properties": {"segment_id": 1629940, "physicalid": "153583", "street_name": "CEDAR HILL RD", "borough": "queens", "direction": "TW", "total_row_ft": 49.1, "roadbed_ft": 30.0, "median_ft": 0.0, "left_sw_ft": 10.6, "right_sw_ft": 8.6}, "geometry": {"type": "LineString", "coordinates": [[-73.73941531022072, 40.601796860543644], [-73.73954160438083, 40.601891244693434]]}}, {"type": "Feature", "properties": {"segment_id": 1629941, "physicalid": "153583", "street_name": "CEDAR HILL RD", "borough": "queens", "direction": "TW", "total_row_ft": 49.1, "roadbed_ft": 30.0, "median_ft": 0.0, "left_sw_ft": 10.5, "right_sw_ft": 8.6}, "geometry": {"type": "LineString", "coordinates": [[-73.73946592115158, 40.60175780264345], [-73.73959216343194, 40.60185214796823]]}}, {"type": "Feature", "properties": {"segment_id": 1629942, "physicalid": "153583", "street_name": "CEDAR HILL RD", "borough": "queens", "direction": "TW", "total_row_ft": 49.3, "roadbed_ft": 30.1, "median_ft": 0.0, "left_sw_ft": 10.4, "right_sw_ft": 8.8}, "geometry": {"type": "LineString", "coordinates": [[-73.7395165319687, 40.601718744680056], [-73.73964338339954, 40.60181354518982]]}}, {"type": "Feature", "properties": {"segment_id": 1629943, "physicalid": "153583", "street_name": "CEDAR HILL RD", "borough": "queens", "direction": "TW", "total_row_ft": 49.5, "roadbed_ft": 30.1, "median_ft": 0.0, "left_sw_ft": 10.3, "right_sw_ft": 9.1}, "geometry": {"type": "LineString", "coordinates": [[-73.73956722887148, 40.60167975107343], [-73.7396946033683, 40.601774942433536]]}}, {"type": "Feature", "properties": {"segment_id": 1629944, "physicalid": "153583", "street_name": "CEDAR HILL RD", "borough": "queens", "direction": "TW", "total_row_ft": 49.7, "roadbed_ft": 30.2, "median_ft": 0.0, "left_sw_ft": 10.2, "right_sw_ft": 9.4}, "geometry": {"type": "LineString", "coordinates": [[-73.73961797898889, 40.6016407972577], [-73.7397458232778, 40.60173633965429]]}}, {"type": "Feature", "properties": {"segment_id": 1629945, "physicalid": "153583", "street_name": "CEDAR HILL RD", "borough": "queens", "direction": "TW", "total_row_ft": 49.8, "roadbed_ft": 30.1, "median_ft": 0.0, "left_sw_ft": 10.1, "right_sw_ft": 9.6}, "geometry": {"type": "LineString", "coordinates": [[-73.73966872904707, 40.60160184341943], [-73.73979685940141, 40.60169759954724]]}}, {"type": "Feature", "properties": {"segment_id": 1629946, "physicalid": "153583", "street_name": "CEDAR HILL RD", "borough": "queens", "direction": "TW", "total_row_ft": 49.7, "roadbed_ft": 30.1, "median_ft": 0.0, "left_sw_ft": 10.0, "right_sw_ft": 9.6}, "geometry": {"type": "LineString", "coordinates": [[-73.73971947904604, 40.60156288955855], [-73.73984721383441, 40.60165835001272]]}}, {"type": "Feature", "properties": {"segment_id": 1629947, "physicalid": "153583", "street_name": "CEDAR HILL RD", "borough": "queens", "direction": "TW", "total_row_ft": 49.5, "roadbed_ft": 30.0, "median_ft": 0.0, "left_sw_ft": 9.9, "right_sw_ft": 9.6}, "geometry": {"type": "LineString", "coordinates": [[-73.73977022898579, 40.60152393567513], [-73.73989756820822, 40.601619100456]]}}, {"type": "Feature", "properties": {"segment_id": 1629948, "physicalid": "153583", "street_name": "CEDAR HILL RD", "borough": "queens", "direction": "TW", "total_row_ft": 49.4, "roadbed_ft": 29.9, "median_ft": 0.0, "left_sw_ft": 9.9, "right_sw_ft": 9.6}, "geometry": {"type": "LineString", "coordinates": [[-73.73982097886632, 40.60148498176919], [-73.73994792252284, 40.60157985087705]]}}, {"type": "Feature", "properties": {"segment_id": 1629949, "physicalid": "153583", "street_name": "CEDAR HILL RD", "borough": "queens", "direction": "TW", "total_row_ft": 49.2, "roadbed_ft": 29.8, "median_ft": 0.0, "left_sw_ft": 9.8, "right_sw_ft": 9.6}, "geometry": {"type": "LineString", "coordinates": [[-73.73987165802137, 40.60144597502942], [-73.73999827710767, 40.60154060152204]]}}, {"type": "Feature", "properties": {"segment_id": 1629950, "physicalid": "153583", "street_name": "CEDAR HILL RD", "borough": "queens", "direction": "TW", "total_row_ft": 49.2, "roadbed_ft": 29.8, "median_ft": 0.0, "left_sw_ft": 9.9, "right_sw_ft": 9.6}, "geometry": {"type": "LineString", "coordinates": [[-73.7399220086712, 40.60140672280854], [-73.74004863121995, 40.60150135183593]]}}, {"type": "Feature", "properties": {"segment_id": 1719879, "physicalid": "182589", "street_name": "OAK DR", "borough": "queens", "direction": "TW", "total_row_ft": 45.8, "roadbed_ft": 30.9, "median_ft": 0.0, "left_sw_ft": 7.8, "right_sw_ft": 7.1}, "geometry": {"type": "LineString", "coordinates": [[-73.73956713991352, 40.6027058528082], [-73.73968243574322, 40.60279581792028]]}}, {"type": "Feature", "properties": {"segment_id": 1719880, "physicalid": "182589", "street_name": "OAK DR", "borough": "queens", "direction": "TW", "total_row_ft": 45.7, "roadbed_ft": 30.9, "median_ft": 0.0, "left_sw_ft": 7.8, "right_sw_ft": 7.0}, "geometry": {"type": "LineString", "coordinates": [[-73.73961771379574, 40.60266675332648], [-73.7397328256964, 40.602756574868636]]}}, {"type": "Feature", "properties": {"segment_id": 1719881, "physicalid": "182589", "street_name": "OAK DR", "borough": "queens", "direction": "TW", "total_row_ft": 45.7, "roadbed_ft": 30.8, "median_ft": 0.0, "left_sw_ft": 7.7, "right_sw_ft": 7.1}, "geometry": {"type": "LineString", "coordinates": [[-73.73966836962376, 40.602627717810854], [-73.73978332291209, 40.60271741553738]]}}, {"type": "Feature", "properties": {"segment_id": 1719882, "physicalid": "182589", "street_name": "OAK DR", "borough": "queens", "direction": "TW", "total_row_ft": 45.6, "roadbed_ft": 30.7, "median_ft": 0.0, "left_sw_ft": 7.7, "right_sw_ft": 7.2}, "geometry": {"type": "LineString", "coordinates": [[-73.73971907278808, 40.602588719255344], [-73.73983382006851, 40.60267825618383]]}}, {"type": "Feature", "properties": {"segment_id": 1719883, "physicalid": "182589", "street_name": "OAK DR", "borough": "queens", "direction": "TW", "total_row_ft": 45.5, "roadbed_ft": 30.7, "median_ft": 0.0, "left_sw_ft": 7.6, "right_sw_ft": 7.3}, "geometry": {"type": "LineString", "coordinates": [[-73.73976979862208, 40.602549738412684], [-73.73988431716575, 40.60263909680792]]}}, {"type": "Feature", "properties": {"segment_id": 1719884, "physicalid": "182589", "street_name": "OAK DR", "borough": "queens", "direction": "TW", "total_row_ft": 45.4, "roadbed_ft": 30.6, "median_ft": 0.0, "left_sw_ft": 7.5, "right_sw_ft": 7.4}, "geometry": {"type": "LineString", "coordinates": [[-73.73982049178305, 40.602510732098956], [-73.73993484591576, 40.60259996215443]]}}, {"type": "Feature", "properties": {"segment_id": 1719885, "physicalid": "182589", "street_name": "OAK DR", "borough": "queens", "direction": "TW", "total_row_ft": 45.5, "roadbed_ft": 30.5, "median_ft": 0.0, "left_sw_ft": 7.4, "right_sw_ft": 7.6}, "geometry": {"type": "LineString", "coordinates": [[-73.73987109298466, 40.60247165405342], [-73.73998554150884, 40.60256095771134]]}}, {"type": "Feature", "properties": {"segment_id": 1719886, "physicalid": "182589", "street_name": "OAK DR", "borough": "queens", "direction": "TW", "total_row_ft": 45.6, "roadbed_ft": 30.4, "median_ft": 0.0, "left_sw_ft": 7.4, "right_sw_ft": 7.7}, "geometry": {"type": "LineString", "coordinates": [[-73.73991876969559, 40.60243473221502], [-73.74003850962056, 40.60252020475316]]}}, {"type": "Feature", "properties": {"segment_id": 1719907, "physicalid": "182591", "street_name": "OAK DR", "borough": "queens", "direction": "TW", "total_row_ft": 111.2, "roadbed_ft": 87.8, "median_ft": 0.0, "left_sw_ft": 15.0, "right_sw_ft": 8.4}, "geometry": {"type": "LineString", "coordinates": [[-73.73899775096874, 40.6030150110158], [-73.73924975209692, 40.60319640011268]]}}, {"type": "Feature", "properties": {"segment_id": 1719908, "physicalid": "182591", "street_name": "OAK DR", "borough": "queens", "direction": "TW", "total_row_ft": 98.9, "roadbed_ft": 76.2, "median_ft": 0.0, "left_sw_ft": 15.0, "right_sw_ft": 7.7}, "geometry": {"type": "LineString", "coordinates": [[-73.73904720285582, 40.60297509976233], [-73.73926697842516, 40.60313329307239]]}}, {"type": "Feature", "properties": {"segment_id": 1719909, "physicalid": "182591", "street_name": "OAK DR", "borough": "queens", "direction": "TW", "total_row_ft": 80.0, "roadbed_ft": 46.9, "median_ft": 0.0, "left_sw_ft": 25.8, "right_sw_ft": 7.3}, "geometry": {"type": "LineString", "coordinates": [[-73.73909665468376, 40.60293518848739], [-73.7393061845467, 40.603086006937595]]}}, {"type": "Feature", "properties": {"segment_id": 1719910, "physicalid": "182591", "street_name": "OAK DR", "borough": "queens", "direction": "TW", "total_row_ft": 47.9, "roadbed_ft": 31.9, "median_ft": 0.0, "left_sw_ft": 8.8, "right_sw_ft": 7.2}, "geometry": {"type": "LineString", "coordinates": [[-73.73923121534831, 40.60295653820511], [-73.73935668965204, 40.603046853744175]]}}, {"type": "Feature", "properties": {"segment_id": 1719911, "physicalid": "182591", "street_name": "OAK DR", "borough": "queens", "direction": "TW", "total_row_ft": 45.4, "roadbed_ft": 30.2, "median_ft": 0.0, "left_sw_ft": 7.6, "right_sw_ft": 7.7}, "geometry": {"type": "LineString", "coordinates": [[-73.7392897000023, 40.602923128715275], [-73.73940865046214, 40.603008748374485]]}}, {"type": "Feature", "properties": {"segment_id": 1719912, "physicalid": "182591", "street_name": "OAK DR", "borough": "queens", "direction": "TW", "total_row_ft": 45.4, "roadbed_ft": 30.3, "median_ft": 0.0, "left_sw_ft": 7.6, "right_sw_ft": 7.6}, "geometry": {"type": "LineString", "coordinates": [[-73.73934018662655, 40.60288396230763], [-73.73945915420158, 40.6029695942379]]}}, {"type": "Feature", "properties": {"segment_id": 1719913, "physicalid": "182591", "street_name": "OAK DR", "borough": "queens", "direction": "TW", "total_row_ft": 45.8, "roadbed_ft": 30.4, "median_ft": 0.0, "left_sw_ft": 7.9, "right_sw_ft": 7.5}, "geometry": {"type": "LineString", "coordinates": [[-73.73938962768948, 40.602844043332354], [-73.73950965788178, 40.602930440079014]]}}, {"type": "Feature", "properties": {"segment_id": 1719914, "physicalid": "182591", "street_name": "OAK DR", "borough": "queens", "direction": "TW", "total_row_ft": 45.9, "roadbed_ft": 30.5, "median_ft": 0.0, "left_sw_ft": 7.9, "right_sw_ft": 7.4}, "geometry": {"type": "LineString", "coordinates": [[-73.73943993548677, 40.602804748247394], [-73.73956003249121, 40.60289119303653]]}}]}