{"type": "FeatureCollection", "features": [{"type": "Feature", "properties": {"segment_id": 274768, "physicalid": "20989", "street_name": "JFK ACCESS RD", "borough": "queens", "direction": "TW", "total_row_ft": 150.0, "roadbed_ft": 120.0, "median_ft": 0.0, "left_sw_ft": 15.0, "right_sw_ft": 15.0}, "geometry": {"type": "LineString", "coordinates": [[-73.77999445079062, 40.63509546314628], [-73.78013353888946, 40.635407328702904]]}}, {"type": "Feature", "properties": {"segment_id": 274769, "physicalid": "20989", "street_name": "JFK ACCESS RD", "borough": "queens", "direction": "TW", "total_row_ft": 150.0, "roadbed_ft": 120.0, "median_ft": 0.0, "left_sw_ft": 15.0, "right_sw_ft": 15.0}, "geometry": {"type": "LineString", "coordinates": [[-73.78006267916331, 40.635077803241884], [-73.78020176754416, 40.63538966871658]]}}, {"type": "Feature", "properties": {"segment_id": 274770, "physicalid": "20989", "street_name": "JFK ACCESS RD", "borough": "queens", "direction": "TW", "total_row_ft": 150.0, "roadbed_ft": 120.0, "median_ft": 0.0, "left_sw_ft": 15.0, "right_sw_ft": 15.0}, "geometry": {"type": "LineString", "coordinates": [[-73.78013090749987, 40.63506014329699], [-73.78026999616276, 40.63537200868975]]}}, {"type": "Feature", "properties": {"segment_id": 274771, "physicalid": "20989", "street_name": "JFK ACCESS RD", "borough": "queens", "direction": "TW", "total_row_ft": 150.0, "roadbed_ft": 120.0, "median_ft": 0.0, "left_sw_ft": 15.0, "right_sw_ft": 15.0}, "geometry": {"type": "LineString", "coordinates": [[-73.78019913580032, 40.63504248331155], [-73.78033822474525, 40.6353543486224]]}}, {"type": "Feature", "properties": {"segment_id": 274772, "physicalid": "20989", "street_name": "JFK ACCESS RD", "borough": "queens", "direction": "TW", "total_row_ft": 150.0, "roadbed_ft": 120.0, "median_ft": 0.0, "left_sw_ft": 15.0, "right_sw_ft": 15.0}, "geometry": {"type": "LineString", "coordinates": [[-73.78026736406466, 40.63502482328563], [-73.78040645329165, 40.63533668851452]]}}, {"type": "Feature", "properties": {"segment_id": 274773, "physicalid": "20989", "street_name": "JFK ACCESS RD", "borough": "queens", "direction": "TW", "total_row_ft": 150.0, "roadbed_ft": 120.0, "median_ft": 0.0, "left_sw_ft": 15.0, "right_sw_ft": 15.0}, "geometry": {"type": "LineString", "coordinates": [[-73.78033559229289, 40.63500716321916], [-73.7804746818019, 40.635319028366126]]}}, {"type": "Feature", "properties": {"segment_id": 274774, "physicalid": "20989", "street_name": "JFK ACCESS RD", "borough": "queens", "direction": "TW", "total_row_ft": 150.0, "roadbed_ft": 120.0, "median_ft": 0.0, "left_sw_ft": 15.0, "right_sw_ft": 15.0}, "geometry": {"type": "LineString", "coordinates": [[-73.78040382048499, 40.63498950311217], [-73.78054291027607, 40.63530136817721]]}}, {"type": "Feature", "properties": {"segment_id": 274775, "physicalid": "20989", "street_name": "JFK ACCESS RD", "borough": "queens", "direction": "TW", "total_row_ft": 103.9, "roadbed_ft": 73.9, "median_ft": 0.0, "left_sw_ft": 15.0, "right_sw_ft": 15.0}, "geometry": {"type": "LineString", "coordinates": [[-73.780471663848, 40.63497185749796], [-73.78061145510688, 40.63528354047551]]}}, {"type": "Feature", "properties": {"segment_id": 274776, "physicalid": "20989", "street_name": "JFK ACCESS RD", "borough": "queens", "direction": "TW", "total_row_ft": 108.0, "roadbed_ft": 78.0, "median_ft": 0.0, "left_sw_ft": 15.0, "right_sw_ft": 15.0}, "geometry": {"type": "LineString", "coordinates": [[-73.78053985214983, 40.63495410828088], [-73.78067964369001, 40.63526579117611]]}}, {"type": "Feature", "properties": {"segment_id": 274777, "physicalid": "20989", "street_name": "JFK ACCESS RD", "borough": "queens", "direction": "TW", "total_row_ft": 150.0, "roadbed_ft": 120.0, "median_ft": 0.0, "left_sw_ft": 15.0, "right_sw_ft": 15.0}, "geometry": {"type": "LineString", "coordinates": [[-73.78060804041539, 40.63493635902332], [-73.78074783223687, 40.63524804183624]]}}, {"type": "Feature", "properties": {"segment_id": 274778, "physicalid": "20989", "street_name": "JFK ACCESS RD", "borough": "queens", "direction": "TW", "total_row_ft": 150.0, "roadbed_ft": 120.0, "median_ft": 0.0, "left_sw_ft": 15.0, "right_sw_ft": 15.0}, "geometry": {"type": "LineString", "coordinates": [[-73.78067622864467, 40.63491860972525], [-73.78081602074744, 40.635230292455915]]}}, {"type": "Feature", "properties": {"segment_id": 274779, "physicalid": "20989", "street_name": "JFK ACCESS RD", "borough": "queens", "direction": "TW", "total_row_ft": 150.0, "roadbed_ft": 120.0, "median_ft": 0.0, "left_sw_ft": 15.0, "right_sw_ft": 15.0}, "geometry": {"type": "LineString", "coordinates": [[-73.78074503889455, 40.63490085343706], [-73.7808837106216, 40.63521282648765]]}}, {"type": "Feature", "properties": {"segment_id": 274780, "physicalid": "20989", "street_name": "JFK ACCESS RD", "borough": "queens", "direction": "TW", "total_row_ft": 150.0, "roadbed_ft": 120.0, "median_ft": 0.0, "left_sw_ft": 15.0, "right_sw_ft": 15.0}, "geometry": {"type": "LineString", "coordinates": [[-73.78081329058365, 40.6348832463473], [-73.7809519625932, 40.635195219316174]]}}, {"type": "Feature", "properties": {"segment_id": 274781, "physicalid": "20989", "street_name": "JFK ACCESS RD", "borough": "queens", "direction": "TW", "total_row_ft": 150.0, "roadbed_ft": 120.0, "median_ft": 0.0, "left_sw_ft": 15.0, "right_sw_ft": 15.0}, "geometry": {"type": "LineString", "coordinates": [[-73.78088154223677, 40.63486563921699], [-73.78102021452877, 40.63517761210415]]}}, {"type": "Feature", "properties": {"segment_id": 274782, "physicalid": "20989", "street_name": "JFK ACCESS RD", "borough": "queens", "direction": "TW", "total_row_ft": 150.0, "roadbed_ft": 120.0, "median_ft": 0.0, "left_sw_ft": 15.0, "right_sw_ft": 15.0}, "geometry": {"type": "LineString", "coordinates": [[-73.78094979385385, 40.63484803204612], [-73.78108846642834, 40.63516000485158]]}}, {"type": "Feature", "properties": {"segment_id": 274783, "physicalid": "20989", "street_name": "JFK ACCESS RD", "borough": "queens", "direction": "TW", "total_row_ft": 150.0, "roadbed_ft": 120.0, "median_ft": 0.0, "left_sw_ft": 15.0, "right_sw_ft": 15.0}, "geometry": {"type": "LineString", "coordinates": [[-73.78109464142481, 40.63482886562379], [-73.78108292597828, 40.63515811917551]]}}, {"type": "Feature", "properties": {"segment_id": 274784, "physicalid": "20989", "street_name": "JFK ACCESS RD", "borough": "queens", "direction": "TW", "total_row_ft": 150.0, "roadbed_ft": 120.0, "median_ft": 0.0, "left_sw_ft": 15.0, "right_sw_ft": 15.0}, "geometry": {"type": "LineString", "coordinates": [[-73.78116667356687, 40.63483035310595], [-73.78115495847551, 40.63515960666495]]}}, {"type": "Feature", "properties": {"segment_id": 274785, "physicalid": "20989", "street_name": "JFK ACCESS RD", "borough": "queens", "direction": "TW", "total_row_ft": 150.0, "roadbed_ft": 120.0, "median_ft": 0.0, "left_sw_ft": 15.0, "right_sw_ft": 15.0}, "geometry": {"type": "LineString", "coordinates": [[-73.78123870571217, 40.63483184054302], [-73.78122699097592, 40.6351610941093]]}}, {"type": "Feature", "properties": {"segment_id": 274786, "physicalid": "20989", "street_name": "JFK ACCESS RD", "borough": "queens", "direction": "TW", "total_row_ft": 150.0, "roadbed_ft": 120.0, "median_ft": 0.0, "left_sw_ft": 15.0, "right_sw_ft": 15.0}, "geometry": {"type": "LineString", "coordinates": [[-73.78136629223268, 40.63485003125068], [-73.78123937593652, 40.63516489493032]]}}, {"type": "Feature", "properties": {"segment_id": 274787, "physicalid": "20989", "street_name": "JFK ACCESS RD", "borough": "queens", "direction": "TW", "total_row_ft": 150.0, "roadbed_ft": 120.0, "median_ft": 0.0, "left_sw_ft": 15.0, "right_sw_ft": 15.0}, "geometry": {"type": "LineString", "coordinates": [[-73.78143517629603, 40.63486614573086], [-73.78130826029421, 40.635181009486026]]}}, {"type": "Feature", "properties": {"segment_id": 274788, "physicalid": "20989", "street_name": "JFK ACCESS RD", "borough": "queens", "direction": "TW", "total_row_ft": 150.0, "roadbed_ft": 120.0, "median_ft": 0.0, "left_sw_ft": 15.0, "right_sw_ft": 15.0}, "geometry": {"type": "LineString", "coordinates": [[-73.78151482193758, 40.6348850152477], [-73.7813663830956, 40.63519436890968]]}}, {"type": "Feature", "properties": {"segment_id": 274789, "physicalid": "20989", "street_name": "JFK ACCESS RD", "borough": "queens", "direction": "TW", "total_row_ft": 150.0, "roadbed_ft": 120.0, "median_ft": 0.0, "left_sw_ft": 15.0, "right_sw_ft": 15.0}, "geometry": {"type": "LineString", "coordinates": [[-73.7816163156344, 40.63492876365595], [-73.78138747263193, 40.63520821714019]]}}, {"type": "Feature", "properties": {"segment_id": 274790, "physicalid": "20989", "street_name": "JFK ACCESS RD", "borough": "queens", "direction": "TW", "total_row_ft": 150.0, "roadbed_ft": 120.0, "median_ft": 0.0, "left_sw_ft": 15.0, "right_sw_ft": 15.0}, "geometry": {"type": "LineString", "coordinates": [[-73.78167745297966, 40.634957819706116], [-73.78144861013351, 40.635237273311105]]}}, {"type": "Feature", "properties": {"segment_id": 274791, "physicalid": "20989", "street_name": "JFK ACCESS RD", "borough": "queens", "direction": "TW", "total_row_ft": 150.0, "roadbed_ft": 120.0, "median_ft": 0.0, "left_sw_ft": 15.0, "right_sw_ft": 15.0}, "geometry": {"type": "LineString", "coordinates": [[-73.78173859037813, 40.634986875723634], [-73.78150974768836, 40.635266329449436]]}}, {"type": "Feature", "properties": {"segment_id": 274792, "physicalid": "20989", "street_name": "JFK ACCESS RD", "borough": "queens", "direction": "TW", "total_row_ft": 150.0, "roadbed_ft": 120.0, "median_ft": 0.0, "left_sw_ft": 15.0, "right_sw_ft": 15.0}, "geometry": {"type": "LineString", "coordinates": [[-73.78179939221296, 40.635015679600315], [-73.7815713304212, 40.635295503621315]]}}, {"type": "Feature", "properties": {"segment_id": 274793, "physicalid": "20989", "street_name": "JFK ACCESS RD", "borough": "queens", "direction": "TW", "total_row_ft": 150.0, "roadbed_ft": 120.0, "median_ft": 0.0, "left_sw_ft": 15.0, "right_sw_ft": 15.0}, "geometry": {"type": "LineString", "coordinates": [[-73.78186061070207, 40.63504463642238], [-73.78163254906805, 40.63532446056391]]}}, {"type": "Feature", "properties": {"segment_id": 274794, "physicalid": "20989", "street_name": "JFK ACCESS RD", "borough": "queens", "direction": "TW", "total_row_ft": 150.0, "roadbed_ft": 120.0, "median_ft": 0.0, "left_sw_ft": 15.0, "right_sw_ft": 15.0}, "geometry": {"type": "LineString", "coordinates": [[-73.7819218292443, 40.63507359321173], [-73.78169376776802, 40.63535341747382]]}}, {"type": "Feature", "properties": {"segment_id": 274795, "physicalid": "20989", "street_name": "JFK ACCESS RD", "borough": "queens", "direction": "TW", "total_row_ft": 150.0, "roadbed_ft": 120.0, "median_ft": 0.0, "left_sw_ft": 15.0, "right_sw_ft": 15.0}, "geometry": {"type": "LineString", "coordinates": [[-73.78198304783966, 40.63510254996844], [-73.78175498652112, 40.635382374351046]]}}, {"type": "Feature", "properties": {"segment_id": 274796, "physicalid": "20989", "street_name": "JFK ACCESS RD", "borough": "queens", "direction": "TW", "total_row_ft": 150.0, "roadbed_ft": 120.0, "median_ft": 0.0, "left_sw_ft": 15.0, "right_sw_ft": 15.0}, "geometry": {"type": "LineString", "coordinates": [[-73.78204426648814, 40.63513150669242], [-73.78181620532736, 40.635411331195584]]}}, {"type": "Feature", "properties": {"segment_id": 274797, "physicalid": "20989", "street_name": "JFK ACCESS RD", "borough": "queens", "direction": "TW", "total_row_ft": 150.0, "roadbed_ft": 120.0, "median_ft": 0.0, "left_sw_ft": 15.0, "right_sw_ft": 15.0}, "geometry": {"type": "LineString", "coordinates": [[-73.78210548518976, 40.63516046338374], [-73.78187742418672, 40.63544028800744]]}}, {"type": "Feature", "properties": {"segment_id": 274798, "physicalid": "20989", "street_name": "JFK ACCESS RD", "borough": "queens", "direction": "TW", "total_row_ft": 150.0, "roadbed_ft": 120.0, "median_ft": 0.0, "left_sw_ft": 15.0, "right_sw_ft": 15.0}, "geometry": {"type": "LineString", "coordinates": [[-73.7821667039445, 40.63518942004237], [-73.78193864309921, 40.63546924478662]]}}, {"type": "Feature", "properties": {"segment_id": 274799, "physicalid": "20989", "street_name": "JFK ACCESS RD", "borough": "queens", "direction": "TW", "total_row_ft": 150.0, "roadbed_ft": 120.0, "median_ft": 0.0, "left_sw_ft": 15.0, "right_sw_ft": 15.0}, "geometry": {"type": "LineString", "coordinates": [[-73.78222792275237, 40.63521837666831], [-73.78199986206482, 40.6354982015331]]}}, {"type": "Feature", "properties": {"segment_id": 274800, "physicalid": "20989", "street_name": "JFK ACCESS RD", "borough": "queens", "direction": "TW", "total_row_ft": 150.0, "roadbed_ft": 120.0, "median_ft": 0.0, "left_sw_ft": 15.0, "right_sw_ft": 15.0}, "geometry": {"type": "LineString", "coordinates": [[-73.78228914161338, 40.63524733326159], [-73.78206108108357, 40.635527158246894]]}}, {"type": "Feature", "properties": {"segment_id": 274801, "physicalid": "20989", "street_name": "JFK ACCESS RD", "borough": "queens", "direction": "TW", "total_row_ft": 150.0, "roadbed_ft": 120.0, "median_ft": 0.0, "left_sw_ft": 15.0, "right_sw_ft": 15.0}, "geometry": {"type": "LineString", "coordinates": [[-73.78234790133135, 40.63527460433456], [-73.78212539186977, 40.63555701115867]]}}, {"type": "Feature", "properties": {"segment_id": 274802, "physicalid": "20989", "street_name": "JFK ACCESS RD", "borough": "queens", "direction": "TW", "total_row_ft": 150.0, "roadbed_ft": 120.0, "median_ft": 0.0, "left_sw_ft": 15.0, "right_sw_ft": 15.0}, "geometry": {"type": "LineString", "coordinates": [[-73.78240968511108, 40.63530285606953], [-73.78218717581674, 40.63558526301233]]}}, {"type": "Feature", "properties": {"segment_id": 274803, "physicalid": "20989", "street_name": "JFK ACCESS RD", "borough": "queens", "direction": "TW", "total_row_ft": 150.0, "roadbed_ft": 120.0, "median_ft": 0.0, "left_sw_ft": 15.0, "right_sw_ft": 15.0}, "geometry": {"type": "LineString", "coordinates": [[-73.7824714689431, 40.63533110777118], [-73.7822489598161, 40.63561351483271]]}}, {"type": "Feature", "properties": {"segment_id": 274804, "physicalid": "20989", "street_name": "JFK ACCESS RD", "borough": "queens", "direction": "TW", "total_row_ft": 150.0, "roadbed_ft": 120.0, "median_ft": 0.0, "left_sw_ft": 15.0, "right_sw_ft": 15.0}, "geometry": {"type": "LineString", "coordinates": [[-73.78253325282748, 40.63535935943958], [-73.78231074386771, 40.635641766619784]]}}, {"type": "Feature", "properties": {"segment_id": 274805, "physicalid": "20989", "street_name": "JFK ACCESS RD", "borough": "queens", "direction": "TW", "total_row_ft": 150.0, "roadbed_ft": 120.0, "median_ft": 0.0, "left_sw_ft": 15.0, "right_sw_ft": 15.0}, "geometry": {"type": "LineString", "coordinates": [[-73.78259503676414, 40.6353876110747], [-73.78237252797166, 40.635670018373574]]}}, {"type": "Feature", "properties": {"segment_id": 274806, "physicalid": "20989", "street_name": "JFK ACCESS RD", "borough": "queens", "direction": "TW", "total_row_ft": 150.0, "roadbed_ft": 120.0, "median_ft": 0.0, "left_sw_ft": 15.0, "right_sw_ft": 15.0}, "geometry": {"type": "LineString", "coordinates": [[-73.78265682075313, 40.6354158626765], [-73.78243431212789, 40.63569827009409]]}}, {"type": "Feature", "properties": {"segment_id": 274807, "physicalid": "20989", "street_name": "JFK ACCESS RD", "borough": "queens", "direction": "TW", "total_row_ft": 150.0, "roadbed_ft": 120.0, "median_ft": 0.0, "left_sw_ft": 15.0, "right_sw_ft": 15.0}, "geometry": {"type": "LineString", "coordinates": [[-73.78271860479444, 40.63544411424505], [-73.78249609633644, 40.6357265217813]]}}, {"type": "Feature", "properties": {"segment_id": 274808, "physicalid": "20989", "street_name": "JFK ACCESS RD", "borough": "queens", "direction": "TW", "total_row_ft": 150.0, "roadbed_ft": 120.0, "median_ft": 0.0, "left_sw_ft": 15.0, "right_sw_ft": 15.0}, "geometry": {"type": "LineString", "coordinates": [[-73.78278038888803, 40.63547236578029], [-73.78255788059735, 40.635754773435245]]}}, {"type": "Feature", "properties": {"segment_id": 274809, "physicalid": "20989", "street_name": "JFK ACCESS RD", "borough": "queens", "direction": "TW", "total_row_ft": 150.0, "roadbed_ft": 120.0, "median_ft": 0.0, "left_sw_ft": 15.0, "right_sw_ft": 15.0}, "geometry": {"type": "LineString", "coordinates": [[-73.78284217303396, 40.63550061728223], [-73.78261966491054, 40.63578302505589]]}}, {"type": "Feature", "properties": {"segment_id": 274810, "physicalid": "20989", "street_name": "JFK ACCESS RD", "borough": "queens", "direction": "TW", "total_row_ft": 150.0, "roadbed_ft": 120.0, "median_ft": 0.0, "left_sw_ft": 15.0, "right_sw_ft": 15.0}, "geometry": {"type": "LineString", "coordinates": [[-73.7829039572322, 40.63552886875092], [-73.78268144927605, 40.635811276643274]]}}, {"type": "Feature", "properties": {"segment_id": 274811, "physicalid": "20989", "street_name": "JFK ACCESS RD", "borough": "queens", "direction": "TW", "total_row_ft": 150.0, "roadbed_ft": 120.0, "median_ft": 0.0, "left_sw_ft": 15.0, "right_sw_ft": 15.0}, "geometry": {"type": "LineString", "coordinates": [[-73.78296574148276, 40.63555712018633], [-73.78274323369385, 40.635839528197344]]}}, {"type": "Feature", "properties": {"segment_id": 274812, "physicalid": "20989", "street_name": "JFK ACCESS RD", "borough": "queens", "direction": "TW", "total_row_ft": 150.0, "roadbed_ft": 120.0, "median_ft": 0.0, "left_sw_ft": 15.0, "right_sw_ft": 15.0}, "geometry": {"type": "LineString", "coordinates": [[-73.78302752578563, 40.63558537158843], [-73.78280501816397, 40.63586777971813]]}}, {"type": "Feature", "properties": {"segment_id": 274813, "physicalid": "20989", "street_name": "JFK ACCESS RD", "borough": "queens", "direction": "TW", "total_row_ft": 150.0, "roadbed_ft": 120.0, "median_ft": 0.0, "left_sw_ft": 15.0, "right_sw_ft": 15.0}, "geometry": {"type": "LineString", "coordinates": [[-73.7830893101408, 40.63561362295725], [-73.78286680268643, 40.63589603120566]]}}, {"type": "Feature", "properties": {"segment_id": 274814, "physicalid": "20989", "street_name": "JFK ACCESS RD", "borough": "queens", "direction": "TW", "total_row_ft": 150.0, "roadbed_ft": 120.0, "median_ft": 0.0, "left_sw_ft": 15.0, "right_sw_ft": 15.0}, "geometry": {"type": "LineString", "coordinates": [[-73.78315109454827, 40.63564187429279], [-73.78292858726121, 40.635924282659886]]}}, {"type": "Feature", "properties": {"segment_id": 274815, "physicalid": "20989", "street_name": "JFK ACCESS RD", "borough": "queens", "direction": "TW", "total_row_ft": 150.0, "roadbed_ft": 120.0, "median_ft": 0.0, "left_sw_ft": 15.0, "right_sw_ft": 15.0}, "geometry": {"type": "LineString", "coordinates": [[-73.78321287900809, 40.635670125595034], [-73.78299037188827, 40.635952534080836]]}}, {"type": "Feature", "properties": {"segment_id": 274816, "physicalid": "20989", "street_name": "JFK ACCESS RD", "borough": "queens", "direction": "TW", "total_row_ft": 150.0, "roadbed_ft": 120.0, "median_ft": 0.0, "left_sw_ft": 15.0, "right_sw_ft": 15.0}, "geometry": {"type": "LineString", "coordinates": [[-73.78327466352022, 40.63569837686401], [-73.78305215656763, 40.635980785468476]]}}, {"type": "Feature", "properties": {"segment_id": 274817, "physicalid": "20989", "street_name": "JFK ACCESS RD", "borough": "queens", "direction": "TW", "total_row_ft": 150.0, "roadbed_ft": 120.0, "median_ft": 0.0, "left_sw_ft": 15.0, "right_sw_ft": 15.0}, "geometry": {"type": "LineString", "coordinates": [[-73.78333644808465, 40.63572662809972], [-73.78311394129933, 40.63600903682286]]}}, {"type": "Feature", "properties": {"segment_id": 274818, "physicalid": "20989", "street_name": "JFK ACCESS RD", "borough": "queens", "direction": "TW", "total_row_ft": 150.0, "roadbed_ft": 120.0, "median_ft": 0.0, "left_sw_ft": 15.0, "right_sw_ft": 15.0}, "geometry": {"type": "LineString", "coordinates": [[-73.78339823270137, 40.63575487930207], [-73.78317572608337, 40.63603728814396]]}}, {"type": "Feature", "properties": {"segment_id": 274819, "physicalid": "20989", "street_name": "JFK ACCESS RD", "borough": "queens", "direction": "TW", "total_row_ft": 150.0, "roadbed_ft": 120.0, "median_ft": 0.0, "left_sw_ft": 15.0, "right_sw_ft": 15.0}, "geometry": {"type": "LineString", "coordinates": [[-73.78346001737043, 40.6357831304712], [-73.78323751091969, 40.636065539431755]]}}, {"type": "Feature", "properties": {"segment_id": 274820, "physicalid": "20989", "street_name": "JFK ACCESS RD", "borough": "queens", "direction": "TW", "total_row_ft": 150.0, "roadbed_ft": 120.0, "median_ft": 0.0, "left_sw_ft": 15.0, "right_sw_ft": 15.0}, "geometry": {"type": "LineString", "coordinates": [[-73.78352180209178, 40.63581138160703], [-73.78329929580835, 40.63609379068627]]}}, {"type": "Feature", "properties": {"segment_id": 274821, "physicalid": "20989", "street_name": "JFK ACCESS RD", "borough": "queens", "direction": "TW", "total_row_ft": 150.0, "roadbed_ft": 120.0, "median_ft": 0.0, "left_sw_ft": 15.0, "right_sw_ft": 15.0}, "geometry": {"type": "LineString", "coordinates": [[-73.78358358686548, 40.635839632709576], [-73.78336108074929, 40.636122041907505]]}}, {"type": "Feature", "properties": {"segment_id": 274822, "physicalid": "20989", "street_name": "JFK ACCESS RD", "borough": "queens", "direction": "TW", "total_row_ft": 150.0, "roadbed_ft": 120.0, "median_ft": 0.0, "left_sw_ft": 15.0, "right_sw_ft": 15.0}, "geometry": {"type": "LineString", "coordinates": [[-73.78364537169148, 40.635867883778836], [-73.78342286574254, 40.63615029309545]]}}, {"type": "Feature", "properties": {"segment_id": 274823, "physicalid": "20989", "street_name": "JFK ACCESS RD", "borough": "queens", "direction": "TW", "total_row_ft": 150.0, "roadbed_ft": 120.0, "median_ft": 0.0, "left_sw_ft": 15.0, "right_sw_ft": 15.0}, "geometry": {"type": "LineString", "coordinates": [[-73.78370715656978, 40.6358961348148], [-73.78348465078814, 40.63617854425011]]}}, {"type": "Feature", "properties": {"segment_id": 274824, "physicalid": "20989", "street_name": "JFK ACCESS RD", "borough": "queens", "direction": "TW", "total_row_ft": 150.0, "roadbed_ft": 120.0, "median_ft": 0.0, "left_sw_ft": 15.0, "right_sw_ft": 15.0}, "geometry": {"type": "LineString", "coordinates": [[-73.78376894150038, 40.635924385817475], [-73.78354643588604, 40.636206795371486]]}}, {"type": "Feature", "properties": {"segment_id": 274825, "physicalid": "20989", "street_name": "JFK ACCESS RD", "borough": "queens", "direction": "TW", "total_row_ft": 150.0, "roadbed_ft": 120.0, "median_ft": 0.0, "left_sw_ft": 15.0, "right_sw_ft": 15.0}, "geometry": {"type": "LineString", "coordinates": [[-73.78383072648333, 40.63595263678688], [-73.78360822103625, 40.63623504645959]]}}, {"type": "Feature", "properties": {"segment_id": 274826, "physicalid": "20989", "street_name": "JFK ACCESS RD", "borough": "queens", "direction": "TW", "total_row_ft": 150.0, "roadbed_ft": 120.0, "median_ft": 0.0, "left_sw_ft": 15.0, "right_sw_ft": 15.0}, "geometry": {"type": "LineString", "coordinates": [[-73.78389251151857, 40.63598088772299], [-73.78367000623876, 40.63626329751438]]}}, {"type": "Feature", "properties": {"segment_id": 274827, "physicalid": "20989", "street_name": "JFK ACCESS RD", "borough": "queens", "direction": "TW", "total_row_ft": 150.0, "roadbed_ft": 120.0, "median_ft": 0.0, "left_sw_ft": 15.0, "right_sw_ft": 15.0}, "geometry": {"type": "LineString", "coordinates": [[-73.78395429660615, 40.63600913862583], [-73.7837317914936, 40.636291548535894]]}}, {"type": "Feature", "properties": {"segment_id": 274828, "physicalid": "20989", "street_name": "JFK ACCESS RD", "borough": "queens", "direction": "TW", "total_row_ft": 150.0, "roadbed_ft": 120.0, "median_ft": 0.0, "left_sw_ft": 15.0, "right_sw_ft": 15.0}, "geometry": {"type": "LineString", "coordinates": [[-73.78401608174602, 40.636037389495385], [-73.78379357680075, 40.63631979952412]]}}, {"type": "Feature", "properties": {"segment_id": 274829, "physicalid": "20989", "street_name": "JFK ACCESS RD", "borough": "queens", "direction": "TW", "total_row_ft": 150.0, "roadbed_ft": 120.0, "median_ft": 0.0, "left_sw_ft": 15.0, "right_sw_ft": 15.0}, "geometry": {"type": "LineString", "coordinates": [[-73.78407786693818, 40.636065640331616], [-73.78385536216022, 40.63634805047908]]}}, {"type": "Feature", "properties": {"segment_id": 274830, "physicalid": "20989", "street_name": "JFK ACCESS RD", "borough": "queens", "direction": "TW", "total_row_ft": 150.0, "roadbed_ft": 120.0, "median_ft": 0.0, "left_sw_ft": 15.0, "right_sw_ft": 15.0}, "geometry": {"type": "LineString", "coordinates": [[-73.78413965218269, 40.63609389113459], [-73.78391714757201, 40.636376301400745]]}}, {"type": "Feature", "properties": {"segment_id": 274831, "physicalid": "20989", "street_name": "JFK ACCESS RD", "borough": "queens", "direction": "TW", "total_row_ft": 150.0, "roadbed_ft": 120.0, "median_ft": 0.0, "left_sw_ft": 15.0, "right_sw_ft": 15.0}, "geometry": {"type": "LineString", "coordinates": [[-73.7842014374795, 40.63612214190427], [-73.7839789330361, 40.6364045522891]]}}, {"type": "Feature", "properties": {"segment_id": 274832, "physicalid": "20989", "street_name": "JFK ACCESS RD", "borough": "queens", "direction": "TW", "total_row_ft": 112.4, "roadbed_ft": 82.4, "median_ft": 0.0, "left_sw_ft": 15.0, "right_sw_ft": 15.0}, "geometry": {"type": "LineString", "coordinates": [[-73.78426322282864, 40.636150392640694], [-73.78404071855248, 40.636432803144174]]}}, {"type": "Feature", "properties": {"segment_id": 274833, "physicalid": "20989", "street_name": "JFK ACCESS RD", "borough": "queens", "direction": "TW", "total_row_ft": 108.5, "roadbed_ft": 78.5, "median_ft": 0.0, "left_sw_ft": 15.0, "right_sw_ft": 15.0}, "geometry": {"type": "LineString", "coordinates": [[-73.78432500823008, 40.6361786433438], [-73.78410250412121, 40.63646105396599]]}}, {"type": "Feature", "properties": {"segment_id": 274834, "physicalid": "20989", "street_name": "JFK ACCESS RD", "borough": "queens", "direction": "TW", "total_row_ft": 66.6, "roadbed_ft": 36.6, "median_ft": 0.0, "left_sw_ft": 15.0, "right_sw_ft": 15.0}, "geometry": {"type": "LineString", "coordinates": [[-73.78438679368382, 40.636206894013625], [-73.78416428974224, 40.636489304754505]]}}, {"type": "Feature", "properties": {"segment_id": 274835, "physicalid": "20989", "street_name": "JFK ACCESS RD", "borough": "queens", "direction": "TW", "total_row_ft": 87.4, "roadbed_ft": 57.4, "median_ft": 0.0, "left_sw_ft": 15.0, "right_sw_ft": 15.0}, "geometry": {"type": "LineString", "coordinates": [[-73.78444857918988, 40.63623514465015], [-73.7842260754156, 40.636517555509734]]}}, {"type": "Feature", "properties": {"segment_id": 274836, "physicalid": "20989", "street_name": "JFK ACCESS RD", "borough": "queens", "direction": "TW", "total_row_ft": 87.8, "roadbed_ft": 57.8, "median_ft": 0.0, "left_sw_ft": 15.0, "right_sw_ft": 15.0}, "geometry": {"type": "LineString", "coordinates": [[-73.78451036474826, 40.636263395253415], [-73.78428786114125, 40.636545806231695]]}}, {"type": "Feature", "properties": {"segment_id": 274837, "physicalid": "20989", "street_name": "JFK ACCESS RD", "borough": "queens", "direction": "TW", "total_row_ft": 88.1, "roadbed_ft": 58.1, "median_ft": 0.0, "left_sw_ft": 15.0, "right_sw_ft": 15.0}, "geometry": {"type": "LineString", "coordinates": [[-73.78457215035897, 40.63629164582339], [-73.78434964691921, 40.63657405692033]]}}, {"type": "Feature", "properties": {"segment_id": 274838, "physicalid": "20989", "street_name": "JFK ACCESS RD", "borough": "queens", "direction": "TW", "total_row_ft": 88.4, "roadbed_ft": 58.4, "median_ft": 0.0, "left_sw_ft": 15.0, "right_sw_ft": 15.0}, "geometry": {"type": "LineString", "coordinates": [[-73.78463393602198, 40.63631989636008], [-73.7844114327495, 40.63660230757571]]}}, {"type": "Feature", "properties": {"segment_id": 274839, "physicalid": "20989", "street_name": "JFK ACCESS RD", "borough": "queens", "direction": "TW", "total_row_ft": 88.6, "roadbed_ft": 58.6, "median_ft": 0.0, "left_sw_ft": 15.0, "right_sw_ft": 15.0}, "geometry": {"type": "LineString", "coordinates": [[-73.78469572173726, 40.636348146863455], [-73.78447321863213, 40.636630558197815]]}}, {"type": "Feature", "properties": {"segment_id": 274840, "physicalid": "20989", "street_name": "JFK ACCESS RD", "borough": "queens", "direction": "TW", "total_row_ft": 88.8, "roadbed_ft": 58.8, "median_ft": 0.0, "left_sw_ft": 15.0, "right_sw_ft": 15.0}, "geometry": {"type": "LineString", "coordinates": [[-73.78475750750489, 40.63637639733357], [-73.78453500456703, 40.636658808786606]]}}, {"type": "Feature", "properties": {"segment_id": 274841, "physicalid": "20989", "street_name": "JFK ACCESS RD", "borough": "queens", "direction": "TW", "total_row_ft": 89.1, "roadbed_ft": 59.1, "median_ft": 0.0, "left_sw_ft": 15.0, "right_sw_ft": 15.0}, "geometry": {"type": "LineString", "coordinates": [[-73.78481929332483, 40.63640464777039], [-73.78459679055426, 40.63668705934213]]}}, {"type": "Feature", "properties": {"segment_id": 274842, "physicalid": "20989", "street_name": "JFK ACCESS RD", "borough": "queens", "direction": "TW", "total_row_ft": 96.6, "roadbed_ft": 66.6, "median_ft": 0.0, "left_sw_ft": 15.0, "right_sw_ft": 15.0}, "geometry": {"type": "LineString", "coordinates": [[-73.78488107919712, 40.63643289817394], [-73.78465857659377, 40.63671530986433]]}}, {"type": "Feature", "properties": {"segment_id": 274843, "physicalid": "20989", "street_name": "JFK ACCESS RD", "borough": "queens", "direction": "TW", "total_row_ft": 97.3, "roadbed_ft": 67.3, "median_ft": 0.0, "left_sw_ft": 15.0, "right_sw_ft": 15.0}, "geometry": {"type": "LineString", "coordinates": [[-73.78494286512169, 40.63646114854421], [-73.78472036268563, 40.63674356035328]]}}, {"type": "Feature", "properties": {"segment_id": 274844, "physicalid": "20989", "street_name": "JFK ACCESS RD", "borough": "queens", "direction": "TW", "total_row_ft": 97.9, "roadbed_ft": 67.9, "median_ft": 0.0, "left_sw_ft": 15.0, "right_sw_ft": 15.0}, "geometry": {"type": "LineString", "coordinates": [[-73.78500465109856, 40.63648939888116], [-73.78478214882982, 40.63677181080892]]}}, {"type": "Feature", "properties": {"segment_id": 274845, "physicalid": "20989", "street_name": "JFK ACCESS RD", "borough": "queens", "direction": "TW", "total_row_ft": 104.8, "roadbed_ft": 74.8, "median_ft": 0.0, "left_sw_ft": 15.0, "right_sw_ft": 15.0}, "geometry": {"type": "LineString", "coordinates": [[-73.78506643712775, 40.63651764918485], [-73.78484393502632, 40.63680006123129]]}}, {"type": "Feature", "properties": {"segment_id": 274846, "physicalid": "20989", "street_name": "JFK ACCESS RD", "borough": "queens", "direction": "TW", "total_row_ft": 111.3, "roadbed_ft": 81.3, "median_ft": 0.0, "left_sw_ft": 15.0, "right_sw_ft": 15.0}, "geometry": {"type": "LineString", "coordinates": [[-73.78512822320926, 40.63654589945523], [-73.78490572127512, 40.636828311620384]]}}, {"type": "Feature", "properties": {"segment_id": 274847, "physicalid": "20989", "street_name": "JFK ACCESS RD", "borough": "queens", "direction": "TW", "total_row_ft": 132.3, "roadbed_ft": 102.3, "median_ft": 0.0, "left_sw_ft": 15.0, "right_sw_ft": 15.0}, "geometry": {"type": "LineString", "coordinates": [[-73.7851900093431, 40.63657414969235], [-73.78496750757621, 40.636856561976174]]}}, {"type": "Feature", "properties": {"segment_id": 274848, "physicalid": "20989", "street_name": "JFK ACCESS RD", "borough": "queens", "direction": "TW", "total_row_ft": 150.0, "roadbed_ft": 120.0, "median_ft": 0.0, "left_sw_ft": 15.0, "right_sw_ft": 15.0}, "geometry": {"type": "LineString", "coordinates": [[-73.78525179552923, 40.63660239989616], [-73.78502929392963, 40.63688481229866]]}}, {"type": "Feature", "properties": {"segment_id": 274849, "physicalid": "20989", "street_name": "JFK ACCESS RD", "borough": "queens", "direction": "TW", "total_row_ft": 150.0, "roadbed_ft": 120.0, "median_ft": 0.0, "left_sw_ft": 15.0, "right_sw_ft": 15.0}, "geometry": {"type": "LineString", "coordinates": [[-73.78531358176765, 40.63663065006669], [-73.78509108033539, 40.63691306258788]]}}, {"type": "Feature", "properties": {"segment_id": 274850, "physicalid": "20989", "street_name": "JFK ACCESS RD", "borough": "queens", "direction": "TW", "total_row_ft": 150.0, "roadbed_ft": 120.0, "median_ft": 0.0, "left_sw_ft": 15.0, "right_sw_ft": 15.0}, "geometry": {"type": "LineString", "coordinates": [[-73.78537536805841, 40.63665890020393], [-73.78515286679344, 40.63694131284383]]}}, {"type": "Feature", "properties": {"segment_id": 274851, "physicalid": "20989", "street_name": "JFK ACCESS RD", "borough": "queens", "direction": "TW", "total_row_ft": 150.0, "roadbed_ft": 120.0, "median_ft": 0.0, "left_sw_ft": 15.0, "right_sw_ft": 15.0}, "geometry": {"type": "LineString", "coordinates": [[-73.78543715440149, 40.636687150307885], [-73.7852146533038, 40.636969563066486]]}}, {"type": "Feature", "properties": {"segment_id": 274852, "physicalid": "20989", "street_name": "JFK ACCESS RD", "borough": "queens", "direction": "TW", "total_row_ft": 150.0, "roadbed_ft": 120.0, "median_ft": 0.0, "left_sw_ft": 15.0, "right_sw_ft": 15.0}, "geometry": {"type": "LineString", "coordinates": [[-73.78549894079688, 40.636715400378556], [-73.7852764398665, 40.63699781325583]]}}, {"type": "Feature", "properties": {"segment_id": 274853, "physicalid": "20989", "street_name": "JFK ACCESS RD", "borough": "queens", "direction": "TW", "total_row_ft": 150.0, "roadbed_ft": 120.0, "median_ft": 0.0, "left_sw_ft": 15.0, "right_sw_ft": 15.0}, "geometry": {"type": "LineString", "coordinates": [[-73.78556072724462, 40.63674365041596], [-73.78533822648146, 40.637026063411874]]}}, {"type": "Feature", "properties": {"segment_id": 274854, "physicalid": "20989", "street_name": "JFK ACCESS RD", "borough": "queens", "direction": "TW", "total_row_ft": 150.0, "roadbed_ft": 120.0, "median_ft": 0.0, "left_sw_ft": 15.0, "right_sw_ft": 15.0}, "geometry": {"type": "LineString", "coordinates": [[-73.7856225137446, 40.63677190042004], [-73.78540001314879, 40.637054313534684]]}}, {"type": "Feature", "properties": {"segment_id": 274855, "physicalid": "20989", "street_name": "JFK ACCESS RD", "borough": "queens", "direction": "TW", "total_row_ft": 150.0, "roadbed_ft": 120.0, "median_ft": 0.0, "left_sw_ft": 15.0, "right_sw_ft": 15.0}, "geometry": {"type": "LineString", "coordinates": [[-73.78568430029694, 40.63680015039085], [-73.7854617998684, 40.63708256362418]]}}, {"type": "Feature", "properties": {"segment_id": 274856, "physicalid": "20989", "street_name": "JFK ACCESS RD", "borough": "queens", "direction": "TW", "total_row_ft": 150.0, "roadbed_ft": 120.0, "median_ft": 0.0, "left_sw_ft": 15.0, "right_sw_ft": 15.0}, "geometry": {"type": "LineString", "coordinates": [[-73.78574608690157, 40.636828400328376], [-73.78552358664034, 40.63711081368038]]}}, {"type": "Feature", "properties": {"segment_id": 274857, "physicalid": "20989", "street_name": "JFK ACCESS RD", "borough": "queens", "direction": "TW", "total_row_ft": 150.0, "roadbed_ft": 120.0, "median_ft": 0.0, "left_sw_ft": 15.0, "right_sw_ft": 15.0}, "geometry": {"type": "LineString", "coordinates": [[-73.78580787355853, 40.636856650232616], [-73.78558537346458, 40.637139063703295]]}}, {"type": "Feature", "properties": {"segment_id": 274858, "physicalid": "20989", "street_name": "JFK ACCESS RD", "borough": "queens", "direction": "TW", "total_row_ft": 150.0, "roadbed_ft": 120.0, "median_ft": 0.0, "left_sw_ft": 15.0, "right_sw_ft": 15.0}, "geometry": {"type": "LineString", "coordinates": [[-73.7858696602678, 40.63688490010357], [-73.78564716034114, 40.63716731369295]]}}, {"type": "Feature", "properties": {"segment_id": 274859, "physicalid": "20989", "street_name": "JFK ACCESS RD", "borough": "queens", "direction": "TW", "total_row_ft": 150.0, "roadbed_ft": 120.0, "median_ft": 0.0, "left_sw_ft": 15.0, "right_sw_ft": 15.0}, "geometry": {"type": "LineString", "coordinates": [[-73.78593144702941, 40.63691314994123], [-73.78570894727, 40.63719556364927]]}}, {"type": "Feature", "properties": {"segment_id": 274860, "physicalid": "20989", "street_name": "JFK ACCESS RD", "borough": "queens", "direction": "TW", "total_row_ft": 150.0, "roadbed_ft": 120.0, "median_ft": 0.0, "left_sw_ft": 15.0, "right_sw_ft": 15.0}, "geometry": {"type": "LineString", "coordinates": [[-73.78599323384327, 40.6369413997456], [-73.78577073425122, 40.63722381357235]]}}, {"type": "Feature", "properties": {"segment_id": 274861, "physicalid": "20989", "street_name": "JFK ACCESS RD", "borough": "queens", "direction": "TW", "total_row_ft": 150.0, "roadbed_ft": 120.0, "median_ft": 0.0, "left_sw_ft": 15.0, "right_sw_ft": 15.0}, "geometry": {"type": "LineString", "coordinates": [[-73.78605502070948, 40.636969649516686], [-73.78583252128472, 40.637252063462114]]}}, {"type": "Feature", "properties": {"segment_id": 274862, "physicalid": "20989", "street_name": "JFK ACCESS RD", "borough": "queens", "direction": "TW", "total_row_ft": 150.0, "roadbed_ft": 120.0, "median_ft": 0.0, "left_sw_ft": 15.0, "right_sw_ft": 15.0}, "geometry": {"type": "LineString", "coordinates": [[-73.78611680762799, 40.63699789925448], [-73.78589430837056, 40.637280313318605]]}}, {"type": "Feature", "properties": {"segment_id": 274863, "physicalid": "20989", "street_name": "JFK ACCESS RD", "borough": "queens", "direction": "TW", "total_row_ft": 150.0, "roadbed_ft": 120.0, "median_ft": 0.0, "left_sw_ft": 15.0, "right_sw_ft": 15.0}, "geometry": {"type": "LineString", "coordinates": [[-73.78617859459887, 40.63702614895902], [-73.78595609550865, 40.637308563141794]]}}, {"type": "Feature", "properties": {"segment_id": 274864, "physicalid": "20989", "street_name": "JFK ACCESS RD", "borough": "queens", "direction": "TW", "total_row_ft": 111.1, "roadbed_ft": 81.1, "median_ft": 0.0, "left_sw_ft": 15.0, "right_sw_ft": 15.0}, "geometry": {"type": "LineString", "coordinates": [[-73.78624038162201, 40.637054398630234], [-73.7860178826991, 40.63733681293171]]}}, {"type": "Feature", "properties": {"segment_id": 274865, "physicalid": "20989", "street_name": "JFK ACCESS RD", "borough": "queens", "direction": "TW", "total_row_ft": 105.4, "roadbed_ft": 75.4, "median_ft": 0.0, "left_sw_ft": 15.0, "right_sw_ft": 15.0}, "geometry": {"type": "LineString", "coordinates": [[-73.78630216869745, 40.63708264826817], [-73.78607966994188, 40.63736506268833]]}}, {"type": "Feature", "properties": {"segment_id": 274866, "physicalid": "20989", "street_name": "JFK ACCESS RD", "borough": "queens", "direction": "TW", "total_row_ft": 104.7, "roadbed_ft": 74.7, "median_ft": 0.0, "left_sw_ft": 15.0, "right_sw_ft": 15.0}, "geometry": {"type": "LineString", "coordinates": [[-73.78636395582521, 40.63711089787281], [-73.78614145723697, 40.63739331241168]]}}, {"type": "Feature", "properties": {"segment_id": 274867, "physicalid": "20989", "street_name": "JFK ACCESS RD", "borough": "queens", "direction": "TW", "total_row_ft": 104.3, "roadbed_ft": 74.3, "median_ft": 0.0, "left_sw_ft": 15.0, "right_sw_ft": 15.0}, "geometry": {"type": "LineString", "coordinates": [[-73.7864257430053, 40.63713914744417], [-73.78620324458436, 40.63742156210173]]}}, {"type": "Feature", "properties": {"segment_id": 274868, "physicalid": "20989", "street_name": "JFK ACCESS RD", "borough": "queens", "direction": "TW", "total_row_ft": 103.8, "roadbed_ft": 73.8, "median_ft": 0.0, "left_sw_ft": 15.0, "right_sw_ft": 15.0}, "geometry": {"type": "LineString", "coordinates": [[-73.78648753023772, 40.63716739698226], [-73.78626503198403, 40.63744981175847]]}}, {"type": "Feature", "properties": {"segment_id": 274869, "physicalid": "20989", "street_name": "JFK ACCESS RD", "borough": "queens", "direction": "TW", "total_row_ft": 104.1, "roadbed_ft": 74.1, "median_ft": 0.0, "left_sw_ft": 15.0, "right_sw_ft": 15.0}, "geometry": {"type": "LineString", "coordinates": [[-73.78654799093228, 40.63719460560698], [-73.78632865361934, 40.63747845173375]]}}, {"type": "Feature", "properties": {"segment_id": 274870, "physicalid": "20989", "street_name": "JFK ACCESS RD", "borough": "queens", "direction": "TW", "total_row_ft": 104.4, "roadbed_ft": 74.4, "median_ft": 0.0, "left_sw_ft": 15.0, "right_sw_ft": 15.0}, "geometry": {"type": "LineString", "coordinates": [[-73.78661009139435, 40.637222453770285], [-73.78639075425406, 40.637506300014664]]}}, {"type": "Feature", "properties": {"segment_id": 274871, "physicalid": "20989", "street_name": "JFK ACCESS RD", "borough": "queens", "direction": "TW", "total_row_ft": 104.6, "roadbed_ft": 74.6, "median_ft": 0.0, "left_sw_ft": 15.0, "right_sw_ft": 15.0}, "geometry": {"type": "LineString", "coordinates": [[-73.78667219190827, 40.63725030189996], [-73.7864528549406, 40.637534148261935]]}}, {"type": "Feature", "properties": {"segment_id": 274872, "physicalid": "20989", "street_name": "JFK ACCESS RD", "borough": "queens", "direction": "TW", "total_row_ft": 104.7, "roadbed_ft": 74.7, "median_ft": 0.0, "left_sw_ft": 15.0, "right_sw_ft": 15.0}, "geometry": {"type": "LineString", "coordinates": [[-73.78673429247405, 40.63727814999603], [-73.78651495567895, 40.63756199647559]]}}, {"type": "Feature", "properties": {"segment_id": 274873, "physicalid": "20989", "street_name": "JFK ACCESS RD", "borough": "queens", "direction": "TW", "total_row_ft": 104.7, "roadbed_ft": 74.7, "median_ft": 0.0, "left_sw_ft": 15.0, "right_sw_ft": 15.0}, "geometry": {"type": "LineString", "coordinates": [[-73.78679639309163, 40.63730599805849], [-73.78657705646916, 40.63758984465563]]}}, {"type": "Feature", "properties": {"segment_id": 274874, "physicalid": "20989", "street_name": "JFK ACCESS RD", "borough": "queens", "direction": "TW", "total_row_ft": 104.6, "roadbed_ft": 74.6, "median_ft": 0.0, "left_sw_ft": 15.0, "right_sw_ft": 15.0}, "geometry": {"type": "LineString", "coordinates": [[-73.78685849376106, 40.637333846087294], [-73.78663915731121, 40.637617692802024]]}}, {"type": "Feature", "properties": {"segment_id": 274875, "physicalid": "20989", "street_name": "JFK ACCESS RD", "borough": "queens", "direction": "TW", "total_row_ft": 104.6, "roadbed_ft": 74.6, "median_ft": 0.0, "left_sw_ft": 15.0, "right_sw_ft": 15.0}, "geometry": {"type": "LineString", "coordinates": [[-73.7869205944823, 40.63736169408248], [-73.7867012582051, 40.637645540914804]]}}, {"type": "Feature", "properties": {"segment_id": 274876, "physicalid": "20989", "street_name": "JFK ACCESS RD", "borough": "queens", "direction": "TW", "total_row_ft": 104.6, "roadbed_ft": 74.6, "median_ft": 0.0, "left_sw_ft": 15.0, "right_sw_ft": 15.0}, "geometry": {"type": "LineString", "coordinates": [[-73.78698269525538, 40.63738954204405], [-73.78676335915081, 40.63767338899397]]}}, {"type": "Feature", "properties": {"segment_id": 274877, "physicalid": "20989", "street_name": "JFK ACCESS RD", "borough": "queens", "direction": "TW", "total_row_ft": 104.5, "roadbed_ft": 74.5, "median_ft": 0.0, "left_sw_ft": 15.0, "right_sw_ft": 15.0}, "geometry": {"type": "LineString", "coordinates": [[-73.78704479608031, 40.63741738997203], [-73.78682546014832, 40.637701237039515]]}}, {"type": "Feature", "properties": {"segment_id": 274878, "physicalid": "20989", "street_name": "JFK ACCESS RD", "borough": "queens", "direction": "TW", "total_row_ft": 104.4, "roadbed_ft": 74.4, "median_ft": 0.0, "left_sw_ft": 15.0, "right_sw_ft": 15.0}, "geometry": {"type": "LineString", "coordinates": [[-73.78710689695707, 40.63744523786635], [-73.78688756119769, 40.637729085051426]]}}, {"type": "Feature", "properties": {"segment_id": 274879, "physicalid": "20989", "street_name": "JFK ACCESS RD", "borough": "queens", "direction": "TW", "total_row_ft": 104.3, "roadbed_ft": 74.3, "median_ft": 0.0, "left_sw_ft": 15.0, "right_sw_ft": 15.0}, "geometry": {"type": "LineString", "coordinates": [[-73.78716899788563, 40.63747308572704], [-73.78694966229888, 40.63775693302971]]}}, {"type": "Feature", "properties": {"segment_id": 274880, "physicalid": "20989", "street_name": "JFK ACCESS RD", "borough": "queens", "direction": "TW", "total_row_ft": 104.4, "roadbed_ft": 74.4, "median_ft": 0.0, "left_sw_ft": 15.0, "right_sw_ft": 15.0}, "geometry": {"type": "LineString", "coordinates": [[-73.78723109886603, 40.63750093355411], [-73.78701176345194, 40.63778478097441]]}}, {"type": "Feature", "properties": {"segment_id": 274881, "physicalid": "20989", "street_name": "JFK ACCESS RD", "borough": "queens", "direction": "TW", "total_row_ft": 104.4, "roadbed_ft": 74.4, "median_ft": 0.0, "left_sw_ft": 15.0, "right_sw_ft": 15.0}, "geometry": {"type": "LineString", "coordinates": [[-73.78729319989827, 40.63752878134758], [-73.7870738646568, 40.637812628885435]]}}, {"type": "Feature", "properties": {"segment_id": 274882, "physicalid": "20989", "street_name": "JFK ACCESS RD", "borough": "queens", "direction": "TW", "total_row_ft": 104.4, "roadbed_ft": 74.4, "median_ft": 0.0, "left_sw_ft": 15.0, "right_sw_ft": 15.0}, "geometry": {"type": "LineString", "coordinates": [[-73.78735530098237, 40.63755662910742], [-73.78713596591348, 40.63784047676287]]}}, {"type": "Feature", "properties": {"segment_id": 274883, "physicalid": "20989", "street_name": "JFK ACCESS RD", "borough": "queens", "direction": "TW", "total_row_ft": 104.5, "roadbed_ft": 74.5, "median_ft": 0.0, "left_sw_ft": 15.0, "right_sw_ft": 15.0}, "geometry": {"type": "LineString", "coordinates": [[-73.78741740211827, 40.63758447683362], [-73.78719806722201, 40.63786832460664]]}}, {"type": "Feature", "properties": {"segment_id": 274884, "physicalid": "20989", "street_name": "JFK ACCESS RD", "borough": "queens", "direction": "TW", "total_row_ft": 104.5, "roadbed_ft": 74.5, "median_ft": 0.0, "left_sw_ft": 15.0, "right_sw_ft": 15.0}, "geometry": {"type": "LineString", "coordinates": [[-73.787479503306, 40.63761232452621], [-73.78726016858236, 40.63789617241683]]}}, {"type": "Feature", "properties": {"segment_id": 274885, "physicalid": "20989", "street_name": "JFK ACCESS RD", "borough": "queens", "direction": "TW", "total_row_ft": 104.6, "roadbed_ft": 74.6, "median_ft": 0.0, "left_sw_ft": 15.0, "right_sw_ft": 15.0}, "geometry": {"type": "LineString", "coordinates": [[-73.78754160454555, 40.63764017218515], [-73.78732226999458, 40.637924020193395]]}}, {"type": "Feature", "properties": {"segment_id": 274886, "physicalid": "20989", "street_name": "JFK ACCESS RD", "borough": "queens", "direction": "TW", "total_row_ft": 104.7, "roadbed_ft": 74.7, "median_ft": 0.0, "left_sw_ft": 15.0, "right_sw_ft": 15.0}, "geometry": {"type": "LineString", "coordinates": [[-73.78760370583694, 40.63766801981049], [-73.7873843714586, 40.63795186793632]]}}, {"type": "Feature", "properties": {"segment_id": 274887, "physicalid": "20989", "street_name": "JFK ACCESS RD", "borough": "queens", "direction": "TW", "total_row_ft": 104.7, "roadbed_ft": 74.7, "median_ft": 0.0, "left_sw_ft": 15.0, "right_sw_ft": 15.0}, "geometry": {"type": "LineString", "coordinates": [[-73.7876658071802, 40.63769586740222], [-73.78744647297444, 40.63797971564563]]}}, {"type": "Feature", "properties": {"segment_id": 274888, "physicalid": "20989", "street_name": "JFK ACCESS RD", "borough": "queens", "direction": "TW", "total_row_ft": 104.8, "roadbed_ft": 74.8, "median_ft": 0.0, "left_sw_ft": 15.0, "right_sw_ft": 15.0}, "geometry": {"type": "LineString", "coordinates": [[-73.78772790857526, 40.6377237149603], [-73.78750857454213, 40.6380075633213]]}}, {"type": "Feature", "properties": {"segment_id": 274889, "physicalid": "20989", "street_name": "JFK ACCESS RD", "borough": "queens", "direction": "TW", "total_row_ft": 104.8, "roadbed_ft": 74.8, "median_ft": 0.0, "left_sw_ft": 15.0, "right_sw_ft": 15.0}, "geometry": {"type": "LineString", "coordinates": [[-73.78779001002216, 40.637751562484794], [-73.78757067616165, 40.638035410963354]]}}, {"type": "Feature", "properties": {"segment_id": 274890, "physicalid": "20989", "street_name": "JFK ACCESS RD", "borough": "queens", "direction": "TW", "total_row_ft": 104.7, "roadbed_ft": 74.7, "median_ft": 0.0, "left_sw_ft": 15.0, "right_sw_ft": 15.0}, "geometry": {"type": "LineString", "coordinates": [[-73.78785211152085, 40.63777940997563], [-73.78763277783302, 40.6380632585718]]}}, {"type": "Feature", "properties": {"segment_id": 274891, "physicalid": "20989", "street_name": "JFK ACCESS RD", "borough": "queens", "direction": "TW", "total_row_ft": 104.7, "roadbed_ft": 74.7, "median_ft": 0.0, "left_sw_ft": 15.0, "right_sw_ft": 15.0}, "geometry": {"type": "LineString", "coordinates": [[-73.78791421307142, 40.63780725743284], [-73.78769487955621, 40.638091106146604]]}}, {"type": "Feature", "properties": {"segment_id": 274892, "physicalid": "20989", "street_name": "JFK ACCESS RD", "borough": "queens", "direction": "TW", "total_row_ft": 104.7, "roadbed_ft": 74.7, "median_ft": 0.0, "left_sw_ft": 15.0, "right_sw_ft": 15.0}, "geometry": {"type": "LineString", "coordinates": [[-73.78797631467383, 40.63783510485646], [-73.7877569813312, 40.63811895368779]]}}, {"type": "Feature", "properties": {"segment_id": 274893, "physicalid": "20989", "street_name": "JFK ACCESS RD", "borough": "queens", "direction": "TW", "total_row_ft": 104.7, "roadbed_ft": 74.7, "median_ft": 0.0, "left_sw_ft": 15.0, "right_sw_ft": 15.0}, "geometry": {"type": "LineString", "coordinates": [[-73.78803841632805, 40.63786295224642], [-73.78781908315806, 40.638146801195354]]}}, {"type": "Feature", "properties": {"segment_id": 274894, "physicalid": "20989", "street_name": "JFK ACCESS RD", "borough": "queens", "direction": "TW", "total_row_ft": 104.7, "roadbed_ft": 74.7, "median_ft": 0.0, "left_sw_ft": 15.0, "right_sw_ft": 15.0}, "geometry": {"type": "LineString", "coordinates": [[-73.7881005180341, 40.63789079960277], [-73.78788118503674, 40.6381746486693]]}}, {"type": "Feature", "properties": {"segment_id": 274895, "physicalid": "20989", "street_name": "JFK ACCESS RD", "borough": "queens", "direction": "TW", "total_row_ft": 104.5, "roadbed_ft": 74.5, "median_ft": 0.0, "left_sw_ft": 15.0, "right_sw_ft": 15.0}, "geometry": {"type": "LineString", "coordinates": [[-73.78816261979196, 40.63791864692548], [-73.78794328696728, 40.63820249610961]]}}, {"type": "Feature", "properties": {"segment_id": 274896, "physicalid": "20989", "street_name": "JFK ACCESS RD", "borough": "queens", "direction": "TW", "total_row_ft": 104.4, "roadbed_ft": 74.4, "median_ft": 0.0, "left_sw_ft": 15.0, "right_sw_ft": 15.0}, "geometry": {"type": "LineString", "coordinates": [[-73.78822472160167, 40.63794649421458], [-73.78800538894961, 40.63823034351633]]}}, {"type": "Feature", "properties": {"segment_id": 274897, "physicalid": "20989", "street_name": "JFK ACCESS RD", "borough": "queens", "direction": "TW", "total_row_ft": 106.5, "roadbed_ft": 76.5, "median_ft": 0.0, "left_sw_ft": 15.0, "right_sw_ft": 15.0}, "geometry": {"type": "LineString", "coordinates": [[-73.78828682346324, 40.637974341470105], [-73.78806749098378, 40.63825819088937]]}}, {"type": "Feature", "properties": {"segment_id": 274898, "physicalid": "20989", "street_name": "JFK ACCESS RD", "borough": "queens", "direction": "TW", "total_row_ft": 113.8, "roadbed_ft": 83.8, "median_ft": 0.0, "left_sw_ft": 15.0, "right_sw_ft": 15.0}, "geometry": {"type": "LineString", "coordinates": [[-73.78834892537662, 40.638002188691935], [-73.78812959306978, 40.6382860382288]]}}, {"type": "Feature", "properties": {"segment_id": 274899, "physicalid": "20989", "street_name": "JFK ACCESS RD", "borough": "queens", "direction": "TW", "total_row_ft": 144.1, "roadbed_ft": 114.1, "median_ft": 0.0, "left_sw_ft": 15.0, "right_sw_ft": 15.0}, "geometry": {"type": "LineString", "coordinates": [[-73.78841102734182, 40.63803003588018], [-73.78819169520763, 40.638313885534615]]}}, {"type": "Feature", "properties": {"segment_id": 274900, "physicalid": "20989", "street_name": "JFK ACCESS RD", "borough": "queens", "direction": "TW", "total_row_ft": 150.0, "roadbed_ft": 120.0, "median_ft": 0.0, "left_sw_ft": 15.0, "right_sw_ft": 15.0}, "geometry": {"type": "LineString", "coordinates": [[-73.78847312935883, 40.63805788303477], [-73.78825379739733, 40.63834173280684]]}}, {"type": "Feature", "properties": {"segment_id": 274901, "physicalid": "20989", "street_name": "JFK ACCESS RD", "borough": "queens", "direction": "TW", "total_row_ft": 150.0, "roadbed_ft": 120.0, "median_ft": 0.0, "left_sw_ft": 15.0, "right_sw_ft": 15.0}, "geometry": {"type": "LineString", "coordinates": [[-73.78853523142772, 40.63808573015575], [-73.78831589963883, 40.63836958004541]]}}, {"type": "Feature", "properties": {"segment_id": 274902, "physicalid": "20989", "street_name": "JFK ACCESS RD", "borough": "queens", "direction": "TW", "total_row_ft": 150.0, "roadbed_ft": 120.0, "median_ft": 0.0, "left_sw_ft": 15.0, "right_sw_ft": 15.0}, "geometry": {"type": "LineString", "coordinates": [[-73.78859733354844, 40.638113577243125], [-73.78837800193214, 40.63839742725035]]}}, {"type": "Feature", "properties": {"segment_id": 274903, "physicalid": "20989", "street_name": "JFK ACCESS RD", "borough": "queens", "direction": "TW", "total_row_ft": 150.0, "roadbed_ft": 120.0, "median_ft": 0.0, "left_sw_ft": 15.0, "right_sw_ft": 15.0}, "geometry": {"type": "LineString", "coordinates": [[-73.78865943572099, 40.63814142429686], [-73.78844010427731, 40.63842527442166]]}}, {"type": "Feature", "properties": {"segment_id": 274904, "physicalid": "20989", "street_name": "JFK ACCESS RD", "borough": "queens", "direction": "TW", "total_row_ft": 150.0, "roadbed_ft": 120.0, "median_ft": 0.0, "left_sw_ft": 15.0, "right_sw_ft": 15.0}, "geometry": {"type": "LineString", "coordinates": [[-73.78872153794534, 40.638169271316954], [-73.78850220667432, 40.63845312155936]]}}, {"type": "Feature", "properties": {"segment_id": 274905, "physicalid": "20989", "street_name": "JFK ACCESS RD", "borough": "queens", "direction": "TW", "total_row_ft": 150.0, "roadbed_ft": 120.0, "median_ft": 0.0, "left_sw_ft": 15.0, "right_sw_ft": 15.0}, "geometry": {"type": "LineString", "coordinates": [[-73.78878364022152, 40.63819711830344], [-73.78856430912319, 40.638480968663444]]}}, {"type": "Feature", "properties": {"segment_id": 274906, "physicalid": "20989", "street_name": "JFK ACCESS RD", "borough": "queens", "direction": "TW", "total_row_ft": 150.0, "roadbed_ft": 120.0, "median_ft": 0.0, "left_sw_ft": 15.0, "right_sw_ft": 15.0}, "geometry": {"type": "LineString", "coordinates": [[-73.78884574254955, 40.638224965256306], [-73.78862641162385, 40.638508815733886]]}}, {"type": "Feature", "properties": {"segment_id": 274907, "physicalid": "20989", "street_name": "JFK ACCESS RD", "borough": "queens", "direction": "TW", "total_row_ft": 150.0, "roadbed_ft": 120.0, "median_ft": 0.0, "left_sw_ft": 15.0, "right_sw_ft": 15.0}, "geometry": {"type": "LineString", "coordinates": [[-73.78890784492944, 40.63825281217555], [-73.78868851417633, 40.6385366627707]]}}, {"type": "Feature", "properties": {"segment_id": 274908, "physicalid": "20989", "street_name": "JFK ACCESS RD", "borough": "queens", "direction": "TW", "total_row_ft": 150.0, "roadbed_ft": 120.0, "median_ft": 0.0, "left_sw_ft": 15.0, "right_sw_ft": 15.0}, "geometry": {"type": "LineString", "coordinates": [[-73.78896994736112, 40.63828065906115], [-73.78875061678066, 40.638564509773914]]}}, {"type": "Feature", "properties": {"segment_id": 274909, "physicalid": "20989", "street_name": "JFK ACCESS RD", "borough": "queens", "direction": "TW", "total_row_ft": 150.0, "roadbed_ft": 120.0, "median_ft": 0.0, "left_sw_ft": 15.0, "right_sw_ft": 15.0}, "geometry": {"type": "LineString", "coordinates": [[-73.78903204984465, 40.63830850591315], [-73.78881271943682, 40.63859235674349]]}}, {"type": "Feature", "properties": {"segment_id": 274910, "physicalid": "20989", "street_name": "JFK ACCESS RD", "borough": "queens", "direction": "TW", "total_row_ft": 150.0, "roadbed_ft": 120.0, "median_ft": 0.0, "left_sw_ft": 15.0, "right_sw_ft": 15.0}, "geometry": {"type": "LineString", "coordinates": [[-73.78909415237999, 40.638336352731514], [-73.78887482214483, 40.63862020367943]]}}, {"type": "Feature", "properties": {"segment_id": 274911, "physicalid": "20989", "street_name": "JFK ACCESS RD", "borough": "queens", "direction": "TW", "total_row_ft": 150.0, "roadbed_ft": 120.0, "median_ft": 0.0, "left_sw_ft": 15.0, "right_sw_ft": 15.0}, "geometry": {"type": "LineString", "coordinates": [[-73.78915625496717, 40.63836419951623], [-73.78893692490468, 40.63864805058177]]}}, {"type": "Feature", "properties": {"segment_id": 274912, "physicalid": "20989", "street_name": "JFK ACCESS RD", "borough": "queens", "direction": "TW", "total_row_ft": 150.0, "roadbed_ft": 120.0, "median_ft": 0.0, "left_sw_ft": 15.0, "right_sw_ft": 15.0}, "geometry": {"type": "LineString", "coordinates": [[-73.78921835760622, 40.63839204626736], [-73.78899902771632, 40.638675897450454]]}}, {"type": "Feature", "properties": {"segment_id": 274913, "physicalid": "20989", "street_name": "JFK ACCESS RD", "borough": "queens", "direction": "TW", "total_row_ft": 150.0, "roadbed_ft": 120.0, "median_ft": 0.0, "left_sw_ft": 15.0, "right_sw_ft": 15.0}, "geometry": {"type": "LineString", "coordinates": [[-73.78928046029706, 40.63841989298485], [-73.7890611305798, 40.638703744285536]]}}, {"type": "Feature", "properties": {"segment_id": 274914, "physicalid": "20989", "street_name": "JFK ACCESS RD", "borough": "queens", "direction": "TW", "total_row_ft": 150.0, "roadbed_ft": 120.0, "median_ft": 0.0, "left_sw_ft": 15.0, "right_sw_ft": 15.0}, "geometry": {"type": "LineString", "coordinates": [[-73.78935286120858, 40.638455765927986], [-73.78910931228856, 40.63872791670216]]}}, {"type": "Feature", "properties": {"segment_id": 274915, "physicalid": "20989", "street_name": "JFK ACCESS RD", "borough": "queens", "direction": "TW", "total_row_ft": 119.5, "roadbed_ft": 89.5, "median_ft": 0.0, "left_sw_ft": 15.0, "right_sw_ft": 15.0}, "geometry": {"type": "LineString", "coordinates": [[-73.78941240408525, 40.63848668753808], [-73.78916885529516, 40.638758838437454]]}}, {"type": "Feature", "properties": {"segment_id": 274916, "physicalid": "20989", "street_name": "JFK ACCESS RD", "borough": "queens", "direction": "TW", "total_row_ft": 118.4, "roadbed_ft": 88.4, "median_ft": 0.0, "left_sw_ft": 15.0, "right_sw_ft": 15.0}, "geometry": {"type": "LineString", "coordinates": [[-73.78947194701709, 40.63851760911726], [-73.78922839835695, 40.638789760141805]]}}, {"type": "Feature", "properties": {"segment_id": 274917, "physicalid": "20989", "street_name": "JFK ACCESS RD", "borough": "queens", "direction": "TW", "total_row_ft": 117.4, "roadbed_ft": 87.4, "median_ft": 0.0, "left_sw_ft": 15.0, "right_sw_ft": 15.0}, "geometry": {"type": "LineString", "coordinates": [[-73.7895314900041, 40.6385485306655], [-73.78928794147396, 40.638820681815226]]}}, {"type": "Feature", "properties": {"segment_id": 274918, "physicalid": "20989", "street_name": "JFK ACCESS RD", "borough": "queens", "direction": "TW", "total_row_ft": 116.3, "roadbed_ft": 86.3, "median_ft": 0.0, "left_sw_ft": 15.0, "right_sw_ft": 15.0}, "geometry": {"type": "LineString", "coordinates": [[-73.78959103304629, 40.638579452182775], [-73.78934748464614, 40.63885160345772]]}}, {"type": "Feature", "properties": {"segment_id": 274919, "physicalid": "20989", "street_name": "JFK ACCESS RD", "borough": "queens", "direction": "TW", "total_row_ft": 116.3, "roadbed_ft": 86.3, "median_ft": 0.0, "left_sw_ft": 15.0, "right_sw_ft": 15.0}, "geometry": {"type": "LineString", "coordinates": [[-73.78965057614364, 40.63861037366914], [-73.78940702787352, 40.63888252506928]]}}, {"type": "Feature", "properties": {"segment_id": 274920, "physicalid": "20989", "street_name": "JFK ACCESS RD", "borough": "queens", "direction": "TW", "total_row_ft": 117.6, "roadbed_ft": 87.6, "median_ft": 0.0, "left_sw_ft": 15.0, "right_sw_ft": 15.0}, "geometry": {"type": "LineString", "coordinates": [[-73.7897101192962, 40.638641295124565], [-73.78946657115607, 40.63891344664987]]}}, {"type": "Feature", "properties": {"segment_id": 274921, "physicalid": "20989", "street_name": "JFK ACCESS RD", "borough": "queens", "direction": "TW", "total_row_ft": 119.0, "roadbed_ft": 89.0, "median_ft": 0.0, "left_sw_ft": 15.0, "right_sw_ft": 15.0}, "geometry": {"type": "LineString", "coordinates": [[-73.78976966250397, 40.63867221654907], [-73.78952611449377, 40.638944368199546]]}}, {"type": "Feature", "properties": {"segment_id": 274922, "physicalid": "20989", "street_name": "JFK ACCESS RD", "borough": "queens", "direction": "TW", "total_row_ft": 120.4, "roadbed_ft": 90.4, "median_ft": 0.0, "left_sw_ft": 15.0, "right_sw_ft": 15.0}, "geometry": {"type": "LineString", "coordinates": [[-73.7898292057669, 40.638703137942606], [-73.78958565788669, 40.638975289718275]]}}, {"type": "Feature", "properties": {"segment_id": 274923, "physicalid": "20989", "street_name": "JFK ACCESS RD", "borough": "queens", "direction": "TW", "total_row_ft": 121.8, "roadbed_ft": 91.8, "median_ft": 0.0, "left_sw_ft": 15.0, "right_sw_ft": 15.0}, "geometry": {"type": "LineString", "coordinates": [[-73.789888749085, 40.638734059305214], [-73.78964520133479, 40.63900621120609]]}}, {"type": "Feature", "properties": {"segment_id": 274924, "physicalid": "20989", "street_name": "JFK ACCESS RD", "borough": "queens", "direction": "TW", "total_row_ft": 123.2, "roadbed_ft": 93.2, "median_ft": 0.0, "left_sw_ft": 15.0, "right_sw_ft": 15.0}, "geometry": {"type": "LineString", "coordinates": [[-73.78994829245829, 40.638764980636886], [-73.78970474483808, 40.63903713266295]]}}, {"type": "Feature", "properties": {"segment_id": 274925, "physicalid": "20989", "street_name": "JFK ACCESS RD", "borough": "queens", "direction": "TW", "total_row_ft": 124.0, "roadbed_ft": 94.0, "median_ft": 0.0, "left_sw_ft": 15.0, "right_sw_ft": 15.0}, "geometry": {"type": "LineString", "coordinates": [[-73.78999904831521, 40.6387902571031], [-73.78977467175812, 40.63907181063391]]}}, {"type": "Feature", "properties": {"segment_id": 274926, "physicalid": "20989", "street_name": "JFK ACCESS RD", "borough": "queens", "direction": "TW", "total_row_ft": 124.2, "roadbed_ft": 94.2, "median_ft": 0.0, "left_sw_ft": 15.0, "right_sw_ft": 15.0}, "geometry": {"type": "LineString", "coordinates": [[-73.79006064868508, 40.63881874438956], [-73.78983627229208, 40.639100298039665]]}}]}