{"type": "FeatureCollection", "features": [{"type": "Feature", "properties": {"segment_id": 205240, "physicalid": "15910", "street_name": "BCH 3 ST", "borough": "queens", "direction": "TW", "total_row_ft": 99.6, "roadbed_ft": 69.6, "median_ft": 0.0, "left_sw_ft": 15.0, "right_sw_ft": 15.0}, "geometry": {"type": "LineString", "coordinates": [[-73.73912600799883, 40.59598103809121], [-73.73869396172034, 40.59597584244975]]}}, {"type": "Feature", "properties": {"segment_id": 205241, "physicalid": "15910", "street_name": "BCH 3 ST", "borough": "queens", "direction": "TW", "total_row_ft": 44.7, "roadbed_ft": 24.9, "median_ft": 0.0, "left_sw_ft": 4.8, "right_sw_ft": 15.0}, "geometry": {"type": "LineString", "coordinates": [[-73.73898704729355, 40.59603426997347], [-73.73869282553613, 40.59603073158627]]}}, {"type": "Feature", "properties": {"segment_id": 205242, "physicalid": "15910", "street_name": "BCH 3 ST", "borough": "queens", "direction": "TW", "total_row_ft": 45.3, "roadbed_ft": 25.2, "median_ft": 0.0, "left_sw_ft": 5.1, "right_sw_ft": 15.0}, "geometry": {"type": "LineString", "coordinates": [[-73.73898556947202, 40.59608915500149], [-73.73869168935008, 40.59608562072249]]}}, {"type": "Feature", "properties": {"segment_id": 205243, "physicalid": "15910", "street_name": "BCH 3 ST", "borough": "queens", "direction": "TW", "total_row_ft": 45.8, "roadbed_ft": 21.0, "median_ft": 0.0, "left_sw_ft": 9.8, "right_sw_ft": 15.0}, "geometry": {"type": "LineString", "coordinates": [[-73.73898409164805, 40.59614404002924], [-73.73869055316213, 40.59614050985832]]}}, {"type": "Feature", "properties": {"segment_id": 205244, "physicalid": "15910", "street_name": "BCH 3 ST", "borough": "queens", "direction": "TW", "total_row_ft": 46.4, "roadbed_ft": 21.8, "median_ft": 0.0, "left_sw_ft": 9.6, "right_sw_ft": 15.0}, "geometry": {"type": "LineString", "coordinates": [[-73.73898261382166, 40.59619892505667], [-73.73868941697232, 40.59619539899392]]}}, {"type": "Feature", "properties": {"segment_id": 205245, "physicalid": "15910", "street_name": "BCH 3 ST", "borough": "queens", "direction": "TW", "total_row_ft": 47.0, "roadbed_ft": 22.5, "median_ft": 0.0, "left_sw_ft": 9.4, "right_sw_ft": 15.0}, "geometry": {"type": "LineString", "coordinates": [[-73.73898113599284, 40.59625381008374], [-73.73868828078064, 40.59625028812929]]}}, {"type": "Feature", "properties": {"segment_id": 205246, "physicalid": "15910", "street_name": "BCH 3 ST", "borough": "queens", "direction": "TW", "total_row_ft": 47.3, "roadbed_ft": 23.0, "median_ft": 0.0, "left_sw_ft": 9.3, "right_sw_ft": 15.0}, "geometry": {"type": "LineString", "coordinates": [[-73.7389796581616, 40.596308695110515], [-73.73868714458709, 40.59630517726429]]}}, {"type": "Feature", "properties": {"segment_id": 205247, "physicalid": "15910", "street_name": "BCH 3 ST", "borough": "queens", "direction": "TW", "total_row_ft": 47.4, "roadbed_ft": 23.3, "median_ft": 0.0, "left_sw_ft": 9.1, "right_sw_ft": 15.0}, "geometry": {"type": "LineString", "coordinates": [[-73.7389781803279, 40.596363580137], [-73.73868600839168, 40.59636006639899]]}}, {"type": "Feature", "properties": {"segment_id": 205248, "physicalid": "15910", "street_name": "BCH 3 ST", "borough": "queens", "direction": "TW", "total_row_ft": 40.7, "roadbed_ft": 23.6, "median_ft": 0.0, "left_sw_ft": 9.0, "right_sw_ft": 8.1}, "geometry": {"type": "LineString", "coordinates": [[-73.7389767024918, 40.59641846516318], [-73.73883003066173, 40.59641670134089]]}}, {"type": "Feature", "properties": {"segment_id": 205249, "physicalid": "15910", "street_name": "BCH 3 ST", "borough": "queens", "direction": "TW", "total_row_ft": 40.4, "roadbed_ft": 23.6, "median_ft": 0.0, "left_sw_ft": 9.0, "right_sw_ft": 7.9}, "geometry": {"type": "LineString", "coordinates": [[-73.73897522465326, 40.596473350189044], [-73.73882974834797, 40.59647160074406]]}}, {"type": "Feature", "properties": {"segment_id": 205250, "physicalid": "15910", "street_name": "BCH 3 ST", "borough": "queens", "direction": "TW", "total_row_ft": 46.9, "roadbed_ft": 24.1, "median_ft": 0.0, "left_sw_ft": 15.0, "right_sw_ft": 7.8}, "geometry": {"type": "LineString", "coordinates": [[-73.73911464962342, 40.59652992948516], [-73.73882946603376, 40.596526500146894]]}}, {"type": "Feature", "properties": {"segment_id": 205251, "physicalid": "15910", "street_name": "BCH 3 ST", "borough": "queens", "direction": "TW", "total_row_ft": 46.0, "roadbed_ft": 23.3, "median_ft": 0.0, "left_sw_ft": 15.0, "right_sw_ft": 7.7}, "geometry": {"type": "LineString", "coordinates": [[-73.73911351377562, 40.59658481862289], [-73.73882918371909, 40.59658139954945]]}}, {"type": "Feature", "properties": {"segment_id": 205252, "physicalid": "15910", "street_name": "BCH 3 ST", "borough": "queens", "direction": "TW", "total_row_ft": 45.5, "roadbed_ft": 22.5, "median_ft": 0.0, "left_sw_ft": 15.0, "right_sw_ft": 8.0}, "geometry": {"type": "LineString", "coordinates": [[-73.73911237792593, 40.59663970776032], [-73.73882753843989, 40.596636282560375]]}}, {"type": "Feature", "properties": {"segment_id": 205253, "physicalid": "15910", "street_name": "BCH 3 ST", "borough": "queens", "direction": "TW", "total_row_ft": 45.1, "roadbed_ft": 22.0, "median_ft": 0.0, "left_sw_ft": 15.0, "right_sw_ft": 8.1}, "geometry": {"type": "LineString", "coordinates": [[-73.73911124207439, 40.59669459689742], [-73.73882569121439, 40.596691163142346]]}}, {"type": "Feature", "properties": {"segment_id": 205254, "physicalid": "15910", "street_name": "BCH 3 ST", "borough": "queens", "direction": "TW", "total_row_ft": 44.6, "roadbed_ft": 21.8, "median_ft": 0.0, "left_sw_ft": 15.0, "right_sw_ft": 7.8}, "geometry": {"type": "LineString", "coordinates": [[-73.73911010622098, 40.596749486034234], [-73.73882384398587, 40.596746043723975]]}}, {"type": "Feature", "properties": {"segment_id": 205255, "physicalid": "15911", "street_name": "BCH 3 ST", "borough": "queens", "direction": "TW", "total_row_ft": 38.3, "roadbed_ft": 24.3, "median_ft": 0.0, "left_sw_ft": 7.2, "right_sw_ft": 6.7}, "geometry": {"type": "LineString", "coordinates": [[-73.73865406461587, 40.594794371017215], [-73.73851942121603, 40.59481700510496]]}}, {"type": "Feature", "properties": {"segment_id": 205256, "physicalid": "15911", "street_name": "BCH 3 ST", "borough": "queens", "direction": "TW", "total_row_ft": 38.5, "roadbed_ft": 24.8, "median_ft": 0.0, "left_sw_ft": 6.9, "right_sw_ft": 6.8}, "geometry": {"type": "LineString", "coordinates": [[-73.73867052650202, 40.59484781869936], [-73.73853517078726, 40.59487057253155]]}}, {"type": "Feature", "properties": {"segment_id": 205257, "physicalid": "15911", "street_name": "BCH 3 ST", "borough": "queens", "direction": "TW", "total_row_ft": 38.7, "roadbed_ft": 25.2, "median_ft": 0.0, "left_sw_ft": 6.5, "right_sw_ft": 6.9}, "geometry": {"type": "LineString", "coordinates": [[-73.73868687763128, 40.59490128500203], [-73.73855092038379, 40.594924139955715]]}}, {"type": "Feature", "properties": {"segment_id": 205258, "physicalid": "15911", "street_name": "BCH 3 ST", "borough": "queens", "direction": "TW", "total_row_ft": 38.8, "roadbed_ft": 25.7, "median_ft": 0.0, "left_sw_ft": 6.1, "right_sw_ft": 7.0}, "geometry": {"type": "LineString", "coordinates": [[-73.73870298530356, 40.594954792232706], [-73.73856667000558, 40.594977707377474]]}}, {"type": "Feature", "properties": {"segment_id": 205259, "physicalid": "15911", "street_name": "BCH 3 ST", "borough": "queens", "direction": "TW", "total_row_ft": 38.9, "roadbed_ft": 25.6, "median_ft": 0.0, "left_sw_ft": 6.2, "right_sw_ft": 7.1}, "geometry": {"type": "LineString", "coordinates": [[-73.73871909300169, 40.5950082994609], [-73.73858241965263, 40.595031274796774]]}}, {"type": "Feature", "properties": {"segment_id": 205260, "physicalid": "15911", "street_name": "BCH 3 ST", "borough": "queens", "direction": "TW", "total_row_ft": 39.0, "roadbed_ft": 25.6, "median_ft": 0.0, "left_sw_ft": 6.2, "right_sw_ft": 7.2}, "geometry": {"type": "LineString", "coordinates": [[-73.73873520072561, 40.59506180668653], [-73.73859816932497, 40.59508484221363]]}}, {"type": "Feature", "properties": {"segment_id": 205261, "physicalid": "15911", "street_name": "BCH 3 ST", "borough": "queens", "direction": "TW", "total_row_ft": 39.1, "roadbed_ft": 25.5, "median_ft": 0.0, "left_sw_ft": 6.3, "right_sw_ft": 7.3}, "geometry": {"type": "LineString", "coordinates": [[-73.73875130847534, 40.595115313909645], [-73.73861391902257, 40.59513840962808]]}}, {"type": "Feature", "properties": {"segment_id": 205262, "physicalid": "15911", "street_name": "BCH 3 ST", "borough": "queens", "direction": "TW", "total_row_ft": 39.2, "roadbed_ft": 25.7, "median_ft": 0.0, "left_sw_ft": 6.2, "right_sw_ft": 7.4}, "geometry": {"type": "LineString", "coordinates": [[-73.73876742137391, 40.59516882026899], [-73.73862966435424, 40.595191977778256]]}}, {"type": "Feature", "properties": {"segment_id": 205263, "physicalid": "15911", "street_name": "BCH 3 ST", "borough": "queens", "direction": "TW", "total_row_ft": 39.4, "roadbed_ft": 25.8, "median_ft": 0.0, "left_sw_ft": 6.1, "right_sw_ft": 7.4}, "geometry": {"type": "LineString", "coordinates": [[-73.73878384834646, 40.595222273832874], [-73.73864540867147, 40.59524554610077]]}}, {"type": "Feature", "properties": {"segment_id": 205264, "physicalid": "15911", "street_name": "BCH 3 ST", "borough": "queens", "direction": "TW", "total_row_ft": 39.6, "roadbed_ft": 25.9, "median_ft": 0.0, "left_sw_ft": 6.1, "right_sw_ft": 7.5}, "geometry": {"type": "LineString", "coordinates": [[-73.7388002753453, 40.59527572739412], [-73.73866115301398, 40.59529911442085]]}}, {"type": "Feature", "properties": {"segment_id": 205265, "physicalid": "15911", "street_name": "BCH 3 ST", "borough": "queens", "direction": "TW", "total_row_ft": 39.8, "roadbed_ft": 25.8, "median_ft": 0.0, "left_sw_ft": 6.3, "right_sw_ft": 7.6}, "geometry": {"type": "LineString", "coordinates": [[-73.73881670239219, 40.59532918094905], [-73.73867689738175, 40.59535268273849]]}}, {"type": "Feature", "properties": {"segment_id": 205266, "physicalid": "15911", "street_name": "BCH 3 ST", "borough": "queens", "direction": "TW", "total_row_ft": 40.0, "roadbed_ft": 25.8, "median_ft": 0.0, "left_sw_ft": 6.4, "right_sw_ft": 7.8}, "geometry": {"type": "LineString", "coordinates": [[-73.73883312946816, 40.595382634500936], [-73.73869264177478, 40.59540625105372]]}}, {"type": "Feature", "properties": {"segment_id": 205267, "physicalid": "15911", "street_name": "BCH 3 ST", "borough": "queens", "direction": "TW", "total_row_ft": 40.1, "roadbed_ft": 25.7, "median_ft": 0.0, "left_sw_ft": 6.6, "right_sw_ft": 7.9}, "geometry": {"type": "LineString", "coordinates": [[-73.73884955657046, 40.595436088050185], [-73.738708386265, 40.59545981935439]]}}, {"type": "Feature", "properties": {"segment_id": 205268, "physicalid": "15911", "street_name": "BCH 3 ST", "borough": "queens", "direction": "TW", "total_row_ft": 40.3, "roadbed_ft": 25.6, "median_ft": 0.0, "left_sw_ft": 6.7, "right_sw_ft": 8.0}, "geometry": {"type": "LineString", "coordinates": [[-73.73886598369903, 40.59548954159677], [-73.73872413080447, 40.595513387648644]]}}, {"type": "Feature", "properties": {"segment_id": 205269, "physicalid": "15911", "street_name": "BCH 3 ST", "borough": "queens", "direction": "TW", "total_row_ft": 40.4, "roadbed_ft": 25.6, "median_ft": 0.0, "left_sw_ft": 6.9, "right_sw_ft": 8.0}, "geometry": {"type": "LineString", "coordinates": [[-73.73888227228761, 40.595543018434455], [-73.738740067612, 40.595566923623736]]}}, {"type": "Feature", "properties": {"segment_id": 205270, "physicalid": "15911", "street_name": "BCH 3 ST", "borough": "queens", "direction": "TW", "total_row_ft": 40.4, "roadbed_ft": 25.5, "median_ft": 0.0, "left_sw_ft": 6.9, "right_sw_ft": 8.0}, "geometry": {"type": "LineString", "coordinates": [[-73.73889833058581, 40.595596533986814], [-73.73875626406596, 40.59562041595318]]}}, {"type": "Feature", "properties": {"segment_id": 205271, "physicalid": "15911", "street_name": "BCH 3 ST", "borough": "queens", "direction": "TW", "total_row_ft": 40.4, "roadbed_ft": 25.4, "median_ft": 0.0, "left_sw_ft": 7.0, "right_sw_ft": 8.0}, "geometry": {"type": "LineString", "coordinates": [[-73.73891438890973, 40.595650049536644], [-73.73877246054587, 40.595673908280126]]}}, {"type": "Feature", "properties": {"segment_id": 205272, "physicalid": "15911", "street_name": "BCH 3 ST", "borough": "queens", "direction": "TW", "total_row_ft": 40.3, "roadbed_ft": 25.4, "median_ft": 0.0, "left_sw_ft": 6.9, "right_sw_ft": 8.0}, "geometry": {"type": "LineString", "coordinates": [[-73.7389304472594, 40.59570356508401], [-73.73878865705173, 40.595727400604446]]}}, {"type": "Feature", "properties": {"segment_id": 205273, "physicalid": "15911", "street_name": "BCH 3 ST", "borough": "queens", "direction": "TW", "total_row_ft": 40.3, "roadbed_ft": 25.4, "median_ft": 0.0, "left_sw_ft": 6.8, "right_sw_ft": 8.0}, "geometry": {"type": "LineString", "coordinates": [[-73.73894650563483, 40.5957570806288], [-73.73880485358353, 40.59578089292623]]}}, {"type": "Feature", "properties": {"segment_id": 205274, "physicalid": "15911", "street_name": "BCH 3 ST", "borough": "queens", "direction": "TW", "total_row_ft": 40.2, "roadbed_ft": 25.4, "median_ft": 0.0, "left_sw_ft": 6.7, "right_sw_ft": 8.1}, "geometry": {"type": "LineString", "coordinates": [[-73.73896256403597, 40.59581059617107], [-73.73882105014131, 40.59583438524549]]}}, {"type": "Feature", "properties": {"segment_id": 205275, "physicalid": "15911", "street_name": "BCH 3 ST", "borough": "queens", "direction": "TW", "total_row_ft": 54.3, "roadbed_ft": 25.0, "median_ft": 0.0, "left_sw_ft": 6.6, "right_sw_ft": 22.7}, "geometry": {"type": "LineString", "coordinates": [[-73.73897862246288, 40.59586411171086], [-73.7387877561697, 40.59589619708583]]}}, {"type": "Feature", "properties": {"segment_id": 209556, "physicalid": "16281", "street_name": "READS LN", "borough": "queens", "direction": "TW", "total_row_ft": 106.0, "roadbed_ft": 83.6, "median_ft": 0.0, "left_sw_ft": 15.0, "right_sw_ft": 7.4}, "geometry": {"type": "LineString", "coordinates": [[-73.73877732470284, 40.59961095178276], [-73.73852280780301, 40.5997683618507]]}}, {"type": "Feature", "properties": {"segment_id": 209557, "physicalid": "16281", "street_name": "READS LN", "borough": "queens", "direction": "TW", "total_row_ft": 60.5, "roadbed_ft": 44.7, "median_ft": 0.0, "left_sw_ft": 8.2, "right_sw_ft": 7.5}, "geometry": {"type": "LineString", "coordinates": [[-73.73873725604132, 40.59970642663913], [-73.73856819928473, 40.599810982405415]]}}, {"type": "Feature", "properties": {"segment_id": 209558, "physicalid": "16281", "street_name": "READS LN", "borough": "queens", "direction": "TW", "total_row_ft": 60.1, "roadbed_ft": 44.7, "median_ft": 0.0, "left_sw_ft": 7.8, "right_sw_ft": 7.6}, "geometry": {"type": "LineString", "coordinates": [[-73.73878195716141, 40.59974947413423], [-73.7386138164652, 40.599853463391334]]}}, {"type": "Feature", "properties": {"segment_id": 209559, "physicalid": "16281", "street_name": "READS LN", "borough": "queens", "direction": "TW", "total_row_ft": 59.7, "roadbed_ft": 44.7, "median_ft": 0.0, "left_sw_ft": 7.4, "right_sw_ft": 7.6}, "geometry": {"type": "LineString", "coordinates": [[-73.73882665833911, 40.59979252161172], [-73.73865968030151, 40.59989579184705]]}}, {"type": "Feature", "properties": {"segment_id": 209560, "physicalid": "16281", "street_name": "READS LN", "borough": "queens", "direction": "TW", "total_row_ft": 59.3, "roadbed_ft": 44.9, "median_ft": 0.0, "left_sw_ft": 7.0, "right_sw_ft": 7.5}, "geometry": {"type": "LineString", "coordinates": [[-73.73887135957446, 40.59983556907167], [-73.73870554419595, 40.59993812028429]]}}, {"type": "Feature", "properties": {"segment_id": 209561, "physicalid": "16281", "street_name": "READS LN", "borough": "queens", "direction": "TW", "total_row_ft": 58.9, "roadbed_ft": 45.0, "median_ft": 0.0, "left_sw_ft": 6.6, "right_sw_ft": 7.3}, "geometry": {"type": "LineString", "coordinates": [[-73.73891606086748, 40.59987861651404], [-73.73875140814853, 40.59998044870302]]}}, {"type": "Feature", "properties": {"segment_id": 209562, "physicalid": "16281", "street_name": "READS LN", "borough": "queens", "direction": "TW", "total_row_ft": 59.2, "roadbed_ft": 45.2, "median_ft": 0.0, "left_sw_ft": 6.6, "right_sw_ft": 7.4}, "geometry": {"type": "LineString", "coordinates": [[-73.73896190708794, 40.599920955873095], [-73.73879640752186, 40.60002331185131]]}}, {"type": "Feature", "properties": {"segment_id": 209568, "physicalid": "16282", "street_name": "READS LN", "borough": "queens", "direction": "TW", "total_row_ft": 38.9, "roadbed_ft": 21.0, "median_ft": 0.0, "left_sw_ft": 10.6, "right_sw_ft": 7.3}, "geometry": {"type": "LineString", "coordinates": [[-73.73849185774037, 40.59947094660497], [-73.73838102945011, 40.59953622210526]]}}, {"type": "Feature", "properties": {"segment_id": 209569, "physicalid": "16282", "street_name": "READS LN", "borough": "queens", "direction": "TW", "total_row_ft": 55.5, "roadbed_ft": 37.9, "median_ft": 0.0, "left_sw_ft": 10.4, "right_sw_ft": 7.2}, "geometry": {"type": "LineString", "coordinates": [[-73.73853780315143, 40.599513260773634], [-73.73837961232509, 40.59960643176788]]}}, {"type": "Feature", "properties": {"segment_id": 209570, "physicalid": "16282", "street_name": "READS LN", "borough": "queens", "direction": "TW", "total_row_ft": 61.6, "roadbed_ft": 44.8, "median_ft": 0.0, "left_sw_ft": 9.8, "right_sw_ft": 7.0}, "geometry": {"type": "LineString", "coordinates": [[-73.73858261650656, 40.59955624171667], [-73.73840703459445, 40.59965965569947]]}}, {"type": "Feature", "properties": {"segment_id": 209571, "physicalid": "16282", "street_name": "READS LN", "borough": "queens", "direction": "TW", "total_row_ft": 106.4, "roadbed_ft": 84.3, "median_ft": 0.0, "left_sw_ft": 15.0, "right_sw_ft": 7.1}, "geometry": {"type": "LineString", "coordinates": [[-73.7387128723464, 40.59954889864994], [-73.73845243900779, 40.5997022885814]]}}, {"type": "Feature", "properties": {"segment_id": 210256, "physicalid": "16346", "street_name": "BCH 6 ST", "borough": "queens", "direction": "TW", "total_row_ft": 135.0, "roadbed_ft": 87.4, "median_ft": 0.0, "left_sw_ft": 15.0, "right_sw_ft": 32.6}, "geometry": {"type": "LineString", "coordinates": [[-73.74004811687524, 40.597922717032034], [-73.7396525209659, 40.59805523704119]]}}, {"type": "Feature", "properties": {"segment_id": 210257, "physicalid": "16346", "street_name": "BCH 6 ST", "borough": "queens", "direction": "TW", "total_row_ft": 56.4, "roadbed_ft": 37.5, "median_ft": 0.0, "left_sw_ft": 7.8, "right_sw_ft": 11.2}, "geometry": {"type": "LineString", "coordinates": [[-73.7399608752967, 40.59801190549786], [-73.73977482673402, 40.59807422957648]]}}, {"type": "Feature", "properties": {"segment_id": 210258, "physicalid": "16346", "street_name": "BCH 6 ST", "borough": "queens", "direction": "TW", "total_row_ft": 56.2, "roadbed_ft": 38.1, "median_ft": 0.0, "left_sw_ft": 7.3, "right_sw_ft": 10.9}, "geometry": {"type": "LineString", "coordinates": [[-73.73999024216158, 40.59806203130779], [-73.73980482493668, 40.5981241439059]]}}, {"type": "Feature", "properties": {"segment_id": 210259, "physicalid": "16346", "street_name": "BCH 6 ST", "borough": "queens", "direction": "TW", "total_row_ft": 56.1, "roadbed_ft": 38.4, "median_ft": 0.0, "left_sw_ft": 7.0, "right_sw_ft": 10.7}, "geometry": {"type": "LineString", "coordinates": [[-73.74001960907054, 40.59811215710991], [-73.73983481883758, 40.59817405968341]]}}, {"type": "Feature", "properties": {"segment_id": 210260, "physicalid": "16346", "street_name": "BCH 6 ST", "borough": "queens", "direction": "TW", "total_row_ft": 55.9, "roadbed_ft": 38.4, "median_ft": 0.0, "left_sw_ft": 7.0, "right_sw_ft": 10.5}, "geometry": {"type": "LineString", "coordinates": [[-73.74004897602363, 40.59816228290433], [-73.73986479241076, 40.59822398227734]]}}, {"type": "Feature", "properties": {"segment_id": 210261, "physicalid": "16346", "street_name": "BCH 6 ST", "borough": "queens", "direction": "TW", "total_row_ft": 55.7, "roadbed_ft": 38.5, "median_ft": 0.0, "left_sw_ft": 7.0, "right_sw_ft": 10.2}, "geometry": {"type": "LineString", "coordinates": [[-73.74007834302076, 40.59821240869096], [-73.7398947660288, 40.59827390486323]]}}, {"type": "Feature", "properties": {"segment_id": 210649, "physicalid": "16373", "street_name": "SEAGIRT AVE", "borough": "queens", "direction": "TW", "total_row_ft": 48.8, "roadbed_ft": 35.9, "median_ft": 0.0, "left_sw_ft": 7.4, "right_sw_ft": 5.5}, "geometry": {"type": "LineString", "coordinates": [[-73.73846894425276, 40.595869116936704], [-73.73846258570606, 40.59600288181202]]}}, {"type": "Feature", "properties": {"segment_id": 210650, "physicalid": "16373", "street_name": "SEAGIRT AVE", "borough": "queens", "direction": "TW", "total_row_ft": 48.5, "roadbed_ft": 27.8, "median_ft": 0.0, "left_sw_ft": 7.4, "right_sw_ft": 13.3}, "geometry": {"type": "LineString", "coordinates": [[-73.73854094626839, 40.59587041705995], [-73.73853462182274, 40.59600346757168]]}}, {"type": "Feature", "properties": {"segment_id": 210651, "physicalid": "16373", "street_name": "SEAGIRT AVE", "borough": "queens", "direction": "TW", "total_row_ft": 50.2, "roadbed_ft": 27.7, "median_ft": 0.0, "left_sw_ft": 7.5, "right_sw_ft": 15.0}, "geometry": {"type": "LineString", "coordinates": [[-73.7386129482868, 40.59587171713811], [-73.73860240380888, 40.59609355130848]]}}, {"type": "Feature", "properties": {"segment_id": 210652, "physicalid": "16373", "street_name": "SEAGIRT AVE", "borough": "queens", "direction": "TW", "total_row_ft": 50.4, "roadbed_ft": 27.8, "median_ft": 0.0, "left_sw_ft": 7.6, "right_sw_ft": 15.0}, "geometry": {"type": "LineString", "coordinates": [[-73.73868495030803, 40.595873017171144], [-73.73867437338208, 40.59609553902921]]}}, {"type": "Feature", "properties": {"segment_id": 210653, "physicalid": "16373", "street_name": "SEAGIRT AVE", "borough": "queens", "direction": "TW", "total_row_ft": 49.9, "roadbed_ft": 27.2, "median_ft": 0.0, "left_sw_ft": 7.7, "right_sw_ft": 15.0}, "geometry": {"type": "LineString", "coordinates": [[-73.73875695233207, 40.59587431715905], [-73.73874634295959, 40.59609752670485]]}}, {"type": "Feature", "properties": {"segment_id": 210654, "physicalid": "16373", "street_name": "SEAGIRT AVE", "borough": "queens", "direction": "TW", "total_row_ft": 80.8, "roadbed_ft": 27.2, "median_ft": 0.0, "left_sw_ft": 38.7, "right_sw_ft": 15.0}, "geometry": {"type": "LineString", "coordinates": [[-73.73883359709916, 40.59577793625712], [-73.73881831254137, 40.59609951433544]]}}, {"type": "Feature", "properties": {"segment_id": 210655, "physicalid": "16374", "street_name": "SEAGIRT AVE", "borough": "queens", "direction": "TW", "total_row_ft": 67.6, "roadbed_ft": 36.2, "median_ft": 0.0, "left_sw_ft": 21.3, "right_sw_ft": 10.1}, "geometry": {"type": "LineString", "coordinates": [[-73.73896835287144, 40.59582988777539], [-73.73896233165102, 40.596015317345234]]}}, {"type": "Feature", "properties": {"segment_id": 210656, "physicalid": "16374", "street_name": "SEAGIRT AVE", "borough": "queens", "direction": "TW", "total_row_ft": 48.4, "roadbed_ft": 29.3, "median_ft": 0.0, "left_sw_ft": 7.3, "right_sw_ft": 11.9}, "geometry": {"type": "LineString", "coordinates": [[-73.73903870680354, 40.59588176973818], [-73.7390343924148, 40.596014640016364]]}}, {"type": "Feature", "properties": {"segment_id": 210657, "physicalid": "16374", "street_name": "SEAGIRT AVE", "borough": "queens", "direction": "TW", "total_row_ft": 48.2, "roadbed_ft": 28.9, "median_ft": 0.0, "left_sw_ft": 7.2, "right_sw_ft": 12.1}, "geometry": {"type": "LineString", "coordinates": [[-73.73911069100633, 40.59588344583141], [-73.73910639480556, 40.59601576036737]]}}, {"type": "Feature", "properties": {"segment_id": 210658, "physicalid": "16374", "street_name": "SEAGIRT AVE", "borough": "queens", "direction": "TW", "total_row_ft": 48.0, "roadbed_ft": 28.6, "median_ft": 0.0, "left_sw_ft": 7.1, "right_sw_ft": 12.4}, "geometry": {"type": "LineString", "coordinates": [[-73.73918267521272, 40.59588512187954], [-73.73917839719876, 40.596016880673275]]}}, {"type": "Feature", "properties": {"segment_id": 210659, "physicalid": "16374", "street_name": "SEAGIRT AVE", "borough": "queens", "direction": "TW", "total_row_ft": 48.0, "roadbed_ft": 28.4, "median_ft": 0.0, "left_sw_ft": 7.2, "right_sw_ft": 12.5}, "geometry": {"type": "LineString", "coordinates": [[-73.73925467950791, 40.595886179256354], [-73.73925039959435, 40.59601800093405]]}}, {"type": "Feature", "properties": {"segment_id": 210660, "physicalid": "16374", "street_name": "SEAGIRT AVE", "borough": "queens", "direction": "TW", "total_row_ft": 48.1, "roadbed_ft": 28.2, "median_ft": 0.0, "left_sw_ft": 7.4, "right_sw_ft": 12.5}, "geometry": {"type": "LineString", "coordinates": [[-73.73932669004435, 40.595887044420316], [-73.73932240302578, 40.59601908931971]]}}, {"type": "Feature", "properties": {"segment_id": 210661, "physicalid": "16374", "street_name": "SEAGIRT AVE", "borough": "queens", "direction": "TW", "total_row_ft": 48.1, "roadbed_ft": 28.1, "median_ft": 0.0, "left_sw_ft": 7.5, "right_sw_ft": 12.5}, "geometry": {"type": "LineString", "coordinates": [[-73.73939870058265, 40.59588790953917], [-73.73939441712857, 40.596019849032785]]}}, {"type": "Feature", "properties": {"segment_id": 210662, "physicalid": "16374", "street_name": "SEAGIRT AVE", "borough": "queens", "direction": "TW", "total_row_ft": 48.0, "roadbed_ft": 27.9, "median_ft": 0.0, "left_sw_ft": 7.7, "right_sw_ft": 12.4}, "geometry": {"type": "LineString", "coordinates": [[-73.73947071112283, 40.595888774612895], [-73.73946643123298, 40.59602060870074]]}}, {"type": "Feature", "properties": {"segment_id": 210663, "physicalid": "16374", "street_name": "SEAGIRT AVE", "borough": "queens", "direction": "TW", "total_row_ft": 48.0, "roadbed_ft": 27.8, "median_ft": 0.0, "left_sw_ft": 7.9, "right_sw_ft": 12.4}, "geometry": {"type": "LineString", "coordinates": [[-73.73954272166488, 40.5958896396415], [-73.73953844533904, 40.59602136832357]]}}, {"type": "Feature", "properties": {"segment_id": 210664, "physicalid": "16374", "street_name": "SEAGIRT AVE", "borough": "queens", "direction": "TW", "total_row_ft": 59.2, "roadbed_ft": 27.6, "median_ft": 0.0, "left_sw_ft": 19.3, "right_sw_ft": 12.3}, "geometry": {"type": "LineString", "coordinates": [[-73.73961812857625, 40.59578587848508], [-73.73961045944672, 40.59602212790123]]}}, {"type": "Feature", "properties": {"segment_id": 210665, "physicalid": "16375", "street_name": "SEAGIRT AVE", "borough": "queens", "direction": "TW", "total_row_ft": 51.2, "roadbed_ft": 29.3, "median_ft": 0.0, "left_sw_ft": 6.9, "right_sw_ft": 15.0}, "geometry": {"type": "LineString", "coordinates": [[-73.73979228260747, 40.59589468944373], [-73.73978422894955, 40.59611859749798]]}}, {"type": "Feature", "properties": {"segment_id": 210666, "physicalid": "16375", "street_name": "SEAGIRT AVE", "borough": "queens", "direction": "TW", "total_row_ft": 48.7, "roadbed_ft": 26.8, "median_ft": 0.0, "left_sw_ft": 7.0, "right_sw_ft": 15.0}, "geometry": {"type": "LineString", "coordinates": [[-73.73986419802252, 40.59589825463212], [-73.73985621872237, 40.59612010203253]]}}, {"type": "Feature", "properties": {"segment_id": 210667, "physicalid": "16375", "street_name": "SEAGIRT AVE", "borough": "queens", "direction": "TW", "total_row_ft": 47.3, "roadbed_ft": 24.9, "median_ft": 0.0, "left_sw_ft": 7.4, "right_sw_ft": 15.0}, "geometry": {"type": "LineString", "coordinates": [[-73.73993621795235, 40.5958989140825], [-73.7399282084984, 40.596121606522]]}}, {"type": "Feature", "properties": {"segment_id": 1166863, "physicalid": "81075", "street_name": "MEEHAN AVE", "borough": "queens", "direction": "TW", "total_row_ft": 53.6, "roadbed_ft": 37.9, "median_ft": 0.0, "left_sw_ft": 8.2, "right_sw_ft": 7.5}, "geometry": {"type": "LineString", "coordinates": [[-73.73945930248088, 40.59992589961651], [-73.73958216703096, 40.60003946876563]]}}, {"type": "Feature", "properties": {"segment_id": 1166864, "physicalid": "81075", "street_name": "MEEHAN AVE", "borough": "queens", "direction": "TW", "total_row_ft": 53.7, "roadbed_ft": 38.0, "median_ft": 0.0, "left_sw_ft": 8.4, "right_sw_ft": 7.4}, "geometry": {"type": "LineString", "coordinates": [[-73.73951464746095, 40.59989077063085], [-73.73963777520021, 40.60000458297058]]}}, {"type": "Feature", "properties": {"segment_id": 1166865, "physicalid": "81075", "street_name": "MEEHAN AVE", "borough": "queens", "direction": "TW", "total_row_ft": 53.9, "roadbed_ft": 38.1, "median_ft": 0.0, "left_sw_ft": 8.6, "right_sw_ft": 7.3}, "geometry": {"type": "LineString", "coordinates": [[-73.73956980781931, 40.59985547101805], [-73.7396933832869, 40.59996969712592]]}}, {"type": "Feature", "properties": {"segment_id": 1166866, "physicalid": "81075", "street_name": "MEEHAN AVE", "borough": "queens", "direction": "TW", "total_row_ft": 54.2, "roadbed_ft": 38.2, "median_ft": 0.0, "left_sw_ft": 8.8, "right_sw_ft": 7.2}, "geometry": {"type": "LineString", "coordinates": [[-73.7396249679816, 40.599820171251395], [-73.73974907906415, 40.59993489236381]]}}, {"type": "Feature", "properties": {"segment_id": 1166867, "physicalid": "81075", "street_name": "MEEHAN AVE", "borough": "queens", "direction": "TW", "total_row_ft": 54.4, "roadbed_ft": 38.2, "median_ft": 0.0, "left_sw_ft": 9.0, "right_sw_ft": 7.2}, "geometry": {"type": "LineString", "coordinates": [[-73.73968012808561, 40.59978487145813], [-73.73980478461276, 40.59990009666034]]}}, {"type": "Feature", "properties": {"segment_id": 1166868, "physicalid": "81075", "street_name": "MEEHAN AVE", "borough": "queens", "direction": "TW", "total_row_ft": 54.6, "roadbed_ft": 38.2, "median_ft": 0.0, "left_sw_ft": 9.2, "right_sw_ft": 7.2}, "geometry": {"type": "LineString", "coordinates": [[-73.73973528813131, 40.599749571638256], [-73.73986049013172, 40.59986530095603]]}}, {"type": "Feature", "properties": {"segment_id": 1166869, "physicalid": "81075", "street_name": "MEEHAN AVE", "borough": "queens", "direction": "TW", "total_row_ft": 54.9, "roadbed_ft": 38.3, "median_ft": 0.0, "left_sw_ft": 9.4, "right_sw_ft": 7.2}, "geometry": {"type": "LineString", "coordinates": [[-73.73979044811867, 40.59971427179179], [-73.73991618557224, 40.59983049596238]]}}, {"type": "Feature", "properties": {"segment_id": 1166870, "physicalid": "81075", "street_name": "MEEHAN AVE", "borough": "queens", "direction": "TW", "total_row_ft": 99.7, "roadbed_ft": 77.5, "median_ft": 0.0, "left_sw_ft": 15.0, "right_sw_ft": 7.2}, "geometry": {"type": "LineString", "coordinates": [[-73.73977783547292, 40.5996163268317], [-73.73997179636784, 40.59979561275484]]}}, {"type": "Feature", "properties": {"segment_id": 1166871, "physicalid": "81075", "street_name": "MEEHAN AVE", "borough": "queens", "direction": "TW", "total_row_ft": 55.2, "roadbed_ft": 38.3, "median_ft": 0.0, "left_sw_ft": 9.8, "right_sw_ft": 7.2}, "geometry": {"type": "LineString", "coordinates": [[-73.73990085070109, 40.599643748538504], [-73.74002740710536, 40.59976072952029]]}}, {"type": "Feature", "properties": {"segment_id": 1350034, "physicalid": "92169", "street_name": "JARVIS AVE", "borough": "queens", "direction": "TW", "total_row_ft": 150.0, "roadbed_ft": 120.0, "median_ft": 0.0, "left_sw_ft": 15.0, "right_sw_ft": 15.0}, "geometry": {"type": "LineString", "coordinates": [[-73.73848376335106, 40.599528063997084], [-73.73875196528817, 40.59978632086392]]}}, {"type": "Feature", "properties": {"segment_id": 1350035, "physicalid": "92169", "street_name": "JARVIS AVE", "borough": "queens", "direction": "TW", "total_row_ft": 57.3, "roadbed_ft": 37.3, "median_ft": 0.0, "left_sw_ft": 10.9, "right_sw_ft": 9.0}, "geometry": {"type": "LineString", "coordinates": [[-73.73860939149125, 40.59956058637894], [-73.73873739002325, 40.599683838561894]]}}, {"type": "Feature", "properties": {"segment_id": 1350036, "physicalid": "92169", "street_name": "JARVIS AVE", "borough": "queens", "direction": "TW", "total_row_ft": 57.1, "roadbed_ft": 37.4, "median_ft": 0.0, "left_sw_ft": 10.7, "right_sw_ft": 9.0}, "geometry": {"type": "LineString", "coordinates": [[-73.73866552483584, 40.599526190644866], [-73.73879314652245, 40.599649079859084]]}}, {"type": "Feature", "properties": {"segment_id": 1350037, "physicalid": "92169", "street_name": "JARVIS AVE", "borough": "queens", "direction": "TW", "total_row_ft": 56.9, "roadbed_ft": 37.5, "median_ft": 0.0, "left_sw_ft": 10.4, "right_sw_ft": 9.0}, "geometry": {"type": "LineString", "coordinates": [[-73.73872165809571, 40.59949179485736], [-73.73884890296961, 40.59961432113488]]}}, {"type": "Feature", "properties": {"segment_id": 1350038, "physicalid": "92169", "street_name": "JARVIS AVE", "borough": "queens", "direction": "TW", "total_row_ft": 57.0, "roadbed_ft": 37.5, "median_ft": 0.0, "left_sw_ft": 10.5, "right_sw_ft": 9.0}, "geometry": {"type": "LineString", "coordinates": [[-73.73877735106255, 40.59945697513157], [-73.7389046593587, 40.599579562383504]]}}, {"type": "Feature", "properties": {"segment_id": 1350039, "physicalid": "92169", "street_name": "JARVIS AVE", "borough": "queens", "direction": "TW", "total_row_ft": 57.1, "roadbed_ft": 37.4, "median_ft": 0.0, "left_sw_ft": 10.7, "right_sw_ft": 8.9}, "geometry": {"type": "LineString", "coordinates": [[-73.73883287599526, 40.59942199363149], [-73.73896041573936, 40.59954480365276]]}}, {"type": "Feature", "properties": {"segment_id": 1350040, "physicalid": "92169", "street_name": "JARVIS AVE", "borough": "queens", "direction": "TW", "total_row_ft": 57.2, "roadbed_ft": 37.4, "median_ft": 0.0, "left_sw_ft": 10.9, "right_sw_ft": 8.9}, "geometry": {"type": "LineString", "coordinates": [[-73.73888840087498, 40.5993870121095], [-73.7390161721163, 40.59951004494714]]}}, {"type": "Feature", "properties": {"segment_id": 1350041, "physicalid": "92169", "street_name": "JARVIS AVE", "borough": "queens", "direction": "TW", "total_row_ft": 57.3, "roadbed_ft": 37.2, "median_ft": 0.0, "left_sw_ft": 11.1, "right_sw_ft": 9.0}, "geometry": {"type": "LineString", "coordinates": [[-73.73894392578059, 40.59935203064147], [-73.73907192849077, 40.59947528626792]]}}, {"type": "Feature", "properties": {"segment_id": 1350042, "physicalid": "92169", "street_name": "JARVIS AVE", "borough": "queens", "direction": "TW", "total_row_ft": 57.4, "roadbed_ft": 37.2, "median_ft": 0.0, "left_sw_ft": 11.2, "right_sw_ft": 9.0}, "geometry": {"type": "LineString", "coordinates": [[-73.7389994503391, 40.59931704886834], [-73.73912768479622, 40.599440527550904]]}}, {"type": "Feature", "properties": {"segment_id": 1350043, "physicalid": "92169", "street_name": "JARVIS AVE", "borough": "queens", "direction": "TW", "total_row_ft": 57.4, "roadbed_ft": 37.2, "median_ft": 0.0, "left_sw_ft": 11.1, "right_sw_ft": 9.1}, "geometry": {"type": "LineString", "coordinates": [[-73.7390551181547, 40.59928220506868], [-73.73918344095452, 40.59940576872095]]}}, {"type": "Feature", "properties": {"segment_id": 1350044, "physicalid": "92169", "street_name": "JARVIS AVE", "borough": "queens", "direction": "TW", "total_row_ft": 57.4, "roadbed_ft": 37.2, "median_ft": 0.0, "left_sw_ft": 11.0, "right_sw_ft": 9.2}, "geometry": {"type": "LineString", "coordinates": [[-73.73911086271066, 40.59924743519229], [-73.73923919705477, 40.59937100986383]]}}, {"type": "Feature", "properties": {"segment_id": 1350045, "physicalid": "92169", "street_name": "JARVIS AVE", "borough": "queens", "direction": "TW", "total_row_ft": 57.5, "roadbed_ft": 37.2, "median_ft": 0.0, "left_sw_ft": 11.0, "right_sw_ft": 9.3}, "geometry": {"type": "LineString", "coordinates": [[-73.73916660720856, 40.599212665288704], [-73.73929503391457, 40.599336328799524]]}}, {"type": "Feature", "properties": {"segment_id": 1350046, "physicalid": "92169", "street_name": "JARVIS AVE", "borough": "queens", "direction": "TW", "total_row_ft": 57.5, "roadbed_ft": 37.2, "median_ft": 0.0, "left_sw_ft": 10.9, "right_sw_ft": 9.4}, "geometry": {"type": "LineString", "coordinates": [[-73.73922235164841, 40.59917789535798], [-73.73935087181583, 40.59930164876665]]}}, {"type": "Feature", "properties": {"segment_id": 1350047, "physicalid": "92169", "street_name": "JARVIS AVE", "borough": "queens", "direction": "TW", "total_row_ft": 108.1, "roadbed_ft": 82.2, "median_ft": 0.0, "left_sw_ft": 10.8, "right_sw_ft": 15.0}, "geometry": {"type": "LineString", "coordinates": [[-73.73927809603023, 40.59914312540009], [-73.73948607014415, 40.599343385383044]]}}, {"type": "Feature", "properties": {"segment_id": 1350048, "physicalid": "92169", "street_name": "JARVIS AVE", "borough": "queens", "direction": "TW", "total_row_ft": 57.6, "roadbed_ft": 37.9, "median_ft": 0.0, "left_sw_ft": 10.8, "right_sw_ft": 8.9}, "geometry": {"type": "LineString", "coordinates": [[-73.73933385110686, 40.59910836576916], [-73.73946254687681, 40.59923228807269]]}}, {"type": "Feature", "properties": {"segment_id": 1350049, "physicalid": "92169", "street_name": "JARVIS AVE", "borough": "queens", "direction": "TW", "total_row_ft": 57.6, "roadbed_ft": 37.2, "median_ft": 0.0, "left_sw_ft": 10.7, "right_sw_ft": 9.8}, "geometry": {"type": "LineString", "coordinates": [[-73.73938961262017, 40.59907361236488], [-73.73951838434506, 40.59919760770869]]}}, {"type": "Feature", "properties": {"segment_id": 1350050, "physicalid": "92169", "street_name": "JARVIS AVE", "borough": "queens", "direction": "TW", "total_row_ft": 57.6, "roadbed_ft": 37.2, "median_ft": 0.0, "left_sw_ft": 10.6, "right_sw_ft": 9.9}, "geometry": {"type": "LineString", "coordinates": [[-73.73944537407542, 40.59903885893342], [-73.73957422177813, 40.59916292733942]]}}, {"type": "Feature", "properties": {"segment_id": 1350051, "physicalid": "92169", "street_name": "JARVIS AVE", "borough": "queens", "direction": "TW", "total_row_ft": 57.7, "roadbed_ft": 37.4, "median_ft": 0.0, "left_sw_ft": 10.5, "right_sw_ft": 9.9}, "geometry": {"type": "LineString", "coordinates": [[-73.73950113547261, 40.59900410547479], [-73.7396300998496, 40.59912828612965]]}}, {"type": "Feature", "properties": {"segment_id": 1350052, "physicalid": "92169", "street_name": "JARVIS AVE", "borough": "queens", "direction": "TW", "total_row_ft": 58.2, "roadbed_ft": 37.5, "median_ft": 0.0, "left_sw_ft": 10.4, "right_sw_ft": 10.3}, "geometry": {"type": "LineString", "coordinates": [[-73.73955689681178, 40.59896935198898], [-73.73968696185422, 40.59909459238108]]}}, {"type": "Feature", "properties": {"segment_id": 1350053, "physicalid": "92169", "street_name": "JARVIS AVE", "borough": "queens", "direction": "TW", "total_row_ft": 58.7, "roadbed_ft": 37.6, "median_ft": 0.0, "left_sw_ft": 10.3, "right_sw_ft": 10.8}, "geometry": {"type": "LineString", "coordinates": [[-73.73961265809288, 40.598934598476], [-73.73974382380145, 40.59906089860427]]}}, {"type": "Feature", "properties": {"segment_id": 1350054, "physicalid": "92169", "street_name": "JARVIS AVE", "borough": "queens", "direction": "TW", "total_row_ft": 58.5, "roadbed_ft": 38.0, "median_ft": 0.0, "left_sw_ft": 9.8, "right_sw_ft": 10.7}, "geometry": {"type": "LineString", "coordinates": [[-73.73966928850366, 40.59890068188252], [-73.7398000086696, 40.599026552893754]]}}, {"type": "Feature", "properties": {"segment_id": 1350055, "physicalid": "92169", "street_name": "JARVIS AVE", "borough": "queens", "direction": "TW", "total_row_ft": 57.8, "roadbed_ft": 38.5, "median_ft": 0.0, "left_sw_ft": 9.4, "right_sw_ft": 10.0}, "geometry": {"type": "LineString", "coordinates": [[-73.739726207721, 40.59886704340999], [-73.73985541453098, 40.59899145710478]]}}, {"type": "Feature", "properties": {"segment_id": 1350056, "physicalid": "92169", "street_name": "JARVIS AVE", "borough": "queens", "direction": "TW", "total_row_ft": 58.7, "roadbed_ft": 38.8, "median_ft": 0.0, "left_sw_ft": 9.1, "right_sw_ft": 10.8}, "geometry": {"type": "LineString", "coordinates": [[-73.73978312688101, 40.59883340490915], [-73.73991440864839, 40.598959816478136]]}}, {"type": "Feature", "properties": {"segment_id": 1350057, "physicalid": "92169", "street_name": "JARVIS AVE", "borough": "queens", "direction": "TW", "total_row_ft": 59.0, "roadbed_ft": 38.8, "median_ft": 0.0, "left_sw_ft": 9.1, "right_sw_ft": 11.0}, "geometry": {"type": "LineString", "coordinates": [[-73.7398400460335, 40.59879976642802], [-73.73997182370337, 40.598926655396546]]}}, {"type": "Feature", "properties": {"segment_id": 1350058, "physicalid": "92169", "street_name": "JARVIS AVE", "borough": "queens", "direction": "TW", "total_row_ft": 59.2, "roadbed_ft": 38.7, "median_ft": 0.0, "left_sw_ft": 9.3, "right_sw_ft": 11.2}, "geometry": {"type": "LineString", "coordinates": [[-73.73989696514259, 40.59876612793196], [-73.7400293820673, 40.59889363233313]]}}, {"type": "Feature", "properties": {"segment_id": 1496931, "physicalid": "101009", "street_name": "BCH 4 ST", "borough": "queens", "direction": "TW", "total_row_ft": 37.8, "roadbed_ft": 28.5, "median_ft": 0.0, "left_sw_ft": 3.5, "right_sw_ft": 5.8}, "geometry": {"type": "LineString", "coordinates": [[-73.73948619330974, 40.59490279558223], [-73.7393536463577, 40.594926460079044]]}}, {"type": "Feature", "properties": {"segment_id": 1496932, "physicalid": "101009", "street_name": "BCH 4 ST", "borough": "queens", "direction": "TW", "total_row_ft": 38.0, "roadbed_ft": 28.6, "median_ft": 0.0, "left_sw_ft": 3.6, "right_sw_ft": 5.7}, "geometry": {"type": "LineString", "coordinates": [[-73.73950268965096, 40.59495623194776], [-73.73936953420498, 40.59498000508369]]}}, {"type": "Feature", "properties": {"segment_id": 1496933, "physicalid": "101009", "street_name": "BCH 4 ST", "borough": "queens", "direction": "TW", "total_row_ft": 38.2, "roadbed_ft": 28.7, "median_ft": 0.0, "left_sw_ft": 3.7, "right_sw_ft": 5.7}, "geometry": {"type": "LineString", "coordinates": [[-73.73951918659701, 40.59500966820735], [-73.73938542207777, 40.59503355008588]]}}, {"type": "Feature", "properties": {"segment_id": 1496934, "physicalid": "101009", "street_name": "BCH 4 ST", "borough": "queens", "direction": "TW", "total_row_ft": 38.3, "roadbed_ft": 28.9, "median_ft": 0.0, "left_sw_ft": 3.8, "right_sw_ft": 5.7}, "geometry": {"type": "LineString", "coordinates": [[-73.73953568344889, 40.59506310448584], [-73.73940130997603, 40.59508709508558]]}}, {"type": "Feature", "properties": {"segment_id": 1496935, "physicalid": "101009", "street_name": "BCH 4 ST", "borough": "queens", "direction": "TW", "total_row_ft": 38.5, "roadbed_ft": 29.0, "median_ft": 0.0, "left_sw_ft": 3.9, "right_sw_ft": 5.6}, "geometry": {"type": "LineString", "coordinates": [[-73.7395521800357, 40.59511654081371], [-73.73941720419447, 40.59514063895898]]}}, {"type": "Feature", "properties": {"segment_id": 1496936, "physicalid": "101009", "street_name": "BCH 4 ST", "borough": "queens", "direction": "TW", "total_row_ft": 38.6, "roadbed_ft": 29.0, "median_ft": 0.0, "left_sw_ft": 4.0, "right_sw_ft": 5.6}, "geometry": {"type": "LineString", "coordinates": [[-73.73956867690815, 40.59516997709269], [-73.73943331205133, 40.59519414469228]]}}, {"type": "Feature", "properties": {"segment_id": 1496937, "physicalid": "101009", "street_name": "BCH 4 ST", "borough": "queens", "direction": "TW", "total_row_ft": 38.7, "roadbed_ft": 29.0, "median_ft": 0.0, "left_sw_ft": 4.1, "right_sw_ft": 5.6}, "geometry": {"type": "LineString", "coordinates": [[-73.73958517380701, 40.59522341336901], [-73.73944941993399, 40.59524765042303]]}}, {"type": "Feature", "properties": {"segment_id": 1496938, "physicalid": "101009", "street_name": "BCH 4 ST", "borough": "queens", "direction": "TW", "total_row_ft": 38.8, "roadbed_ft": 28.9, "median_ft": 0.0, "left_sw_ft": 4.3, "right_sw_ft": 5.7}, "geometry": {"type": "LineString", "coordinates": [[-73.73960167073227, 40.59527684964267], [-73.7394655278425, 40.595301156151294]]}}, {"type": "Feature", "properties": {"segment_id": 1496939, "physicalid": "101009", "street_name": "BCH 4 ST", "borough": "queens", "direction": "TW", "total_row_ft": 38.9, "roadbed_ft": 28.8, "median_ft": 0.0, "left_sw_ft": 4.4, "right_sw_ft": 5.7}, "geometry": {"type": "LineString", "coordinates": [[-73.73961816768394, 40.59533028591372], [-73.73948163577678, 40.59535466187698]]}}, {"type": "Feature", "properties": {"segment_id": 1496940, "physicalid": "101009", "street_name": "BCH 4 ST", "borough": "queens", "direction": "TW", "total_row_ft": 38.8, "roadbed_ft": 28.8, "median_ft": 0.0, "left_sw_ft": 4.3, "right_sw_ft": 5.7}, "geometry": {"type": "LineString", "coordinates": [[-73.73963391431772, 40.59538385614662], [-73.73949774373692, 40.59540816760016]]}}, {"type": "Feature", "properties": {"segment_id": 1496941, "physicalid": "101009", "street_name": "BCH 4 ST", "borough": "queens", "direction": "TW", "total_row_ft": 38.7, "roadbed_ft": 28.7, "median_ft": 0.0, "left_sw_ft": 4.2, "right_sw_ft": 5.8}, "geometry": {"type": "LineString", "coordinates": [[-73.73964948531119, 40.59543745773998], [-73.7395138517583, 40.595461673314475]]}}, {"type": "Feature", "properties": {"segment_id": 1496942, "physicalid": "101009", "street_name": "BCH 4 ST", "borough": "queens", "direction": "TW", "total_row_ft": 38.5, "roadbed_ft": 28.6, "median_ft": 0.0, "left_sw_ft": 4.1, "right_sw_ft": 5.8}, "geometry": {"type": "LineString", "coordinates": [[-73.73966505623302, 40.59549105934818], [-73.73952995981921, 40.595515179023785]]}}, {"type": "Feature", "properties": {"segment_id": 1496943, "physicalid": "101009", "street_name": "BCH 4 ST", "borough": "queens", "direction": "TW", "total_row_ft": 38.4, "roadbed_ft": 28.6, "median_ft": 0.0, "left_sw_ft": 3.9, "right_sw_ft": 5.9}, "geometry": {"type": "LineString", "coordinates": [[-73.73968062717987, 40.59554466095402], [-73.73954603588597, 40.59556869044731]]}}, {"type": "Feature", "properties": {"segment_id": 1496944, "physicalid": "101009", "street_name": "BCH 4 ST", "borough": "queens", "direction": "TW", "total_row_ft": 38.2, "roadbed_ft": 28.6, "median_ft": 0.0, "left_sw_ft": 3.8, "right_sw_ft": 5.9}, "geometry": {"type": "LineString", "coordinates": [[-73.7396961981517, 40.595598262557466], [-73.73956211085884, 40.595622202068185]]}}, {"type": "Feature", "properties": {"segment_id": 1496945, "physicalid": "101009", "street_name": "BCH 4 ST", "borough": "queens", "direction": "TW", "total_row_ft": 38.3, "roadbed_ft": 28.7, "median_ft": 0.0, "left_sw_ft": 3.7, "right_sw_ft": 5.8}, "geometry": {"type": "LineString", "coordinates": [[-73.73971231944832, 40.59565176590944], [-73.7395781858575, 40.59567571368655]]}}, {"type": "Feature", "properties": {"segment_id": 1496946, "physicalid": "101009", "street_name": "BCH 4 ST", "borough": "queens", "direction": "TW", "total_row_ft": 38.3, "roadbed_ft": 28.9, "median_ft": 0.0, "left_sw_ft": 3.7, "right_sw_ft": 5.8}, "geometry": {"type": "LineString", "coordinates": [[-73.73972868984653, 40.59570522478952], [-73.73959426088192, 40.59572922530237]]}}, {"type": "Feature", "properties": {"segment_id": 1496947, "physicalid": "101009", "street_name": "BCH 4 ST", "borough": "queens", "direction": "TW", "total_row_ft": 38.4, "roadbed_ft": 29.1, "median_ft": 0.0, "left_sw_ft": 3.7, "right_sw_ft": 5.7}, "geometry": {"type": "LineString", "coordinates": [[-73.73974506027098, 40.59575868366697], [-73.73961033593208, 40.59578273691568]]}}, {"type": "Feature", "properties": {"segment_id": 1496948, "physicalid": "101009", "street_name": "BCH 4 ST", "borough": "queens", "direction": "TW", "total_row_ft": 38.5, "roadbed_ft": 29.2, "median_ft": 0.0, "left_sw_ft": 3.6, "right_sw_ft": 5.7}, "geometry": {"type": "LineString", "coordinates": [[-73.73976143072163, 40.595812142541845], [-73.73962641100802, 40.59583624852646]]}}, {"type": "Feature", "properties": {"segment_id": 1496949, "physicalid": "101009", "street_name": "BCH 4 ST", "borough": "queens", "direction": "TW", "total_row_ft": 72.4, "roadbed_ft": 29.4, "median_ft": 0.0, "left_sw_ft": 3.6, "right_sw_ft": 39.4}, "geometry": {"type": "LineString", "coordinates": [[-73.7397778011985, 40.59586560141408], [-73.73952399924272, 40.59591091425352]]}}, {"type": "Feature", "properties": {"segment_id": 1531620, "physicalid": "103156", "street_name": "SEAGIRT BLVD", "borough": "queens", "direction": "FT", "total_row_ft": 150.0, "roadbed_ft": 109.2, "median_ft": 10.8, "left_sw_ft": 15.0, "right_sw_ft": 15.0}, "geometry": {"type": "LineString", "coordinates": [[-73.73980016310773, 40.59778291654778], [-73.73995761335163, 40.598089648722095]]}}, {"type": "Feature", "properties": {"segment_id": 1531621, "physicalid": "103156", "street_name": "SEAGIRT BLVD", "borough": "queens", "direction": "FT", "total_row_ft": 100.0, "roadbed_ft": 63.9, "median_ft": 10.8, "left_sw_ft": 15.0, "right_sw_ft": 10.3}, "geometry": {"type": "LineString", "coordinates": [[-73.73986723067071, 40.59776291396376], [-73.73997875257707, 40.59798017205483]]}}, {"type": "Feature", "properties": {"segment_id": 1531622, "physicalid": "103156", "street_name": "SEAGIRT BLVD", "borough": "queens", "direction": "FT", "total_row_ft": 100.0, "roadbed_ft": 64.3, "median_ft": 10.6, "left_sw_ft": 15.0, "right_sw_ft": 10.1}, "geometry": {"type": "LineString", "coordinates": [[-73.73993429819359, 40.59774291134056], [-73.74004576492203, 40.59796006151439]]}}, {"type": "Feature", "properties": {"segment_id": 1663296, "physicalid": "167163", "street_name": "SEAGIRT BLVD", "borough": "queens", "direction": "TF", "total_row_ft": 115.1, "roadbed_ft": 74.7, "median_ft": 10.4, "left_sw_ft": 15.0, "right_sw_ft": 15.0}, "geometry": {"type": "LineString", "coordinates": [[-73.73866245293695, 40.59786845280583], [-73.73882693932694, 40.598173032103]]}}, {"type": "Feature", "properties": {"segment_id": 1663297, "physicalid": "167163", "street_name": "SEAGIRT BLVD", "borough": "queens", "direction": "TF", "total_row_ft": 113.3, "roadbed_ft": 72.8, "median_ft": 10.5, "left_sw_ft": 15.0, "right_sw_ft": 15.0}, "geometry": {"type": "LineString", "coordinates": [[-73.73872904985662, 40.59784755637254], [-73.73889353649898, 40.59815213557499]]}}, {"type": "Feature", "properties": {"segment_id": 1663298, "physicalid": "167163", "street_name": "SEAGIRT BLVD", "borough": "queens", "direction": "TF", "total_row_ft": 112.3, "roadbed_ft": 71.7, "median_ft": 10.6, "left_sw_ft": 15.0, "right_sw_ft": 15.0}, "geometry": {"type": "LineString", "coordinates": [[-73.73879564673463, 40.59782665990061], [-73.73896013362932, 40.59813123900835]]}}, {"type": "Feature", "properties": {"segment_id": 1663299, "physicalid": "167163", "street_name": "SEAGIRT BLVD", "borough": "queens", "direction": "TF", "total_row_ft": 111.3, "roadbed_ft": 70.7, "median_ft": 10.6, "left_sw_ft": 15.0, "right_sw_ft": 15.0}, "geometry": {"type": "LineString", "coordinates": [[-73.73886224357096, 40.59780576339002], [-73.73902673071795, 40.59811034240307]]}}, {"type": "Feature", "properties": {"segment_id": 1663300, "physicalid": "167163", "street_name": "SEAGIRT BLVD", "borough": "queens", "direction": "TF", "total_row_ft": 110.7, "roadbed_ft": 70.1, "median_ft": 10.6, "left_sw_ft": 15.0, "right_sw_ft": 15.0}, "geometry": {"type": "LineString", "coordinates": [[-73.73892884036566, 40.5977848668408], [-73.73909332776486, 40.598089445759165]]}}, {"type": "Feature", "properties": {"segment_id": 1663301, "physicalid": "167163", "street_name": "SEAGIRT BLVD", "borough": "queens", "direction": "TF", "total_row_ft": 110.2, "roadbed_ft": 69.5, "median_ft": 10.7, "left_sw_ft": 15.0, "right_sw_ft": 15.0}, "geometry": {"type": "LineString", "coordinates": [[-73.73899543711862, 40.597763970252956], [-73.73915992477014, 40.598068549076636]]}}, {"type": "Feature", "properties": {"segment_id": 1663302, "physicalid": "167163", "street_name": "SEAGIRT BLVD", "borough": "queens", "direction": "TF", "total_row_ft": 109.8, "roadbed_ft": 68.9, "median_ft": 10.9, "left_sw_ft": 15.0, "right_sw_ft": 15.0}, "geometry": {"type": "LineString", "coordinates": [[-73.7390620338299, 40.597743073626475], [-73.73922652173374, 40.59804765235545]]}}, {"type": "Feature", "properties": {"segment_id": 1663303, "physicalid": "167163", "street_name": "SEAGIRT BLVD", "borough": "queens", "direction": "TF", "total_row_ft": 109.6, "roadbed_ft": 68.6, "median_ft": 11.0, "left_sw_ft": 15.0, "right_sw_ft": 15.0}, "geometry": {"type": "LineString", "coordinates": [[-73.7391286304995, 40.597722176961355], [-73.73929311865565, 40.59802675559559]]}}, {"type": "Feature", "properties": {"segment_id": 1663304, "physicalid": "167163", "street_name": "SEAGIRT BLVD", "borough": "queens", "direction": "TF", "total_row_ft": 109.4, "roadbed_ft": 68.3, "median_ft": 11.1, "left_sw_ft": 15.0, "right_sw_ft": 15.0}, "geometry": {"type": "LineString", "coordinates": [[-73.73919522712741, 40.59770128025758], [-73.73935971553587, 40.598005858797144]]}}, {"type": "Feature", "properties": {"segment_id": 1663305, "physicalid": "167163", "street_name": "SEAGIRT BLVD", "borough": "queens", "direction": "TF", "total_row_ft": 109.2, "roadbed_ft": 68.0, "median_ft": 11.2, "left_sw_ft": 15.0, "right_sw_ft": 15.0}, "geometry": {"type": "LineString", "coordinates": [[-73.73926182371363, 40.5976803835152], [-73.7394263123744, 40.597984961960044]]}}, {"type": "Feature", "properties": {"segment_id": 1663306, "physicalid": "167163", "street_name": "SEAGIRT BLVD", "borough": "queens", "direction": "TF", "total_row_ft": 109.0, "roadbed_ft": 67.7, "median_ft": 11.4, "left_sw_ft": 15.0, "right_sw_ft": 15.0}, "geometry": {"type": "LineString", "coordinates": [[-73.73932842025813, 40.59765948673418], [-73.73949290917129, 40.5979640650843]]}}, {"type": "Feature", "properties": {"segment_id": 1663307, "physicalid": "167163", "street_name": "SEAGIRT BLVD", "borough": "queens", "direction": "TF", "total_row_ft": 108.8, "roadbed_ft": 67.3, "median_ft": 11.5, "left_sw_ft": 15.0, "right_sw_ft": 15.0}, "geometry": {"type": "LineString", "coordinates": [[-73.73939501676101, 40.59763858991451], [-73.73955950592645, 40.59794316816995]]}}, {"type": "Feature", "properties": {"segment_id": 1663308, "physicalid": "167163", "street_name": "SEAGIRT BLVD", "borough": "queens", "direction": "TF", "total_row_ft": 108.2, "roadbed_ft": 66.5, "median_ft": 11.7, "left_sw_ft": 15.0, "right_sw_ft": 15.0}, "geometry": {"type": "LineString", "coordinates": [[-73.73946161322222, 40.59761769305622], [-73.7396261026399, 40.59792227121696]]}}, {"type": "Feature", "properties": {"segment_id": 1663309, "physicalid": "167163", "street_name": "SEAGIRT BLVD", "borough": "queens", "direction": "TF", "total_row_ft": 107.6, "roadbed_ft": 65.8, "median_ft": 11.8, "left_sw_ft": 15.0, "right_sw_ft": 15.0}, "geometry": {"type": "LineString", "coordinates": [[-73.73952820964172, 40.59759679615928], [-73.73969269931168, 40.59790137422532]]}}, {"type": "Feature", "properties": {"segment_id": 1663310, "physicalid": "167163", "street_name": "SEAGIRT BLVD", "borough": "queens", "direction": "TF", "total_row_ft": 107.0, "roadbed_ft": 65.1, "median_ft": 11.9, "left_sw_ft": 15.0, "right_sw_ft": 15.0}, "geometry": {"type": "LineString", "coordinates": [[-73.73959480601951, 40.597575899223706], [-73.7397592959418, 40.59788047719505]]}}, {"type": "Feature", "properties": {"segment_id": 1663311, "physicalid": "167163", "street_name": "SEAGIRT BLVD", "borough": "queens", "direction": "TF", "total_row_ft": 106.7, "roadbed_ft": 64.7, "median_ft": 12.0, "left_sw_ft": 15.0, "right_sw_ft": 15.0}, "geometry": {"type": "LineString", "coordinates": [[-73.73966474304451, 40.5975546553437], [-73.73982316922033, 40.59786109525406]]}}, {"type": "Feature", "properties": {"segment_id": 1663312, "physicalid": "167163", "street_name": "SEAGIRT BLVD", "borough": "queens", "direction": "TF", "total_row_ft": 106.5, "roadbed_ft": 64.4, "median_ft": 12.1, "left_sw_ft": 15.0, "right_sw_ft": 15.0}, "geometry": {"type": "LineString", "coordinates": [[-73.73973174647313, 40.59753452870743], [-73.7398901729087, 40.59784096852603]]}}, {"type": "Feature", "properties": {"segment_id": 1663313, "physicalid": "167163", "street_name": "SEAGIRT BLVD", "borough": "queens", "direction": "TF", "total_row_ft": 106.4, "roadbed_ft": 64.2, "median_ft": 12.2, "left_sw_ft": 15.0, "right_sw_ft": 15.0}, "geometry": {"type": "LineString", "coordinates": [[-73.73979874986136, 40.59751440203208], [-73.73995717655664, 40.59782084175894]]}}, {"type": "Feature", "properties": {"segment_id": 1663314, "physicalid": "167163", "street_name": "SEAGIRT BLVD", "borough": "queens", "direction": "TF", "total_row_ft": 106.2, "roadbed_ft": 63.8, "median_ft": 12.5, "left_sw_ft": 15.0, "right_sw_ft": 15.0}, "geometry": {"type": "LineString", "coordinates": [[-73.7398657532092, 40.59749427531762], [-73.74002418016421, 40.59780071495271]]}}, {"type": "Feature", "properties": {"segment_id": 1663376, "physicalid": "167164", "street_name": "SEAGIRT BLVD", "borough": "queens", "direction": "FT", "total_row_ft": 137.6, "roadbed_ft": 97.2, "median_ft": 10.4, "left_sw_ft": 15.0, "right_sw_ft": 15.0}, "geometry": {"type": "LineString", "coordinates": [[-73.73874500526088, 40.59794722401898], [-73.73889145380703, 40.598257106675455]]}}, {"type": "Feature", "properties": {"segment_id": 1663377, "physicalid": "167164", "street_name": "SEAGIRT BLVD", "borough": "queens", "direction": "FT", "total_row_ft": 137.2, "roadbed_ft": 96.7, "median_ft": 10.5, "left_sw_ft": 15.0, "right_sw_ft": 15.0}, "geometry": {"type": "LineString", "coordinates": [[-73.73881276184851, 40.59792861914315], [-73.73895921066838, 40.59823850171384]]}}, {"type": "Feature", "properties": {"segment_id": 1663378, "physicalid": "167164", "street_name": "SEAGIRT BLVD", "borough": "queens", "direction": "FT", "total_row_ft": 137.3, "roadbed_ft": 96.7, "median_ft": 10.6, "left_sw_ft": 15.0, "right_sw_ft": 15.0}, "geometry": {"type": "LineString", "coordinates": [[-73.73888051839843, 40.597910014227345], [-73.7390269674919, 40.59821989671226]]}}, {"type": "Feature", "properties": {"segment_id": 1663379, "physicalid": "167164", "street_name": "SEAGIRT BLVD", "borough": "queens", "direction": "FT", "total_row_ft": 137.5, "roadbed_ft": 96.9, "median_ft": 10.6, "left_sw_ft": 15.0, "right_sw_ft": 15.0}, "geometry": {"type": "LineString", "coordinates": [[-73.73894827491054, 40.59789140927158], [-73.73909472427772, 40.59820129167067]]}}, {"type": "Feature", "properties": {"segment_id": 1663380, "physicalid": "167164", "street_name": "SEAGIRT BLVD", "borough": "queens", "direction": "FT", "total_row_ft": 137.8, "roadbed_ft": 97.2, "median_ft": 10.6, "left_sw_ft": 15.0, "right_sw_ft": 15.0}, "geometry": {"type": "LineString", "coordinates": [[-73.73901603138496, 40.597872804275795], [-73.73916248102572, 40.59818268658914]]}}, {"type": "Feature", "properties": {"segment_id": 1663381, "physicalid": "167164", "street_name": "SEAGIRT BLVD", "borough": "queens", "direction": "FT", "total_row_ft": 138.0, "roadbed_ft": 97.2, "median_ft": 10.8, "left_sw_ft": 15.0, "right_sw_ft": 15.0}, "geometry": {"type": "LineString", "coordinates": [[-73.73908378782153, 40.59785419924004], [-73.73923023773602, 40.598164081467594]]}}, {"type": "Feature", "properties": {"segment_id": 1663382, "physicalid": "167164", "street_name": "SEAGIRT BLVD", "borough": "queens", "direction": "FT", "total_row_ft": 138.4, "roadbed_ft": 97.4, "median_ft": 10.9, "left_sw_ft": 15.0, "right_sw_ft": 15.0}, "geometry": {"type": "LineString", "coordinates": [[-73.73915154422042, 40.597835594164316], [-73.7392979944085, 40.59814547630607]]}}, {"type": "Feature", "properties": {"segment_id": 1663383, "physicalid": "167164", "street_name": "SEAGIRT BLVD", "borough": "queens", "direction": "FT", "total_row_ft": 138.4, "roadbed_ft": 97.4, "median_ft": 11.1, "left_sw_ft": 15.0, "right_sw_ft": 15.0}, "geometry": {"type": "LineString", "coordinates": [[-73.73921930058148, 40.5978169890486], [-73.73936575104328, 40.59812687110456]]}}, {"type": "Feature", "properties": {"segment_id": 1663384, "physicalid": "167164", "street_name": "SEAGIRT BLVD", "borough": "queens", "direction": "FT", "total_row_ft": 138.5, "roadbed_ft": 97.3, "median_ft": 11.2, "left_sw_ft": 15.0, "right_sw_ft": 15.0}, "geometry": {"type": "LineString", "coordinates": [[-73.73928705690483, 40.59779838389291], [-73.73943350764029, 40.59810826586308]]}}, {"type": "Feature", "properties": {"segment_id": 1663385, "physicalid": "167164", "street_name": "SEAGIRT BLVD", "borough": "queens", "direction": "FT", "total_row_ft": 138.7, "roadbed_ft": 97.4, "median_ft": 11.3, "left_sw_ft": 15.0, "right_sw_ft": 15.0}, "geometry": {"type": "LineString", "coordinates": [[-73.73935481319045, 40.59777977869721], [-73.73950126419948, 40.59808966058162]]}}, {"type": "Feature", "properties": {"segment_id": 1663386, "physicalid": "167164", "street_name": "SEAGIRT BLVD", "borough": "queens", "direction": "FT", "total_row_ft": 139.0, "roadbed_ft": 97.6, "median_ft": 11.4, "left_sw_ft": 15.0, "right_sw_ft": 15.0}, "geometry": {"type": "LineString", "coordinates": [[-73.73942256943823, 40.597761173461535], [-73.73956902072098, 40.59807105526016]]}}, {"type": "Feature", "properties": {"segment_id": 1663387, "physicalid": "167164", "street_name": "SEAGIRT BLVD", "borough": "queens", "direction": "FT", "total_row_ft": 139.2, "roadbed_ft": 97.7, "median_ft": 11.6, "left_sw_ft": 15.0, "right_sw_ft": 15.0}, "geometry": {"type": "LineString", "coordinates": [[-73.73949032564833, 40.59774256818588], [-73.73963677720467, 40.598052449898724]]}}, {"type": "Feature", "properties": {"segment_id": 1663388, "physicalid": "167164", "street_name": "SEAGIRT BLVD", "borough": "queens", "direction": "FT", "total_row_ft": 139.5, "roadbed_ft": 97.8, "median_ft": 11.7, "left_sw_ft": 15.0, "right_sw_ft": 15.0}, "geometry": {"type": "LineString", "coordinates": [[-73.7395580818206, 40.597723962870276], [-73.73970453365065, 40.598033844497316]]}}, {"type": "Feature", "properties": {"segment_id": 1663389, "physicalid": "167164", "street_name": "SEAGIRT BLVD", "borough": "queens", "direction": "FT", "total_row_ft": 150.0, "roadbed_ft": 108.1, "median_ft": 11.9, "left_sw_ft": 15.0, "right_sw_ft": 15.0}, "geometry": {"type": "LineString", "coordinates": [[-73.73962583795517, 40.59770535751465], [-73.7397722900588, 40.59801523905591]]}}, {"type": "Feature", "properties": {"segment_id": 1663390, "physicalid": "167164", "street_name": "SEAGIRT BLVD", "borough": "queens", "direction": "FT", "total_row_ft": 150.0, "roadbed_ft": 108.1, "median_ft": 11.9, "left_sw_ft": 15.0, "right_sw_ft": 15.0}, "geometry": {"type": "LineString", "coordinates": [[-73.73968932765995, 40.597687950493864], [-73.73984430257975, 40.59799541418414]]}}, {"type": "Feature", "properties": {"segment_id": 1663391, "physicalid": "167164", "street_name": "SEAGIRT BLVD", "borough": "queens", "direction": "FT", "total_row_ft": 150.0, "roadbed_ft": 96.9, "median_ft": 23.1, "left_sw_ft": 15.0, "right_sw_ft": 15.0}, "geometry": {"type": "LineString", "coordinates": [[-73.73975655507358, 40.59766826234829], [-73.73991153025729, 40.597975725948494]]}}, {"type": "Feature", "properties": {"segment_id": 1663392, "physicalid": "167164", "street_name": "SEAGIRT BLVD", "borough": "queens", "direction": "FT", "total_row_ft": 135.0, "roadbed_ft": 95.0, "median_ft": 22.9, "left_sw_ft": 15.0, "right_sw_ft": 2.1}, "geometry": {"type": "LineString", "coordinates": [[-73.73982378244757, 40.59764857416336], [-73.73997875789516, 40.59795603767349]]}}, {"type": "Feature", "properties": {"segment_id": 1663393, "physicalid": "167164", "street_name": "SEAGIRT BLVD", "borough": "queens", "direction": "FT", "total_row_ft": 135.0, "roadbed_ft": 95.1, "median_ft": 22.9, "left_sw_ft": 15.0, "right_sw_ft": 2.0}, "geometry": {"type": "LineString", "coordinates": [[-73.73989100978194, 40.59762888593906], [-73.74004598549338, 40.59793634935911]]}}, {"type": "Feature", "properties": {"segment_id": 1663418, "physicalid": "167166", "street_name": "ATLANTIC BEACH BRG ENTRANCE", "borough": "queens", "direction": "TF", "total_row_ft": 112.8, "roadbed_ft": 63.6, "median_ft": 19.2, "left_sw_ft": 15.0, "right_sw_ft": 15.0}, "geometry": {"type": "LineString", "coordinates": [[-73.73842378970137, 40.59785723014812], [-73.73839433109474, 40.598185839601065]]}}, {"type": "Feature", "properties": {"segment_id": 1663419, "physicalid": "167166", "street_name": "ATLANTIC BEACH BRG ENTRANCE", "borough": "queens", "direction": "TF", "total_row_ft": 108.9, "roadbed_ft": 68.2, "median_ft": 10.6, "left_sw_ft": 15.0, "right_sw_ft": 15.0}, "geometry": {"type": "LineString", "coordinates": [[-73.73849564085393, 40.597860972557626], [-73.73846618259925, 40.598189582028866]]}}, {"type": "Feature", "properties": {"segment_id": 1663420, "physicalid": "167166", "street_name": "ATLANTIC BEACH BRG ENTRANCE", "borough": "queens", "direction": "TF", "total_row_ft": 108.8, "roadbed_ft": 68.4, "median_ft": 10.4, "left_sw_ft": 15.0, "right_sw_ft": 15.0}, "geometry": {"type": "LineString", "coordinates": [[-73.73856749201452, 40.59786471492218], [-73.73853803411181, 40.59819332441172]]}}, {"type": "Feature", "properties": {"segment_id": 1663421, "physicalid": "167166", "street_name": "ATLANTIC BEACH BRG ENTRANCE", "borough": "queens", "direction": "TF", "total_row_ft": 111.9, "roadbed_ft": 71.1, "median_ft": 10.8, "left_sw_ft": 15.0, "right_sw_ft": 15.0}, "geometry": {"type": "LineString", "coordinates": [[-73.7386393431832, 40.59786845724184], [-73.73860988563243, 40.59819706674967]]}}, {"type": "Feature", "properties": {"segment_id": 1663422, "physicalid": "167167", "street_name": "SEAGIRT BLVD", "borough": "queens", "direction": "TF", "total_row_ft": 150.8, "roadbed_ft": 95.3, "median_ft": 25.4, "left_sw_ft": 15.0, "right_sw_ft": 15.0}, "geometry": {"type": "LineString", "coordinates": [[-73.73832925368433, 40.59797300176493], [-73.7384937367635, 40.59827758217863]]}}, {"type": "Feature", "properties": {"segment_id": 1663423, "physicalid": "167167", "street_name": "SEAGIRT BLVD", "borough": "queens", "direction": "TF", "total_row_ft": 148.1, "roadbed_ft": 108.6, "median_ft": 9.5, "left_sw_ft": 15.0, "right_sw_ft": 15.0}, "geometry": {"type": "LineString", "coordinates": [[-73.7383958494417, 40.59795210616987], [-73.73856033571336, 40.598256685566376]]}}, {"type": "Feature", "properties": {"segment_id": 1663424, "physicalid": "167167", "street_name": "SEAGIRT BLVD", "borough": "queens", "direction": "TF", "total_row_ft": 133.3, "roadbed_ft": 93.8, "median_ft": 9.5, "left_sw_ft": 15.0, "right_sw_ft": 15.0}, "geometry": {"type": "LineString", "coordinates": [[-73.73846244646712, 40.59793120977795], [-73.73862693299104, 40.598235789079766]]}}, {"type": "Feature", "properties": {"segment_id": 1663425, "physicalid": "167167", "street_name": "SEAGIRT BLVD", "borough": "queens", "direction": "TF", "total_row_ft": 123.5, "roadbed_ft": 83.7, "median_ft": 9.8, "left_sw_ft": 15.0, "right_sw_ft": 15.0}, "geometry": {"type": "LineString", "coordinates": [[-73.7385290434508, 40.59791031334742], [-73.73869353022711, 40.598214892554495]]}}, {"type": "Feature", "properties": {"segment_id": 1663426, "physicalid": "167173", "street_name": "NASSAU EXPRESSWAY EXIT RAMP", "borough": "queens", "direction": "FT", "total_row_ft": 129.4, "roadbed_ft": 89.2, "median_ft": 10.2, "left_sw_ft": 15.0, "right_sw_ft": 15.0}, "geometry": {"type": "LineString", "coordinates": [[-73.73828501905557, 40.59818231177108], [-73.73854120080962, 40.59844756102505]]}}, {"type": "Feature", "properties": {"segment_id": 1663427, "physicalid": "167173", "street_name": "NASSAU EXPRESSWAY EXIT RAMP", "borough": "queens", "direction": "FT", "total_row_ft": 136.8, "roadbed_ft": 96.6, "median_ft": 10.2, "left_sw_ft": 15.0, "right_sw_ft": 15.0}, "geometry": {"type": "LineString", "coordinates": [[-73.73834301668074, 40.59814976646304], [-73.73859919854034, 40.598415015588564]]}}, {"type": "Feature", "properties": {"segment_id": 1663428, "physicalid": "167173", "street_name": "NASSAU EXPRESSWAY EXIT RAMP", "borough": "queens", "direction": "FT", "total_row_ft": 136.4, "roadbed_ft": 96.5, "median_ft": 10.0, "left_sw_ft": 15.0, "right_sw_ft": 15.0}, "geometry": {"type": "LineString", "coordinates": [[-73.73840101424943, 40.59811722112561], [-73.73865719621446, 40.59838247012272]]}}, {"type": "Feature", "properties": {"segment_id": 1663429, "physicalid": "167173", "street_name": "NASSAU EXPRESSWAY EXIT RAMP", "borough": "queens", "direction": "FT", "total_row_ft": 136.8, "roadbed_ft": 97.0, "median_ft": 9.7, "left_sw_ft": 15.0, "right_sw_ft": 15.0}, "geometry": {"type": "LineString", "coordinates": [[-73.7384590117615, 40.59808467575887], [-73.73871519383215, 40.59834992462747]]}}, {"type": "Feature", "properties": {"segment_id": 1663430, "physicalid": "167173", "street_name": "NASSAU EXPRESSWAY EXIT RAMP", "borough": "queens", "direction": "FT", "total_row_ft": 137.2, "roadbed_ft": 97.2, "median_ft": 10.0, "left_sw_ft": 15.0, "right_sw_ft": 15.0}, "geometry": {"type": "LineString", "coordinates": [[-73.73851700921706, 40.5980521303627], [-73.73877319139326, 40.598317379102866]]}}, {"type": "Feature", "properties": {"segment_id": 1663431, "physicalid": "167173", "street_name": "NASSAU EXPRESSWAY EXIT RAMP", "borough": "queens", "direction": "FT", "total_row_ft": 137.7, "roadbed_ft": 97.4, "median_ft": 10.3, "left_sw_ft": 15.0, "right_sw_ft": 15.0}, "geometry": {"type": "LineString", "coordinates": [[-73.7385750066161, 40.598019584937184], [-73.73883118889782, 40.59828483354889]]}}, {"type": "Feature", "properties": {"segment_id": 1663432, "physicalid": "167174", "street_name": "SEAGIRT BLVD", "borough": "queens", "direction": "FT", "total_row_ft": 138.5, "roadbed_ft": 80.6, "median_ft": 27.9, "left_sw_ft": 15.0, "right_sw_ft": 15.0}, "geometry": {"type": "LineString", "coordinates": [[-73.7383436250249, 40.59805743560539], [-73.73849007198048, 40.59836731876164]]}}, {"type": "Feature", "properties": {"segment_id": 1663433, "physicalid": "167174", "street_name": "SEAGIRT BLVD", "borough": "queens", "direction": "FT", "total_row_ft": 136.2, "roadbed_ft": 89.1, "median_ft": 17.2, "left_sw_ft": 15.0, "right_sw_ft": 15.0}, "geometry": {"type": "LineString", "coordinates": [[-73.7384113818344, 40.59803883096254], [-73.73855782906365, 40.59834871403302]]}}, {"type": "Feature", "properties": {"segment_id": 1663434, "physicalid": "167174", "street_name": "SEAGIRT BLVD", "borough": "queens", "direction": "FT", "total_row_ft": 136.4, "roadbed_ft": 97.0, "median_ft": 9.4, "left_sw_ft": 15.0, "right_sw_ft": 15.0}, "geometry": {"type": "LineString", "coordinates": [[-73.73847913860615, 40.59802022627973], [-73.73862558610905, 40.598330109264424]]}}, {"type": "Feature", "properties": {"segment_id": 1663435, "physicalid": "167174", "street_name": "SEAGIRT BLVD", "borough": "queens", "direction": "FT", "total_row_ft": 137.0, "roadbed_ft": 97.4, "median_ft": 9.7, "left_sw_ft": 15.0, "right_sw_ft": 15.0}, "geometry": {"type": "LineString", "coordinates": [[-73.73854689534015, 40.598001621556925], [-73.7386933431167, 40.598311504455836]]}}, {"type": "Feature", "properties": {"segment_id": 1663436, "physicalid": "167174", "street_name": "SEAGIRT BLVD", "borough": "queens", "direction": "FT", "total_row_ft": 137.4, "roadbed_ft": 97.4, "median_ft": 10.0, "left_sw_ft": 15.0, "right_sw_ft": 15.0}, "geometry": {"type": "LineString", "coordinates": [[-73.73861465203638, 40.59798301679414], [-73.73876110008658, 40.598292899607266]]}}, {"type": "Feature", "properties": {"segment_id": 1742774, "physicalid": "188443", "street_name": "SEAGIRT BLVD", "borough": "queens", "direction": "TW", "total_row_ft": 87.8, "roadbed_ft": 64.3, "median_ft": 0.0, "left_sw_ft": 15.0, "right_sw_ft": 8.5}, "geometry": {"type": "LineString", "coordinates": [[-73.73831009605777, 40.59828825892523], [-73.73847510774524, 40.59852281516533]]}}, {"type": "Feature", "properties": {"segment_id": 1742775, "physicalid": "188443", "street_name": "SEAGIRT BLVD", "borough": "queens", "direction": "TW", "total_row_ft": 88.0, "roadbed_ft": 64.3, "median_ft": 0.0, "left_sw_ft": 15.0, "right_sw_ft": 8.7}, "geometry": {"type": "LineString", "coordinates": [[-73.7383735656214, 40.5982623161463], [-73.73853212080552, 40.59848769450657]]}}, {"type": "Feature", "properties": {"segment_id": 1742776, "physicalid": "188443", "street_name": "SEAGIRT BLVD", "borough": "queens", "direction": "TW", "total_row_ft": 91.8, "roadbed_ft": 68.0, "median_ft": 0.0, "left_sw_ft": 15.0, "right_sw_ft": 8.9}, "geometry": {"type": "LineString", "coordinates": [[-73.73843703513572, 40.59823637333228], [-73.73859011425947, 40.598453967478925]]}}, {"type": "Feature", "properties": {"segment_id": 1742777, "physicalid": "188443", "street_name": "SEAGIRT BLVD", "borough": "queens", "direction": "TW", "total_row_ft": 88.8, "roadbed_ft": 64.8, "median_ft": 0.0, "left_sw_ft": 15.0, "right_sw_ft": 9.0}, "geometry": {"type": "LineString", "coordinates": [[-73.7385005046007, 40.59821043048312], [-73.73864919473954, 40.59842178564974]]}}, {"type": "Feature", "properties": {"segment_id": 1742778, "physicalid": "188443", "street_name": "SEAGIRT BLVD", "borough": "queens", "direction": "TW", "total_row_ft": 87.1, "roadbed_ft": 63.1, "median_ft": 0.0, "left_sw_ft": 15.0, "right_sw_ft": 9.0}, "geometry": {"type": "LineString", "coordinates": [[-73.73856397401636, 40.59818448759885], [-73.73870925019607, 40.59839098974189]]}}, {"type": "Feature", "properties": {"segment_id": 1742779, "physicalid": "188443", "street_name": "SEAGIRT BLVD", "borough": "queens", "direction": "TW", "total_row_ft": 86.2, "roadbed_ft": 62.3, "median_ft": 0.0, "left_sw_ft": 15.0, "right_sw_ft": 8.9}, "geometry": {"type": "LineString", "coordinates": [[-73.73862744338271, 40.59815854467946], [-73.73877032009736, 40.59836163585216]]}}, {"type": "Feature", "properties": {"segment_id": 1742780, "physicalid": "188443", "street_name": "SEAGIRT BLVD", "borough": "queens", "direction": "TW", "total_row_ft": 86.0, "roadbed_ft": 62.2, "median_ft": 0.0, "left_sw_ft": 15.0, "right_sw_ft": 8.8}, "geometry": {"type": "LineString", "coordinates": [[-73.73869091269974, 40.59813260172493], [-73.73883260234001, 40.59833400527274]]}}, {"type": "Feature", "properties": {"segment_id": 1742781, "physicalid": "188443", "street_name": "SEAGIRT BLVD", "borough": "queens", "direction": "TW", "total_row_ft": 86.4, "roadbed_ft": 62.6, "median_ft": 0.0, "left_sw_ft": 15.0, "right_sw_ft": 8.8}, "geometry": {"type": "LineString", "coordinates": [[-73.73877531338339, 40.59809926151612], [-73.73888817813248, 40.59831132918331]]}}, {"type": "Feature", "properties": {"segment_id": 1742782, "physicalid": "188443", "street_name": "SEAGIRT BLVD", "borough": "queens", "direction": "TW", "total_row_ft": 85.2, "roadbed_ft": 61.5, "median_ft": 0.0, "left_sw_ft": 15.0, "right_sw_ft": 8.7}, "geometry": {"type": "LineString", "coordinates": [[-73.73884204994705, 40.59807862512373], [-73.7389529103617, 40.59828692636075]]}}, {"type": "Feature", "properties": {"segment_id": 1742783, "physicalid": "188443", "street_name": "SEAGIRT BLVD", "borough": "queens", "direction": "TW", "total_row_ft": 84.4, "roadbed_ft": 60.7, "median_ft": 0.0, "left_sw_ft": 15.0, "right_sw_ft": 8.6}, "geometry": {"type": "LineString", "coordinates": [[-73.73890878646947, 40.59805798869255], [-73.73901860765042, 40.598264336880256]]}}, {"type": "Feature", "properties": {"segment_id": 1742784, "physicalid": "188443", "street_name": "SEAGIRT BLVD", "borough": "queens", "direction": "TW", "total_row_ft": 84.6, "roadbed_ft": 61.1, "median_ft": 0.0, "left_sw_ft": 15.0, "right_sw_ft": 8.5}, "geometry": {"type": "LineString", "coordinates": [[-73.73897552295064, 40.59803735222258], [-73.73908525290832, 40.59824352862037]]}}, {"type": "Feature", "properties": {"segment_id": 1742785, "physicalid": "188443", "street_name": "SEAGIRT BLVD", "borough": "queens", "direction": "TW", "total_row_ft": 85.1, "roadbed_ft": 61.4, "median_ft": 0.0, "left_sw_ft": 15.0, "right_sw_ft": 8.7}, "geometry": {"type": "LineString", "coordinates": [[-73.73904225939056, 40.5980167157138], [-73.73915243174532, 40.598223722959624]]}}, {"type": "Feature", "properties": {"segment_id": 1742786, "physicalid": "188443", "street_name": "SEAGIRT BLVD", "borough": "queens", "direction": "TW", "total_row_ft": 85.2, "roadbed_ft": 61.4, "median_ft": 0.0, "left_sw_ft": 15.0, "right_sw_ft": 8.7}, "geometry": {"type": "LineString", "coordinates": [[-73.73910899578922, 40.59799607916622], [-73.73921961054248, 40.59820391725956]]}}, {"type": "Feature", "properties": {"segment_id": 1742787, "physicalid": "188443", "street_name": "SEAGIRT BLVD", "borough": "queens", "direction": "TW", "total_row_ft": 85.4, "roadbed_ft": 61.7, "median_ft": 0.0, "left_sw_ft": 15.0, "right_sw_ft": 8.7}, "geometry": {"type": "LineString", "coordinates": [[-73.73917573214663, 40.597975442579866], [-73.73928678929978, 40.59818411152018]]}}, {"type": "Feature", "properties": {"segment_id": 1742788, "physicalid": "188443", "street_name": "SEAGIRT BLVD", "borough": "queens", "direction": "TW", "total_row_ft": 85.8, "roadbed_ft": 62.1, "median_ft": 0.0, "left_sw_ft": 15.0, "right_sw_ft": 8.7}, "geometry": {"type": "LineString", "coordinates": [[-73.73924246846279, 40.597954805954686], [-73.73935396801721, 40.5981643057415]]}}, {"type": "Feature", "properties": {"segment_id": 1742789, "physicalid": "188443", "street_name": "SEAGIRT BLVD", "borough": "queens", "direction": "TW", "total_row_ft": 86.2, "roadbed_ft": 62.5, "median_ft": 0.0, "left_sw_ft": 15.0, "right_sw_ft": 8.7}, "geometry": {"type": "LineString", "coordinates": [[-73.73930920473771, 40.597934169290724], [-73.739421172629, 40.59814454865175]]}}, {"type": "Feature", "properties": {"segment_id": 1742790, "physicalid": "188443", "street_name": "SEAGIRT BLVD", "borough": "queens", "direction": "TW", "total_row_ft": 86.8, "roadbed_ft": 62.9, "median_ft": 0.0, "left_sw_ft": 15.0, "right_sw_ft": 8.9}, "geometry": {"type": "LineString", "coordinates": [[-73.73937594097137, 40.59791353258796], [-73.73948850718227, 40.598125035746534]]}}, {"type": "Feature", "properties": {"segment_id": 1742791, "physicalid": "188443", "street_name": "SEAGIRT BLVD", "borough": "queens", "direction": "TW", "total_row_ft": 87.5, "roadbed_ft": 63.5, "median_ft": 0.0, "left_sw_ft": 15.0, "right_sw_ft": 9.0}, "geometry": {"type": "LineString", "coordinates": [[-73.73944267716378, 40.59789289584641], [-73.73955584174618, 40.598105522895764]]}}, {"type": "Feature", "properties": {"segment_id": 1742792, "physicalid": "188443", "street_name": "SEAGIRT BLVD", "borough": "queens", "direction": "TW", "total_row_ft": 88.2, "roadbed_ft": 64.0, "median_ft": 0.0, "left_sw_ft": 15.0, "right_sw_ft": 9.2}, "geometry": {"type": "LineString", "coordinates": [[-73.73950941331493, 40.59787225906604], [-73.73962317627074, 40.59808601000548]]}}, {"type": "Feature", "properties": {"segment_id": 1742793, "physicalid": "188443", "street_name": "SEAGIRT BLVD", "borough": "queens", "direction": "TW", "total_row_ft": 88.9, "roadbed_ft": 64.6, "median_ft": 0.0, "left_sw_ft": 15.0, "right_sw_ft": 9.3}, "geometry": {"type": "LineString", "coordinates": [[-73.73957614942479, 40.59785162224693], [-73.73969051075593, 40.59806649707571]]}}, {"type": "Feature", "properties": {"segment_id": 1742794, "physicalid": "188443", "street_name": "SEAGIRT BLVD", "borough": "queens", "direction": "TW", "total_row_ft": 92.6, "roadbed_ft": 68.2, "median_ft": 0.0, "left_sw_ft": 15.0, "right_sw_ft": 9.4}, "geometry": {"type": "LineString", "coordinates": [[-73.73964288549347, 40.59783098538897], [-73.73975784520177, 40.59804698410646]]}}]}