{"type": "FeatureCollection", "features": [{"type": "Feature", "properties": {"segment_id": 184731, "physicalid": "14431", "street_name": "BCH 56 PL", "borough": "queens", "direction": "TW", "total_row_ft": 90.8, "roadbed_ft": 65.1, "median_ft": 0.0, "left_sw_ft": 12.3, "right_sw_ft": 13.4}, "geometry": {"type": "LineString", "coordinates": [[-73.78616781239161, 40.58998808774596], [-73.78584210506924, 40.59000987577063]]}}, {"type": "Feature", "properties": {"segment_id": 1431613, "physicalid": "97114", "street_name": "BCH 60 ST", "borough": "queens", "direction": "NV", "total_row_ft": 30.0, "roadbed_ft": 0.0, "median_ft": 0.0, "left_sw_ft": 15.0, "right_sw_ft": 15.0}, "geometry": {"type": "LineString", "coordinates": [[-73.7895210092997, 40.588702099983735], [-73.78909005101939, 40.58872553264098]]}}, {"type": "Feature", "properties": {"segment_id": 1431614, "physicalid": "97114", "street_name": "BCH 60 ST", "borough": "queens", "direction": "NV", "total_row_ft": 30.0, "roadbed_ft": 0.0, "median_ft": 0.0, "left_sw_ft": 15.0, "right_sw_ft": 15.0}, "geometry": {"type": "LineString", "coordinates": [[-73.78952613237337, 40.588756856883194], [-73.78909517374147, 40.5887802895595]]}}, {"type": "Feature", "properties": {"segment_id": 1431615, "physicalid": "97114", "street_name": "BCH 60 ST", "borough": "queens", "direction": "NV", "total_row_ft": 24.9, "roadbed_ft": 0.0, "median_ft": 0.0, "left_sw_ft": 9.9, "right_sw_ft": 15.0}, "geometry": {"type": "LineString", "coordinates": [[-73.78953125545543, 40.58881161378215], [-73.78910029647197, 40.58883504647756]]}}, {"type": "Feature", "properties": {"segment_id": 1431616, "physicalid": "97114", "street_name": "BCH 60 ST", "borough": "queens", "direction": "NV", "total_row_ft": 20.2, "roadbed_ft": 0.0, "median_ft": 0.0, "left_sw_ft": 14.0, "right_sw_ft": 6.2}, "geometry": {"type": "LineString", "coordinates": [[-73.78937100302608, 40.58887536289917], [-73.7892986243692, 40.58887929838006]]}}, {"type": "Feature", "properties": {"segment_id": 1587204, "physicalid": "127450", "street_name": "BCH FRONT RD", "borough": "queens", "direction": "TW", "total_row_ft": 48.6, "roadbed_ft": 30.3, "median_ft": 0.0, "left_sw_ft": 7.3, "right_sw_ft": 11.0}, "geometry": {"type": "LineString", "coordinates": [[-73.78934928208957, 40.58886111496474], [-73.7894120599589, 40.58898551426183]]}}, {"type": "Feature", "properties": {"segment_id": 1587205, "physicalid": "127450", "street_name": "BCH FRONT RD", "borough": "queens", "direction": "TW", "total_row_ft": 46.1, "roadbed_ft": 30.7, "median_ft": 0.0, "left_sw_ft": 7.5, "right_sw_ft": 7.8}, "geometry": {"type": "LineString", "coordinates": [[-73.78941527188067, 40.58883899194877], [-73.78947482343226, 40.58895699782915]]}}, {"type": "Feature", "properties": {"segment_id": 1587206, "physicalid": "127450", "street_name": "BCH FRONT RD", "borough": "queens", "direction": "TW", "total_row_ft": 46.1, "roadbed_ft": 30.9, "median_ft": 0.0, "left_sw_ft": 7.6, "right_sw_ft": 7.5}, "geometry": {"type": "LineString", "coordinates": [[-73.78948174608247, 40.588817828877744], [-73.78954129257482, 40.588935824503295]]}}, {"type": "Feature", "properties": {"segment_id": 1587207, "physicalid": "127450", "street_name": "BCH FRONT RD", "borough": "queens", "direction": "TW", "total_row_ft": 46.0, "roadbed_ft": 31.0, "median_ft": 0.0, "left_sw_ft": 7.6, "right_sw_ft": 7.4}, "geometry": {"type": "LineString", "coordinates": [[-73.78954849351324, 40.58879720727434], [-73.78960795496896, 40.588915034162795]]}}, {"type": "Feature", "properties": {"segment_id": 1587208, "physicalid": "127450", "street_name": "BCH FRONT RD", "borough": "queens", "direction": "TW", "total_row_ft": 45.9, "roadbed_ft": 31.2, "median_ft": 0.0, "left_sw_ft": 7.5, "right_sw_ft": 7.3}, "geometry": {"type": "LineString", "coordinates": [[-73.78961524090276, 40.58877658563212], [-73.78967461732162, 40.58889424378362]]}}, {"type": "Feature", "properties": {"segment_id": 1587209, "physicalid": "127450", "street_name": "BCH FRONT RD", "borough": "queens", "direction": "TW", "total_row_ft": 45.9, "roadbed_ft": 31.2, "median_ft": 0.0, "left_sw_ft": 7.5, "right_sw_ft": 7.1}, "geometry": {"type": "LineString", "coordinates": [[-73.78968198825108, 40.58875596395111], [-73.78974127963275, 40.58887345336571]]}}, {"type": "Feature", "properties": {"segment_id": 1587210, "physicalid": "127450", "street_name": "BCH FRONT RD", "borough": "queens", "direction": "TW", "total_row_ft": 45.8, "roadbed_ft": 31.1, "median_ft": 0.0, "left_sw_ft": 7.7, "right_sw_ft": 7.0}, "geometry": {"type": "LineString", "coordinates": [[-73.78974873057695, 40.5887353323607], [-73.78980794190238, 40.58885266290909]]}}, {"type": "Feature", "properties": {"segment_id": 1587211, "physicalid": "127450", "street_name": "BCH FRONT RD", "borough": "queens", "direction": "TW", "total_row_ft": 45.7, "roadbed_ft": 31.0, "median_ft": 0.0, "left_sw_ft": 7.8, "right_sw_ft": 6.9}, "geometry": {"type": "LineString", "coordinates": [[-73.789815464482, 40.5887146841269], [-73.7898746041305, 40.58883187241375]]}}, {"type": "Feature", "properties": {"segment_id": 1587212, "physicalid": "127450", "street_name": "BCH FRONT RD", "borough": "queens", "direction": "TW", "total_row_ft": 46.1, "roadbed_ft": 30.9, "median_ft": 0.0, "left_sw_ft": 7.9, "right_sw_ft": 7.2}, "geometry": {"type": "LineString", "coordinates": [[-73.7898821983458, 40.58869403585429], [-73.7899417796249, 40.58881209902183]]}}, {"type": "Feature", "properties": {"segment_id": 1587213, "physicalid": "127450", "street_name": "BCH FRONT RD", "borough": "queens", "direction": "TW", "total_row_ft": 46.5, "roadbed_ft": 31.1, "median_ft": 0.0, "left_sw_ft": 8.1, "right_sw_ft": 7.3}, "geometry": {"type": "LineString", "coordinates": [[-73.78994893216833, 40.588673387542876], [-73.79000907636517, 40.58879256592302]]}}, {"type": "Feature", "properties": {"segment_id": 1587216, "physicalid": "127451", "street_name": "BCH 60 ST", "borough": "queens", "direction": "TF", "total_row_ft": 58.4, "roadbed_ft": 26.6, "median_ft": 0.0, "left_sw_ft": 10.1, "right_sw_ft": 21.7}, "geometry": {"type": "LineString", "coordinates": [[-73.78945826679316, 40.588962273589566], [-73.78924860170378, 40.58897491783498]]}}, {"type": "Feature", "properties": {"segment_id": 1587217, "physicalid": "127451", "street_name": "BCH 60 ST", "borough": "queens", "direction": "TF", "total_row_ft": 44.0, "roadbed_ft": 24.4, "median_ft": 0.0, "left_sw_ft": 10.3, "right_sw_ft": 9.3}, "geometry": {"type": "LineString", "coordinates": [[-73.78941183929338, 40.589020141027085], [-73.78925381852578, 40.58902967072846]]}}, {"type": "Feature", "properties": {"segment_id": 1587218, "physicalid": "127451", "street_name": "BCH 60 ST", "borough": "queens", "direction": "TF", "total_row_ft": 44.2, "roadbed_ft": 24.3, "median_ft": 0.0, "left_sw_ft": 10.4, "right_sw_ft": 9.4}, "geometry": {"type": "LineString", "coordinates": [[-73.78941757288054, 40.58907486275646], [-73.78925903535635, 40.58908442362142]]}}, {"type": "Feature", "properties": {"segment_id": 1587219, "physicalid": "127451", "street_name": "BCH 60 ST", "borough": "queens", "direction": "TF", "total_row_ft": 44.3, "roadbed_ft": 24.3, "median_ft": 0.0, "left_sw_ft": 10.5, "right_sw_ft": 9.5}, "geometry": {"type": "LineString", "coordinates": [[-73.7894233064771, 40.589129584485306], [-73.78926425219548, 40.58913917651386]]}}, {"type": "Feature", "properties": {"segment_id": 1587220, "physicalid": "127451", "street_name": "BCH 60 ST", "borough": "queens", "direction": "TF", "total_row_ft": 44.5, "roadbed_ft": 24.2, "median_ft": 0.0, "left_sw_ft": 10.6, "right_sw_ft": 9.6}, "geometry": {"type": "LineString", "coordinates": [[-73.78942904008306, 40.58918430621357], [-73.78926946904315, 40.5891939294058]]}}, {"type": "Feature", "properties": {"segment_id": 1587221, "physicalid": "127451", "street_name": "BCH 60 ST", "borough": "queens", "direction": "TF", "total_row_ft": 44.6, "roadbed_ft": 24.2, "median_ft": 0.0, "left_sw_ft": 10.7, "right_sw_ft": 9.7}, "geometry": {"type": "LineString", "coordinates": [[-73.78943477369842, 40.58923902794124], [-73.78927468589937, 40.58924868229722]]}}, {"type": "Feature", "properties": {"segment_id": 1587222, "physicalid": "127451", "street_name": "BCH 60 ST", "borough": "queens", "direction": "TF", "total_row_ft": 44.7, "roadbed_ft": 24.1, "median_ft": 0.0, "left_sw_ft": 10.8, "right_sw_ft": 9.9}, "geometry": {"type": "LineString", "coordinates": [[-73.78944050732316, 40.589293749668364], [-73.78927990276416, 40.589303435188086]]}}, {"type": "Feature", "properties": {"segment_id": 1587223, "physicalid": "127451", "street_name": "BCH 60 ST", "borough": "queens", "direction": "TF", "total_row_ft": 39.5, "roadbed_ft": 24.2, "median_ft": 0.0, "left_sw_ft": 5.9, "right_sw_ft": 9.4}, "geometry": {"type": "LineString", "coordinates": [[-73.78944473864416, 40.58934856199541], [-73.78930293397296, 40.58935711376719]]}}, {"type": "Feature", "properties": {"segment_id": 1587224, "physicalid": "127451", "street_name": "BCH 60 ST", "borough": "queens", "direction": "TF", "total_row_ft": 38.9, "roadbed_ft": 24.5, "median_ft": 0.0, "left_sw_ft": 5.9, "right_sw_ft": 8.5}, "geometry": {"type": "LineString", "coordinates": [[-73.78944795030087, 40.58940343581564], [-73.78930839032908, 40.589411852215356]]}}, {"type": "Feature", "properties": {"segment_id": 1587225, "physicalid": "127451", "street_name": "BCH 60 ST", "borough": "queens", "direction": "TF", "total_row_ft": 38.3, "roadbed_ft": 24.7, "median_ft": 0.0, "left_sw_ft": 6.0, "right_sw_ft": 7.6}, "geometry": {"type": "LineString", "coordinates": [[-73.78945116196284, 40.5894583096355], [-73.78931384669414, 40.589466590662965]]}}, {"type": "Feature", "properties": {"segment_id": 1587226, "physicalid": "127451", "street_name": "BCH 60 ST", "borough": "queens", "direction": "TF", "total_row_ft": 37.9, "roadbed_ft": 24.9, "median_ft": 0.0, "left_sw_ft": 6.0, "right_sw_ft": 7.0}, "geometry": {"type": "LineString", "coordinates": [[-73.78945546817984, 40.58951311744569], [-73.78931930306815, 40.58952132911005]]}}, {"type": "Feature", "properties": {"segment_id": 1587227, "physicalid": "127451", "street_name": "BCH 60 ST", "borough": "queens", "direction": "TF", "total_row_ft": 38.4, "roadbed_ft": 25.2, "median_ft": 0.0, "left_sw_ft": 6.1, "right_sw_ft": 7.2}, "geometry": {"type": "LineString", "coordinates": [[-73.78946270194832, 40.5895677487032], [-73.7893247594511, 40.589576067556585]]}}, {"type": "Feature", "properties": {"segment_id": 1587228, "physicalid": "127451", "street_name": "BCH 60 ST", "borough": "queens", "direction": "TF", "total_row_ft": 38.6, "roadbed_ft": 25.4, "median_ft": 0.0, "left_sw_ft": 6.1, "right_sw_ft": 7.1}, "geometry": {"type": "LineString", "coordinates": [[-73.78946874791743, 40.58962245159366], [-73.789330215843, 40.58963080600258]]}}, {"type": "Feature", "properties": {"segment_id": 1587229, "physicalid": "127451", "street_name": "BCH 60 ST", "borough": "queens", "direction": "TF", "total_row_ft": 38.6, "roadbed_ft": 25.6, "median_ft": 0.0, "left_sw_ft": 6.2, "right_sw_ft": 6.8}, "geometry": {"type": "LineString", "coordinates": [[-73.7894741530433, 40.58967719313166], [-73.78933567224385, 40.58968554444801]]}}, {"type": "Feature", "properties": {"segment_id": 1587230, "physicalid": "127451", "street_name": "BCH 60 ST", "borough": "queens", "direction": "TF", "total_row_ft": 38.6, "roadbed_ft": 25.8, "median_ft": 0.0, "left_sw_ft": 6.2, "right_sw_ft": 6.6}, "geometry": {"type": "LineString", "coordinates": [[-73.78947955817803, 40.5897319346691], [-73.78934112865363, 40.589740282892926]]}}, {"type": "Feature", "properties": {"segment_id": 1587231, "physicalid": "127451", "street_name": "BCH 60 ST", "borough": "queens", "direction": "TF", "total_row_ft": 38.6, "roadbed_ft": 25.9, "median_ft": 0.0, "left_sw_ft": 6.1, "right_sw_ft": 6.5}, "geometry": {"type": "LineString", "coordinates": [[-73.78948496332161, 40.58978667620599], [-73.78934658507237, 40.58979502133728]]}}, {"type": "Feature", "properties": {"segment_id": 1587232, "physicalid": "127451", "street_name": "BCH 60 ST", "borough": "queens", "direction": "TF", "total_row_ft": 38.7, "roadbed_ft": 26.0, "median_ft": 0.0, "left_sw_ft": 6.0, "right_sw_ft": 6.6}, "geometry": {"type": "LineString", "coordinates": [[-73.7894908291499, 40.58984138996024], [-73.78935204150004, 40.58984975978109]]}}, {"type": "Feature", "properties": {"segment_id": 1587233, "physicalid": "127451", "street_name": "BCH 60 ST", "borough": "queens", "direction": "TF", "total_row_ft": 38.8, "roadbed_ft": 26.1, "median_ft": 0.0, "left_sw_ft": 5.9, "right_sw_ft": 6.8}, "geometry": {"type": "LineString", "coordinates": [[-73.78949686605978, 40.58989609339702], [-73.78935749793666, 40.58990449822438]]}}, {"type": "Feature", "properties": {"segment_id": 1587234, "physicalid": "127451", "street_name": "BCH 60 ST", "borough": "queens", "direction": "TF", "total_row_ft": 39.0, "roadbed_ft": 26.1, "median_ft": 0.0, "left_sw_ft": 5.9, "right_sw_ft": 6.9}, "geometry": {"type": "LineString", "coordinates": [[-73.78950290297955, 40.58995079683321], [-73.78936295438224, 40.589959236667106]]}}, {"type": "Feature", "properties": {"segment_id": 1710510, "physicalid": "179863", "street_name": "BCH 59 ST", "borough": "queens", "direction": "TW", "total_row_ft": 90.2, "roadbed_ft": 64.6, "median_ft": 0.0, "left_sw_ft": 12.0, "right_sw_ft": 13.6}, "geometry": {"type": "LineString", "coordinates": [[-73.78881814256151, 40.589243511598156], [-73.78849456626133, 40.589263505116534]]}}, {"type": "Feature", "properties": {"segment_id": 1710511, "physicalid": "179863", "street_name": "BCH 59 ST", "borough": "queens", "direction": "TW", "total_row_ft": 80.7, "roadbed_ft": 44.9, "median_ft": 0.0, "left_sw_ft": 22.2, "right_sw_ft": 13.7}, "geometry": {"type": "LineString", "coordinates": [[-73.78878975363709, 40.589300341795116], [-73.788499965751, 40.58931824751043]]}}, {"type": "Feature", "properties": {"segment_id": 1710512, "physicalid": "179863", "street_name": "BCH 59 ST", "borough": "queens", "direction": "TW", "total_row_ft": 70.0, "roadbed_ft": 44.8, "median_ft": 0.0, "left_sw_ft": 11.5, "right_sw_ft": 13.7}, "geometry": {"type": "LineString", "coordinates": [[-73.78875652312205, 40.589357471143614], [-73.7885053652495, 40.58937298990379]]}}, {"type": "Feature", "properties": {"segment_id": 1710513, "physicalid": "179863", "street_name": "BCH 59 ST", "borough": "queens", "direction": "TW", "total_row_ft": 70.1, "roadbed_ft": 44.9, "median_ft": 0.0, "left_sw_ft": 11.5, "right_sw_ft": 13.7}, "geometry": {"type": "LineString", "coordinates": [[-73.78876247012673, 40.589412179707516], [-73.7885107647569, 40.5894277322966]]}}, {"type": "Feature", "properties": {"segment_id": 1710514, "physicalid": "179863", "street_name": "BCH 59 ST", "borough": "queens", "direction": "TW", "total_row_ft": 70.3, "roadbed_ft": 45.0, "median_ft": 0.0, "left_sw_ft": 11.5, "right_sw_ft": 13.7}, "geometry": {"type": "LineString", "coordinates": [[-73.78876841735989, 40.589466888257306], [-73.78851616427312, 40.58948247468887]]}}, {"type": "Feature", "properties": {"segment_id": 1710515, "physicalid": "179863", "street_name": "BCH 59 ST", "borough": "queens", "direction": "TW", "total_row_ft": 70.4, "roadbed_ft": 45.1, "median_ft": 0.0, "left_sw_ft": 11.6, "right_sw_ft": 13.7}, "geometry": {"type": "LineString", "coordinates": [[-73.78877436478851, 40.589521596795024], [-73.78852156379818, 40.58953721708061]]}}, {"type": "Feature", "properties": {"segment_id": 1710516, "physicalid": "179863", "street_name": "BCH 59 ST", "borough": "queens", "direction": "TW", "total_row_ft": 70.6, "roadbed_ft": 45.2, "median_ft": 0.0, "left_sw_ft": 11.6, "right_sw_ft": 13.7}, "geometry": {"type": "LineString", "coordinates": [[-73.78878014815143, 40.58957631547035], [-73.78852696333212, 40.589591959471804]]}}, {"type": "Feature", "properties": {"segment_id": 1710517, "physicalid": "179863", "street_name": "BCH 59 ST", "borough": "queens", "direction": "TW", "total_row_ft": 70.5, "roadbed_ft": 45.4, "median_ft": 0.0, "left_sw_ft": 11.4, "right_sw_ft": 13.7}, "geometry": {"type": "LineString", "coordinates": [[-73.78878535945891, 40.58963106949302], [-73.78853245162358, 40.58964669637891]]}}, {"type": "Feature", "properties": {"segment_id": 1710518, "physicalid": "179863", "street_name": "BCH 59 ST", "borough": "queens", "direction": "TW", "total_row_ft": 70.4, "roadbed_ft": 45.5, "median_ft": 0.0, "left_sw_ft": 11.2, "right_sw_ft": 13.7}, "geometry": {"type": "LineString", "coordinates": [[-73.78879057077492, 40.58968582351513], [-73.78853798810266, 40.589701430308594]]}}, {"type": "Feature", "properties": {"segment_id": 1710519, "physicalid": "179863", "street_name": "BCH 59 ST", "borough": "queens", "direction": "TW", "total_row_ft": 70.3, "roadbed_ft": 45.6, "median_ft": 0.0, "left_sw_ft": 11.0, "right_sw_ft": 13.7}, "geometry": {"type": "LineString", "coordinates": [[-73.78879578209951, 40.58974057753673], [-73.78854352459082, 40.589756164237706]]}}, {"type": "Feature", "properties": {"segment_id": 1710520, "physicalid": "179863", "street_name": "BCH 59 ST", "borough": "queens", "direction": "TW", "total_row_ft": 70.2, "roadbed_ft": 45.6, "median_ft": 0.0, "left_sw_ft": 11.0, "right_sw_ft": 13.7}, "geometry": {"type": "LineString", "coordinates": [[-73.78880112481171, 40.589795323439944], [-73.78854906108806, 40.589810898166306]]}}, {"type": "Feature", "properties": {"segment_id": 1710521, "physicalid": "179863", "street_name": "BCH 59 ST", "borough": "queens", "direction": "TW", "total_row_ft": 70.2, "roadbed_ft": 45.6, "median_ft": 0.0, "left_sw_ft": 11.0, "right_sw_ft": 13.6}, "geometry": {"type": "LineString", "coordinates": [[-73.78880663788046, 40.58985005881678], [-73.78855459759438, 40.589865632094345]]}}, {"type": "Feature", "properties": {"segment_id": 1710522, "physicalid": "179863", "street_name": "BCH 59 ST", "borough": "queens", "direction": "TW", "total_row_ft": 70.2, "roadbed_ft": 45.5, "median_ft": 0.0, "left_sw_ft": 11.1, "right_sw_ft": 13.6}, "geometry": {"type": "LineString", "coordinates": [[-73.78881215083983, 40.58990479420043], [-73.78856013410977, 40.58992036602183]]}}, {"type": "Feature", "properties": {"segment_id": 1710523, "physicalid": "179863", "street_name": "BCH 59 ST", "borough": "queens", "direction": "TW", "total_row_ft": 70.2, "roadbed_ft": 45.5, "median_ft": 0.0, "left_sw_ft": 11.1, "right_sw_ft": 13.6}, "geometry": {"type": "LineString", "coordinates": [[-73.78881766380825, 40.5899595295835], [-73.78856567063424, 40.58997509994876]]}}]}