{"type": "FeatureCollection", "features": [{"type": "Feature", "properties": {"segment_id": 1126948, "physicalid": "78164", "street_name": "MARINE PY-GIL HODGES MEMORIAL BRG", "borough": "queens", "direction": "FT", "total_row_ft": 73.0, "roadbed_ft": 44.3, "median_ft": 4.8, "left_sw_ft": 8.8, "right_sw_ft": 15.0}, "geometry": {"type": "LineString", "coordinates": [[-73.88290499949342, 40.569942649672626], [-73.8825549491512, 40.570066586288156]]}}, {"type": "Feature", "properties": {"segment_id": 1126949, "physicalid": "78164", "street_name": "MARINE PY-GIL HODGES MEMORIAL BRG", "borough": "queens", "direction": "FT", "total_row_ft": 73.0, "roadbed_ft": 44.4, "median_ft": 4.7, "left_sw_ft": 8.8, "right_sw_ft": 15.0}, "geometry": {"type": "LineString", "coordinates": [[-73.88293533851134, 40.56999243250539], [-73.88258526468536, 40.570116377454845]]}}, {"type": "Feature", "properties": {"segment_id": 1126950, "physicalid": "78164", "street_name": "MARINE PY-GIL HODGES MEMORIAL BRG", "borough": "queens", "direction": "FT", "total_row_ft": 73.1, "roadbed_ft": 44.5, "median_ft": 4.7, "left_sw_ft": 8.9, "right_sw_ft": 15.0}, "geometry": {"type": "LineString", "coordinates": [[-73.88296567757449, 40.570042215329885], [-73.8826155802647, 40.570166168613305]]}}, {"type": "Feature", "properties": {"segment_id": 1126951, "physicalid": "78164", "street_name": "MARINE PY-GIL HODGES MEMORIAL BRG", "borough": "queens", "direction": "FT", "total_row_ft": 73.1, "roadbed_ft": 44.5, "median_ft": 4.7, "left_sw_ft": 8.9, "right_sw_ft": 15.0}, "geometry": {"type": "LineString", "coordinates": [[-73.88299601668287, 40.57009199814619], [-73.88264589588924, 40.57021595976354]]}}, {"type": "Feature", "properties": {"segment_id": 1126952, "physicalid": "78164", "street_name": "MARINE PY-GIL HODGES MEMORIAL BRG", "borough": "queens", "direction": "FT", "total_row_ft": 73.2, "roadbed_ft": 44.6, "median_ft": 4.6, "left_sw_ft": 9.0, "right_sw_ft": 15.0}, "geometry": {"type": "LineString", "coordinates": [[-73.88302635044118, 40.570141782864454], [-73.88267621155897, 40.57026575090557]]}}, {"type": "Feature", "properties": {"segment_id": 1126953, "physicalid": "78164", "street_name": "MARINE PY-GIL HODGES MEMORIAL BRG", "borough": "queens", "direction": "FT", "total_row_ft": 73.2, "roadbed_ft": 44.6, "median_ft": 4.6, "left_sw_ft": 9.0, "right_sw_ft": 15.0}, "geometry": {"type": "LineString", "coordinates": [[-73.88305665190686, 40.570191579023934], [-73.88270652727391, 40.570315542039374]]}}, {"type": "Feature", "properties": {"segment_id": 1126954, "physicalid": "78164", "street_name": "MARINE PY-GIL HODGES MEMORIAL BRG", "borough": "queens", "direction": "FT", "total_row_ft": 73.3, "roadbed_ft": 44.5, "median_ft": 4.7, "left_sw_ft": 9.1, "right_sw_ft": 15.0}, "geometry": {"type": "LineString", "coordinates": [[-73.8830869534177, 40.57024137517519], [-73.88273684303402, 40.57036533316496]]}}, {"type": "Feature", "properties": {"segment_id": 1126955, "physicalid": "78164", "street_name": "MARINE PY-GIL HODGES MEMORIAL BRG", "borough": "queens", "direction": "FT", "total_row_ft": 73.3, "roadbed_ft": 44.4, "median_ft": 4.8, "left_sw_ft": 9.1, "right_sw_ft": 15.0}, "geometry": {"type": "LineString", "coordinates": [[-73.88311725497371, 40.570291171318246], [-73.88276715883934, 40.57041512428232]]}}, {"type": "Feature", "properties": {"segment_id": 1126956, "physicalid": "78164", "street_name": "MARINE PY-GIL HODGES MEMORIAL BRG", "borough": "queens", "direction": "FT", "total_row_ft": 73.4, "roadbed_ft": 44.4, "median_ft": 4.9, "left_sw_ft": 9.1, "right_sw_ft": 15.0}, "geometry": {"type": "LineString", "coordinates": [[-73.88314755657491, 40.57034096745305], [-73.88279747468987, 40.57046491539145]]}}, {"type": "Feature", "properties": {"segment_id": 1126957, "physicalid": "78164", "street_name": "MARINE PY-GIL HODGES MEMORIAL BRG", "borough": "queens", "direction": "FT", "total_row_ft": 73.4, "roadbed_ft": 44.3, "median_ft": 4.9, "left_sw_ft": 9.2, "right_sw_ft": 15.0}, "geometry": {"type": "LineString", "coordinates": [[-73.88317775620891, 40.570390799697805], [-73.88282779058557, 40.57051470649237]]}}, {"type": "Feature", "properties": {"segment_id": 1126958, "physicalid": "78164", "street_name": "MARINE PY-GIL HODGES MEMORIAL BRG", "borough": "queens", "direction": "FT", "total_row_ft": 73.4, "roadbed_ft": 44.2, "median_ft": 5.0, "left_sw_ft": 9.1, "right_sw_ft": 15.0}, "geometry": {"type": "LineString", "coordinates": [[-73.88320785667948, 40.570440667059835], [-73.88285810652644, 40.570564497585025]]}}, {"type": "Feature", "properties": {"segment_id": 1126959, "physicalid": "78164", "street_name": "MARINE PY-GIL HODGES MEMORIAL BRG", "borough": "queens", "direction": "FT", "total_row_ft": 73.4, "roadbed_ft": 44.3, "median_ft": 5.0, "left_sw_ft": 9.1, "right_sw_ft": 15.0}, "geometry": {"type": "LineString", "coordinates": [[-73.88323795719494, 40.57049053441371], [-73.88288842251258, 40.57061428866953]]}}, {"type": "Feature", "properties": {"segment_id": 1126960, "physicalid": "78164", "street_name": "MARINE PY-GIL HODGES MEMORIAL BRG", "borough": "queens", "direction": "FT", "total_row_ft": 73.4, "roadbed_ft": 44.4, "median_ft": 4.9, "left_sw_ft": 9.1, "right_sw_ft": 15.0}, "geometry": {"type": "LineString", "coordinates": [[-73.88326805775537, 40.57054040175949], [-73.88291873854385, 40.5706640797458]]}}, {"type": "Feature", "properties": {"segment_id": 1126961, "physicalid": "78164", "street_name": "MARINE PY-GIL HODGES MEMORIAL BRG", "borough": "queens", "direction": "FT", "total_row_ft": 73.4, "roadbed_ft": 44.5, "median_ft": 4.9, "left_sw_ft": 9.1, "right_sw_ft": 15.0}, "geometry": {"type": "LineString", "coordinates": [[-73.88329815836073, 40.570590269097174], [-73.88294905462034, 40.57071387081382]]}}, {"type": "Feature", "properties": {"segment_id": 1126962, "physicalid": "78164", "street_name": "MARINE PY-GIL HODGES MEMORIAL BRG", "borough": "queens", "direction": "FT", "total_row_ft": 73.4, "roadbed_ft": 44.6, "median_ft": 4.8, "left_sw_ft": 9.0, "right_sw_ft": 15.0}, "geometry": {"type": "LineString", "coordinates": [[-73.8833282173858, 40.570640151164454], [-73.882979370742, 40.57076366187361]]}}, {"type": "Feature", "properties": {"segment_id": 1126963, "physicalid": "78164", "street_name": "MARINE PY-GIL HODGES MEMORIAL BRG", "borough": "queens", "direction": "FT", "total_row_ft": 73.3, "roadbed_ft": 44.7, "median_ft": 4.7, "left_sw_ft": 8.9, "right_sw_ft": 15.0}, "geometry": {"type": "LineString", "coordinates": [[-73.88335809304736, 40.57069009816058], [-73.88300968690889, 40.570813452925236]]}}, {"type": "Feature", "properties": {"segment_id": 1126964, "physicalid": "78164", "street_name": "MARINE PY-GIL HODGES MEMORIAL BRG", "borough": "queens", "direction": "FT", "total_row_ft": 73.2, "roadbed_ft": 44.7, "median_ft": 4.7, "left_sw_ft": 8.8, "right_sw_ft": 15.0}, "geometry": {"type": "LineString", "coordinates": [[-73.88338796875361, 40.57074004514871], [-73.88304000312097, 40.57086324396859]]}}, {"type": "Feature", "properties": {"segment_id": 1126965, "physicalid": "78164", "street_name": "MARINE PY-GIL HODGES MEMORIAL BRG", "borough": "queens", "direction": "FT", "total_row_ft": 73.2, "roadbed_ft": 44.7, "median_ft": 4.7, "left_sw_ft": 8.7, "right_sw_ft": 15.0}, "geometry": {"type": "LineString", "coordinates": [[-73.88341784450454, 40.57078999212886], [-73.88307031937825, 40.57091303500374]]}}, {"type": "Feature", "properties": {"segment_id": 1126966, "physicalid": "78164", "street_name": "MARINE PY-GIL HODGES MEMORIAL BRG", "borough": "queens", "direction": "FT", "total_row_ft": 73.1, "roadbed_ft": 44.6, "median_ft": 4.8, "left_sw_ft": 8.7, "right_sw_ft": 15.0}, "geometry": {"type": "LineString", "coordinates": [[-73.88344772030014, 40.570839939101035], [-73.8831006356807, 40.57096282603066]]}}, {"type": "Feature", "properties": {"segment_id": 1126967, "physicalid": "78164", "street_name": "MARINE PY-GIL HODGES MEMORIAL BRG", "borough": "queens", "direction": "FT", "total_row_ft": 73.0, "roadbed_ft": 44.5, "median_ft": 5.0, "left_sw_ft": 8.6, "right_sw_ft": 15.0}, "geometry": {"type": "LineString", "coordinates": [[-73.88347759614042, 40.5708898860652], [-73.88313095202837, 40.57101261704936]]}}, {"type": "Feature", "properties": {"segment_id": 1126968, "physicalid": "78164", "street_name": "MARINE PY-GIL HODGES MEMORIAL BRG", "borough": "queens", "direction": "FT", "total_row_ft": 73.1, "roadbed_ft": 44.4, "median_ft": 5.1, "left_sw_ft": 8.6, "right_sw_ft": 15.0}, "geometry": {"type": "LineString", "coordinates": [[-73.88350795060076, 40.570939663578436], [-73.88316126842122, 40.571062408059845]]}}, {"type": "Feature", "properties": {"segment_id": 1126969, "physicalid": "78164", "street_name": "MARINE PY-GIL HODGES MEMORIAL BRG", "borough": "queens", "direction": "FT", "total_row_ft": 73.4, "roadbed_ft": 44.3, "median_ft": 5.2, "left_sw_ft": 8.9, "right_sw_ft": 15.0}, "geometry": {"type": "LineString", "coordinates": [[-73.88353892309406, 40.5709892222806], [-73.88319158485926, 40.571112199062064]]}}, {"type": "Feature", "properties": {"segment_id": 1126970, "physicalid": "78164", "street_name": "MARINE PY-GIL HODGES MEMORIAL BRG", "borough": "queens", "direction": "FT", "total_row_ft": 73.6, "roadbed_ft": 44.5, "median_ft": 5.1, "left_sw_ft": 9.1, "right_sw_ft": 15.0}, "geometry": {"type": "LineString", "coordinates": [[-73.8835698956333, 40.571038780974135], [-73.88322190134252, 40.57116199005613]]}}, {"type": "Feature", "properties": {"segment_id": 1126971, "physicalid": "78164", "street_name": "MARINE PY-GIL HODGES MEMORIAL BRG", "borough": "queens", "direction": "FT", "total_row_ft": 73.9, "roadbed_ft": 44.7, "median_ft": 4.8, "left_sw_ft": 9.3, "right_sw_ft": 15.0}, "geometry": {"type": "LineString", "coordinates": [[-73.88360086821851, 40.571088339659134], [-73.88325221787096, 40.57121178104197]]}}, {"type": "Feature", "properties": {"segment_id": 1126972, "physicalid": "78164", "street_name": "MARINE PY-GIL HODGES MEMORIAL BRG", "borough": "queens", "direction": "FT", "total_row_ft": 74.1, "roadbed_ft": 44.9, "median_ft": 4.7, "left_sw_ft": 9.6, "right_sw_ft": 15.0}, "geometry": {"type": "LineString", "coordinates": [[-73.88363174161621, 40.57113793346987], [-73.88328253444459, 40.57126157201955]]}}, {"type": "Feature", "properties": {"segment_id": 1126973, "physicalid": "78164", "street_name": "MARINE PY-GIL HODGES MEMORIAL BRG", "borough": "queens", "direction": "FT", "total_row_ft": 74.2, "roadbed_ft": 44.9, "median_ft": 4.7, "left_sw_ft": 9.6, "right_sw_ft": 15.0}, "geometry": {"type": "LineString", "coordinates": [[-73.8836621403979, 40.5711876953296], [-73.88331285106342, 40.571311362988894]]}}, {"type": "Feature", "properties": {"segment_id": 1126974, "physicalid": "78164", "street_name": "MARINE PY-GIL HODGES MEMORIAL BRG", "borough": "queens", "direction": "FT", "total_row_ft": 74.3, "roadbed_ft": 44.8, "median_ft": 4.7, "left_sw_ft": 9.7, "right_sw_ft": 15.0}, "geometry": {"type": "LineString", "coordinates": [[-73.88369253922484, 40.57123745718101], [-73.88334316772746, 40.571361153950065]]}}, {"type": "Feature", "properties": {"segment_id": 1126975, "physicalid": "78164", "street_name": "MARINE PY-GIL HODGES MEMORIAL BRG", "borough": "queens", "direction": "FT", "total_row_ft": 74.3, "roadbed_ft": 44.8, "median_ft": 4.7, "left_sw_ft": 9.8, "right_sw_ft": 15.0}, "geometry": {"type": "LineString", "coordinates": [[-73.88372293809711, 40.57128721902419], [-73.8833734844367, 40.57141094490299]]}}, {"type": "Feature", "properties": {"segment_id": 1126976, "physicalid": "78164", "street_name": "MARINE PY-GIL HODGES MEMORIAL BRG", "borough": "queens", "direction": "FT", "total_row_ft": 74.3, "roadbed_ft": 44.9, "median_ft": 4.6, "left_sw_ft": 9.8, "right_sw_ft": 15.0}, "geometry": {"type": "LineString", "coordinates": [[-73.88375333701465, 40.5713369808591], [-73.88340380119112, 40.57146073584768]]}}, {"type": "Feature", "properties": {"segment_id": 1126977, "physicalid": "78164", "street_name": "MARINE PY-GIL HODGES MEMORIAL BRG", "borough": "queens", "direction": "FT", "total_row_ft": 74.6, "roadbed_ft": 44.9, "median_ft": 4.4, "left_sw_ft": 10.2, "right_sw_ft": 15.0}, "geometry": {"type": "LineString", "coordinates": [[-73.88378477734376, 40.57138637398225], [-73.88343411799072, 40.57151052678416]]}}, {"type": "Feature", "properties": {"segment_id": 1126978, "physicalid": "78164", "street_name": "MARINE PY-GIL HODGES MEMORIAL BRG", "borough": "queens", "direction": "FT", "total_row_ft": 74.9, "roadbed_ft": 45.0, "median_ft": 4.3, "left_sw_ft": 10.6, "right_sw_ft": 15.0}, "geometry": {"type": "LineString", "coordinates": [[-73.88381622228403, 40.57143576548039], [-73.88346443483556, 40.571560317712425]]}}, {"type": "Feature", "properties": {"segment_id": 1126979, "physicalid": "78164", "street_name": "MARINE PY-GIL HODGES MEMORIAL BRG", "borough": "queens", "direction": "FT", "total_row_ft": 75.1, "roadbed_ft": 44.9, "median_ft": 4.2, "left_sw_ft": 11.0, "right_sw_ft": 15.0}, "geometry": {"type": "LineString", "coordinates": [[-73.88384719987458, 40.5714853224549], [-73.88349475172556, 40.571610108632484]]}}, {"type": "Feature", "properties": {"segment_id": 1126980, "physicalid": "78164", "street_name": "MARINE PY-GIL HODGES MEMORIAL BRG", "borough": "queens", "direction": "FT", "total_row_ft": 74.9, "roadbed_ft": 45.0, "median_ft": 4.1, "left_sw_ft": 10.8, "right_sw_ft": 15.0}, "geometry": {"type": "LineString", "coordinates": [[-73.8838770591899, 40.57153527537103], [-73.88352506866077, 40.57165989954428]]}}, {"type": "Feature", "properties": {"segment_id": 1126981, "physicalid": "78164", "street_name": "MARINE PY-GIL HODGES MEMORIAL BRG", "borough": "queens", "direction": "FT", "total_row_ft": 74.8, "roadbed_ft": 45.1, "median_ft": 4.0, "left_sw_ft": 10.6, "right_sw_ft": 15.0}, "geometry": {"type": "LineString", "coordinates": [[-73.88390691854987, 40.57158522827922], [-73.88355538564119, 40.571709690447875]]}}, {"type": "Feature", "properties": {"segment_id": 1126982, "physicalid": "78164", "street_name": "MARINE PY-GIL HODGES MEMORIAL BRG", "borough": "queens", "direction": "FT", "total_row_ft": 74.6, "roadbed_ft": 45.3, "median_ft": 3.9, "left_sw_ft": 10.4, "right_sw_ft": 15.0}, "geometry": {"type": "LineString", "coordinates": [[-73.88393677795452, 40.57163518117941], [-73.88358570266679, 40.57175948134326]]}}, {"type": "Feature", "properties": {"segment_id": 1126983, "physicalid": "78164", "street_name": "MARINE PY-GIL HODGES MEMORIAL BRG", "borough": "queens", "direction": "FT", "total_row_ft": 74.4, "roadbed_ft": 45.4, "median_ft": 3.8, "left_sw_ft": 10.2, "right_sw_ft": 15.0}, "geometry": {"type": "LineString", "coordinates": [[-73.88396663740382, 40.57168513407159], [-73.88361601973759, 40.571809272230375]]}}, {"type": "Feature", "properties": {"segment_id": 1126984, "physicalid": "78164", "street_name": "MARINE PY-GIL HODGES MEMORIAL BRG", "borough": "queens", "direction": "FT", "total_row_ft": 74.3, "roadbed_ft": 45.5, "median_ft": 3.7, "left_sw_ft": 10.0, "right_sw_ft": 15.0}, "geometry": {"type": "LineString", "coordinates": [[-73.88399649689778, 40.57173508695583], [-73.88364633685357, 40.57185906310927]]}}, {"type": "Feature", "properties": {"segment_id": 1126985, "physicalid": "78164", "street_name": "MARINE PY-GIL HODGES MEMORIAL BRG", "borough": "queens", "direction": "FT", "total_row_ft": 74.1, "roadbed_ft": 45.7, "median_ft": 3.6, "left_sw_ft": 9.8, "right_sw_ft": 15.0}, "geometry": {"type": "LineString", "coordinates": [[-73.88402635643638, 40.57178503983202], [-73.88367665401479, 40.571908853980005]]}}, {"type": "Feature", "properties": {"segment_id": 1126986, "physicalid": "78164", "street_name": "MARINE PY-GIL HODGES MEMORIAL BRG", "borough": "queens", "direction": "FT", "total_row_ft": 74.0, "roadbed_ft": 45.8, "median_ft": 3.5, "left_sw_ft": 9.6, "right_sw_ft": 15.0}, "geometry": {"type": "LineString", "coordinates": [[-73.88405621601966, 40.57183499270027], [-73.88370697122119, 40.57195864484249]]}}, {"type": "Feature", "properties": {"segment_id": 1126987, "physicalid": "78164", "street_name": "MARINE PY-GIL HODGES MEMORIAL BRG", "borough": "queens", "direction": "FT", "total_row_ft": 73.8, "roadbed_ft": 45.9, "median_ft": 3.4, "left_sw_ft": 9.5, "right_sw_ft": 15.0}, "geometry": {"type": "LineString", "coordinates": [[-73.88408622398669, 40.57188489303989], [-73.88373728847277, 40.57200843569673]]}}, {"type": "Feature", "properties": {"segment_id": 1126988, "physicalid": "78164", "street_name": "MARINE PY-GIL HODGES MEMORIAL BRG", "borough": "queens", "direction": "FT", "total_row_ft": 73.7, "roadbed_ft": 46.0, "median_ft": 3.3, "left_sw_ft": 9.4, "right_sw_ft": 15.0}, "geometry": {"type": "LineString", "coordinates": [[-73.88411629402275, 40.57193477141131], [-73.88376760576955, 40.572058226542744]]}}, {"type": "Feature", "properties": {"segment_id": 1126989, "physicalid": "78164", "street_name": "MARINE PY-GIL HODGES MEMORIAL BRG", "borough": "queens", "direction": "FT", "total_row_ft": 73.6, "roadbed_ft": 46.1, "median_ft": 3.3, "left_sw_ft": 9.3, "right_sw_ft": 15.0}, "geometry": {"type": "LineString", "coordinates": [[-73.8841463641037, 40.57198464977458], [-73.88379792311154, 40.57210801738058]]}}, {"type": "Feature", "properties": {"segment_id": 1126990, "physicalid": "78164", "street_name": "MARINE PY-GIL HODGES MEMORIAL BRG", "borough": "queens", "direction": "FT", "total_row_ft": 73.6, "roadbed_ft": 46.2, "median_ft": 3.2, "left_sw_ft": 9.1, "right_sw_ft": 15.0}, "geometry": {"type": "LineString", "coordinates": [[-73.88417643422956, 40.57203452812977], [-73.88382824049873, 40.57215780821017]]}}, {"type": "Feature", "properties": {"segment_id": 1126991, "physicalid": "78164", "street_name": "MARINE PY-GIL HODGES MEMORIAL BRG", "borough": "queens", "direction": "FT", "total_row_ft": 73.4, "roadbed_ft": 46.3, "median_ft": 3.2, "left_sw_ft": 9.0, "right_sw_ft": 15.0}, "geometry": {"type": "LineString", "coordinates": [[-73.88420638397994, 40.57208444911272], [-73.8838585579311, 40.57220759903152]]}}, {"type": "Feature", "properties": {"segment_id": 1126992, "physicalid": "78164", "street_name": "MARINE PY-GIL HODGES MEMORIAL BRG", "borough": "queens", "direction": "FT", "total_row_ft": 73.3, "roadbed_ft": 46.4, "median_ft": 3.1, "left_sw_ft": 8.8, "right_sw_ft": 15.0}, "geometry": {"type": "LineString", "coordinates": [[-73.8842362947956, 40.57213438388867], [-73.88388887540867, 40.57225738984463]]}}, {"type": "Feature", "properties": {"segment_id": 1126993, "physicalid": "78164", "street_name": "MARINE PY-GIL HODGES MEMORIAL BRG", "borough": "queens", "direction": "FT", "total_row_ft": 73.2, "roadbed_ft": 46.5, "median_ft": 3.1, "left_sw_ft": 8.6, "right_sw_ft": 15.0}, "geometry": {"type": "LineString", "coordinates": [[-73.88426620565593, 40.57218431865654], [-73.88391919293146, 40.57230718064958]]}}, {"type": "Feature", "properties": {"segment_id": 1126994, "physicalid": "78164", "street_name": "MARINE PY-GIL HODGES MEMORIAL BRG", "borough": "queens", "direction": "FT", "total_row_ft": 73.1, "roadbed_ft": 46.6, "median_ft": 3.0, "left_sw_ft": 8.4, "right_sw_ft": 15.0}, "geometry": {"type": "LineString", "coordinates": [[-73.884296116561, 40.572234253416454], [-73.88394951049945, 40.572356971446276]]}}, {"type": "Feature", "properties": {"segment_id": 1126995, "physicalid": "78164", "street_name": "MARINE PY-GIL HODGES MEMORIAL BRG", "borough": "queens", "direction": "FT", "total_row_ft": 72.9, "roadbed_ft": 46.7, "median_ft": 3.0, "left_sw_ft": 8.3, "right_sw_ft": 15.0}, "geometry": {"type": "LineString", "coordinates": [[-73.88432602751081, 40.57228418816835], [-73.88397982811261, 40.57240676223475]]}}, {"type": "Feature", "properties": {"segment_id": 1126996, "physicalid": "78164", "street_name": "MARINE PY-GIL HODGES MEMORIAL BRG", "borough": "queens", "direction": "FT", "total_row_ft": 72.9, "roadbed_ft": 46.8, "median_ft": 2.9, "left_sw_ft": 8.2, "right_sw_ft": 15.0}, "geometry": {"type": "LineString", "coordinates": [[-73.88435634672558, 40.572333978378396], [-73.88401014577099, 40.57245655301499]]}}, {"type": "Feature", "properties": {"segment_id": 1126997, "physicalid": "78164", "street_name": "MARINE PY-GIL HODGES MEMORIAL BRG", "borough": "queens", "direction": "FT", "total_row_ft": 73.0, "roadbed_ft": 46.9, "median_ft": 2.9, "left_sw_ft": 8.2, "right_sw_ft": 15.0}, "geometry": {"type": "LineString", "coordinates": [[-73.88438668871207, 40.57238376053368], [-73.88404046347455, 40.572506343787005]]}}, {"type": "Feature", "properties": {"segment_id": 1126998, "physicalid": "78164", "street_name": "MARINE PY-GIL HODGES MEMORIAL BRG", "borough": "queens", "direction": "FT", "total_row_ft": 73.0, "roadbed_ft": 46.7, "median_ft": 3.1, "left_sw_ft": 8.1, "right_sw_ft": 15.0}, "geometry": {"type": "LineString", "coordinates": [[-73.88441703074378, 40.572433542680756], [-73.88407078122333, 40.57255613455081]]}}, {"type": "Feature", "properties": {"segment_id": 1126999, "physicalid": "78164", "street_name": "MARINE PY-GIL HODGES MEMORIAL BRG", "borough": "queens", "direction": "FT", "total_row_ft": 73.0, "roadbed_ft": 46.5, "median_ft": 3.3, "left_sw_ft": 8.1, "right_sw_ft": 15.0}, "geometry": {"type": "LineString", "coordinates": [[-73.88444737282073, 40.57248332481959], [-73.88410109901727, 40.57260592530635]]}}, {"type": "Feature", "properties": {"segment_id": 1127000, "physicalid": "78164", "street_name": "MARINE PY-GIL HODGES MEMORIAL BRG", "borough": "queens", "direction": "FT", "total_row_ft": 73.0, "roadbed_ft": 46.4, "median_ft": 3.6, "left_sw_ft": 8.0, "right_sw_ft": 15.0}, "geometry": {"type": "LineString", "coordinates": [[-73.88447771494288, 40.57253310695017], [-73.88413141685646, 40.57265571605375]]}}, {"type": "Feature", "properties": {"segment_id": 1127001, "physicalid": "78164", "street_name": "MARINE PY-GIL HODGES MEMORIAL BRG", "borough": "queens", "direction": "FT", "total_row_ft": 73.0, "roadbed_ft": 46.2, "median_ft": 3.8, "left_sw_ft": 8.0, "right_sw_ft": 15.0}, "geometry": {"type": "LineString", "coordinates": [[-73.88450805711025, 40.57258288907251], [-73.88416173474083, 40.57270550679285]]}}, {"type": "Feature", "properties": {"segment_id": 1127002, "physicalid": "78164", "street_name": "MARINE PY-GIL HODGES MEMORIAL BRG", "borough": "queens", "direction": "FT", "total_row_ft": 72.9, "roadbed_ft": 46.0, "median_ft": 4.1, "left_sw_ft": 7.9, "right_sw_ft": 15.0}, "geometry": {"type": "LineString", "coordinates": [[-73.88453803479716, 40.5726328002502], [-73.8841920526704, 40.572755297523756]]}}, {"type": "Feature", "properties": {"segment_id": 1127003, "physicalid": "78164", "street_name": "MARINE PY-GIL HODGES MEMORIAL BRG", "borough": "queens", "direction": "FT", "total_row_ft": 72.5, "roadbed_ft": 45.5, "median_ft": 4.5, "left_sw_ft": 7.5, "right_sw_ft": 15.0}, "geometry": {"type": "LineString", "coordinates": [[-73.88456714302048, 40.572683019276965], [-73.88422237064513, 40.57280508824642]]}}, {"type": "Feature", "properties": {"segment_id": 1127004, "physicalid": "78164", "street_name": "MARINE PY-GIL HODGES MEMORIAL BRG", "borough": "queens", "direction": "FT", "total_row_ft": 72.1, "roadbed_ft": 44.9, "median_ft": 5.0, "left_sw_ft": 7.2, "right_sw_ft": 15.0}, "geometry": {"type": "LineString", "coordinates": [[-73.88459625128752, 40.57273323829612], [-73.88425268866511, 40.5728548789609]]}}, {"type": "Feature", "properties": {"segment_id": 1127005, "physicalid": "78164", "street_name": "MARINE PY-GIL HODGES MEMORIAL BRG", "borough": "queens", "direction": "FT", "total_row_ft": 71.8, "roadbed_ft": 44.5, "median_ft": 5.4, "left_sw_ft": 6.9, "right_sw_ft": 15.0}, "geometry": {"type": "LineString", "coordinates": [[-73.88462558356886, 40.57278337800891], [-73.88428300673029, 40.572904669667146]]}}, {"type": "Feature", "properties": {"segment_id": 1127006, "physicalid": "78164", "street_name": "MARINE PY-GIL HODGES MEMORIAL BRG", "borough": "queens", "direction": "FT", "total_row_ft": 71.8, "roadbed_ft": 44.5, "median_ft": 5.4, "left_sw_ft": 6.9, "right_sw_ft": 15.0}, "geometry": {"type": "LineString", "coordinates": [[-73.88465577024662, 40.57283321522286], [-73.88431332484063, 40.57295446036516]]}}, {"type": "Feature", "properties": {"segment_id": 1127007, "physicalid": "78164", "street_name": "MARINE PY-GIL HODGES MEMORIAL BRG", "borough": "queens", "direction": "FT", "total_row_ft": 71.8, "roadbed_ft": 44.4, "median_ft": 5.4, "left_sw_ft": 6.9, "right_sw_ft": 15.0}, "geometry": {"type": "LineString", "coordinates": [[-73.88468595696945, 40.57288305242869], [-73.88434364299619, 40.573004251054904]]}}, {"type": "Feature", "properties": {"segment_id": 1127008, "physicalid": "78164", "street_name": "MARINE PY-GIL HODGES MEMORIAL BRG", "borough": "queens", "direction": "FT", "total_row_ft": 71.7, "roadbed_ft": 44.4, "median_ft": 5.4, "left_sw_ft": 6.9, "right_sw_ft": 15.0}, "geometry": {"type": "LineString", "coordinates": [[-73.8847161437373, 40.5729328896263], [-73.88437396119696, 40.573054041736505]]}}, {"type": "Feature", "properties": {"segment_id": 1127009, "physicalid": "78164", "street_name": "MARINE PY-GIL HODGES MEMORIAL BRG", "borough": "queens", "direction": "FT", "total_row_ft": 71.7, "roadbed_ft": 44.3, "median_ft": 5.4, "left_sw_ft": 6.9, "right_sw_ft": 15.0}, "geometry": {"type": "LineString", "coordinates": [[-73.88474633055019, 40.57298272681577], [-73.88440427944292, 40.57310383240984]]}}, {"type": "Feature", "properties": {"segment_id": 1127010, "physicalid": "78164", "street_name": "MARINE PY-GIL HODGES MEMORIAL BRG", "borough": "queens", "direction": "FT", "total_row_ft": 71.7, "roadbed_ft": 44.3, "median_ft": 5.4, "left_sw_ft": 6.9, "right_sw_ft": 15.0}, "geometry": {"type": "LineString", "coordinates": [[-73.88477651740813, 40.57303256399711], [-73.88443459773409, 40.57315362307494]]}}, {"type": "Feature", "properties": {"segment_id": 1127011, "physicalid": "78164", "street_name": "MARINE PY-GIL HODGES MEMORIAL BRG", "borough": "queens", "direction": "FT", "total_row_ft": 71.6, "roadbed_ft": 44.3, "median_ft": 5.4, "left_sw_ft": 6.9, "right_sw_ft": 15.0}, "geometry": {"type": "LineString", "coordinates": [[-73.88480670431113, 40.573082401170296], [-73.88446491607044, 40.57320341373184]]}}, {"type": "Feature", "properties": {"segment_id": 1127012, "physicalid": "78164", "street_name": "MARINE PY-GIL HODGES MEMORIAL BRG", "borough": "queens", "direction": "FT", "total_row_ft": 71.6, "roadbed_ft": 44.2, "median_ft": 5.4, "left_sw_ft": 6.9, "right_sw_ft": 15.0}, "geometry": {"type": "LineString", "coordinates": [[-73.88483689125917, 40.57313223833531], [-73.88449523445199, 40.57325320438048]]}}, {"type": "Feature", "properties": {"segment_id": 1127013, "physicalid": "78164", "street_name": "MARINE PY-GIL HODGES MEMORIAL BRG", "borough": "queens", "direction": "FT", "total_row_ft": 71.6, "roadbed_ft": 44.2, "median_ft": 5.4, "left_sw_ft": 6.9, "right_sw_ft": 15.0}, "geometry": {"type": "LineString", "coordinates": [[-73.88486707782532, 40.57318207564333], [-73.88452555287876, 40.573302995020924]]}}, {"type": "Feature", "properties": {"segment_id": 1127014, "physicalid": "78164", "street_name": "MARINE PY-GIL HODGES MEMORIAL BRG", "borough": "queens", "direction": "FT", "total_row_ft": 71.6, "roadbed_ft": 44.3, "median_ft": 5.4, "left_sw_ft": 6.9, "right_sw_ft": 15.0}, "geometry": {"type": "LineString", "coordinates": [[-73.8848972647401, 40.57323191283574], [-73.8845558713507, 40.573352785653114]]}}, {"type": "Feature", "properties": {"segment_id": 1127015, "physicalid": "78164", "street_name": "MARINE PY-GIL HODGES MEMORIAL BRG", "borough": "queens", "direction": "FT", "total_row_ft": 71.6, "roadbed_ft": 44.3, "median_ft": 5.4, "left_sw_ft": 6.9, "right_sw_ft": 15.0}, "geometry": {"type": "LineString", "coordinates": [[-73.88492745200445, 40.573281749912134], [-73.88458618986787, 40.57340257627714]]}}, {"type": "Feature", "properties": {"segment_id": 1127016, "physicalid": "78164", "street_name": "MARINE PY-GIL HODGES MEMORIAL BRG", "borough": "queens", "direction": "FT", "total_row_ft": 71.7, "roadbed_ft": 44.3, "median_ft": 5.4, "left_sw_ft": 6.9, "right_sw_ft": 15.0}, "geometry": {"type": "LineString", "coordinates": [[-73.88495763931387, 40.57333158698035], [-73.88461650843023, 40.5734523668929]]}}, {"type": "Feature", "properties": {"segment_id": 1127017, "physicalid": "78164", "street_name": "MARINE PY-GIL HODGES MEMORIAL BRG", "borough": "queens", "direction": "FT", "total_row_ft": 71.7, "roadbed_ft": 44.3, "median_ft": 5.4, "left_sw_ft": 6.9, "right_sw_ft": 15.0}, "geometry": {"type": "LineString", "coordinates": [[-73.88498782666832, 40.57338142404045], [-73.88464682703778, 40.57350215750045]]}}, {"type": "Feature", "properties": {"segment_id": 1127018, "physicalid": "78164", "street_name": "MARINE PY-GIL HODGES MEMORIAL BRG", "borough": "queens", "direction": "FT", "total_row_ft": 71.7, "roadbed_ft": 44.4, "median_ft": 5.4, "left_sw_ft": 6.9, "right_sw_ft": 15.0}, "geometry": {"type": "LineString", "coordinates": [[-73.88501801404287, 40.57343126105116], [-73.88467714573372, 40.57355194815211]]}}, {"type": "Feature", "properties": {"segment_id": 1127019, "physicalid": "78164", "street_name": "MARINE PY-GIL HODGES MEMORIAL BRG", "borough": "queens", "direction": "FT", "total_row_ft": 71.7, "roadbed_ft": 44.4, "median_ft": 5.4, "left_sw_ft": 6.9, "right_sw_ft": 15.0}, "geometry": {"type": "LineString", "coordinates": [[-73.88504820148744, 40.573481098095], [-73.884707464456, 40.57360173873458]]}}, {"type": "Feature", "properties": {"segment_id": 1127020, "physicalid": "78164", "street_name": "MARINE PY-GIL HODGES MEMORIAL BRG", "borough": "queens", "direction": "FT", "total_row_ft": 71.8, "roadbed_ft": 44.4, "median_ft": 5.4, "left_sw_ft": 6.9, "right_sw_ft": 15.0}, "geometry": {"type": "LineString", "coordinates": [[-73.88507838897705, 40.573530935130655], [-73.88473778322349, 40.57365152930883]]}}, {"type": "Feature", "properties": {"segment_id": 1127021, "physicalid": "78164", "street_name": "MARINE PY-GIL HODGES MEMORIAL BRG", "borough": "queens", "direction": "FT", "total_row_ft": 71.8, "roadbed_ft": 44.4, "median_ft": 5.4, "left_sw_ft": 6.9, "right_sw_ft": 15.0}, "geometry": {"type": "LineString", "coordinates": [[-73.88510857651173, 40.573580772158145], [-73.88476810203618, 40.573701319874864]]}}, {"type": "Feature", "properties": {"segment_id": 1127022, "physicalid": "78164", "street_name": "MARINE PY-GIL HODGES MEMORIAL BRG", "borough": "queens", "direction": "FT", "total_row_ft": 71.8, "roadbed_ft": 44.4, "median_ft": 5.4, "left_sw_ft": 6.9, "right_sw_ft": 15.0}, "geometry": {"type": "LineString", "coordinates": [[-73.88513870935752, 40.57363062855664], [-73.88479842089401, 40.573751110432646]]}}, {"type": "Feature", "properties": {"segment_id": 1337388, "physicalid": "91318", "street_name": "MARINE PY-GIL HODGES MEMORIAL BRG", "borough": "queens", "direction": "TF", "total_row_ft": 73.0, "roadbed_ft": 44.4, "median_ft": 4.7, "left_sw_ft": 15.0, "right_sw_ft": 8.8}, "geometry": {"type": "LineString", "coordinates": [[-73.88293557776471, 40.56999282509225], [-73.88268052181326, 40.570082604074905]]}}, {"type": "Feature", "properties": {"segment_id": 1337389, "physicalid": "91318", "street_name": "MARINE PY-GIL HODGES MEMORIAL BRG", "borough": "queens", "direction": "TF", "total_row_ft": 73.1, "roadbed_ft": 44.5, "median_ft": 4.7, "left_sw_ft": 15.0, "right_sw_ft": 8.9}, "geometry": {"type": "LineString", "coordinates": [[-73.88296591692712, 40.57004260807898], [-73.8827106923201, 40.57013244644205]]}}, {"type": "Feature", "properties": {"segment_id": 1337390, "physicalid": "91318", "street_name": "MARINE PY-GIL HODGES MEMORIAL BRG", "borough": "queens", "direction": "TF", "total_row_ft": 73.1, "roadbed_ft": 44.5, "median_ft": 4.7, "left_sw_ft": 15.0, "right_sw_ft": 8.9}, "geometry": {"type": "LineString", "coordinates": [[-73.88299625613473, 40.57009239105748], [-73.88274086287197, 40.57018228880109]]}}, {"type": "Feature", "properties": {"segment_id": 1337391, "physicalid": "91318", "street_name": "MARINE PY-GIL HODGES MEMORIAL BRG", "borough": "queens", "direction": "TF", "total_row_ft": 73.2, "roadbed_ft": 44.6, "median_ft": 4.6, "left_sw_ft": 15.0, "right_sw_ft": 9.0}, "geometry": {"type": "LineString", "coordinates": [[-73.8830265896885, 40.5701421760338], [-73.88277103346886, 40.57023213115196]]}}, {"type": "Feature", "properties": {"segment_id": 1337392, "physicalid": "91318", "street_name": "MARINE PY-GIL HODGES MEMORIAL BRG", "borough": "queens", "direction": "TF", "total_row_ft": 73.2, "roadbed_ft": 44.6, "median_ft": 4.6, "left_sw_ft": 15.0, "right_sw_ft": 9.0}, "geometry": {"type": "LineString", "coordinates": [[-73.88305689121441, 40.5701919722916], [-73.88280120411076, 40.57028197349466]]}}, {"type": "Feature", "properties": {"segment_id": 1337393, "physicalid": "91318", "street_name": "MARINE PY-GIL HODGES MEMORIAL BRG", "borough": "queens", "direction": "TF", "total_row_ft": 73.3, "roadbed_ft": 44.5, "median_ft": 4.7, "left_sw_ft": 15.0, "right_sw_ft": 9.1}, "geometry": {"type": "LineString", "coordinates": [[-73.88308719278548, 40.57024176854118], [-73.88283137479769, 40.570331815829256]]}}, {"type": "Feature", "properties": {"segment_id": 1337394, "physicalid": "91318", "street_name": "MARINE PY-GIL HODGES MEMORIAL BRG", "borough": "queens", "direction": "TF", "total_row_ft": 73.3, "roadbed_ft": 44.4, "median_ft": 4.8, "left_sw_ft": 15.0, "right_sw_ft": 9.1}, "geometry": {"type": "LineString", "coordinates": [[-73.88311749440173, 40.57029156478254], [-73.88286154552968, 40.5703816581557]]}}, {"type": "Feature", "properties": {"segment_id": 1337395, "physicalid": "91318", "street_name": "MARINE PY-GIL HODGES MEMORIAL BRG", "borough": "queens", "direction": "TF", "total_row_ft": 73.4, "roadbed_ft": 44.4, "median_ft": 4.9, "left_sw_ft": 15.0, "right_sw_ft": 9.1}, "geometry": {"type": "LineString", "coordinates": [[-73.88314779606316, 40.5703413610157], [-73.88289171630667, 40.57043150047401]]}}, {"type": "Feature", "properties": {"segment_id": 1337396, "physicalid": "91318", "street_name": "MARINE PY-GIL HODGES MEMORIAL BRG", "borough": "queens", "direction": "TF", "total_row_ft": 73.4, "roadbed_ft": 44.3, "median_ft": 4.9, "left_sw_ft": 15.0, "right_sw_ft": 9.2}, "geometry": {"type": "LineString", "coordinates": [[-73.88317799406053, 40.570391193746225], [-73.88292188712867, 40.57048134278415]]}}, {"type": "Feature", "properties": {"segment_id": 1337397, "physicalid": "91318", "street_name": "MARINE PY-GIL HODGES MEMORIAL BRG", "borough": "queens", "direction": "TF", "total_row_ft": 73.4, "roadbed_ft": 44.2, "median_ft": 5.0, "left_sw_ft": 15.0, "right_sw_ft": 9.1}, "geometry": {"type": "LineString", "coordinates": [[-73.88320809438483, 40.57044106086528], [-73.8829520579957, 40.57053118508613]]}}, {"type": "Feature", "properties": {"segment_id": 1337398, "physicalid": "91318", "street_name": "MARINE PY-GIL HODGES MEMORIAL BRG", "borough": "queens", "direction": "TF", "total_row_ft": 73.4, "roadbed_ft": 44.3, "median_ft": 5.0, "left_sw_ft": 15.0, "right_sw_ft": 9.1}, "geometry": {"type": "LineString", "coordinates": [[-73.88323819475407, 40.57049092797625], [-73.88298222890776, 40.570581027379994]]}}, {"type": "Feature", "properties": {"segment_id": 1337399, "physicalid": "91318", "street_name": "MARINE PY-GIL HODGES MEMORIAL BRG", "borough": "queens", "direction": "TF", "total_row_ft": 73.4, "roadbed_ft": 44.4, "median_ft": 4.9, "left_sw_ft": 15.0, "right_sw_ft": 9.1}, "geometry": {"type": "LineString", "coordinates": [[-73.88326829516824, 40.57054079507909], [-73.88301239986484, 40.570630869665706]]}}, {"type": "Feature", "properties": {"segment_id": 1337400, "physicalid": "91318", "street_name": "MARINE PY-GIL HODGES MEMORIAL BRG", "borough": "queens", "direction": "TF", "total_row_ft": 73.4, "roadbed_ft": 44.5, "median_ft": 4.9, "left_sw_ft": 15.0, "right_sw_ft": 9.1}, "geometry": {"type": "LineString", "coordinates": [[-73.88329839562736, 40.570590662173835], [-73.88304257086698, 40.57068071194329]]}}, {"type": "Feature", "properties": {"segment_id": 1337401, "physicalid": "91318", "street_name": "MARINE PY-GIL HODGES MEMORIAL BRG", "borough": "queens", "direction": "TF", "total_row_ft": 73.4, "roadbed_ft": 44.6, "median_ft": 4.8, "left_sw_ft": 15.0, "right_sw_ft": 9.0}, "geometry": {"type": "LineString", "coordinates": [[-73.88332845268934, 40.570640544552056], [-73.8830727419141, 40.57073055421272]]}}, {"type": "Feature", "properties": {"segment_id": 1337402, "physicalid": "91318", "street_name": "MARINE PY-GIL HODGES MEMORIAL BRG", "borough": "queens", "direction": "TF", "total_row_ft": 73.3, "roadbed_ft": 44.7, "median_ft": 4.7, "left_sw_ft": 15.0, "right_sw_ft": 8.9}, "geometry": {"type": "LineString", "coordinates": [[-73.88335832797702, 40.57069049092247], [-73.88310291300627, 40.570780396474]]}}, {"type": "Feature", "properties": {"segment_id": 1337403, "physicalid": "91318", "street_name": "MARINE PY-GIL HODGES MEMORIAL BRG", "borough": "queens", "direction": "TF", "total_row_ft": 73.2, "roadbed_ft": 44.7, "median_ft": 4.7, "left_sw_ft": 15.0, "right_sw_ft": 8.8}, "geometry": {"type": "LineString", "coordinates": [[-73.88338820330938, 40.570740437284876], [-73.88313308414344, 40.57083023872709]]}}, {"type": "Feature", "properties": {"segment_id": 1337404, "physicalid": "91318", "street_name": "MARINE PY-GIL HODGES MEMORIAL BRG", "borough": "queens", "direction": "TF", "total_row_ft": 73.2, "roadbed_ft": 44.7, "median_ft": 4.7, "left_sw_ft": 15.0, "right_sw_ft": 8.7}, "geometry": {"type": "LineString", "coordinates": [[-73.88341807868643, 40.57079038363931], [-73.88316325532566, 40.570880080972096]]}}, {"type": "Feature", "properties": {"segment_id": 1337405, "physicalid": "91318", "street_name": "MARINE PY-GIL HODGES MEMORIAL BRG", "borough": "queens", "direction": "TF", "total_row_ft": 73.1, "roadbed_ft": 44.6, "median_ft": 4.8, "left_sw_ft": 15.0, "right_sw_ft": 8.7}, "geometry": {"type": "LineString", "coordinates": [[-73.88344795410814, 40.57084032998575], [-73.88319342655292, 40.57092992320896]]}}, {"type": "Feature", "properties": {"segment_id": 1337406, "physicalid": "91318", "street_name": "MARINE PY-GIL HODGES MEMORIAL BRG", "borough": "queens", "direction": "TF", "total_row_ft": 73.0, "roadbed_ft": 44.5, "median_ft": 5.0, "left_sw_ft": 15.0, "right_sw_ft": 8.6}, "geometry": {"type": "LineString", "coordinates": [[-73.88347782957453, 40.57089027632419], [-73.88322359782516, 40.57097976543765]]}}, {"type": "Feature", "properties": {"segment_id": 1337407, "physicalid": "91318", "street_name": "MARINE PY-GIL HODGES MEMORIAL BRG", "borough": "queens", "direction": "TF", "total_row_ft": 73.1, "roadbed_ft": 44.4, "median_ft": 5.1, "left_sw_ft": 15.0, "right_sw_ft": 8.6}, "geometry": {"type": "LineString", "coordinates": [[-73.88350819272854, 40.57094005100442], [-73.88325376914247, 40.57102960765819]]}}, {"type": "Feature", "properties": {"segment_id": 1337408, "physicalid": "91318", "street_name": "MARINE PY-GIL HODGES MEMORIAL BRG", "borough": "queens", "direction": "TF", "total_row_ft": 73.4, "roadbed_ft": 44.3, "median_ft": 5.2, "left_sw_ft": 15.0, "right_sw_ft": 8.9}, "geometry": {"type": "LineString", "coordinates": [[-73.88353916598976, 40.57098961093467], [-73.88328394050475, 40.57107944987056]]}}, {"type": "Feature", "properties": {"segment_id": 1337409, "physicalid": "91318", "street_name": "MARINE PY-GIL HODGES MEMORIAL BRG", "borough": "queens", "direction": "TF", "total_row_ft": 73.6, "roadbed_ft": 44.5, "median_ft": 5.0, "left_sw_ft": 15.0, "right_sw_ft": 9.1}, "geometry": {"type": "LineString", "coordinates": [[-73.88357013929694, 40.57103917085633], [-73.8833141119121, 40.57112929207483]]}}, {"type": "Feature", "properties": {"segment_id": 1337410, "physicalid": "91318", "street_name": "MARINE PY-GIL HODGES MEMORIAL BRG", "borough": "queens", "direction": "TF", "total_row_ft": 73.9, "roadbed_ft": 44.7, "median_ft": 4.8, "left_sw_ft": 15.0, "right_sw_ft": 9.4}, "geometry": {"type": "LineString", "coordinates": [[-73.8836011126501, 40.571088730769446], [-73.88334428336447, 40.57117913427092]]}}, {"type": "Feature", "properties": {"segment_id": 1337411, "physicalid": "91318", "street_name": "MARINE PY-GIL HODGES MEMORIAL BRG", "borough": "queens", "direction": "TF", "total_row_ft": 74.1, "roadbed_ft": 44.9, "median_ft": 4.7, "left_sw_ft": 15.0, "right_sw_ft": 9.6}, "geometry": {"type": "LineString", "coordinates": [[-73.88363198216506, 40.57113832724119], [-73.88337445486188, 40.57122897645892]]}}, {"type": "Feature", "properties": {"segment_id": 1337412, "physicalid": "91318", "street_name": "MARINE PY-GIL HODGES MEMORIAL BRG", "borough": "queens", "direction": "TF", "total_row_ft": 74.2, "roadbed_ft": 44.9, "median_ft": 4.7, "left_sw_ft": 15.0, "right_sw_ft": 9.6}, "geometry": {"type": "LineString", "coordinates": [[-73.88366238110687, 40.571188089362366], [-73.8834046264043, 40.57127881863876]]}}, {"type": "Feature", "properties": {"segment_id": 1337413, "physicalid": "91318", "street_name": "MARINE PY-GIL HODGES MEMORIAL BRG", "borough": "queens", "direction": "TF", "total_row_ft": 74.3, "roadbed_ft": 44.8, "median_ft": 4.7, "left_sw_ft": 15.0, "right_sw_ft": 9.7}, "geometry": {"type": "LineString", "coordinates": [[-73.88369278009398, 40.571237851475296], [-73.88343479799174, 40.571328660810394]]}}, {"type": "Feature", "properties": {"segment_id": 1337414, "physicalid": "91318", "street_name": "MARINE PY-GIL HODGES MEMORIAL BRG", "borough": "queens", "direction": "TF", "total_row_ft": 74.3, "roadbed_ft": 44.8, "median_ft": 4.7, "left_sw_ft": 15.0, "right_sw_ft": 9.8}, "geometry": {"type": "LineString", "coordinates": [[-73.88372317912638, 40.571287613579976], [-73.8834649696242, 40.5713785029739]]}}, {"type": "Feature", "properties": {"segment_id": 1337415, "physicalid": "91318", "street_name": "MARINE PY-GIL HODGES MEMORIAL BRG", "borough": "queens", "direction": "TF", "total_row_ft": 74.3, "roadbed_ft": 44.9, "median_ft": 4.6, "left_sw_ft": 15.0, "right_sw_ft": 9.8}, "geometry": {"type": "LineString", "coordinates": [[-73.88375358194193, 40.57133737436064], [-73.8834951413017, 40.57142834512929]]}}, {"type": "Feature", "properties": {"segment_id": 1337416, "physicalid": "91318", "street_name": "MARINE PY-GIL HODGES MEMORIAL BRG", "borough": "queens", "direction": "TF", "total_row_ft": 74.6, "roadbed_ft": 44.9, "median_ft": 4.4, "left_sw_ft": 15.0, "right_sw_ft": 10.2}, "geometry": {"type": "LineString", "coordinates": [[-73.88378502812039, 40.57138676788486], [-73.88352531302422, 40.571478187276554]]}}, {"type": "Feature", "properties": {"segment_id": 1337417, "physicalid": "91318", "street_name": "MARINE PY-GIL HODGES MEMORIAL BRG", "borough": "queens", "direction": "TF", "total_row_ft": 74.9, "roadbed_ft": 45.0, "median_ft": 4.3, "left_sw_ft": 15.0, "right_sw_ft": 10.6}, "geometry": {"type": "LineString", "coordinates": [[-73.88381647434535, 40.571436161400236], [-73.88355548479178, 40.571528029415624]]}}, {"type": "Feature", "properties": {"segment_id": 1337418, "physicalid": "91318", "street_name": "MARINE PY-GIL HODGES MEMORIAL BRG", "borough": "queens", "direction": "TF", "total_row_ft": 75.1, "roadbed_ft": 44.9, "median_ft": 4.2, "left_sw_ft": 15.0, "right_sw_ft": 11.0}, "geometry": {"type": "LineString", "coordinates": [[-73.88384743995701, 40.57148572409931], [-73.88358565660437, 40.57157787154655]]}}, {"type": "Feature", "properties": {"segment_id": 1337419, "physicalid": "91318", "street_name": "MARINE PY-GIL HODGES MEMORIAL BRG", "borough": "queens", "direction": "TF", "total_row_ft": 74.9, "roadbed_ft": 45.0, "median_ft": 4.1, "left_sw_ft": 15.0, "right_sw_ft": 10.8}, "geometry": {"type": "LineString", "coordinates": [[-73.88387729888126, 40.57153567636057], [-73.88361582846197, 40.57162771366936]]}}, {"type": "Feature", "properties": {"segment_id": 1337420, "physicalid": "91318", "street_name": "MARINE PY-GIL HODGES MEMORIAL BRG", "borough": "queens", "direction": "TF", "total_row_ft": 74.8, "roadbed_ft": 45.1, "median_ft": 4.0, "left_sw_ft": 15.0, "right_sw_ft": 10.6}, "geometry": {"type": "LineString", "coordinates": [[-73.88390715785019, 40.57158562861385], [-73.88364600036458, 40.57167755578396]]}}, {"type": "Feature", "properties": {"segment_id": 1337421, "physicalid": "91318", "street_name": "MARINE PY-GIL HODGES MEMORIAL BRG", "borough": "queens", "direction": "TF", "total_row_ft": 74.6, "roadbed_ft": 45.3, "median_ft": 3.9, "left_sw_ft": 15.0, "right_sw_ft": 10.4}, "geometry": {"type": "LineString", "coordinates": [[-73.88393701686377, 40.571635580859166], [-73.88367617231224, 40.57172739789047]]}}, {"type": "Feature", "properties": {"segment_id": 1337422, "physicalid": "91318", "street_name": "MARINE PY-GIL HODGES MEMORIAL BRG", "borough": "queens", "direction": "TF", "total_row_ft": 74.4, "roadbed_ft": 45.4, "median_ft": 3.8, "left_sw_ft": 15.0, "right_sw_ft": 10.2}, "geometry": {"type": "LineString", "coordinates": [[-73.88396687592198, 40.57168553309646], [-73.88370634430495, 40.57177723998886]]}}, {"type": "Feature", "properties": {"segment_id": 1337423, "physicalid": "91318", "street_name": "MARINE PY-GIL HODGES MEMORIAL BRG", "borough": "queens", "direction": "TF", "total_row_ft": 74.3, "roadbed_ft": 45.5, "median_ft": 3.7, "left_sw_ft": 15.0, "right_sw_ft": 10.0}, "geometry": {"type": "LineString", "coordinates": [[-73.88399673502488, 40.571735485325796], [-73.88373651634265, 40.57182708207906]]}}, {"type": "Feature", "properties": {"segment_id": 1337424, "physicalid": "91318", "street_name": "MARINE PY-GIL HODGES MEMORIAL BRG", "borough": "queens", "direction": "TF", "total_row_ft": 74.1, "roadbed_ft": 45.7, "median_ft": 3.6, "left_sw_ft": 15.0, "right_sw_ft": 9.8}, "geometry": {"type": "LineString", "coordinates": [[-73.88402659417243, 40.571785437547135], [-73.8837666884254, 40.57187692416112]]}}, {"type": "Feature", "properties": {"segment_id": 1337425, "physicalid": "91318", "street_name": "MARINE PY-GIL HODGES MEMORIAL BRG", "borough": "queens", "direction": "TF", "total_row_ft": 73.9, "roadbed_ft": 45.8, "median_ft": 3.5, "left_sw_ft": 15.0, "right_sw_ft": 9.6}, "geometry": {"type": "LineString", "coordinates": [[-73.88405645336464, 40.57183538976051], [-73.88379686055315, 40.571926766235]]}}, {"type": "Feature", "properties": {"segment_id": 1337426, "physicalid": "91318", "street_name": "MARINE PY-GIL HODGES MEMORIAL BRG", "borough": "queens", "direction": "TF", "total_row_ft": 73.8, "roadbed_ft": 45.9, "median_ft": 3.4, "left_sw_ft": 15.0, "right_sw_ft": 9.5}, "geometry": {"type": "LineString", "coordinates": [[-73.88408646276342, 40.57188528910874], [-73.88382703272593, 40.57197660830075]]}}, {"type": "Feature", "properties": {"segment_id": 1337427, "physicalid": "91318", "street_name": "MARINE PY-GIL HODGES MEMORIAL BRG", "borough": "queens", "direction": "TF", "total_row_ft": 73.7, "roadbed_ft": 46.0, "median_ft": 3.3, "left_sw_ft": 15.0, "right_sw_ft": 9.4}, "geometry": {"type": "LineString", "coordinates": [[-73.88411653262087, 40.571935167183206], [-73.88385720494375, 40.57202645035838]]}}, {"type": "Feature", "properties": {"segment_id": 1337428, "physicalid": "91318", "street_name": "MARINE PY-GIL HODGES MEMORIAL BRG", "borough": "queens", "direction": "TF", "total_row_ft": 73.6, "roadbed_ft": 46.1, "median_ft": 3.3, "left_sw_ft": 15.0, "right_sw_ft": 9.3}, "geometry": {"type": "LineString", "coordinates": [[-73.8841466025232, 40.57198504524957], [-73.88388737720663, 40.57207629240789]]}}, {"type": "Feature", "properties": {"segment_id": 1337429, "physicalid": "91318", "street_name": "MARINE PY-GIL HODGES MEMORIAL BRG", "borough": "queens", "direction": "TF", "total_row_ft": 73.6, "roadbed_ft": 46.2, "median_ft": 3.2, "left_sw_ft": 15.0, "right_sw_ft": 9.1}, "geometry": {"type": "LineString", "coordinates": [[-73.88417667247046, 40.572034923307825], [-73.88391754951449, 40.57212613444919]]}}, {"type": "Feature", "properties": {"segment_id": 1337430, "physicalid": "91318", "street_name": "MARINE PY-GIL HODGES MEMORIAL BRG", "borough": "queens", "direction": "TF", "total_row_ft": 73.4, "roadbed_ft": 46.3, "median_ft": 3.2, "left_sw_ft": 15.0, "right_sw_ft": 9.0}, "geometry": {"type": "LineString", "coordinates": [[-73.88420662065644, 40.5720848442339], [-73.88394772186741, 40.57217597648237]]}}, {"type": "Feature", "properties": {"segment_id": 1337431, "physicalid": "91318", "street_name": "MARINE PY-GIL HODGES MEMORIAL BRG", "borough": "queens", "direction": "TF", "total_row_ft": 73.3, "roadbed_ft": 46.4, "median_ft": 3.1, "left_sw_ft": 15.0, "right_sw_ft": 8.8}, "geometry": {"type": "LineString", "coordinates": [[-73.8842365311322, 40.57213477844182], [-73.88397789426533, 40.57222581850738]]}}, {"type": "Feature", "properties": {"segment_id": 1337432, "physicalid": "91318", "street_name": "MARINE PY-GIL HODGES MEMORIAL BRG", "borough": "queens", "direction": "TF", "total_row_ft": 73.2, "roadbed_ft": 46.5, "median_ft": 3.1, "left_sw_ft": 15.0, "right_sw_ft": 8.6}, "geometry": {"type": "LineString", "coordinates": [[-73.88426644165268, 40.57218471264165], [-73.88400806670829, 40.572275660524255]]}}, {"type": "Feature", "properties": {"segment_id": 1337433, "physicalid": "91318", "street_name": "MARINE PY-GIL HODGES MEMORIAL BRG", "borough": "queens", "direction": "TF", "total_row_ft": 73.1, "roadbed_ft": 46.6, "median_ft": 3.0, "left_sw_ft": 15.0, "right_sw_ft": 8.4}, "geometry": {"type": "LineString", "coordinates": [[-73.88429635221787, 40.57223464683348], [-73.8840382391963, 40.572325502533026]]}}, {"type": "Feature", "properties": {"segment_id": 1337434, "physicalid": "91318", "street_name": "MARINE PY-GIL HODGES MEMORIAL BRG", "borough": "queens", "direction": "TF", "total_row_ft": 72.9, "roadbed_ft": 46.7, "median_ft": 3.0, "left_sw_ft": 15.0, "right_sw_ft": 8.3}, "geometry": {"type": "LineString", "coordinates": [[-73.88432626282778, 40.572284581017286], [-73.8840684117293, 40.57237534453361]]}}, {"type": "Feature", "properties": {"segment_id": 1337435, "physicalid": "91318", "street_name": "MARINE PY-GIL HODGES MEMORIAL BRG", "borough": "queens", "direction": "TF", "total_row_ft": 72.9, "roadbed_ft": 46.8, "median_ft": 2.9, "left_sw_ft": 15.0, "right_sw_ft": 8.2}, "geometry": {"type": "LineString", "coordinates": [[-73.88435658551305, 40.57233437015777], [-73.88409858430735, 40.57242518652606]]}}, {"type": "Feature", "properties": {"segment_id": 1337436, "physicalid": "91318", "street_name": "MARINE PY-GIL HODGES MEMORIAL BRG", "borough": "queens", "direction": "TF", "total_row_ft": 73.0, "roadbed_ft": 46.9, "median_ft": 2.9, "left_sw_ft": 15.0, "right_sw_ft": 8.2}, "geometry": {"type": "LineString", "coordinates": [[-73.88438692759962, 40.572384152476644], [-73.88412875693041, 40.57247502851032]]}}, {"type": "Feature", "properties": {"segment_id": 1337437, "physicalid": "91318", "street_name": "MARINE PY-GIL HODGES MEMORIAL BRG", "borough": "queens", "direction": "TF", "total_row_ft": 73.0, "roadbed_ft": 46.7, "median_ft": 3.1, "left_sw_ft": 15.0, "right_sw_ft": 8.1}, "geometry": {"type": "LineString", "coordinates": [[-73.88441726973143, 40.57243393478727], [-73.88415892959851, 40.572524870486454]]}}, {"type": "Feature", "properties": {"segment_id": 1337438, "physicalid": "91318", "street_name": "MARINE PY-GIL HODGES MEMORIAL BRG", "borough": "queens", "direction": "TF", "total_row_ft": 73.0, "roadbed_ft": 46.5, "median_ft": 3.3, "left_sw_ft": 15.0, "right_sw_ft": 8.1}, "geometry": {"type": "LineString", "coordinates": [[-73.88444761190844, 40.57248371708967], [-73.88418910231165, 40.57257471245447]]}}, {"type": "Feature", "properties": {"segment_id": 1337439, "physicalid": "91318", "street_name": "MARINE PY-GIL HODGES MEMORIAL BRG", "borough": "queens", "direction": "TF", "total_row_ft": 73.0, "roadbed_ft": 46.4, "median_ft": 3.6, "left_sw_ft": 15.0, "right_sw_ft": 8.0}, "geometry": {"type": "LineString", "coordinates": [[-73.88447795413069, 40.5725334993838], [-73.88421927506982, 40.57262455441434]]}}, {"type": "Feature", "properties": {"segment_id": 1337440, "physicalid": "91318", "street_name": "MARINE PY-GIL HODGES MEMORIAL BRG", "borough": "queens", "direction": "TF", "total_row_ft": 73.0, "roadbed_ft": 46.2, "median_ft": 3.8, "left_sw_ft": 15.0, "right_sw_ft": 8.0}, "geometry": {"type": "LineString", "coordinates": [[-73.88450829639815, 40.57258328166973], [-73.884249447873, 40.57267439636603]]}}, {"type": "Feature", "properties": {"segment_id": 1337441, "physicalid": "91318", "street_name": "MARINE PY-GIL HODGES MEMORIAL BRG", "borough": "queens", "direction": "TF", "total_row_ft": 72.9, "roadbed_ft": 46.0, "median_ft": 4.1, "left_sw_ft": 15.0, "right_sw_ft": 7.8}, "geometry": {"type": "LineString", "coordinates": [[-73.8845382640785, 40.57263319581864], [-73.88427962072122, 40.57272423830959]]}}, {"type": "Feature", "properties": {"segment_id": 1337442, "physicalid": "91318", "street_name": "MARINE PY-GIL HODGES MEMORIAL BRG", "borough": "queens", "direction": "TF", "total_row_ft": 72.5, "roadbed_ft": 45.5, "median_ft": 4.5, "left_sw_ft": 15.0, "right_sw_ft": 7.5}, "geometry": {"type": "LineString", "coordinates": [[-73.88456737117578, 40.57268341290207], [-73.88430979361445, 40.57277408024497]]}}, {"type": "Feature", "properties": {"segment_id": 1337443, "physicalid": "91318", "street_name": "MARINE PY-GIL HODGES MEMORIAL BRG", "borough": "queens", "direction": "TF", "total_row_ft": 72.1, "roadbed_ft": 44.9, "median_ft": 5.0, "left_sw_ft": 15.0, "right_sw_ft": 7.2}, "geometry": {"type": "LineString", "coordinates": [[-73.8845964783168, 40.57273362997786], [-73.88433996655272, 40.57282392217221]]}}, {"type": "Feature", "properties": {"segment_id": 1337444, "physicalid": "91318", "street_name": "MARINE PY-GIL HODGES MEMORIAL BRG", "borough": "queens", "direction": "TF", "total_row_ft": 71.8, "roadbed_ft": 44.5, "median_ft": 5.4, "left_sw_ft": 15.0, "right_sw_ft": 6.9}, "geometry": {"type": "LineString", "coordinates": [[-73.88462581807931, 40.572783765178286], [-73.88437013953603, 40.572873764091334]]}}, {"type": "Feature", "properties": {"segment_id": 1337445, "physicalid": "91318", "street_name": "MARINE PY-GIL HODGES MEMORIAL BRG", "borough": "queens", "direction": "TF", "total_row_ft": 71.8, "roadbed_ft": 44.5, "median_ft": 5.4, "left_sw_ft": 15.0, "right_sw_ft": 6.9}, "geometry": {"type": "LineString", "coordinates": [[-73.88465600469672, 40.572833602291944], [-73.88440031256438, 40.57292360600233]]}}, {"type": "Feature", "properties": {"segment_id": 1337446, "physicalid": "91318", "street_name": "MARINE PY-GIL HODGES MEMORIAL BRG", "borough": "queens", "direction": "TF", "total_row_ft": 71.8, "roadbed_ft": 44.4, "median_ft": 5.4, "left_sw_ft": 15.0, "right_sw_ft": 6.9}, "geometry": {"type": "LineString", "coordinates": [[-73.88468619135918, 40.57288343939745], [-73.88443048563775, 40.57297344790512]]}}, {"type": "Feature", "properties": {"segment_id": 1337447, "physicalid": "91318", "street_name": "MARINE PY-GIL HODGES MEMORIAL BRG", "borough": "queens", "direction": "TF", "total_row_ft": 71.7, "roadbed_ft": 44.4, "median_ft": 5.4, "left_sw_ft": 15.0, "right_sw_ft": 6.9}, "geometry": {"type": "LineString", "coordinates": [[-73.88471637806667, 40.57293327649482], [-73.88446065875614, 40.573023289799806]]}}, {"type": "Feature", "properties": {"segment_id": 1337448, "physicalid": "91318", "street_name": "MARINE PY-GIL HODGES MEMORIAL BRG", "borough": "queens", "direction": "TF", "total_row_ft": 71.7, "roadbed_ft": 44.3, "median_ft": 5.4, "left_sw_ft": 15.0, "right_sw_ft": 6.9}, "geometry": {"type": "LineString", "coordinates": [[-73.88474656481924, 40.57298311358403], [-73.88449083191955, 40.57307313168631]]}}, {"type": "Feature", "properties": {"segment_id": 1337449, "physicalid": "91318", "street_name": "MARINE PY-GIL HODGES MEMORIAL BRG", "borough": "queens", "direction": "TF", "total_row_ft": 71.7, "roadbed_ft": 44.3, "median_ft": 5.4, "left_sw_ft": 15.0, "right_sw_ft": 6.9}, "geometry": {"type": "LineString", "coordinates": [[-73.88477675161683, 40.573032950665095], [-73.884521005128, 40.57312297356466]]}}, {"type": "Feature", "properties": {"segment_id": 1337450, "physicalid": "91318", "street_name": "MARINE PY-GIL HODGES MEMORIAL BRG", "borough": "queens", "direction": "TF", "total_row_ft": 71.6, "roadbed_ft": 44.3, "median_ft": 5.4, "left_sw_ft": 15.0, "right_sw_ft": 6.9}, "geometry": {"type": "LineString", "coordinates": [[-73.88480693845946, 40.57308278773798], [-73.88455117838149, 40.573172815434916]]}}, {"type": "Feature", "properties": {"segment_id": 1337451, "physicalid": "91318", "street_name": "MARINE PY-GIL HODGES MEMORIAL BRG", "borough": "queens", "direction": "TF", "total_row_ft": 71.6, "roadbed_ft": 44.2, "median_ft": 5.4, "left_sw_ft": 15.0, "right_sw_ft": 6.9}, "geometry": {"type": "LineString", "coordinates": [[-73.88483712534715, 40.57313262480272], [-73.88458135168001, 40.57322265729701]]}}, {"type": "Feature", "properties": {"segment_id": 1337452, "physicalid": "91318", "street_name": "MARINE PY-GIL HODGES MEMORIAL BRG", "borough": "queens", "direction": "TF", "total_row_ft": 71.6, "roadbed_ft": 44.2, "median_ft": 5.4, "left_sw_ft": 15.0, "right_sw_ft": 6.9}, "geometry": {"type": "LineString", "coordinates": [[-73.88486731182498, 40.57318246201943], [-73.88461152502354, 40.5732724991509]]}}, {"type": "Feature", "properties": {"segment_id": 1337453, "physicalid": "91318", "street_name": "MARINE PY-GIL HODGES MEMORIAL BRG", "borough": "queens", "direction": "TF", "total_row_ft": 71.6, "roadbed_ft": 44.3, "median_ft": 5.4, "left_sw_ft": 15.0, "right_sw_ft": 6.9}, "geometry": {"type": "LineString", "coordinates": [[-73.88489749870821, 40.57323229910115], [-73.88464169841208, 40.573322340996654]]}}, {"type": "Feature", "properties": {"segment_id": 1337454, "physicalid": "91318", "street_name": "MARINE PY-GIL HODGES MEMORIAL BRG", "borough": "queens", "direction": "TF", "total_row_ft": 71.6, "roadbed_ft": 44.3, "median_ft": 5.4, "left_sw_ft": 15.0, "right_sw_ft": 6.9}, "geometry": {"type": "LineString", "coordinates": [[-73.88492768591242, 40.57328213607758], [-73.8846718718457, 40.57337218283429]]}}, {"type": "Feature", "properties": {"segment_id": 1337455, "physicalid": "91318", "street_name": "MARINE PY-GIL HODGES MEMORIAL BRG", "borough": "queens", "direction": "TF", "total_row_ft": 71.7, "roadbed_ft": 44.3, "median_ft": 5.4, "left_sw_ft": 15.0, "right_sw_ft": 6.9}, "geometry": {"type": "LineString", "coordinates": [[-73.88495787316165, 40.57333197304586], [-73.88470204532433, 40.57342202466376]]}}, {"type": "Feature", "properties": {"segment_id": 1337456, "physicalid": "91318", "street_name": "MARINE PY-GIL HODGES MEMORIAL BRG", "borough": "queens", "direction": "TF", "total_row_ft": 71.7, "roadbed_ft": 44.3, "median_ft": 5.4, "left_sw_ft": 15.0, "right_sw_ft": 6.9}, "geometry": {"type": "LineString", "coordinates": [[-73.88498806045594, 40.57338181000597], [-73.884732218848, 40.57347186648512]]}}, {"type": "Feature", "properties": {"segment_id": 1337457, "physicalid": "91318", "street_name": "MARINE PY-GIL HODGES MEMORIAL BRG", "borough": "queens", "direction": "TF", "total_row_ft": 71.7, "roadbed_ft": 44.4, "median_ft": 5.4, "left_sw_ft": 15.0, "right_sw_ft": 6.9}, "geometry": {"type": "LineString", "coordinates": [[-73.88501824779527, 40.57343164695793], [-73.88476239241669, 40.57352170829831]]}}, {"type": "Feature", "properties": {"segment_id": 1337458, "physicalid": "91318", "street_name": "MARINE PY-GIL HODGES MEMORIAL BRG", "borough": "queens", "direction": "TF", "total_row_ft": 71.7, "roadbed_ft": 44.4, "median_ft": 5.4, "left_sw_ft": 15.0, "right_sw_ft": 6.9}, "geometry": {"type": "LineString", "coordinates": [[-73.88504843517966, 40.57348148390174], [-73.88479256603041, 40.57357155010334]]}}, {"type": "Feature", "properties": {"segment_id": 1337459, "physicalid": "91318", "street_name": "MARINE PY-GIL HODGES MEMORIAL BRG", "borough": "queens", "direction": "TF", "total_row_ft": 71.8, "roadbed_ft": 44.4, "median_ft": 5.4, "left_sw_ft": 15.0, "right_sw_ft": 6.9}, "geometry": {"type": "LineString", "coordinates": [[-73.8850786226091, 40.5735313208374], [-73.88482273968916, 40.57362139190019]]}}, {"type": "Feature", "properties": {"segment_id": 1337460, "physicalid": "91318", "street_name": "MARINE PY-GIL HODGES MEMORIAL BRG", "borough": "queens", "direction": "TF", "total_row_ft": 71.8, "roadbed_ft": 44.4, "median_ft": 5.4, "left_sw_ft": 15.0, "right_sw_ft": 6.9}, "geometry": {"type": "LineString", "coordinates": [[-73.88510881008357, 40.573581157764906], [-73.88485291339293, 40.57367123368892]]}}, {"type": "Feature", "properties": {"segment_id": 1337461, "physicalid": "91318", "street_name": "MARINE PY-GIL HODGES MEMORIAL BRG", "borough": "queens", "direction": "TF", "total_row_ft": 71.8, "roadbed_ft": 44.4, "median_ft": 5.4, "left_sw_ft": 15.0, "right_sw_ft": 6.9}, "geometry": {"type": "LineString", "coordinates": [[-73.88513894231575, 40.57363101414551], [-73.88488308714177, 40.57372107546954]]}}, {"type": "Feature", "properties": {"segment_id": 1584486, "physicalid": "125390", "street_name": "MARINE PY-GIL HODGES BR BIKE PTH", "borough": "queens", "direction": "NV", "total_row_ft": 6.9, "roadbed_ft": 0.0, "median_ft": 0.0, "left_sw_ft": 6.5, "right_sw_ft": 0.5}, "geometry": {"type": "LineString", "coordinates": [[-73.885147173988, 40.57369001199341], [-73.88516977434459, 40.57368204680216]]}}, {"type": "Feature", "properties": {"segment_id": 1584487, "physicalid": "125390", "street_name": "MARINE PY-GIL HODGES BR BIKE PTH", "borough": "queens", "direction": "NV", "total_row_ft": 6.9, "roadbed_ft": 0.0, "median_ft": 0.0, "left_sw_ft": 6.4, "right_sw_ft": 0.5}, "geometry": {"type": "LineString", "coordinates": [[-73.88511705065214, 40.573640152443524], [-73.88513965105369, 40.57363218723765]]}}, {"type": "Feature", "properties": {"segment_id": 1584488, "physicalid": "125390", "street_name": "MARINE PY-GIL HODGES BR BIKE PTH", "borough": "queens", "direction": "NV", "total_row_ft": 6.9, "roadbed_ft": 0.0, "median_ft": 0.0, "left_sw_ft": 6.4, "right_sw_ft": 0.5}, "geometry": {"type": "LineString", "coordinates": [[-73.88508691991602, 40.57359029550951], [-73.88510952032037, 40.57358233030386]]}}, {"type": "Feature", "properties": {"segment_id": 1584489, "physicalid": "125390", "street_name": "MARINE PY-GIL HODGES BR BIKE PTH", "borough": "queens", "direction": "NV", "total_row_ft": 6.9, "roadbed_ft": 0.0, "median_ft": 0.0, "left_sw_ft": 6.4, "right_sw_ft": 0.5}, "geometry": {"type": "LineString", "coordinates": [[-73.88505673261616, 40.57354045851832], [-73.88507933284447, 40.573532493375936]]}}, {"type": "Feature", "properties": {"segment_id": 1584490, "physicalid": "125390", "street_name": "MARINE PY-GIL HODGES BR BIKE PTH", "borough": "queens", "direction": "NV", "total_row_ft": 6.9, "roadbed_ft": 0.0, "median_ft": 0.0, "left_sw_ft": 6.4, "right_sw_ft": 0.5}, "geometry": {"type": "LineString", "coordinates": [[-73.88502654536137, 40.573490621518985], [-73.8850491454136, 40.57348265643987]]}}, {"type": "Feature", "properties": {"segment_id": 1584491, "physicalid": "125390", "street_name": "MARINE PY-GIL HODGES BR BIKE PTH", "borough": "queens", "direction": "NV", "total_row_ft": 6.9, "roadbed_ft": 0.0, "median_ft": 0.0, "left_sw_ft": 6.4, "right_sw_ft": 0.5}, "geometry": {"type": "LineString", "coordinates": [[-73.88499635815161, 40.57344078451147], [-73.8850189580278, 40.573432819495636]]}}, {"type": "Feature", "properties": {"segment_id": 1584492, "physicalid": "125390", "street_name": "MARINE PY-GIL HODGES BR BIKE PTH", "borough": "queens", "direction": "NV", "total_row_ft": 6.9, "roadbed_ft": 0.0, "median_ft": 0.0, "left_sw_ft": 6.4, "right_sw_ft": 0.5}, "geometry": {"type": "LineString", "coordinates": [[-73.88496617098689, 40.573390947495824], [-73.88498877068703, 40.57338298254325]]}}, {"type": "Feature", "properties": {"segment_id": 1584493, "physicalid": "125390", "street_name": "MARINE PY-GIL HODGES BR BIKE PTH", "borough": "queens", "direction": "NV", "total_row_ft": 6.9, "roadbed_ft": 0.0, "median_ft": 0.0, "left_sw_ft": 6.4, "right_sw_ft": 0.5}, "geometry": {"type": "LineString", "coordinates": [[-73.88493598386722, 40.57334111047202], [-73.88495858339131, 40.57333314558272]]}}, {"type": "Feature", "properties": {"segment_id": 1584494, "physicalid": "125390", "street_name": "MARINE PY-GIL HODGES BR BIKE PTH", "borough": "queens", "direction": "NV", "total_row_ft": 6.9, "roadbed_ft": 0.0, "median_ft": 0.0, "left_sw_ft": 6.4, "right_sw_ft": 0.5}, "geometry": {"type": "LineString", "coordinates": [[-73.8849057967926, 40.573291273440056], [-73.88492839614064, 40.57328330861402]]}}, {"type": "Feature", "properties": {"segment_id": 1584495, "physicalid": "125390", "street_name": "MARINE PY-GIL HODGES BR BIKE PTH", "borough": "queens", "direction": "NV", "total_row_ft": 6.9, "roadbed_ft": 0.0, "median_ft": 0.0, "left_sw_ft": 6.4, "right_sw_ft": 0.5}, "geometry": {"type": "LineString", "coordinates": [[-73.88487560976303, 40.57324143639992], [-73.88489820893501, 40.573233471637174]]}}, {"type": "Feature", "properties": {"segment_id": 1584496, "physicalid": "125390", "street_name": "MARINE PY-GIL HODGES BR BIKE PTH", "borough": "queens", "direction": "NV", "total_row_ft": 6.9, "roadbed_ft": 0.0, "median_ft": 0.0, "left_sw_ft": 6.4, "right_sw_ft": 0.6}, "geometry": {"type": "LineString", "coordinates": [[-73.8848454227785, 40.573191599351624], [-73.88486802196252, 40.573183634585895]]}}, {"type": "Feature", "properties": {"segment_id": 1584497, "physicalid": "125390", "street_name": "MARINE PY-GIL HODGES BR BIKE PTH", "borough": "queens", "direction": "NV", "total_row_ft": 6.9, "roadbed_ft": 0.0, "median_ft": 0.0, "left_sw_ft": 6.4, "right_sw_ft": 0.6}, "geometry": {"type": "LineString", "coordinates": [[-73.88481523606877, 40.57314176221424], [-73.88483783556663, 40.573133797339096]]}}, {"type": "Feature", "properties": {"segment_id": 1584498, "physicalid": "125390", "street_name": "MARINE PY-GIL HODGES BR BIKE PTH", "borough": "queens", "direction": "NV", "total_row_ft": 6.9, "roadbed_ft": 0.0, "median_ft": 0.0, "left_sw_ft": 6.4, "right_sw_ft": 0.6}, "geometry": {"type": "LineString", "coordinates": [[-73.88478504919289, 40.573091925143096], [-73.88480764867747, 40.57308396027387]]}}, {"type": "Feature", "properties": {"segment_id": 1584499, "physicalid": "125390", "street_name": "MARINE PY-GIL HODGES BR BIKE PTH", "borough": "queens", "direction": "NV", "total_row_ft": 6.9, "roadbed_ft": 0.0, "median_ft": 0.0, "left_sw_ft": 6.3, "right_sw_ft": 0.6}, "geometry": {"type": "LineString", "coordinates": [[-73.88475486236204, 40.57304208806382], [-73.88477746183337, 40.57303412320049]]}}, {"type": "Feature", "properties": {"segment_id": 1584500, "physicalid": "125390", "street_name": "MARINE PY-GIL HODGES BR BIKE PTH", "borough": "queens", "direction": "NV", "total_row_ft": 6.9, "roadbed_ft": 0.0, "median_ft": 0.0, "left_sw_ft": 6.3, "right_sw_ft": 0.6}, "geometry": {"type": "LineString", "coordinates": [[-73.88472467557625, 40.572992250976384], [-73.88474727503431, 40.57298428611897]]}}, {"type": "Feature", "properties": {"segment_id": 1584501, "physicalid": "125390", "street_name": "MARINE PY-GIL HODGES BR BIKE PTH", "borough": "queens", "direction": "NV", "total_row_ft": 6.9, "roadbed_ft": 0.0, "median_ft": 0.0, "left_sw_ft": 6.3, "right_sw_ft": 0.6}, "geometry": {"type": "LineString", "coordinates": [[-73.8846944888355, 40.57294241388078], [-73.88471708828028, 40.57293444902926]]}}, {"type": "Feature", "properties": {"segment_id": 1584502, "physicalid": "125390", "street_name": "MARINE PY-GIL HODGES BR BIKE PTH", "borough": "queens", "direction": "NV", "total_row_ft": 6.9, "roadbed_ft": 0.0, "median_ft": 0.0, "left_sw_ft": 6.3, "right_sw_ft": 0.6}, "geometry": {"type": "LineString", "coordinates": [[-73.8846643021398, 40.572892576777036], [-73.88468690157131, 40.57288461193143]]}}, {"type": "Feature", "properties": {"segment_id": 1584503, "physicalid": "125390", "street_name": "MARINE PY-GIL HODGES BR BIKE PTH", "borough": "queens", "direction": "NV", "total_row_ft": 6.9, "roadbed_ft": 0.0, "median_ft": 0.0, "left_sw_ft": 6.3, "right_sw_ft": 0.6}, "geometry": {"type": "LineString", "coordinates": [[-73.88463411548913, 40.57284273966514], [-73.88465671490738, 40.572834774825424]]}}, {"type": "Feature", "properties": {"segment_id": 1584504, "physicalid": "125390", "street_name": "MARINE PY-GIL HODGES BR BIKE PTH", "borough": "queens", "direction": "NV", "total_row_ft": 6.9, "roadbed_ft": 0.0, "median_ft": 0.0, "left_sw_ft": 6.3, "right_sw_ft": 0.6}, "geometry": {"type": "LineString", "coordinates": [[-73.88460392888352, 40.57279290254507], [-73.8846265282885, 40.57278493771128]]}}, {"type": "Feature", "properties": {"segment_id": 1584505, "physicalid": "125390", "street_name": "MARINE PY-GIL HODGES BR BIKE PTH", "borough": "queens", "direction": "NV", "total_row_ft": 7.2, "roadbed_ft": 0.0, "median_ft": 0.0, "left_sw_ft": 6.3, "right_sw_ft": 0.8}, "geometry": {"type": "LineString", "coordinates": [[-73.88457374192924, 40.572743065555606], [-73.88459716295795, 40.572734811153566]]}}, {"type": "Feature", "properties": {"segment_id": 1584506, "physicalid": "125390", "street_name": "MARINE PY-GIL HODGES BR BIKE PTH", "borough": "queens", "direction": "NV", "total_row_ft": 7.5, "roadbed_ft": 0.0, "median_ft": 0.0, "left_sw_ft": 6.3, "right_sw_ft": 1.2}, "geometry": {"type": "LineString", "coordinates": [[-73.88454355489634, 40.572693228601594], [-73.88456805559011, 40.572684593688415]]}}, {"type": "Feature", "properties": {"segment_id": 1584507, "physicalid": "125390", "street_name": "MARINE PY-GIL HODGES BR BIKE PTH", "borough": "queens", "direction": "NV", "total_row_ft": 7.8, "roadbed_ft": 0.0, "median_ft": 0.0, "left_sw_ft": 6.3, "right_sw_ft": 1.5}, "geometry": {"type": "LineString", "coordinates": [[-73.88451333784384, 40.572643402235244], [-73.88453894826604, 40.572634376215646]]}}, {"type": "Feature", "properties": {"segment_id": 1584508, "physicalid": "125390", "street_name": "MARINE PY-GIL HODGES BR BIKE PTH", "borough": "queens", "direction": "NV", "total_row_ft": 8.0, "roadbed_ft": 0.0, "median_ft": 0.0, "left_sw_ft": 6.4, "right_sw_ft": 1.6}, "geometry": {"type": "LineString", "coordinates": [[-73.88448285720324, 40.57259366877434], [-73.88450900956616, 40.572584451757066]]}}, {"type": "Feature", "properties": {"segment_id": 1584509, "physicalid": "125390", "street_name": "MARINE PY-GIL HODGES BR BIKE PTH", "borough": "queens", "direction": "NV", "total_row_ft": 8.0, "roadbed_ft": 0.0, "median_ft": 0.0, "left_sw_ft": 6.5, "right_sw_ft": 1.6}, "geometry": {"type": "LineString", "coordinates": [[-73.88445237660801, 40.572543935305134], [-73.88447866733114, 40.57253466952633]]}}, {"type": "Feature", "properties": {"segment_id": 1584510, "physicalid": "125390", "street_name": "MARINE PY-GIL HODGES BR BIKE PTH", "borough": "queens", "direction": "NV", "total_row_ft": 8.1, "roadbed_ft": 0.0, "median_ft": 0.0, "left_sw_ft": 6.6, "right_sw_ft": 1.5}, "geometry": {"type": "LineString", "coordinates": [[-73.88442189605819, 40.57249420182762], [-73.88444832514135, 40.57248488728737]]}}, {"type": "Feature", "properties": {"segment_id": 1584511, "physicalid": "125390", "street_name": "MARINE PY-GIL HODGES BR BIKE PTH", "borough": "queens", "direction": "NV", "total_row_ft": 8.1, "roadbed_ft": 0.0, "median_ft": 0.0, "left_sw_ft": 6.7, "right_sw_ft": 1.5}, "geometry": {"type": "LineString", "coordinates": [[-73.88439141555375, 40.57244446834179], [-73.88441798299678, 40.57243510504016]]}}, {"type": "Feature", "properties": {"segment_id": 1584512, "physicalid": "125390", "street_name": "MARINE PY-GIL HODGES BR BIKE PTH", "borough": "queens", "direction": "NV", "total_row_ft": 8.2, "roadbed_ft": 0.0, "median_ft": 0.0, "left_sw_ft": 6.7, "right_sw_ft": 1.4}, "geometry": {"type": "LineString", "coordinates": [[-73.88436093509469, 40.572394734847634], [-73.88438764089744, 40.57238532278473]]}}, {"type": "Feature", "properties": {"segment_id": 1584513, "physicalid": "125390", "street_name": "MARINE PY-GIL HODGES BR BIKE PTH", "borough": "queens", "direction": "NV", "total_row_ft": 8.2, "roadbed_ft": 0.0, "median_ft": 0.0, "left_sw_ft": 6.8, "right_sw_ft": 1.4}, "geometry": {"type": "LineString", "coordinates": [[-73.88433045468103, 40.57234500134521], [-73.88435729884333, 40.57233554052107]]}}, {"type": "Feature", "properties": {"segment_id": 1584514, "physicalid": "125390", "street_name": "MARINE PY-GIL HODGES BR BIKE PTH", "borough": "queens", "direction": "NV", "total_row_ft": 8.3, "roadbed_ft": 0.0, "median_ft": 0.0, "left_sw_ft": 6.9, "right_sw_ft": 1.3}, "geometry": {"type": "LineString", "coordinates": [[-73.88429997431277, 40.57229526783445], [-73.88432696604634, 40.572285755002554]]}}, {"type": "Feature", "properties": {"segment_id": 1584515, "physicalid": "125390", "street_name": "MARINE PY-GIL HODGES BR BIKE PTH", "borough": "queens", "direction": "NV", "total_row_ft": 8.4, "roadbed_ft": 0.0, "median_ft": 0.0, "left_sw_ft": 7.0, "right_sw_ft": 1.4}, "geometry": {"type": "LineString", "coordinates": [[-73.88426949398986, 40.57224553431538], [-73.88429705537585, 40.57223582071953]]}}, {"type": "Feature", "properties": {"segment_id": 1584516, "physicalid": "125390", "street_name": "MARINE PY-GIL HODGES BR BIKE PTH", "borough": "queens", "direction": "NV", "total_row_ft": 8.6, "roadbed_ft": 0.0, "median_ft": 0.0, "left_sw_ft": 7.1, "right_sw_ft": 1.5}, "geometry": {"type": "LineString", "coordinates": [[-73.88423901371237, 40.57219580078802], [-73.88426714475008, 40.57218588642851]]}}, {"type": "Feature", "properties": {"segment_id": 1584517, "physicalid": "125390", "street_name": "MARINE PY-GIL HODGES BR BIKE PTH", "borough": "queens", "direction": "NV", "total_row_ft": 8.8, "roadbed_ft": 0.0, "median_ft": 0.0, "left_sw_ft": 7.2, "right_sw_ft": 1.6}, "geometry": {"type": "LineString", "coordinates": [[-73.88420853348026, 40.572146067252326], [-73.88423723416903, 40.572135952129464]]}}, {"type": "Feature", "properties": {"segment_id": 1584518, "physicalid": "125390", "street_name": "MARINE PY-GIL HODGES BR BIKE PTH", "borough": "queens", "direction": "NV", "total_row_ft": 9.0, "roadbed_ft": 0.0, "median_ft": 0.0, "left_sw_ft": 7.3, "right_sw_ft": 1.7}, "geometry": {"type": "LineString", "coordinates": [[-73.88417805329354, 40.57209633370833], [-73.88420732363271, 40.57208601782244]]}}, {"type": "Feature", "properties": {"segment_id": 1584519, "physicalid": "125390", "street_name": "MARINE PY-GIL HODGES BR BIKE PTH", "borough": "queens", "direction": "NV", "total_row_ft": 9.1, "roadbed_ft": 0.0, "median_ft": 0.0, "left_sw_ft": 7.3, "right_sw_ft": 1.8}, "geometry": {"type": "LineString", "coordinates": [[-73.8841475731522, 40.572046600156035], [-73.88417737914328, 40.5720360954894]]}}, {"type": "Feature", "properties": {"segment_id": 1584520, "physicalid": "125390", "street_name": "MARINE PY-GIL HODGES BR BIKE PTH", "borough": "queens", "direction": "NV", "total_row_ft": 9.2, "roadbed_ft": 0.0, "median_ft": 0.0, "left_sw_ft": 7.4, "right_sw_ft": 1.8}, "geometry": {"type": "LineString", "coordinates": [[-73.88411709305626, 40.57199686659544], [-73.88414730916953, 40.57198621738915]]}}, {"type": "Feature", "properties": {"segment_id": 1584521, "physicalid": "125390", "street_name": "MARINE PY-GIL HODGES BR BIKE PTH", "borough": "queens", "direction": "NV", "total_row_ft": 9.4, "roadbed_ft": 0.0, "median_ft": 0.0, "left_sw_ft": 7.5, "right_sw_ft": 1.9}, "geometry": {"type": "LineString", "coordinates": [[-73.88408661300572, 40.57194713302651], [-73.88411723924072, 40.57193633928082]]}}, {"type": "Feature", "properties": {"segment_id": 1584522, "physicalid": "125390", "street_name": "MARINE PY-GIL HODGES BR BIKE PTH", "borough": "queens", "direction": "NV", "total_row_ft": 9.5, "roadbed_ft": 0.0, "median_ft": 0.0, "left_sw_ft": 7.6, "right_sw_ft": 1.9}, "geometry": {"type": "LineString", "coordinates": [[-73.88405613300054, 40.5718973994493], [-73.88408716935682, 40.57188646116438]]}}, {"type": "Feature", "properties": {"segment_id": 1584523, "physicalid": "125390", "street_name": "MARINE PY-GIL HODGES BR BIKE PTH", "borough": "queens", "direction": "NV", "total_row_ft": 9.6, "roadbed_ft": 0.0, "median_ft": 0.0, "left_sw_ft": 7.7, "right_sw_ft": 2.0}, "geometry": {"type": "LineString", "coordinates": [[-73.88402565304075, 40.571847665863764], [-73.88405715497164, 40.571836563495985]]}}, {"type": "Feature", "properties": {"segment_id": 1584524, "physicalid": "125390", "street_name": "MARINE PY-GIL HODGES BR BIKE PTH", "borough": "queens", "direction": "NV", "total_row_ft": 9.8, "roadbed_ft": 0.0, "median_ft": 0.0, "left_sw_ft": 7.8, "right_sw_ft": 2.1}, "geometry": {"type": "LineString", "coordinates": [[-73.88399517312638, 40.57179793226992], [-73.88402729570804, 40.57178661116512]]}}, {"type": "Feature", "properties": {"segment_id": 1584525, "physicalid": "125390", "street_name": "MARINE PY-GIL HODGES BR BIKE PTH", "borough": "queens", "direction": "NV", "total_row_ft": 10.0, "roadbed_ft": 0.0, "median_ft": 0.0, "left_sw_ft": 7.8, "right_sw_ft": 2.2}, "geometry": {"type": "LineString", "coordinates": [[-73.88396469325735, 40.57174819866776], [-73.8839974364891, 40.57173665882627]]}}, {"type": "Feature", "properties": {"segment_id": 1584526, "physicalid": "125390", "street_name": "MARINE PY-GIL HODGES BR BIKE PTH", "borough": "queens", "direction": "NV", "total_row_ft": 10.2, "roadbed_ft": 0.0, "median_ft": 0.0, "left_sw_ft": 7.9, "right_sw_ft": 2.3}, "geometry": {"type": "LineString", "coordinates": [[-73.88393421343375, 40.57169846505732], [-73.8839675773148, 40.57168670647947]]}}, {"type": "Feature", "properties": {"segment_id": 1584527, "physicalid": "125390", "street_name": "MARINE PY-GIL HODGES BR BIKE PTH", "borough": "queens", "direction": "NV", "total_row_ft": 10.4, "roadbed_ft": 0.0, "median_ft": 0.0, "left_sw_ft": 8.0, "right_sw_ft": 2.4}, "geometry": {"type": "LineString", "coordinates": [[-73.88390373365552, 40.57164873143855], [-73.88393771818518, 40.57163675412463]]}}, {"type": "Feature", "properties": {"segment_id": 1584528, "physicalid": "125390", "street_name": "MARINE PY-GIL HODGES BR BIKE PTH", "borough": "queens", "direction": "NV", "total_row_ft": 10.6, "roadbed_ft": 0.0, "median_ft": 0.0, "left_sw_ft": 8.1, "right_sw_ft": 2.5}, "geometry": {"type": "LineString", "coordinates": [[-73.88387325392267, 40.57159899781147], [-73.8839078591002, 40.571586801761846]]}}, {"type": "Feature", "properties": {"segment_id": 1584529, "physicalid": "125390", "street_name": "MARINE PY-GIL HODGES BR BIKE PTH", "borough": "queens", "direction": "NV", "total_row_ft": 10.8, "roadbed_ft": 0.0, "median_ft": 0.0, "left_sw_ft": 8.2, "right_sw_ft": 2.6}, "geometry": {"type": "LineString", "coordinates": [[-73.88384277423522, 40.571549264176085], [-73.8838780000599, 40.571536849391066]]}}, {"type": "Feature", "properties": {"segment_id": 1584530, "physicalid": "125390", "street_name": "MARINE PY-GIL HODGES BR BIKE PTH", "borough": "queens", "direction": "NV", "total_row_ft": 11.0, "roadbed_ft": 0.0, "median_ft": 0.0, "left_sw_ft": 8.3, "right_sw_ft": 2.7}, "geometry": {"type": "LineString", "coordinates": [[-73.88381229459314, 40.57149953053239], [-73.88384814106425, 40.57148689701229]]}}, {"type": "Feature", "properties": {"segment_id": 1584531, "physicalid": "125390", "street_name": "MARINE PY-GIL HODGES BR BIKE PTH", "borough": "queens", "direction": "NV", "total_row_ft": 10.6, "roadbed_ft": 0.0, "median_ft": 0.0, "left_sw_ft": 8.1, "right_sw_ft": 2.5}, "geometry": {"type": "LineString", "coordinates": [[-73.88378252660202, 40.57144954608651], [-73.88381721289174, 40.571437321455875]]}}, {"type": "Feature", "properties": {"segment_id": 1584532, "physicalid": "125390", "street_name": "MARINE PY-GIL HODGES BR BIKE PTH", "borough": "queens", "direction": "NV", "total_row_ft": 10.2, "roadbed_ft": 0.0, "median_ft": 0.0, "left_sw_ft": 8.1, "right_sw_ft": 2.1}, "geometry": {"type": "LineString", "coordinates": [[-73.88375234263212, 40.57139970825337], [-73.88378576694969, 40.57138792838682]]}}, {"type": "Feature", "properties": {"segment_id": 1584533, "physicalid": "125390", "street_name": "MARINE PY-GIL HODGES BR BIKE PTH", "borough": "queens", "direction": "NV", "total_row_ft": 9.8, "roadbed_ft": 0.0, "median_ft": 0.0, "left_sw_ft": 8.1, "right_sw_ft": 1.7}, "geometry": {"type": "LineString", "coordinates": [[-73.88372215870726, 40.57134987041207], [-73.88375432105414, 40.57133853530892]]}}, {"type": "Feature", "properties": {"segment_id": 1584534, "physicalid": "125390", "street_name": "MARINE PY-GIL HODGES BR BIKE PTH", "borough": "queens", "direction": "NV", "total_row_ft": 9.8, "roadbed_ft": 0.0, "median_ft": 0.0, "left_sw_ft": 8.1, "right_sw_ft": 1.7}, "geometry": {"type": "LineString", "coordinates": [[-73.88369197280404, 40.57130003327574], [-73.8837238936799, 40.571288783276955]]}}, {"type": "Feature", "properties": {"segment_id": 1584535, "physicalid": "125390", "street_name": "MARINE PY-GIL HODGES BR BIKE PTH", "borough": "queens", "direction": "NV", "total_row_ft": 9.7, "roadbed_ft": 0.0, "median_ft": 0.0, "left_sw_ft": 8.1, "right_sw_ft": 1.6}, "geometry": {"type": "LineString", "coordinates": [[-73.88366179738566, 40.57125019245193], [-73.88369349469264, 40.571239021248154]]}}, {"type": "Feature", "properties": {"segment_id": 1584536, "physicalid": "125390", "street_name": "MARINE PY-GIL HODGES BR BIKE PTH", "borough": "queens", "direction": "NV", "total_row_ft": 9.6, "roadbed_ft": 0.0, "median_ft": 0.0, "left_sw_ft": 8.1, "right_sw_ft": 1.5}, "geometry": {"type": "LineString", "coordinates": [[-73.88363162025581, 40.571200352239], [-73.8836630957507, 40.57118925921107]]}}, {"type": "Feature", "properties": {"segment_id": 1584537, "physicalid": "125390", "street_name": "MARINE PY-GIL HODGES BR BIKE PTH", "borough": "queens", "direction": "NV", "total_row_ft": 9.6, "roadbed_ft": 0.0, "median_ft": 0.0, "left_sw_ft": 8.1, "right_sw_ft": 1.5}, "geometry": {"type": "LineString", "coordinates": [[-73.883601443171, 40.57115051201792], [-73.88363269685404, 40.57113949716572]]}}, {"type": "Feature", "properties": {"segment_id": 1584538, "physicalid": "125390", "street_name": "MARINE PY-GIL HODGES BR BIKE PTH", "borough": "queens", "direction": "NV", "total_row_ft": 9.4, "roadbed_ft": 0.0, "median_ft": 0.0, "left_sw_ft": 8.1, "right_sw_ft": 1.3}, "geometry": {"type": "LineString", "coordinates": [[-73.88357126613123, 40.57110067178869], [-73.8836018409934, 40.571089896177654]]}}, {"type": "Feature", "properties": {"segment_id": 1584539, "physicalid": "125390", "street_name": "MARINE PY-GIL HODGES BR BIKE PTH", "borough": "queens", "direction": "NV", "total_row_ft": 9.1, "roadbed_ft": 0.0, "median_ft": 0.0, "left_sw_ft": 8.1, "right_sw_ft": 1.0}, "geometry": {"type": "LineString", "coordinates": [[-73.88354108913649, 40.57105083155133], [-73.88357086781392, 40.57104033654437]]}}, {"type": "Feature", "properties": {"segment_id": 1584540, "physicalid": "125390", "street_name": "MARINE PY-GIL HODGES BR BIKE PTH", "borough": "queens", "direction": "NV", "total_row_ft": 8.9, "roadbed_ft": 0.0, "median_ft": 0.0, "left_sw_ft": 8.1, "right_sw_ft": 0.8}, "geometry": {"type": "LineString", "coordinates": [[-73.8835109121868, 40.5710009913058], [-73.8835398946804, 40.570990776902505]]}}, {"type": "Feature", "properties": {"segment_id": 1584541, "physicalid": "125390", "street_name": "MARINE PY-GIL HODGES BR BIKE PTH", "borough": "queens", "direction": "NV", "total_row_ft": 8.6, "roadbed_ft": 0.0, "median_ft": 0.0, "left_sw_ft": 8.1, "right_sw_ft": 0.6}, "geometry": {"type": "LineString", "coordinates": [[-73.8834807352821, 40.570951151052114], [-73.88350892159285, 40.57094121725207]]}}, {"type": "Feature", "properties": {"segment_id": 1584542, "physicalid": "125390", "street_name": "MARINE PY-GIL HODGES BR BIKE PTH", "borough": "queens", "direction": "NV", "total_row_ft": 8.6, "roadbed_ft": 0.0, "median_ft": 0.0, "left_sw_ft": 8.1, "right_sw_ft": 0.5}, "geometry": {"type": "LineString", "coordinates": [[-73.88345055842247, 40.57090131079032], [-73.88347853264986, 40.57089145173708]]}}, {"type": "Feature", "properties": {"segment_id": 1584543, "physicalid": "125390", "street_name": "MARINE PY-GIL HODGES BR BIKE PTH", "borough": "queens", "direction": "NV", "total_row_ft": 8.7, "roadbed_ft": 0.0, "median_ft": 0.0, "left_sw_ft": 8.0, "right_sw_ft": 0.6}, "geometry": {"type": "LineString", "coordinates": [[-73.88342038160786, 40.57085147052036], [-73.8834486571157, 40.57084150528729]]}}, {"type": "Feature", "properties": {"segment_id": 1584544, "physicalid": "125390", "street_name": "MARINE PY-GIL HODGES BR BIKE PTH", "borough": "queens", "direction": "NV", "total_row_ft": 8.7, "roadbed_ft": 0.0, "median_ft": 0.0, "left_sw_ft": 8.0, "right_sw_ft": 0.7}, "geometry": {"type": "LineString", "coordinates": [[-73.88339020483828, 40.57080163024222], [-73.88341878162622, 40.57079155882952]]}}, {"type": "Feature", "properties": {"segment_id": 1584545, "physicalid": "125390", "street_name": "MARINE PY-GIL HODGES BR BIKE PTH", "borough": "queens", "direction": "NV", "total_row_ft": 8.8, "roadbed_ft": 0.0, "median_ft": 0.0, "left_sw_ft": 8.0, "right_sw_ft": 0.8}, "geometry": {"type": "LineString", "coordinates": [[-73.8833600344216, 40.57075178773286], [-73.88338890618141, 40.57074161236374]]}}, {"type": "Feature", "properties": {"segment_id": 1584546, "physicalid": "125390", "street_name": "MARINE PY-GIL HODGES BR BIKE PTH", "borough": "queens", "direction": "NV", "total_row_ft": 8.9, "roadbed_ft": 0.0, "median_ft": 0.0, "left_sw_ft": 8.0, "right_sw_ft": 0.9}, "geometry": {"type": "LineString", "coordinates": [[-73.88332985838647, 40.57070194721134], [-73.88335903078129, 40.570691665889974]]}}, {"type": "Feature", "properties": {"segment_id": 1584547, "physicalid": "125390", "street_name": "MARINE PY-GIL HODGES BR BIKE PTH", "borough": "queens", "direction": "NV", "total_row_ft": 9.0, "roadbed_ft": 0.0, "median_ft": 0.0, "left_sw_ft": 8.0, "right_sw_ft": 1.0}, "geometry": {"type": "LineString", "coordinates": [[-73.88329968239638, 40.57065210668168], [-73.88332915542584, 40.5706417194082]]}}, {"type": "Feature", "properties": {"segment_id": 1584548, "physicalid": "125390", "street_name": "MARINE PY-GIL HODGES BR BIKE PTH", "borough": "queens", "direction": "NV", "total_row_ft": 9.1, "roadbed_ft": 0.0, "median_ft": 0.0, "left_sw_ft": 8.0, "right_sw_ft": 1.1}, "geometry": {"type": "LineString", "coordinates": [[-73.88326950645131, 40.57060226614389], [-73.88329910363237, 40.57059183511682]]}}, {"type": "Feature", "properties": {"segment_id": 1584549, "physicalid": "125390", "street_name": "MARINE PY-GIL HODGES BR BIKE PTH", "borough": "queens", "direction": "NV", "total_row_ft": 9.1, "roadbed_ft": 0.0, "median_ft": 0.0, "left_sw_ft": 8.0, "right_sw_ft": 1.1}, "geometry": {"type": "LineString", "coordinates": [[-73.88323933055128, 40.5705524255979], [-73.88326900315361, 40.570541967991524]]}}, {"type": "Feature", "properties": {"segment_id": 1584550, "physicalid": "125390", "street_name": "MARINE PY-GIL HODGES BR BIKE PTH", "borough": "queens", "direction": "NV", "total_row_ft": 9.1, "roadbed_ft": 0.0, "median_ft": 0.0, "left_sw_ft": 8.0, "right_sw_ft": 1.1}, "geometry": {"type": "LineString", "coordinates": [[-73.88320915469626, 40.5705025850438], [-73.88323890271981, 40.57049210085808]]}}, {"type": "Feature", "properties": {"segment_id": 1584551, "physicalid": "125390", "street_name": "MARINE PY-GIL HODGES BR BIKE PTH", "borough": "queens", "direction": "NV", "total_row_ft": 9.1, "roadbed_ft": 0.0, "median_ft": 0.0, "left_sw_ft": 8.0, "right_sw_ft": 1.1}, "geometry": {"type": "LineString", "coordinates": [[-73.8831789788863, 40.57045274448154], [-73.88320880233094, 40.57044223371655]]}}, {"type": "Feature", "properties": {"segment_id": 1584552, "physicalid": "125390", "street_name": "MARINE PY-GIL HODGES BR BIKE PTH", "borough": "queens", "direction": "NV", "total_row_ft": 9.2, "roadbed_ft": 0.0, "median_ft": 0.0, "left_sw_ft": 8.0, "right_sw_ft": 1.2}, "geometry": {"type": "LineString", "coordinates": [[-73.88314880312136, 40.570402903911145], [-73.883178701987, 40.57039236656689]]}}, {"type": "Feature", "properties": {"segment_id": 1584553, "physicalid": "125390", "street_name": "MARINE PY-GIL HODGES BR BIKE PTH", "borough": "queens", "direction": "NV", "total_row_ft": 9.1, "roadbed_ft": 0.0, "median_ft": 0.0, "left_sw_ft": 8.0, "right_sw_ft": 1.2}, "geometry": {"type": "LineString", "coordinates": [[-73.88311862765813, 40.570353063242116], [-73.88314850872743, 40.57034253217154]]}}, {"type": "Feature", "properties": {"segment_id": 1584554, "physicalid": "125390", "street_name": "MARINE PY-GIL HODGES BR BIKE PTH", "borough": "queens", "direction": "NV", "total_row_ft": 9.1, "roadbed_ft": 0.0, "median_ft": 0.0, "left_sw_ft": 8.0, "right_sw_ft": 1.1}, "geometry": {"type": "LineString", "coordinates": [[-73.88308845222156, 40.57030322257143], [-73.88311820709004, 40.5702927359798]]}}, {"type": "Feature", "properties": {"segment_id": 1584555, "physicalid": "125390", "street_name": "MARINE PY-GIL HODGES BR BIKE PTH", "borough": "queens", "direction": "NV", "total_row_ft": 9.1, "roadbed_ft": 0.0, "median_ft": 0.0, "left_sw_ft": 8.0, "right_sw_ft": 1.1}, "geometry": {"type": "LineString", "coordinates": [[-73.88305827670555, 40.570253381936475], [-73.88308790549782, 40.57024293977985]]}}, {"type": "Feature", "properties": {"segment_id": 1584556, "physicalid": "125390", "street_name": "MARINE PY-GIL HODGES BR BIKE PTH", "borough": "queens", "direction": "NV", "total_row_ft": 9.0, "roadbed_ft": 0.0, "median_ft": 0.0, "left_sw_ft": 7.9, "right_sw_ft": 1.1}, "geometry": {"type": "LineString", "coordinates": [[-73.88302810118296, 40.570203541311535], [-73.88305760395077, 40.57019314357168]]}}, {"type": "Feature", "properties": {"segment_id": 1584557, "physicalid": "125390", "street_name": "MARINE PY-GIL HODGES BR BIKE PTH", "borough": "queens", "direction": "NV", "total_row_ft": 9.0, "roadbed_ft": 0.0, "median_ft": 0.0, "left_sw_ft": 7.9, "right_sw_ft": 1.1}, "geometry": {"type": "LineString", "coordinates": [[-73.8829979257054, 40.57015370067846], [-73.8830273024489, 40.570143347355305]]}}, {"type": "Feature", "properties": {"segment_id": 1584558, "physicalid": "125390", "street_name": "MARINE PY-GIL HODGES BR BIKE PTH", "borough": "queens", "direction": "NV", "total_row_ft": 8.9, "roadbed_ft": 0.0, "median_ft": 0.0, "left_sw_ft": 7.9, "right_sw_ft": 1.0}, "geometry": {"type": "LineString", "coordinates": [[-73.88296775027287, 40.57010386003724], [-73.88299696981447, 40.570093562118785]]}}, {"type": "Feature", "properties": {"segment_id": 1584559, "physicalid": "125390", "street_name": "MARINE PY-GIL HODGES BR BIKE PTH", "borough": "queens", "direction": "NV", "total_row_ft": 8.9, "roadbed_ft": 0.0, "median_ft": 0.0, "left_sw_ft": 7.9, "right_sw_ft": 1.0}, "geometry": {"type": "LineString", "coordinates": [[-73.88293757488536, 40.57005401938787], [-73.88296663063912, 40.57004377919519]]}}]}