{"type": "FeatureCollection", "features": [{"type": "Feature", "properties": {"segment_id": 275731, "physicalid": "21011", "street_name": "JFK ACCESS RD", "borough": "queens", "direction": "TW", "total_row_ft": 63.6, "roadbed_ft": 33.6, "median_ft": 0.0, "left_sw_ft": 15.0, "right_sw_ft": 15.0}, "geometry": {"type": "LineString", "coordinates": [[-73.8101805103847, 40.64840239314668], [-73.80995938871719, 40.64868545118886]]}}, {"type": "Feature", "properties": {"segment_id": 275732, "physicalid": "21011", "street_name": "JFK ACCESS RD", "borough": "queens", "direction": "TW", "total_row_ft": 85.8, "roadbed_ft": 55.8, "median_ft": 0.0, "left_sw_ft": 15.0, "right_sw_ft": 15.0}, "geometry": {"type": "LineString", "coordinates": [[-73.81024244890891, 40.64843046311091], [-73.81002132741118, 40.6487135212713]]}}, {"type": "Feature", "properties": {"segment_id": 275733, "physicalid": "21011", "street_name": "JFK ACCESS RD", "borough": "queens", "direction": "TW", "total_row_ft": 86.1, "roadbed_ft": 56.1, "median_ft": 0.0, "left_sw_ft": 15.0, "right_sw_ft": 15.0}, "geometry": {"type": "LineString", "coordinates": [[-73.81030438748525, 40.648458533041705], [-73.8100832661573, 40.648741591320295]]}}, {"type": "Feature", "properties": {"segment_id": 275734, "physicalid": "21011", "street_name": "JFK ACCESS RD", "borough": "queens", "direction": "TW", "total_row_ft": 86.3, "roadbed_ft": 56.3, "median_ft": 0.0, "left_sw_ft": 15.0, "right_sw_ft": 15.0}, "geometry": {"type": "LineString", "coordinates": [[-73.81036632611371, 40.64848660293907], [-73.8101452049555, 40.64876966133584]]}}, {"type": "Feature", "properties": {"segment_id": 275735, "physicalid": "21011", "street_name": "JFK ACCESS RD", "borough": "queens", "direction": "TW", "total_row_ft": 86.2, "roadbed_ft": 56.2, "median_ft": 0.0, "left_sw_ft": 15.0, "right_sw_ft": 15.0}, "geometry": {"type": "LineString", "coordinates": [[-73.81042826479433, 40.648514672802975], [-73.81020714380583, 40.64879773131793]]}}, {"type": "Feature", "properties": {"segment_id": 275736, "physicalid": "21011", "street_name": "JFK ACCESS RD", "borough": "queens", "direction": "TW", "total_row_ft": 86.2, "roadbed_ft": 56.2, "median_ft": 0.0, "left_sw_ft": 15.0, "right_sw_ft": 15.0}, "geometry": {"type": "LineString", "coordinates": [[-73.810490203527, 40.64854274263343], [-73.81026908270829, 40.64882580126661]]}}, {"type": "Feature", "properties": {"segment_id": 275737, "physicalid": "21011", "street_name": "JFK ACCESS RD", "borough": "queens", "direction": "TW", "total_row_ft": 86.1, "roadbed_ft": 56.1, "median_ft": 0.0, "left_sw_ft": 15.0, "right_sw_ft": 15.0}, "geometry": {"type": "LineString", "coordinates": [[-73.81055214231182, 40.648570812430435], [-73.81033102166286, 40.64885387118179]]}}, {"type": "Feature", "properties": {"segment_id": 275738, "physicalid": "21011", "street_name": "JFK ACCESS RD", "borough": "queens", "direction": "TW", "total_row_ft": 86.0, "roadbed_ft": 56.0, "median_ft": 0.0, "left_sw_ft": 15.0, "right_sw_ft": 15.0}, "geometry": {"type": "LineString", "coordinates": [[-73.81061408114876, 40.648598882194015], [-73.81039296066953, 40.64888194106354]]}}, {"type": "Feature", "properties": {"segment_id": 275739, "physicalid": "21011", "street_name": "JFK ACCESS RD", "borough": "queens", "direction": "TW", "total_row_ft": 85.9, "roadbed_ft": 55.9, "median_ft": 0.0, "left_sw_ft": 15.0, "right_sw_ft": 15.0}, "geometry": {"type": "LineString", "coordinates": [[-73.81067602003783, 40.648626951924136], [-73.81045489972833, 40.64891001091186]]}}, {"type": "Feature", "properties": {"segment_id": 275740, "physicalid": "21011", "street_name": "JFK ACCESS RD", "borough": "queens", "direction": "TW", "total_row_ft": 85.7, "roadbed_ft": 55.7, "median_ft": 0.0, "left_sw_ft": 15.0, "right_sw_ft": 15.0}, "geometry": {"type": "LineString", "coordinates": [[-73.81073795897898, 40.64865502162082], [-73.81051683883926, 40.64893808072672]]}}, {"type": "Feature", "properties": {"segment_id": 275741, "physicalid": "21011", "street_name": "JFK ACCESS RD", "borough": "queens", "direction": "TW", "total_row_ft": 85.7, "roadbed_ft": 55.7, "median_ft": 0.0, "left_sw_ft": 15.0, "right_sw_ft": 15.0}, "geometry": {"type": "LineString", "coordinates": [[-73.81079989797226, 40.64868309128403], [-73.8105787780023, 40.64896615050813]]}}, {"type": "Feature", "properties": {"segment_id": 275742, "physicalid": "21011", "street_name": "JFK ACCESS RD", "borough": "queens", "direction": "TW", "total_row_ft": 85.7, "roadbed_ft": 55.7, "median_ft": 0.0, "left_sw_ft": 15.0, "right_sw_ft": 15.0}, "geometry": {"type": "LineString", "coordinates": [[-73.81086183701767, 40.64871116091382], [-73.81064071721745, 40.648994220256114]]}}, {"type": "Feature", "properties": {"segment_id": 275743, "physicalid": "21011", "street_name": "JFK ACCESS RD", "borough": "queens", "direction": "TW", "total_row_ft": 85.8, "roadbed_ft": 55.8, "median_ft": 0.0, "left_sw_ft": 15.0, "right_sw_ft": 15.0}, "geometry": {"type": "LineString", "coordinates": [[-73.8109237761152, 40.64873923051016], [-73.81070265648471, 40.649022289970624]]}}, {"type": "Feature", "properties": {"segment_id": 275744, "physicalid": "21011", "street_name": "JFK ACCESS RD", "borough": "queens", "direction": "TW", "total_row_ft": 85.8, "roadbed_ft": 55.8, "median_ft": 0.0, "left_sw_ft": 15.0, "right_sw_ft": 15.0}, "geometry": {"type": "LineString", "coordinates": [[-73.81098571526482, 40.64876730007302], [-73.81076459580412, 40.649050359651724]]}}, {"type": "Feature", "properties": {"segment_id": 275745, "physicalid": "21011", "street_name": "JFK ACCESS RD", "borough": "queens", "direction": "TW", "total_row_ft": 85.8, "roadbed_ft": 55.8, "median_ft": 0.0, "left_sw_ft": 15.0, "right_sw_ft": 15.0}, "geometry": {"type": "LineString", "coordinates": [[-73.81104765446658, 40.64879536960246], [-73.81082653517562, 40.649078429299344]]}}, {"type": "Feature", "properties": {"segment_id": 275746, "physicalid": "21011", "street_name": "JFK ACCESS RD", "borough": "queens", "direction": "TW", "total_row_ft": 85.9, "roadbed_ft": 55.9, "median_ft": 0.0, "left_sw_ft": 15.0, "right_sw_ft": 15.0}, "geometry": {"type": "LineString", "coordinates": [[-73.81110959372046, 40.648823439098464], [-73.81088847459921, 40.649106498913525]]}}, {"type": "Feature", "properties": {"segment_id": 275747, "physicalid": "21011", "street_name": "JFK ACCESS RD", "borough": "queens", "direction": "TW", "total_row_ft": 85.9, "roadbed_ft": 55.9, "median_ft": 0.0, "left_sw_ft": 15.0, "right_sw_ft": 15.0}, "geometry": {"type": "LineString", "coordinates": [[-73.81117153302645, 40.648851508561016], [-73.81095041407497, 40.64913456849425]]}}, {"type": "Feature", "properties": {"segment_id": 275748, "physicalid": "21011", "street_name": "JFK ACCESS RD", "borough": "queens", "direction": "TW", "total_row_ft": 91.3, "roadbed_ft": 61.3, "median_ft": 0.0, "left_sw_ft": 15.0, "right_sw_ft": 15.0}, "geometry": {"type": "LineString", "coordinates": [[-73.81123347238453, 40.64887957799009], [-73.81101235360285, 40.649162638041545]]}}, {"type": "Feature", "properties": {"segment_id": 275749, "physicalid": "21011", "street_name": "JFK ACCESS RD", "borough": "queens", "direction": "TW", "total_row_ft": 96.9, "roadbed_ft": 66.9, "median_ft": 0.0, "left_sw_ft": 15.0, "right_sw_ft": 15.0}, "geometry": {"type": "LineString", "coordinates": [[-73.81129541091569, 40.64890764692315], [-73.81107429413599, 40.64919070792312]]}}, {"type": "Feature", "properties": {"segment_id": 275750, "physicalid": "21011", "street_name": "JFK ACCESS RD", "borough": "queens", "direction": "TW", "total_row_ft": 96.9, "roadbed_ft": 66.9, "median_ft": 0.0, "left_sw_ft": 15.0, "right_sw_ft": 15.0}, "geometry": {"type": "LineString", "coordinates": [[-73.81135735055972, 40.64893571605276], [-73.81113623394977, 40.64921877717093]]}}, {"type": "Feature", "properties": {"segment_id": 275751, "physicalid": "21011", "street_name": "JFK ACCESS RD", "borough": "queens", "direction": "TW", "total_row_ft": 96.8, "roadbed_ft": 66.8, "median_ft": 0.0, "left_sw_ft": 15.0, "right_sw_ft": 15.0}, "geometry": {"type": "LineString", "coordinates": [[-73.81141929025588, 40.64896378514895], [-73.81119817381567, 40.64924684638527]]}}, {"type": "Feature", "properties": {"segment_id": 275752, "physicalid": "21011", "street_name": "JFK ACCESS RD", "borough": "queens", "direction": "TW", "total_row_ft": 96.8, "roadbed_ft": 66.8, "median_ft": 0.0, "left_sw_ft": 15.0, "right_sw_ft": 15.0}, "geometry": {"type": "LineString", "coordinates": [[-73.81148123000415, 40.64899185421166], [-73.81126011373368, 40.64927491556616]]}}, {"type": "Feature", "properties": {"segment_id": 275753, "physicalid": "21011", "street_name": "JFK ACCESS RD", "borough": "queens", "direction": "TW", "total_row_ft": 96.7, "roadbed_ft": 66.7, "median_ft": 0.0, "left_sw_ft": 15.0, "right_sw_ft": 15.0}, "geometry": {"type": "LineString", "coordinates": [[-73.8115431698045, 40.64901992324093], [-73.81132205370386, 40.649302984713636]]}}, {"type": "Feature", "properties": {"segment_id": 275754, "physicalid": "21011", "street_name": "JFK ACCESS RD", "borough": "queens", "direction": "TW", "total_row_ft": 101.8, "roadbed_ft": 71.8, "median_ft": 0.0, "left_sw_ft": 15.0, "right_sw_ft": 15.0}, "geometry": {"type": "LineString", "coordinates": [[-73.811605109657, 40.64904799223675], [-73.81138399372611, 40.649331053827645]]}}, {"type": "Feature", "properties": {"segment_id": 275755, "physicalid": "21011", "street_name": "JFK ACCESS RD", "borough": "queens", "direction": "TW", "total_row_ft": 150.0, "roadbed_ft": 120.0, "median_ft": 0.0, "left_sw_ft": 15.0, "right_sw_ft": 15.0}, "geometry": {"type": "LineString", "coordinates": [[-73.81166704956159, 40.64907606119912], [-73.81144593380048, 40.64935912290824]]}}, {"type": "Feature", "properties": {"segment_id": 275756, "physicalid": "21011", "street_name": "JFK ACCESS RD", "borough": "queens", "direction": "TW", "total_row_ft": 150.0, "roadbed_ft": 120.0, "median_ft": 0.0, "left_sw_ft": 15.0, "right_sw_ft": 15.0}, "geometry": {"type": "LineString", "coordinates": [[-73.81172898951833, 40.64910413012804], [-73.81150787392697, 40.64938719195533]]}}, {"type": "Feature", "properties": {"segment_id": 275757, "physicalid": "21011", "street_name": "JFK ACCESS RD", "borough": "queens", "direction": "TW", "total_row_ft": 150.0, "roadbed_ft": 120.0, "median_ft": 0.0, "left_sw_ft": 15.0, "right_sw_ft": 15.0}, "geometry": {"type": "LineString", "coordinates": [[-73.8117909295272, 40.64913219902352], [-73.81156981410555, 40.64941526096898]]}}, {"type": "Feature", "properties": {"segment_id": 275758, "physicalid": "21011", "street_name": "JFK ACCESS RD", "borough": "queens", "direction": "TW", "total_row_ft": 150.0, "roadbed_ft": 120.0, "median_ft": 0.0, "left_sw_ft": 15.0, "right_sw_ft": 15.0}, "geometry": {"type": "LineString", "coordinates": [[-73.81185286958817, 40.64916026788558], [-73.81163175433628, 40.64944332994919]]}}, {"type": "Feature", "properties": {"segment_id": 275759, "physicalid": "21011", "street_name": "JFK ACCESS RD", "borough": "queens", "direction": "TW", "total_row_ft": 150.0, "roadbed_ft": 120.0, "median_ft": 0.0, "left_sw_ft": 15.0, "right_sw_ft": 15.0}, "geometry": {"type": "LineString", "coordinates": [[-73.81191480970122, 40.64918833671414], [-73.81169369461914, 40.64947139889599]]}}, {"type": "Feature", "properties": {"segment_id": 275760, "physicalid": "21011", "street_name": "JFK ACCESS RD", "borough": "queens", "direction": "TW", "total_row_ft": 150.0, "roadbed_ft": 120.0, "median_ft": 0.0, "left_sw_ft": 15.0, "right_sw_ft": 15.0}, "geometry": {"type": "LineString", "coordinates": [[-73.81197674986642, 40.64921640550929], [-73.8117556349541, 40.64949946780932]]}}, {"type": "Feature", "properties": {"segment_id": 275761, "physicalid": "21011", "street_name": "JFK ACCESS RD", "borough": "queens", "direction": "TW", "total_row_ft": 150.0, "roadbed_ft": 120.0, "median_ft": 0.0, "left_sw_ft": 15.0, "right_sw_ft": 15.0}, "geometry": {"type": "LineString", "coordinates": [[-73.81203869008374, 40.64924447427097], [-73.81181757534118, 40.6495275366892]]}}, {"type": "Feature", "properties": {"segment_id": 275762, "physicalid": "21011", "street_name": "JFK ACCESS RD", "borough": "queens", "direction": "TW", "total_row_ft": 150.0, "roadbed_ft": 120.0, "median_ft": 0.0, "left_sw_ft": 15.0, "right_sw_ft": 15.0}, "geometry": {"type": "LineString", "coordinates": [[-73.81210063035319, 40.64927254299922], [-73.81187951578035, 40.64955560553561]]}}, {"type": "Feature", "properties": {"segment_id": 275763, "physicalid": "21011", "street_name": "JFK ACCESS RD", "borough": "queens", "direction": "TW", "total_row_ft": 150.0, "roadbed_ft": 120.0, "median_ft": 0.0, "left_sw_ft": 15.0, "right_sw_ft": 15.0}, "geometry": {"type": "LineString", "coordinates": [[-73.81216257067473, 40.649300611694], [-73.81194145627167, 40.649583674348584]]}}, {"type": "Feature", "properties": {"segment_id": 275764, "physicalid": "21011", "street_name": "JFK ACCESS RD", "borough": "queens", "direction": "TW", "total_row_ft": 150.0, "roadbed_ft": 120.0, "median_ft": 0.0, "left_sw_ft": 15.0, "right_sw_ft": 15.0}, "geometry": {"type": "LineString", "coordinates": [[-73.81222451104837, 40.64932868035533], [-73.81200339681511, 40.64961174312813]]}}, {"type": "Feature", "properties": {"segment_id": 275765, "physicalid": "21011", "street_name": "JFK ACCESS RD", "borough": "queens", "direction": "TW", "total_row_ft": 150.0, "roadbed_ft": 120.0, "median_ft": 0.0, "left_sw_ft": 15.0, "right_sw_ft": 15.0}, "geometry": {"type": "LineString", "coordinates": [[-73.81228645147415, 40.64935674898325], [-73.81206533741067, 40.649639811874216]]}}, {"type": "Feature", "properties": {"segment_id": 275766, "physicalid": "21011", "street_name": "JFK ACCESS RD", "borough": "queens", "direction": "TW", "total_row_ft": 150.0, "roadbed_ft": 120.0, "median_ft": 0.0, "left_sw_ft": 15.0, "right_sw_ft": 15.0}, "geometry": {"type": "LineString", "coordinates": [[-73.81234839195204, 40.64938481757768], [-73.81212727805834, 40.64966788058684]]}}, {"type": "Feature", "properties": {"segment_id": 275767, "physicalid": "21011", "street_name": "JFK ACCESS RD", "borough": "queens", "direction": "TW", "total_row_ft": 150.0, "roadbed_ft": 120.0, "median_ft": 0.0, "left_sw_ft": 15.0, "right_sw_ft": 15.0}, "geometry": {"type": "LineString", "coordinates": [[-73.81241033248206, 40.649412886138684], [-73.8121892187581, 40.64969594926605]]}}, {"type": "Feature", "properties": {"segment_id": 275768, "physicalid": "21011", "street_name": "JFK ACCESS RD", "borough": "queens", "direction": "TW", "total_row_ft": 150.0, "roadbed_ft": 120.0, "median_ft": 0.0, "left_sw_ft": 15.0, "right_sw_ft": 15.0}, "geometry": {"type": "LineString", "coordinates": [[-73.8124722730642, 40.649440954666254], [-73.81225115951, 40.649724017911765]]}}, {"type": "Feature", "properties": {"segment_id": 275769, "physicalid": "21011", "street_name": "JFK ACCESS RD", "borough": "queens", "direction": "TW", "total_row_ft": 150.0, "roadbed_ft": 120.0, "median_ft": 0.0, "left_sw_ft": 15.0, "right_sw_ft": 15.0}, "geometry": {"type": "LineString", "coordinates": [[-73.81253421369846, 40.64946902316035], [-73.81231310031401, 40.649752086524046]]}}, {"type": "Feature", "properties": {"segment_id": 275770, "physicalid": "21011", "street_name": "JFK ACCESS RD", "borough": "queens", "direction": "TW", "total_row_ft": 115.1, "roadbed_ft": 85.1, "median_ft": 0.0, "left_sw_ft": 15.0, "right_sw_ft": 15.0}, "geometry": {"type": "LineString", "coordinates": [[-73.81259615438479, 40.649497091620994], [-73.81237504117016, 40.64978015510291]]}}, {"type": "Feature", "properties": {"segment_id": 275771, "physicalid": "21011", "street_name": "JFK ACCESS RD", "borough": "queens", "direction": "TW", "total_row_ft": 101.0, "roadbed_ft": 71.0, "median_ft": 0.0, "left_sw_ft": 15.0, "right_sw_ft": 15.0}, "geometry": {"type": "LineString", "coordinates": [[-73.81265809512328, 40.6495251600482], [-73.81243698207841, 40.6498082236483]]}}, {"type": "Feature", "properties": {"segment_id": 275772, "physicalid": "21011", "street_name": "JFK ACCESS RD", "borough": "queens", "direction": "TW", "total_row_ft": 94.0, "roadbed_ft": 64.0, "median_ft": 0.0, "left_sw_ft": 15.0, "right_sw_ft": 15.0}, "geometry": {"type": "LineString", "coordinates": [[-73.81272003591387, 40.64955322844197], [-73.81249892303877, 40.64983629216024]]}}, {"type": "Feature", "properties": {"segment_id": 275773, "physicalid": "21011", "street_name": "JFK ACCESS RD", "borough": "queens", "direction": "TW", "total_row_ft": 93.9, "roadbed_ft": 63.9, "median_ft": 0.0, "left_sw_ft": 15.0, "right_sw_ft": 15.0}, "geometry": {"type": "LineString", "coordinates": [[-73.81278197675661, 40.649581296802275], [-73.81256086405124, 40.649864360638716]]}}, {"type": "Feature", "properties": {"segment_id": 275774, "physicalid": "21011", "street_name": "JFK ACCESS RD", "borough": "queens", "direction": "TW", "total_row_ft": 93.7, "roadbed_ft": 63.7, "median_ft": 0.0, "left_sw_ft": 15.0, "right_sw_ft": 15.0}, "geometry": {"type": "LineString", "coordinates": [[-73.81284391765143, 40.64960936512914], [-73.81262280511584, 40.64989242908378]]}}, {"type": "Feature", "properties": {"segment_id": 275775, "physicalid": "21011", "street_name": "JFK ACCESS RD", "borough": "queens", "direction": "TW", "total_row_ft": 93.7, "roadbed_ft": 63.7, "median_ft": 0.0, "left_sw_ft": 15.0, "right_sw_ft": 15.0}, "geometry": {"type": "LineString", "coordinates": [[-73.81290585859836, 40.64963743342254], [-73.81268474623258, 40.64992049749539]]}}, {"type": "Feature", "properties": {"segment_id": 275776, "physicalid": "21011", "street_name": "JFK ACCESS RD", "borough": "queens", "direction": "TW", "total_row_ft": 93.7, "roadbed_ft": 63.7, "median_ft": 0.0, "left_sw_ft": 15.0, "right_sw_ft": 15.0}, "geometry": {"type": "LineString", "coordinates": [[-73.81296779959743, 40.64966550168251], [-73.81274668740141, 40.64994856587354]]}}, {"type": "Feature", "properties": {"segment_id": 275777, "physicalid": "21011", "street_name": "JFK ACCESS RD", "borough": "queens", "direction": "TW", "total_row_ft": 93.7, "roadbed_ft": 63.7, "median_ft": 0.0, "left_sw_ft": 15.0, "right_sw_ft": 15.0}, "geometry": {"type": "LineString", "coordinates": [[-73.81302901693277, 40.649693152020994], [-73.81280945767287, 40.64997691662008]]}}, {"type": "Feature", "properties": {"segment_id": 275778, "physicalid": "21011", "street_name": "JFK ACCESS RD", "borough": "queens", "direction": "TW", "total_row_ft": 93.7, "roadbed_ft": 63.7, "median_ft": 0.0, "left_sw_ft": 15.0, "right_sw_ft": 15.0}, "geometry": {"type": "LineString", "coordinates": [[-73.81309111127457, 40.649721023103965], [-73.81287155218702, 40.650004787820684]]}}, {"type": "Feature", "properties": {"segment_id": 275779, "physicalid": "21011", "street_name": "JFK ACCESS RD", "borough": "queens", "direction": "TW", "total_row_ft": 93.6, "roadbed_ft": 63.6, "median_ft": 0.0, "left_sw_ft": 15.0, "right_sw_ft": 15.0}, "geometry": {"type": "LineString", "coordinates": [[-73.81315320566823, 40.64974889415331], [-73.81293364675308, 40.650032658987655]]}}, {"type": "Feature", "properties": {"segment_id": 275780, "physicalid": "21011", "street_name": "JFK ACCESS RD", "borough": "queens", "direction": "TW", "total_row_ft": 93.6, "roadbed_ft": 63.6, "median_ft": 0.0, "left_sw_ft": 15.0, "right_sw_ft": 15.0}, "geometry": {"type": "LineString", "coordinates": [[-73.81321530011378, 40.64977676516906], [-73.81299574137098, 40.65006053012104]]}}, {"type": "Feature", "properties": {"segment_id": 275781, "physicalid": "21011", "street_name": "JFK ACCESS RD", "borough": "queens", "direction": "TW", "total_row_ft": 93.4, "roadbed_ft": 63.4, "median_ft": 0.0, "left_sw_ft": 15.0, "right_sw_ft": 15.0}, "geometry": {"type": "LineString", "coordinates": [[-73.8132773946112, 40.649804636151195], [-73.81305783604078, 40.650088401220806]]}}, {"type": "Feature", "properties": {"segment_id": 275782, "physicalid": "21011", "street_name": "JFK ACCESS RD", "borough": "queens", "direction": "TW", "total_row_ft": 93.2, "roadbed_ft": 63.2, "median_ft": 0.0, "left_sw_ft": 15.0, "right_sw_ft": 15.0}, "geometry": {"type": "LineString", "coordinates": [[-73.81333948916051, 40.649832507099696], [-73.81311993076247, 40.65011627228697]]}}]}