{"type": "FeatureCollection", "features": [{"type": "Feature", "properties": {"segment_id": 189230, "physicalid": "14799", "street_name": "BCH 143 ST", "borough": "queens", "direction": "TW", "total_row_ft": 47.8, "roadbed_ft": 15.1, "median_ft": 0.0, "left_sw_ft": 15.7, "right_sw_ft": 17.0}, "geometry": {"type": "LineString", "coordinates": [[-73.85824454349746, 40.56947459617355], [-73.85808739539502, 40.56952779959152]]}}, {"type": "Feature", "properties": {"segment_id": 189231, "physicalid": "14799", "street_name": "BCH 143 ST", "borough": "queens", "direction": "TW", "total_row_ft": 46.7, "roadbed_ft": 28.8, "median_ft": 0.0, "left_sw_ft": 7.8, "right_sw_ft": 10.1}, "geometry": {"type": "LineString", "coordinates": [[-73.85827227810303, 40.5695252695677], [-73.85811878488384, 40.56957723561154]]}}, {"type": "Feature", "properties": {"segment_id": 189232, "physicalid": "14799", "street_name": "BCH 143 ST", "borough": "queens", "direction": "TW", "total_row_ft": 45.9, "roadbed_ft": 29.3, "median_ft": 0.0, "left_sw_ft": 7.3, "right_sw_ft": 9.3}, "geometry": {"type": "LineString", "coordinates": [[-73.85830120122233, 40.56957554058966], [-73.85815017441908, 40.56962667162273]]}}, {"type": "Feature", "properties": {"segment_id": 189233, "physicalid": "14799", "street_name": "BCH 143 ST", "borough": "queens", "direction": "TW", "total_row_ft": 45.2, "roadbed_ft": 29.4, "median_ft": 0.0, "left_sw_ft": 7.3, "right_sw_ft": 8.5}, "geometry": {"type": "LineString", "coordinates": [[-73.85833012431193, 40.5696258116289], [-73.85818152440633, 40.569676121030064]]}}, {"type": "Feature", "properties": {"segment_id": 189234, "physicalid": "14799", "street_name": "BCH 143 ST", "borough": "queens", "direction": "TW", "total_row_ft": 45.3, "roadbed_ft": 29.5, "median_ft": 0.0, "left_sw_ft": 7.3, "right_sw_ft": 8.6}, "geometry": {"type": "LineString", "coordinates": [[-73.8583590467411, 40.569676082898965], [-73.85820987457626, 40.56972658604819]]}}, {"type": "Feature", "properties": {"segment_id": 189235, "physicalid": "14799", "street_name": "BCH 143 ST", "borough": "queens", "direction": "TW", "total_row_ft": 45.5, "roadbed_ft": 29.6, "median_ft": 0.0, "left_sw_ft": 7.2, "right_sw_ft": 8.7}, "geometry": {"type": "LineString", "coordinates": [[-73.85838791484669, 40.5697263725679], [-73.85823822516672, 40.56977705093121]]}}, {"type": "Feature", "properties": {"segment_id": 189236, "physicalid": "14799", "street_name": "BCH 143 ST", "borough": "queens", "direction": "TW", "total_row_ft": 45.7, "roadbed_ft": 29.7, "median_ft": 0.0, "left_sw_ft": 7.1, "right_sw_ft": 8.8}, "geometry": {"type": "LineString", "coordinates": [[-73.85841675929694, 40.56977667025275], [-73.8582665758, 40.56982751580703]]}}, {"type": "Feature", "properties": {"segment_id": 189237, "physicalid": "14799", "street_name": "BCH 143 ST", "borough": "queens", "direction": "TW", "total_row_ft": 45.8, "roadbed_ft": 29.8, "median_ft": 0.0, "left_sw_ft": 7.1, "right_sw_ft": 8.9}, "geometry": {"type": "LineString", "coordinates": [[-73.85844560379063, 40.569826967930105], [-73.85829492647613, 40.5698779806756]]}}, {"type": "Feature", "properties": {"segment_id": 189238, "physicalid": "14799", "street_name": "BCH 143 ST", "borough": "queens", "direction": "TW", "total_row_ft": 46.0, "roadbed_ft": 29.9, "median_ft": 0.0, "left_sw_ft": 7.0, "right_sw_ft": 9.0}, "geometry": {"type": "LineString", "coordinates": [[-73.85847444832777, 40.569877265600034], [-73.85832327690173, 40.56992844563628]]}}, {"type": "Feature", "properties": {"segment_id": 189239, "physicalid": "14799", "street_name": "BCH 143 ST", "borough": "queens", "direction": "TW", "total_row_ft": 46.0, "roadbed_ft": 30.0, "median_ft": 0.0, "left_sw_ft": 7.0, "right_sw_ft": 9.1}, "geometry": {"type": "LineString", "coordinates": [[-73.85850329336839, 40.56992756310672], [-73.85835180363101, 40.56997885091566]]}}, {"type": "Feature", "properties": {"segment_id": 192575, "physicalid": "15105", "street_name": "OCEAN PROM", "borough": "queens", "direction": "NV", "total_row_ft": 30.0, "roadbed_ft": 0.0, "median_ft": 0.0, "left_sw_ft": 15.0, "right_sw_ft": 15.0}, "geometry": {"type": "LineString", "coordinates": [[-73.85663730288174, 40.56984097563453], [-73.85684129992195, 40.57013130244594]]}}, {"type": "Feature", "properties": {"segment_id": 192576, "physicalid": "15105", "street_name": "OCEAN PROM", "borough": "queens", "direction": "NV", "total_row_ft": 30.0, "roadbed_ft": 0.0, "median_ft": 0.0, "left_sw_ft": 15.0, "right_sw_ft": 15.0}, "geometry": {"type": "LineString", "coordinates": [[-73.85670075667416, 40.56981504880329], [-73.85690475391098, 40.57010537550265]]}}, {"type": "Feature", "properties": {"segment_id": 192577, "physicalid": "15105", "street_name": "OCEAN PROM", "borough": "queens", "direction": "NV", "total_row_ft": 30.0, "roadbed_ft": 0.0, "median_ft": 0.0, "left_sw_ft": 15.0, "right_sw_ft": 15.0}, "geometry": {"type": "LineString", "coordinates": [[-73.85676421041731, 40.56978912193694], [-73.85696820785077, 40.57007944852428]]}}, {"type": "Feature", "properties": {"segment_id": 192578, "physicalid": "15105", "street_name": "OCEAN PROM", "borough": "queens", "direction": "NV", "total_row_ft": 30.0, "roadbed_ft": 0.0, "median_ft": 0.0, "left_sw_ft": 15.0, "right_sw_ft": 15.0}, "geometry": {"type": "LineString", "coordinates": [[-73.85682766411122, 40.56976319503547], [-73.85703166174127, 40.57005352151083]]}}, {"type": "Feature", "properties": {"segment_id": 192579, "physicalid": "15105", "street_name": "OCEAN PROM", "borough": "queens", "direction": "NV", "total_row_ft": 30.0, "roadbed_ft": 0.0, "median_ft": 0.0, "left_sw_ft": 15.0, "right_sw_ft": 15.0}, "geometry": {"type": "LineString", "coordinates": [[-73.85689111775588, 40.569737268098905], [-73.85709511558252, 40.570027594462225]]}}, {"type": "Feature", "properties": {"segment_id": 192580, "physicalid": "15105", "street_name": "OCEAN PROM", "borough": "queens", "direction": "NV", "total_row_ft": 30.0, "roadbed_ft": 0.0, "median_ft": 0.0, "left_sw_ft": 15.0, "right_sw_ft": 15.0}, "geometry": {"type": "LineString", "coordinates": [[-73.85695457135127, 40.56971134112721], [-73.85715856937453, 40.570001667378534]]}}, {"type": "Feature", "properties": {"segment_id": 192581, "physicalid": "15105", "street_name": "OCEAN PROM", "borough": "queens", "direction": "NV", "total_row_ft": 30.0, "roadbed_ft": 0.0, "median_ft": 0.0, "left_sw_ft": 15.0, "right_sw_ft": 15.0}, "geometry": {"type": "LineString", "coordinates": [[-73.85701802489741, 40.56968541412041], [-73.85722202311727, 40.569975740259714]]}}, {"type": "Feature", "properties": {"segment_id": 192582, "physicalid": "15105", "street_name": "OCEAN PROM", "borough": "queens", "direction": "NV", "total_row_ft": 52.8, "roadbed_ft": 0.0, "median_ft": 0.0, "left_sw_ft": 15.0, "right_sw_ft": 37.8}, "geometry": {"type": "LineString", "coordinates": [[-73.85708147839429, 40.56965948707853], [-73.85725735061588, 40.56990978470028]]}}, {"type": "Feature", "properties": {"segment_id": 192583, "physicalid": "15106", "street_name": "OCEAN PROM", "borough": "queens", "direction": "NV", "total_row_ft": 24.4, "roadbed_ft": 0.0, "median_ft": 0.0, "left_sw_ft": 15.0, "right_sw_ft": 9.4}, "geometry": {"type": "LineString", "coordinates": [[-73.85723198394574, 40.56960124861208], [-73.85734724353154, 40.56979299365951]]}}, {"type": "Feature", "properties": {"segment_id": 192584, "physicalid": "15106", "street_name": "OCEAN PROM", "borough": "queens", "direction": "NV", "total_row_ft": 67.5, "roadbed_ft": 0.0, "median_ft": 0.0, "left_sw_ft": 15.0, "right_sw_ft": 52.5}, "geometry": {"type": "LineString", "coordinates": [[-73.85729742458659, 40.56957837369455], [-73.85747740819424, 40.569877792153605]]}}, {"type": "Feature", "properties": {"segment_id": 192585, "physicalid": "15106", "street_name": "OCEAN PROM", "borough": "queens", "direction": "NV", "total_row_ft": 30.0, "roadbed_ft": 0.0, "median_ft": 0.0, "left_sw_ft": 15.0, "right_sw_ft": 15.0}, "geometry": {"type": "LineString", "coordinates": [[-73.85736286518264, 40.56955549873969], [-73.85754284902197, 40.569854917096805]]}}, {"type": "Feature", "properties": {"segment_id": 192586, "physicalid": "15106", "street_name": "OCEAN PROM", "borough": "queens", "direction": "NV", "total_row_ft": 30.0, "roadbed_ft": 0.0, "median_ft": 0.0, "left_sw_ft": 15.0, "right_sw_ft": 15.0}, "geometry": {"type": "LineString", "coordinates": [[-73.85742830573386, 40.56953262374749], [-73.85760828980487, 40.56983204200269]]}}, {"type": "Feature", "properties": {"segment_id": 192587, "physicalid": "15106", "street_name": "OCEAN PROM", "borough": "queens", "direction": "NV", "total_row_ft": 30.0, "roadbed_ft": 0.0, "median_ft": 0.0, "left_sw_ft": 15.0, "right_sw_ft": 15.0}, "geometry": {"type": "LineString", "coordinates": [[-73.85749374624027, 40.56950974871797], [-73.85767373054297, 40.56980916687125]]}}, {"type": "Feature", "properties": {"segment_id": 192588, "physicalid": "15106", "street_name": "OCEAN PROM", "borough": "queens", "direction": "NV", "total_row_ft": 30.0, "roadbed_ft": 0.0, "median_ft": 0.0, "left_sw_ft": 15.0, "right_sw_ft": 15.0}, "geometry": {"type": "LineString", "coordinates": [[-73.85755918670186, 40.569486873651115], [-73.85773917123623, 40.5697862917025]]}}, {"type": "Feature", "properties": {"segment_id": 192589, "physicalid": "15106", "street_name": "OCEAN PROM", "borough": "queens", "direction": "NV", "total_row_ft": 30.0, "roadbed_ft": 0.0, "median_ft": 0.0, "left_sw_ft": 15.0, "right_sw_ft": 15.0}, "geometry": {"type": "LineString", "coordinates": [[-73.8576246271186, 40.56946399854697], [-73.85780461188472, 40.56976341649637]]}}, {"type": "Feature", "properties": {"segment_id": 192590, "physicalid": "15106", "street_name": "OCEAN PROM", "borough": "queens", "direction": "NV", "total_row_ft": 30.0, "roadbed_ft": 0.0, "median_ft": 0.0, "left_sw_ft": 15.0, "right_sw_ft": 15.0}, "geometry": {"type": "LineString", "coordinates": [[-73.85769006749057, 40.56944112340545], [-73.85787005248832, 40.56974054125297]]}}, {"type": "Feature", "properties": {"segment_id": 192591, "physicalid": "15106", "street_name": "OCEAN PROM", "borough": "queens", "direction": "NV", "total_row_ft": 30.0, "roadbed_ft": 0.0, "median_ft": 0.0, "left_sw_ft": 15.0, "right_sw_ft": 15.0}, "geometry": {"type": "LineString", "coordinates": [[-73.85775550781766, 40.56941824822662], [-73.85793549304717, 40.56971766597219]]}}, {"type": "Feature", "properties": {"segment_id": 192592, "physicalid": "15106", "street_name": "OCEAN PROM", "borough": "queens", "direction": "NV", "total_row_ft": 30.0, "roadbed_ft": 0.0, "median_ft": 0.0, "left_sw_ft": 15.0, "right_sw_ft": 15.0}, "geometry": {"type": "LineString", "coordinates": [[-73.85782094809997, 40.56939537301048], [-73.85800093356114, 40.56969479065411]]}}, {"type": "Feature", "properties": {"segment_id": 192593, "physicalid": "15106", "street_name": "OCEAN PROM", "borough": "queens", "direction": "NV", "total_row_ft": 30.0, "roadbed_ft": 0.0, "median_ft": 0.0, "left_sw_ft": 15.0, "right_sw_ft": 15.0}, "geometry": {"type": "LineString", "coordinates": [[-73.85788638833746, 40.56937249775701], [-73.85806637403033, 40.56967191529872]]}}, {"type": "Feature", "properties": {"segment_id": 192594, "physicalid": "15106", "street_name": "OCEAN PROM", "borough": "queens", "direction": "NV", "total_row_ft": 30.0, "roadbed_ft": 0.0, "median_ft": 0.0, "left_sw_ft": 15.0, "right_sw_ft": 15.0}, "geometry": {"type": "LineString", "coordinates": [[-73.8579518285301, 40.5693496224662], [-73.8581318144547, 40.56964903990598]]}}, {"type": "Feature", "properties": {"segment_id": 1101620, "physicalid": "76195", "street_name": "BCH 144 ST", "borough": "queens", "direction": "TW", "total_row_ft": 46.5, "roadbed_ft": 0.0, "median_ft": 0.0, "left_sw_ft": 21.5, "right_sw_ft": 24.9}, "geometry": {"type": "LineString", "coordinates": [[-73.85904271229946, 40.5691592618243], [-73.8588896540196, 40.56921059179573]]}}, {"type": "Feature", "properties": {"segment_id": 1101621, "physicalid": "76195", "street_name": "BCH 144 ST", "borough": "queens", "direction": "TW", "total_row_ft": 46.9, "roadbed_ft": 30.2, "median_ft": 0.0, "left_sw_ft": 5.4, "right_sw_ft": 11.3}, "geometry": {"type": "LineString", "coordinates": [[-73.85907116009444, 40.56920969164977], [-73.85891655424454, 40.569261540622655]]}}, {"type": "Feature", "properties": {"segment_id": 1101622, "physicalid": "76195", "street_name": "BCH 144 ST", "borough": "queens", "direction": "TW", "total_row_ft": 47.3, "roadbed_ft": 30.1, "median_ft": 0.0, "left_sw_ft": 5.8, "right_sw_ft": 11.5}, "geometry": {"type": "LineString", "coordinates": [[-73.85910078770206, 40.5692597258165], [-73.85894480326712, 40.56931203712215]]}}, {"type": "Feature", "properties": {"segment_id": 1101623, "physicalid": "76195", "street_name": "BCH 144 ST", "borough": "queens", "direction": "TW", "total_row_ft": 47.7, "roadbed_ft": 30.1, "median_ft": 0.0, "left_sw_ft": 6.1, "right_sw_ft": 11.5}, "geometry": {"type": "LineString", "coordinates": [[-73.85913041535407, 40.569309759975404], [-73.8589733106273, 40.56936244699233]]}}, {"type": "Feature", "properties": {"segment_id": 1101624, "physicalid": "76195", "street_name": "BCH 144 ST", "borough": "queens", "direction": "TW", "total_row_ft": 48.0, "roadbed_ft": 30.0, "median_ft": 0.0, "left_sw_ft": 6.4, "right_sw_ft": 11.6}, "geometry": {"type": "LineString", "coordinates": [[-73.85916004305047, 40.56935979412642], [-73.85900181871838, 40.569412856624524]]}}, {"type": "Feature", "properties": {"segment_id": 1101625, "physicalid": "76195", "street_name": "BCH 144 ST", "borough": "queens", "direction": "TW", "total_row_ft": 48.2, "roadbed_ft": 30.0, "median_ft": 0.0, "left_sw_ft": 6.8, "right_sw_ft": 11.4}, "geometry": {"type": "LineString", "coordinates": [[-73.85918967079124, 40.56940982826958], [-73.85903083525179, 40.569463095751864]]}}, {"type": "Feature", "properties": {"segment_id": 1101626, "physicalid": "76195", "street_name": "BCH 144 ST", "borough": "queens", "direction": "TW", "total_row_ft": 48.3, "roadbed_ft": 30.0, "median_ft": 0.0, "left_sw_ft": 7.1, "right_sw_ft": 11.3}, "geometry": {"type": "LineString", "coordinates": [[-73.8592192985764, 40.56945986240488], [-73.85906014879373, 40.56951323528101]]}}, {"type": "Feature", "properties": {"segment_id": 1101627, "physicalid": "76195", "street_name": "BCH 144 ST", "borough": "queens", "direction": "TW", "total_row_ft": 48.3, "roadbed_ft": 29.9, "median_ft": 0.0, "left_sw_ft": 7.3, "right_sw_ft": 11.1}, "geometry": {"type": "LineString", "coordinates": [[-73.85924858488116, 40.56951001106727], [-73.85908946210017, 40.56956337489619]]}}, {"type": "Feature", "properties": {"segment_id": 1101628, "physicalid": "76195", "street_name": "BCH 144 ST", "borough": "queens", "direction": "TW", "total_row_ft": 48.2, "roadbed_ft": 29.9, "median_ft": 0.0, "left_sw_ft": 7.4, "right_sw_ft": 10.9}, "geometry": {"type": "LineString", "coordinates": [[-73.8592773133969, 40.56956034679887], [-73.85911854428292, 40.56961359202845]]}}, {"type": "Feature", "properties": {"segment_id": 1101629, "physicalid": "76195", "street_name": "BCH 144 ST", "borough": "queens", "direction": "TW", "total_row_ft": 48.1, "roadbed_ft": 29.9, "median_ft": 0.0, "left_sw_ft": 7.4, "right_sw_ft": 10.8}, "geometry": {"type": "LineString", "coordinates": [[-73.85930604212143, 40.56961068246755], [-73.85914754748327, 40.56966383565549]]}}, {"type": "Feature", "properties": {"segment_id": 1101630, "physicalid": "76195", "street_name": "BCH 144 ST", "borough": "queens", "direction": "TW", "total_row_ft": 47.1, "roadbed_ft": 29.8, "median_ft": 0.0, "left_sw_ft": 7.5, "right_sw_ft": 9.8}, "geometry": {"type": "LineString", "coordinates": [[-73.85933477115884, 40.5696610180384], [-73.85917948855337, 40.569713094040324]]}}, {"type": "Feature", "properties": {"segment_id": 1101631, "physicalid": "76195", "street_name": "BCH 144 ST", "borough": "queens", "direction": "TW", "total_row_ft": 45.7, "roadbed_ft": 29.9, "median_ft": 0.0, "left_sw_ft": 7.4, "right_sw_ft": 8.4}, "geometry": {"type": "LineString", "coordinates": [[-73.85936349998494, 40.56971135368727], [-73.85921290932811, 40.569761856195285]]}}, {"type": "Feature", "properties": {"segment_id": 1101632, "physicalid": "76195", "street_name": "BCH 144 ST", "borough": "queens", "direction": "TW", "total_row_ft": 45.6, "roadbed_ft": 30.0, "median_ft": 0.0, "left_sw_ft": 7.3, "right_sw_ft": 8.3}, "geometry": {"type": "LineString", "coordinates": [[-73.85939222872926, 40.56976168937063], [-73.85924193068406, 40.569812093754514]]}}, {"type": "Feature", "properties": {"segment_id": 1101633, "physicalid": "76195", "street_name": "BCH 144 ST", "borough": "queens", "direction": "TW", "total_row_ft": 45.5, "roadbed_ft": 30.1, "median_ft": 0.0, "left_sw_ft": 7.2, "right_sw_ft": 8.2}, "geometry": {"type": "LineString", "coordinates": [[-73.85942095751687, 40.56981202504661], [-73.85927095208369, 40.56986233130618]]}}, {"type": "Feature", "properties": {"segment_id": 1101634, "physicalid": "76195", "street_name": "BCH 144 ST", "borough": "queens", "direction": "TW", "total_row_ft": 45.4, "roadbed_ft": 30.3, "median_ft": 0.0, "left_sw_ft": 7.1, "right_sw_ft": 8.0}, "geometry": {"type": "LineString", "coordinates": [[-73.85944968353523, 40.569862361658394], [-73.85930011717686, 40.56991252067558]]}}, {"type": "Feature", "properties": {"segment_id": 1101635, "physicalid": "76195", "street_name": "BCH 144 ST", "borough": "queens", "direction": "TW", "total_row_ft": 45.3, "roadbed_ft": 30.4, "median_ft": 0.0, "left_sw_ft": 7.0, "right_sw_ft": 7.8}, "geometry": {"type": "LineString", "coordinates": [[-73.85947839378397, 40.569912703565834], [-73.85932928928432, 40.5699627076997]]}}, {"type": "Feature", "properties": {"segment_id": 1101636, "physicalid": "76195", "street_name": "BCH 144 ST", "borough": "queens", "direction": "TW", "total_row_ft": 45.1, "roadbed_ft": 30.5, "median_ft": 0.0, "left_sw_ft": 6.9, "right_sw_ft": 7.7}, "geometry": {"type": "LineString", "coordinates": [[-73.85950710407599, 40.56996304546591], [-73.85935846017803, 40.57001289513794]]}}, {"type": "Feature", "properties": {"segment_id": 1111702, "physicalid": "76997", "street_name": "BCH 142 ST", "borough": "queens", "direction": "TF", "total_row_ft": 61.6, "roadbed_ft": 38.0, "median_ft": 0.0, "left_sw_ft": 22.0, "right_sw_ft": 1.6}, "geometry": {"type": "LineString", "coordinates": [[-73.85732789759581, 40.569771435672706], [-73.85723803795106, 40.56992604109225]]}}, {"type": "Feature", "properties": {"segment_id": 1111703, "physicalid": "76997", "street_name": "BCH 142 ST", "borough": "queens", "direction": "TF", "total_row_ft": 75.1, "roadbed_ft": 58.3, "median_ft": 0.0, "left_sw_ft": 7.9, "right_sw_ft": 8.9}, "geometry": {"type": "LineString", "coordinates": [[-73.85742062673347, 40.56977525816957], [-73.85723980893842, 40.56992847041448]]}}, {"type": "Feature", "properties": {"segment_id": 1111704, "physicalid": "76997", "street_name": "BCH 142 ST", "borough": "queens", "direction": "TF", "total_row_ft": 71.7, "roadbed_ft": 53.7, "median_ft": 0.0, "left_sw_ft": 8.9, "right_sw_ft": 9.2}, "geometry": {"type": "LineString", "coordinates": [[-73.85746404081695, 40.56983953577748], [-73.85722621745676, 40.56991606955642]]}}, {"type": "Feature", "properties": {"segment_id": 1111705, "physicalid": "76997", "street_name": "BCH 142 ST", "borough": "queens", "direction": "TF", "total_row_ft": 73.1, "roadbed_ft": 53.7, "median_ft": 0.0, "left_sw_ft": 10.0, "right_sw_ft": 9.4}, "geometry": {"type": "LineString", "coordinates": [[-73.85749379593543, 40.56988954446176], [-73.85725144917751, 40.56996753392116]]}}, {"type": "Feature", "properties": {"segment_id": 1111706, "physicalid": "76997", "street_name": "BCH 142 ST", "borough": "queens", "direction": "TF", "total_row_ft": 74.7, "roadbed_ft": 53.6, "median_ft": 0.0, "left_sw_ft": 11.9, "right_sw_ft": 9.2}, "geometry": {"type": "LineString", "coordinates": [[-73.85752248937588, 40.56993989481198], [-73.85727474958917, 40.570019619803176]]}}, {"type": "Feature", "properties": {"segment_id": 1111883, "physicalid": "77009", "street_name": "BCH 142 ST", "borough": "queens", "direction": "FT", "total_row_ft": 62.2, "roadbed_ft": 28.5, "median_ft": 0.0, "left_sw_ft": 19.5, "right_sw_ft": 14.2}, "geometry": {"type": "LineString", "coordinates": [[-73.85743692662048, 40.56979939131662], [-73.85721349187139, 40.56981128389969]]}}, {"type": "Feature", "properties": {"segment_id": 1111884, "physicalid": "77009", "street_name": "BCH 142 ST", "borough": "queens", "direction": "FT", "total_row_ft": 71.1, "roadbed_ft": 53.5, "median_ft": 0.0, "left_sw_ft": 8.4, "right_sw_ft": 9.2}, "geometry": {"type": "LineString", "coordinates": [[-73.85744801724147, 40.5698158117619], [-73.85720704878143, 40.56988143291095]]}}, {"type": "Feature", "properties": {"segment_id": 1111885, "physicalid": "77009", "street_name": "BCH 142 ST", "borough": "queens", "direction": "FT", "total_row_ft": 72.1, "roadbed_ft": 53.7, "median_ft": 0.0, "left_sw_ft": 9.5, "right_sw_ft": 8.9}, "geometry": {"type": "LineString", "coordinates": [[-73.85747537779108, 40.569857224835275], [-73.85723690473861, 40.569935380816055]]}}, {"type": "Feature", "properties": {"segment_id": 1111886, "physicalid": "77009", "street_name": "BCH 142 ST", "borough": "queens", "direction": "FT", "total_row_ft": 73.9, "roadbed_ft": 53.7, "median_ft": 0.0, "left_sw_ft": 9.3, "right_sw_ft": 10.9}, "geometry": {"type": "LineString", "coordinates": [[-73.85750406982166, 40.569907572765], [-73.85725979408816, 40.569987630490935]]}}, {"type": "Feature", "properties": {"segment_id": 1111887, "physicalid": "77009", "street_name": "BCH 142 ST", "borough": "queens", "direction": "FT", "total_row_ft": 75.4, "roadbed_ft": 53.6, "median_ft": 0.0, "left_sw_ft": 9.1, "right_sw_ft": 12.7}, "geometry": {"type": "LineString", "coordinates": [[-73.85753279609621, 40.56995790947852], [-73.85728340121949, 40.570039644931555]]}}, {"type": "Feature", "properties": {"segment_id": 1348592, "physicalid": "92073", "street_name": "BCH 145 ST", "borough": "queens", "direction": "TW", "total_row_ft": 49.4, "roadbed_ft": 0.0, "median_ft": 0.0, "left_sw_ft": 24.6, "right_sw_ft": 24.8}, "geometry": {"type": "LineString", "coordinates": [[-73.85986221072525, 40.56886291191825], [-73.85969961573144, 40.56891762593907]]}}, {"type": "Feature", "properties": {"segment_id": 1348593, "physicalid": "92073", "street_name": "BCH 145 ST", "borough": "queens", "direction": "TW", "total_row_ft": 49.6, "roadbed_ft": 29.7, "median_ft": 0.0, "left_sw_ft": 9.6, "right_sw_ft": 10.3}, "geometry": {"type": "LineString", "coordinates": [[-73.85989318790897, 40.56891249120254], [-73.85972974874291, 40.56896748930229]]}}, {"type": "Feature", "properties": {"segment_id": 1348594, "physicalid": "92073", "street_name": "BCH 145 ST", "borough": "queens", "direction": "TW", "total_row_ft": 49.6, "roadbed_ft": 29.3, "median_ft": 0.0, "left_sw_ft": 10.0, "right_sw_ft": 10.4}, "geometry": {"type": "LineString", "coordinates": [[-73.85992304147759, 40.568962448597055], [-73.85975959405712, 40.56901744948379]]}}, {"type": "Feature", "properties": {"segment_id": 1348595, "physicalid": "92073", "street_name": "BCH 145 ST", "borough": "queens", "direction": "TW", "total_row_ft": 49.7, "roadbed_ft": 29.2, "median_ft": 0.0, "left_sw_ft": 10.0, "right_sw_ft": 10.5}, "geometry": {"type": "LineString", "coordinates": [[-73.85995241917585, 40.569012566131896], [-73.85978875169017, 40.569067641079926]]}}, {"type": "Feature", "properties": {"segment_id": 1348596, "physicalid": "92073", "street_name": "BCH 145 ST", "borough": "queens", "direction": "TW", "total_row_ft": 49.8, "roadbed_ft": 29.2, "median_ft": 0.0, "left_sw_ft": 10.0, "right_sw_ft": 10.6}, "geometry": {"type": "LineString", "coordinates": [[-73.8599817970636, 40.56906268361006], [-73.85981790936705, 40.56911783266842]]}}, {"type": "Feature", "properties": {"segment_id": 1348597, "physicalid": "92073", "street_name": "BCH 145 ST", "borough": "queens", "direction": "TW", "total_row_ft": 49.8, "roadbed_ft": 29.3, "median_ft": 0.0, "left_sw_ft": 10.0, "right_sw_ft": 10.6}, "geometry": {"type": "LineString", "coordinates": [[-73.86001117499542, 40.569112801080486], [-73.85984705291696, 40.5691680290178]]}}, {"type": "Feature", "properties": {"segment_id": 1348598, "physicalid": "92073", "street_name": "BCH 145 ST", "borough": "queens", "direction": "TW", "total_row_ft": 48.6, "roadbed_ft": 29.3, "median_ft": 0.0, "left_sw_ft": 8.6, "right_sw_ft": 10.7}, "geometry": {"type": "LineString", "coordinates": [[-73.86003596408146, 40.5691644627333], [-73.85987599750065, 40.56921829232732]]}}, {"type": "Feature", "properties": {"segment_id": 1348599, "physicalid": "92073", "street_name": "BCH 145 ST", "borough": "queens", "direction": "TW", "total_row_ft": 47.4, "roadbed_ft": 29.3, "median_ft": 0.0, "left_sw_ft": 7.3, "right_sw_ft": 10.9}, "geometry": {"type": "LineString", "coordinates": [[-73.86006115868047, 40.56921598793578], [-73.8599049421279, 40.56926855562932]]}}]}