{"type": "FeatureCollection", "features": [{"type": "Feature", "properties": {"segment_id": 1705309, "physicalid": "178303", "street_name": "THROGS NECK BRG", "borough": "queens", "direction": "FT", "total_row_ft": 105.3, "roadbed_ft": 72.0, "median_ft": 3.3, "left_sw_ft": 15.0, "right_sw_ft": 15.0}, "geometry": {"type": "LineString", "coordinates": [[-73.79349276329746, 40.80033471623335], [-73.79392618734396, 40.80033359717155]]}}, {"type": "Feature", "properties": {"segment_id": 1705310, "physicalid": "178303", "street_name": "THROGS NECK BRG", "borough": "queens", "direction": "FT", "total_row_ft": 105.2, "roadbed_ft": 71.9, "median_ft": 3.4, "left_sw_ft": 15.0, "right_sw_ft": 15.0}, "geometry": {"type": "LineString", "coordinates": [[-73.79349251804055, 40.80027982201353], [-73.79392594172961, 40.80027870295264]]}}, {"type": "Feature", "properties": {"segment_id": 1705311, "physicalid": "178303", "street_name": "THROGS NECK BRG", "borough": "queens", "direction": "FT", "total_row_ft": 105.2, "roadbed_ft": 71.8, "median_ft": 3.4, "left_sw_ft": 15.0, "right_sw_ft": 15.0}, "geometry": {"type": "LineString", "coordinates": [[-73.79349227278404, 40.800224927793245], [-73.79392569611568, 40.80022380873324]]}}, {"type": "Feature", "properties": {"segment_id": 1705312, "physicalid": "178303", "street_name": "THROGS NECK BRG", "borough": "queens", "direction": "FT", "total_row_ft": 105.1, "roadbed_ft": 71.7, "median_ft": 3.4, "left_sw_ft": 15.0, "right_sw_ft": 15.0}, "geometry": {"type": "LineString", "coordinates": [[-73.7934920275279, 40.800170033572506], [-73.79392545050214, 40.80016891451336]]}}, {"type": "Feature", "properties": {"segment_id": 1705313, "physicalid": "178303", "street_name": "THROGS NECK BRG", "borough": "queens", "direction": "FT", "total_row_ft": 105.1, "roadbed_ft": 71.7, "median_ft": 3.4, "left_sw_ft": 15.0, "right_sw_ft": 15.0}, "geometry": {"type": "LineString", "coordinates": [[-73.7934917822722, 40.8001151393512], [-73.793925204889, 40.80011402029305]]}}, {"type": "Feature", "properties": {"segment_id": 1705314, "physicalid": "178303", "street_name": "THROGS NECK BRG", "borough": "queens", "direction": "FT", "total_row_ft": 105.1, "roadbed_ft": 71.7, "median_ft": 3.4, "left_sw_ft": 15.0, "right_sw_ft": 15.0}, "geometry": {"type": "LineString", "coordinates": [[-73.79349153701689, 40.800060245129465], [-73.79392495927628, 40.80005912607221]]}}, {"type": "Feature", "properties": {"segment_id": 1705315, "physicalid": "178303", "street_name": "THROGS NECK BRG", "borough": "queens", "direction": "FT", "total_row_ft": 105.1, "roadbed_ft": 71.7, "median_ft": 3.4, "left_sw_ft": 15.0, "right_sw_ft": 15.0}, "geometry": {"type": "LineString", "coordinates": [[-73.79349129173102, 40.80000535094558], [-73.79392471363263, 40.80000423181273]]}}, {"type": "Feature", "properties": {"segment_id": 1705484, "physicalid": "178307", "street_name": "THROGS NECK BRG", "borough": "queens", "direction": "TF", "total_row_ft": 106.8, "roadbed_ft": 73.6, "median_ft": 3.3, "left_sw_ft": 15.0, "right_sw_ft": 15.0}, "geometry": {"type": "LineString", "coordinates": [[-73.79332947383435, 40.80035455095423], [-73.79376289337958, 40.80035266179773]]}}, {"type": "Feature", "properties": {"segment_id": 1705485, "physicalid": "178307", "street_name": "THROGS NECK BRG", "borough": "queens", "direction": "TF", "total_row_ft": 107.0, "roadbed_ft": 73.7, "median_ft": 3.3, "left_sw_ft": 15.0, "right_sw_ft": 15.0}, "geometry": {"type": "LineString", "coordinates": [[-73.79332905967807, 40.800299657320394], [-73.7937624788659, 40.80029776816544]]}}, {"type": "Feature", "properties": {"segment_id": 1705486, "physicalid": "178307", "street_name": "THROGS NECK BRG", "borough": "queens", "direction": "TF", "total_row_ft": 107.2, "roadbed_ft": 73.8, "median_ft": 3.4, "left_sw_ft": 15.0, "right_sw_ft": 15.0}, "geometry": {"type": "LineString", "coordinates": [[-73.79332864552248, 40.80024476368609], [-73.79376206435289, 40.80024287453266]]}}, {"type": "Feature", "properties": {"segment_id": 1705487, "physicalid": "178307", "street_name": "THROGS NECK BRG", "borough": "queens", "direction": "TF", "total_row_ft": 107.3, "roadbed_ft": 73.9, "median_ft": 3.4, "left_sw_ft": 15.0, "right_sw_ft": 15.0}, "geometry": {"type": "LineString", "coordinates": [[-73.79332823136757, 40.800189870051284], [-73.79376164984058, 40.800187980899416]]}}, {"type": "Feature", "properties": {"segment_id": 1705488, "physicalid": "178307", "street_name": "THROGS NECK BRG", "borough": "queens", "direction": "TF", "total_row_ft": 107.5, "roadbed_ft": 74.1, "median_ft": 3.4, "left_sw_ft": 15.0, "right_sw_ft": 15.0}, "geometry": {"type": "LineString", "coordinates": [[-73.79332781721334, 40.80013497641602], [-73.79376123532894, 40.80013308726568]]}}, {"type": "Feature", "properties": {"segment_id": 1705489, "physicalid": "178307", "street_name": "THROGS NECK BRG", "borough": "queens", "direction": "TF", "total_row_ft": 107.6, "roadbed_ft": 74.2, "median_ft": 3.4, "left_sw_ft": 15.0, "right_sw_ft": 15.0}, "geometry": {"type": "LineString", "coordinates": [[-73.79332740305979, 40.800080082780255], [-73.79376082081801, 40.80007819363148]]}}, {"type": "Feature", "properties": {"segment_id": 1705490, "physicalid": "178307", "street_name": "THROGS NECK BRG", "borough": "queens", "direction": "TF", "total_row_ft": 107.8, "roadbed_ft": 74.4, "median_ft": 3.4, "left_sw_ft": 15.0, "right_sw_ft": 15.0}, "geometry": {"type": "LineString", "coordinates": [[-73.7933269893561, 40.800025188833395], [-73.79376040676156, 40.80002330030457]]}}]}