{"type": "FeatureCollection", "features": [{"type": "Feature", "properties": {"segment_id": 182197, "physicalid": "14258", "street_name": "CROSS BAY BLVD", "borough": "queens", "direction": "TF", "total_row_ft": 150.0, "roadbed_ft": 111.1, "median_ft": 8.9, "left_sw_ft": 15.0, "right_sw_ft": 15.0}, "geometry": {"type": "LineString", "coordinates": [[-73.81949218997948, 40.61260223760618], [-73.81968996159232, 40.61230936847097]]}}, {"type": "Feature", "properties": {"segment_id": 182198, "physicalid": "14258", "street_name": "CROSS BAY BLVD", "borough": "queens", "direction": "TF", "total_row_ft": 114.3, "roadbed_ft": 84.2, "median_ft": 3.2, "left_sw_ft": 15.0, "right_sw_ft": 11.9}, "geometry": {"type": "LineString", "coordinates": [[-73.81946222872175, 40.612526637165196], [-73.81962591117176, 40.612284248937314]]}}, {"type": "Feature", "properties": {"segment_id": 182199, "physicalid": "14258", "street_name": "CROSS BAY BLVD", "borough": "queens", "direction": "TF", "total_row_ft": 110.9, "roadbed_ft": 72.9, "median_ft": 11.2, "left_sw_ft": 15.0, "right_sw_ft": 11.8}, "geometry": {"type": "LineString", "coordinates": [[-73.81942230331174, 40.6124657921146], [-73.8195618607994, 40.6122591293679]]}}, {"type": "Feature", "properties": {"segment_id": 182200, "physicalid": "14258", "street_name": "CROSS BAY BLVD", "borough": "queens", "direction": "TF", "total_row_ft": 97.9, "roadbed_ft": 61.2, "median_ft": 12.0, "left_sw_ft": 15.0, "right_sw_ft": 9.8}, "geometry": {"type": "LineString", "coordinates": [[-73.81936597551531, 40.6123799501378], [-73.81962708416874, 40.612287677526936]]}}, {"type": "Feature", "properties": {"segment_id": 182201, "physicalid": "14258", "street_name": "CROSS BAY BLVD", "borough": "queens", "direction": "TF", "total_row_ft": 101.3, "roadbed_ft": 60.8, "median_ft": 15.5, "left_sw_ft": 15.0, "right_sw_ft": 10.0}, "geometry": {"type": "LineString", "coordinates": [[-73.81933374365916, 40.612330829583854], [-73.8195967803294, 40.612237875652994]]}}, {"type": "Feature", "properties": {"segment_id": 182202, "physicalid": "14258", "street_name": "CROSS BAY BLVD", "borough": "queens", "direction": "TF", "total_row_ft": 102.3, "roadbed_ft": 60.8, "median_ft": 16.6, "left_sw_ft": 15.0, "right_sw_ft": 9.9}, "geometry": {"type": "LineString", "coordinates": [[-73.81930263788583, 40.612281311095465], [-73.81956647653531, 40.61218807377084]]}}, {"type": "Feature", "properties": {"segment_id": 182203, "physicalid": "14258", "street_name": "CROSS BAY BLVD", "borough": "queens", "direction": "TF", "total_row_ft": 104.7, "roadbed_ft": 60.9, "median_ft": 19.1, "left_sw_ft": 15.0, "right_sw_ft": 9.7}, "geometry": {"type": "LineString", "coordinates": [[-73.81927171933559, 40.6122317264527], [-73.81953617278639, 40.61213827188038]]}}, {"type": "Feature", "properties": {"segment_id": 182204, "physicalid": "14258", "street_name": "CROSS BAY BLVD", "borough": "queens", "direction": "TF", "total_row_ft": 106.3, "roadbed_ft": 60.8, "median_ft": 20.8, "left_sw_ft": 15.0, "right_sw_ft": 9.6}, "geometry": {"type": "LineString", "coordinates": [[-73.81924080083128, 40.61218214180138], [-73.8195058690827, 40.612088469981714]]}}, {"type": "Feature", "properties": {"segment_id": 182205, "physicalid": "14258", "street_name": "CROSS BAY BLVD", "borough": "queens", "direction": "TF", "total_row_ft": 106.9, "roadbed_ft": 60.5, "median_ft": 21.6, "left_sw_ft": 15.0, "right_sw_ft": 9.8}, "geometry": {"type": "LineString", "coordinates": [[-73.8192102584061, 40.61213242425669], [-73.81947556542423, 40.612038668074796]]}}, {"type": "Feature", "properties": {"segment_id": 182206, "physicalid": "14258", "street_name": "CROSS BAY BLVD", "borough": "queens", "direction": "TF", "total_row_ft": 107.0, "roadbed_ft": 59.0, "median_ft": 23.2, "left_sw_ft": 15.0, "right_sw_ft": 9.7}, "geometry": {"type": "LineString", "coordinates": [[-73.819180498759, 40.612082430097075], [-73.81944526181096, 40.61198886615961]]}}, {"type": "Feature", "properties": {"segment_id": 182207, "physicalid": "14258", "street_name": "CROSS BAY BLVD", "borough": "queens", "direction": "TF", "total_row_ft": 106.8, "roadbed_ft": 57.5, "median_ft": 24.7, "left_sw_ft": 15.0, "right_sw_ft": 9.6}, "geometry": {"type": "LineString", "coordinates": [[-73.81915073991597, 40.612032435661085], [-73.8194149582429, 40.61193906423621]]}}, {"type": "Feature", "properties": {"segment_id": 182208, "physicalid": "14258", "street_name": "CROSS BAY BLVD", "borough": "queens", "direction": "TF", "total_row_ft": 106.7, "roadbed_ft": 55.8, "median_ft": 26.3, "left_sw_ft": 15.0, "right_sw_ft": 9.6}, "geometry": {"type": "LineString", "coordinates": [[-73.81912098317909, 40.611982440488596], [-73.8193846547201, 40.61188926230462]]}}, {"type": "Feature", "properties": {"segment_id": 182209, "physicalid": "14258", "street_name": "CROSS BAY BLVD", "borough": "queens", "direction": "TF", "total_row_ft": 104.9, "roadbed_ft": 54.0, "median_ft": 26.2, "left_sw_ft": 15.0, "right_sw_ft": 9.8}, "geometry": {"type": "LineString", "coordinates": [[-73.81909122648678, 40.61193244530817], [-73.81935435124247, 40.61183946036474]]}}, {"type": "Feature", "properties": {"segment_id": 182210, "physicalid": "14258", "street_name": "CROSS BAY BLVD", "borough": "queens", "direction": "TF", "total_row_ft": 102.5, "roadbed_ft": 51.9, "median_ft": 26.0, "left_sw_ft": 15.0, "right_sw_ft": 9.6}, "geometry": {"type": "LineString", "coordinates": [[-73.81906258900482, 40.61188205462269], [-73.81932404781007, 40.61178965841661]]}}, {"type": "Feature", "properties": {"segment_id": 182211, "physicalid": "14258", "street_name": "CROSS BAY BLVD", "borough": "queens", "direction": "TF", "total_row_ft": 100.7, "roadbed_ft": 49.9, "median_ft": 26.4, "left_sw_ft": 15.0, "right_sw_ft": 9.3}, "geometry": {"type": "LineString", "coordinates": [[-73.81903407713054, 40.61183161955718], [-73.81929374442286, 40.61173985646022]]}}, {"type": "Feature", "properties": {"segment_id": 182212, "physicalid": "14258", "street_name": "CROSS BAY BLVD", "borough": "queens", "direction": "TF", "total_row_ft": 100.3, "roadbed_ft": 47.6, "median_ft": 28.5, "left_sw_ft": 15.0, "right_sw_ft": 9.2}, "geometry": {"type": "LineString", "coordinates": [[-73.81900556553632, 40.611781184400556], [-73.81926344108089, 40.61169005449563]]}}, {"type": "Feature", "properties": {"segment_id": 182213, "physicalid": "14258", "street_name": "CROSS BAY BLVD", "borough": "queens", "direction": "TF", "total_row_ft": 100.2, "roadbed_ft": 44.7, "median_ft": 31.3, "left_sw_ft": 15.0, "right_sw_ft": 9.2}, "geometry": {"type": "LineString", "coordinates": [[-73.81897705126617, 40.61173075019749], [-73.81923313778412, 40.611640252522776]]}}, {"type": "Feature", "properties": {"segment_id": 182214, "physicalid": "14258", "street_name": "CROSS BAY BLVD", "borough": "queens", "direction": "TF", "total_row_ft": 99.6, "roadbed_ft": 41.8, "median_ft": 33.5, "left_sw_ft": 15.0, "right_sw_ft": 9.3}, "geometry": {"type": "LineString", "coordinates": [[-73.81894846432036, 40.611680341684824], [-73.8192028345326, 40.61159045054172]]}}, {"type": "Feature", "properties": {"segment_id": 182215, "physicalid": "14258", "street_name": "CROSS BAY BLVD", "borough": "queens", "direction": "TF", "total_row_ft": 98.9, "roadbed_ft": 38.4, "median_ft": 36.1, "left_sw_ft": 15.0, "right_sw_ft": 9.3}, "geometry": {"type": "LineString", "coordinates": [[-73.818919877805, 40.611629933027935], [-73.81917253132626, 40.61154064855239]]}}, {"type": "Feature", "properties": {"segment_id": 182216, "physicalid": "14258", "street_name": "CROSS BAY BLVD", "borough": "queens", "direction": "TF", "total_row_ft": 97.7, "roadbed_ft": 35.0, "median_ft": 38.4, "left_sw_ft": 15.0, "right_sw_ft": 9.3}, "geometry": {"type": "LineString", "coordinates": [[-73.81889129133282, 40.611579524363705], [-73.81914222816513, 40.61149084655484]]}}, {"type": "Feature", "properties": {"segment_id": 182217, "physicalid": "14258", "street_name": "CROSS BAY BLVD", "borough": "queens", "direction": "TF", "total_row_ft": 97.2, "roadbed_ft": 31.3, "median_ft": 41.6, "left_sw_ft": 15.0, "right_sw_ft": 9.3}, "geometry": {"type": "LineString", "coordinates": [[-73.81886270490382, 40.611529115692086], [-73.81911192504921, 40.611441044549]]}}, {"type": "Feature", "properties": {"segment_id": 182218, "physicalid": "14258", "street_name": "CROSS BAY BLVD", "borough": "queens", "direction": "TF", "total_row_ft": 94.1, "roadbed_ft": 27.3, "median_ft": 42.2, "left_sw_ft": 15.0, "right_sw_ft": 9.5}, "geometry": {"type": "LineString", "coordinates": [[-73.81883310695594, 40.6114790644843], [-73.81908162197851, 40.61139124253495]]}}, {"type": "Feature", "properties": {"segment_id": 182219, "physicalid": "14259", "street_name": "CROSS BAY BLVD", "borough": "queens", "direction": "TF", "total_row_ft": 90.2, "roadbed_ft": 16.1, "median_ft": 49.3, "left_sw_ft": 15.0, "right_sw_ft": 9.7}, "geometry": {"type": "LineString", "coordinates": [[-73.81876581894682, 40.61136566840059], [-73.81900770092527, 40.6112730309513]]}}, {"type": "Feature", "properties": {"segment_id": 182220, "physicalid": "14259", "street_name": "CROSS BAY BLVD", "borough": "queens", "direction": "TF", "total_row_ft": 89.2, "roadbed_ft": 14.8, "median_ft": 48.9, "left_sw_ft": 15.0, "right_sw_ft": 10.5}, "geometry": {"type": "LineString", "coordinates": [[-73.81873628997359, 40.61131294949258], [-73.81898174014098, 40.61123263984924]]}}, {"type": "Feature", "properties": {"segment_id": 182221, "physicalid": "14259", "street_name": "CROSS BAY BLVD", "borough": "queens", "direction": "TF", "total_row_ft": 89.1, "roadbed_ft": 14.7, "median_ft": 48.8, "left_sw_ft": 15.0, "right_sw_ft": 10.6}, "geometry": {"type": "LineString", "coordinates": [[-73.81870800985702, 40.61126246106847], [-73.81895332209203, 40.61118219656625]]}}, {"type": "Feature", "properties": {"segment_id": 182222, "physicalid": "14259", "street_name": "CROSS BAY BLVD", "borough": "queens", "direction": "TF", "total_row_ft": 89.8, "roadbed_ft": 15.3, "median_ft": 49.0, "left_sw_ft": 15.0, "right_sw_ft": 10.5}, "geometry": {"type": "LineString", "coordinates": [[-73.81867915391378, 40.6112095867257], [-73.81893252614219, 40.61114010889728]]}}, {"type": "Feature", "properties": {"segment_id": 182223, "physicalid": "14259", "street_name": "CROSS BAY BLVD", "borough": "queens", "direction": "TF", "total_row_ft": 91.0, "roadbed_ft": 16.4, "median_ft": 49.2, "left_sw_ft": 15.0, "right_sw_ft": 10.4}, "geometry": {"type": "LineString", "coordinates": [[-73.81865023604078, 40.61115638723861], [-73.8189129435412, 40.611097677657845]]}}, {"type": "Feature", "properties": {"segment_id": 182224, "physicalid": "14259", "street_name": "CROSS BAY BLVD", "borough": "queens", "direction": "TF", "total_row_ft": 93.0, "roadbed_ft": 17.2, "median_ft": 49.9, "left_sw_ft": 15.0, "right_sw_ft": 11.0}, "geometry": {"type": "LineString", "coordinates": [[-73.81862292550812, 40.611105283044296], [-73.81889267379431, 40.61104500001006]]}}, {"type": "Feature", "properties": {"segment_id": 182225, "physicalid": "14259", "street_name": "CROSS BAY BLVD", "borough": "queens", "direction": "TF", "total_row_ft": 93.9, "roadbed_ft": 17.4, "median_ft": 50.8, "left_sw_ft": 15.0, "right_sw_ft": 10.7}, "geometry": {"type": "LineString", "coordinates": [[-73.81860132260375, 40.61104971503739], [-73.81887848280493, 40.611001348952904]]}}, {"type": "Feature", "properties": {"segment_id": 182226, "physicalid": "14259", "street_name": "CROSS BAY BLVD", "borough": "queens", "direction": "TF", "total_row_ft": 94.3, "roadbed_ft": 17.5, "median_ft": 51.6, "left_sw_ft": 15.0, "right_sw_ft": 10.2}, "geometry": {"type": "LineString", "coordinates": [[-73.81858388027676, 40.610993193608294], [-73.81886554809142, 40.610957459804204]]}}, {"type": "Feature", "properties": {"segment_id": 182227, "physicalid": "14259", "street_name": "CROSS BAY BLVD", "borough": "queens", "direction": "TF", "total_row_ft": 94.8, "roadbed_ft": 17.9, "median_ft": 52.1, "left_sw_ft": 15.0, "right_sw_ft": 9.9}, "geometry": {"type": "LineString", "coordinates": [[-73.81857003364055, 40.61093929893702], [-73.81885371954232, 40.61090330911139]]}}, {"type": "Feature", "properties": {"segment_id": 182228, "physicalid": "14259", "street_name": "CROSS BAY BLVD", "borough": "queens", "direction": "TF", "total_row_ft": 94.7, "roadbed_ft": 18.1, "median_ft": 52.2, "left_sw_ft": 15.0, "right_sw_ft": 9.4}, "geometry": {"type": "LineString", "coordinates": [[-73.81856084837398, 40.61088158074863], [-73.81884632783496, 40.610858694141434]]}}, {"type": "Feature", "properties": {"segment_id": 182229, "physicalid": "14259", "street_name": "CROSS BAY BLVD", "borough": "queens", "direction": "TF", "total_row_ft": 94.8, "roadbed_ft": 18.2, "median_ft": 52.0, "left_sw_ft": 15.0, "right_sw_ft": 9.5}, "geometry": {"type": "LineString", "coordinates": [[-73.81855315975044, 40.61082372711369], [-73.81884021967458, 40.61081394938313]]}}, {"type": "Feature", "properties": {"segment_id": 182230, "physicalid": "14259", "street_name": "CROSS BAY BLVD", "borough": "queens", "direction": "TF", "total_row_ft": 93.7, "roadbed_ft": 18.4, "median_ft": 51.8, "left_sw_ft": 15.0, "right_sw_ft": 8.6}, "geometry": {"type": "LineString", "coordinates": [[-73.81855385815516, 40.61076875263837], [-73.8188370032968, 40.61075910824689]]}}, {"type": "Feature", "properties": {"segment_id": 182231, "physicalid": "14259", "street_name": "CROSS BAY BLVD", "borough": "queens", "direction": "TF", "total_row_ft": 92.7, "roadbed_ft": 18.5, "median_ft": 51.3, "left_sw_ft": 15.0, "right_sw_ft": 7.9}, "geometry": {"type": "LineString", "coordinates": [[-73.81855677984377, 40.610710841144666], [-73.81883651182247, 40.61071414149074]]}}, {"type": "Feature", "properties": {"segment_id": 182232, "physicalid": "14259", "street_name": "CROSS BAY BLVD", "borough": "queens", "direction": "TF", "total_row_ft": 91.7, "roadbed_ft": 18.6, "median_ft": 50.3, "left_sw_ft": 15.0, "right_sw_ft": 7.8}, "geometry": {"type": "LineString", "coordinates": [[-73.81856185880278, 40.61065324937969], [-73.8188373151919, 40.61066915527308]]}}, {"type": "Feature", "properties": {"segment_id": 182233, "physicalid": "14259", "street_name": "CROSS BAY BLVD", "borough": "queens", "direction": "TF", "total_row_ft": 91.4, "roadbed_ft": 18.6, "median_ft": 49.5, "left_sw_ft": 15.0, "right_sw_ft": 8.3}, "geometry": {"type": "LineString", "coordinates": [[-73.81856844453932, 40.61059857642388], [-73.81884275733714, 40.61061441628064]]}}, {"type": "Feature", "properties": {"segment_id": 182234, "physicalid": "14259", "street_name": "CROSS BAY BLVD", "borough": "queens", "direction": "TF", "total_row_ft": 91.0, "roadbed_ft": 18.6, "median_ft": 48.3, "left_sw_ft": 15.0, "right_sw_ft": 9.1}, "geometry": {"type": "LineString", "coordinates": [[-73.81857802514234, 40.61054148586604], [-73.81884917253883, 40.61056971517481]]}}, {"type": "Feature", "properties": {"segment_id": 182235, "physicalid": "14259", "street_name": "CROSS BAY BLVD", "borough": "queens", "direction": "TF", "total_row_ft": 91.0, "roadbed_ft": 19.0, "median_ft": 46.7, "left_sw_ft": 15.0, "right_sw_ft": 10.2}, "geometry": {"type": "LineString", "coordinates": [[-73.8185884879503, 40.61048451202477], [-73.81885687773143, 40.610525105066266]]}}, {"type": "Feature", "properties": {"segment_id": 182236, "physicalid": "14259", "street_name": "CROSS BAY BLVD", "borough": "queens", "direction": "TF", "total_row_ft": 90.6, "roadbed_ft": 20.6, "median_ft": 45.2, "left_sw_ft": 15.0, "right_sw_ft": 9.8}, "geometry": {"type": "LineString", "coordinates": [[-73.81860370328968, 40.6104308467694], [-73.81887089969351, 40.61047125931406]]}}, {"type": "Feature", "properties": {"segment_id": 182237, "physicalid": "14259", "street_name": "CROSS BAY BLVD", "borough": "queens", "direction": "TF", "total_row_ft": 93.1, "roadbed_ft": 26.5, "median_ft": 40.2, "left_sw_ft": 15.0, "right_sw_ft": 11.4}, "geometry": {"type": "LineString", "coordinates": [[-73.81861338940546, 40.6103721288269], [-73.8188835656553, 40.61043163989866]]}}, {"type": "Feature", "properties": {"segment_id": 182238, "physicalid": "14259", "street_name": "CROSS BAY BLVD", "borough": "queens", "direction": "TF", "total_row_ft": 102.2, "roadbed_ft": 34.4, "median_ft": 40.6, "left_sw_ft": 15.0, "right_sw_ft": 12.2}, "geometry": {"type": "LineString", "coordinates": [[-73.81862600895072, 40.61031776568983], [-73.81890356613083, 40.610378902548]]}}, {"type": "Feature", "properties": {"segment_id": 182239, "physicalid": "14259", "street_name": "CROSS BAY BLVD", "borough": "queens", "direction": "TF", "total_row_ft": 112.1, "roadbed_ft": 46.2, "median_ft": 38.5, "left_sw_ft": 15.0, "right_sw_ft": 12.4}, "geometry": {"type": "LineString", "coordinates": [[-73.8186409004376, 40.61026390299404], [-73.81892356657478, 40.61032616519357]]}}, {"type": "Feature", "properties": {"segment_id": 182240, "physicalid": "14259", "street_name": "CROSS BAY BLVD", "borough": "queens", "direction": "TF", "total_row_ft": 130.7, "roadbed_ft": 70.6, "median_ft": 33.2, "left_sw_ft": 15.0, "right_sw_ft": 11.8}, "geometry": {"type": "LineString", "coordinates": [[-73.81865821435568, 40.61021057388806], [-73.81894356698712, 40.61027342783533]]}}, {"type": "Feature", "properties": {"segment_id": 182241, "physicalid": "14259", "street_name": "CROSS BAY BLVD", "borough": "queens", "direction": "TF", "total_row_ft": 126.0, "roadbed_ft": 72.0, "median_ft": 27.8, "left_sw_ft": 15.0, "right_sw_ft": 11.3}, "geometry": {"type": "LineString", "coordinates": [[-73.81867552824609, 40.61015724477919], [-73.81896356736786, 40.61022069047339]]}}, {"type": "Feature", "properties": {"segment_id": 182242, "physicalid": "14259", "street_name": "CROSS BAY BLVD", "borough": "queens", "direction": "TF", "total_row_ft": 124.4, "roadbed_ft": 73.3, "median_ft": 25.6, "left_sw_ft": 15.0, "right_sw_ft": 10.5}, "geometry": {"type": "LineString", "coordinates": [[-73.818693550808, 40.610104071771936], [-73.818983567717, 40.61016795310769]]}}, {"type": "Feature", "properties": {"segment_id": 182243, "physicalid": "14259", "street_name": "CROSS BAY BLVD", "borough": "queens", "direction": "TF", "total_row_ft": 126.8, "roadbed_ft": 74.6, "median_ft": 27.5, "left_sw_ft": 15.0, "right_sw_ft": 9.7}, "geometry": {"type": "LineString", "coordinates": [[-73.81871199522183, 40.61005099168882], [-73.81900356803453, 40.6101152157382]]}}, {"type": "Feature", "properties": {"segment_id": 182244, "physicalid": "14259", "street_name": "CROSS BAY BLVD", "borough": "queens", "direction": "TF", "total_row_ft": 124.8, "roadbed_ft": 71.7, "median_ft": 29.3, "left_sw_ft": 15.0, "right_sw_ft": 8.8}, "geometry": {"type": "LineString", "coordinates": [[-73.81873020518604, 40.609997859966924], [-73.81902356832046, 40.610062478365016]]}}, {"type": "Feature", "properties": {"segment_id": 182251, "physicalid": "14261", "street_name": "CROSS BAY BLVD", "borough": "queens", "direction": "TF", "total_row_ft": 148.0, "roadbed_ft": 95.6, "median_ft": 29.8, "left_sw_ft": 15.0, "right_sw_ft": 7.6}, "geometry": {"type": "LineString", "coordinates": [[-73.81926109642676, 40.612201459984355], [-73.8196587297451, 40.61207238081102]]}}, {"type": "Feature", "properties": {"segment_id": 182252, "physicalid": "14261", "street_name": "CROSS BAY BLVD", "borough": "queens", "direction": "TF", "total_row_ft": 148.9, "roadbed_ft": 95.5, "median_ft": 31.5, "left_sw_ft": 15.0, "right_sw_ft": 6.9}, "geometry": {"type": "LineString", "coordinates": [[-73.81923286706179, 40.61215095507935], [-73.8196305001339, 40.612021876003006]]}}, {"type": "Feature", "properties": {"segment_id": 182253, "physicalid": "14261", "street_name": "CROSS BAY BLVD", "borough": "queens", "direction": "TF", "total_row_ft": 150.1, "roadbed_ft": 94.9, "median_ft": 33.9, "left_sw_ft": 15.0, "right_sw_ft": 6.3}, "geometry": {"type": "LineString", "coordinates": [[-73.81920463773955, 40.61210045016715], [-73.81960227056538, 40.61197137118782]]}}, {"type": "Feature", "properties": {"segment_id": 182254, "physicalid": "14261", "street_name": "CROSS BAY BLVD", "borough": "queens", "direction": "TF", "total_row_ft": 151.3, "roadbed_ft": 93.9, "median_ft": 36.7, "left_sw_ft": 15.0, "right_sw_ft": 5.8}, "geometry": {"type": "LineString", "coordinates": [[-73.81917640846, 40.61204994524776], [-73.8195740410396, 40.61192086636542]]}}, {"type": "Feature", "properties": {"segment_id": 182255, "physicalid": "14261", "street_name": "CROSS BAY BLVD", "borough": "queens", "direction": "TF", "total_row_ft": 152.7, "roadbed_ft": 93.2, "median_ft": 39.3, "left_sw_ft": 15.0, "right_sw_ft": 5.3}, "geometry": {"type": "LineString", "coordinates": [[-73.81914817922316, 40.61199944032117], [-73.81954581155652, 40.61187036153583]]}}, {"type": "Feature", "properties": {"segment_id": 182256, "physicalid": "14261", "street_name": "CROSS BAY BLVD", "borough": "queens", "direction": "TF", "total_row_ft": 150.6, "roadbed_ft": 92.4, "median_ft": 38.7, "left_sw_ft": 15.0, "right_sw_ft": 4.5}, "geometry": {"type": "LineString", "coordinates": [[-73.81911545723338, 40.611938582232376], [-73.81952341462534, 40.611829814307185]]}}, {"type": "Feature", "properties": {"segment_id": 182257, "physicalid": "14261", "street_name": "CROSS BAY BLVD", "borough": "queens", "direction": "TF", "total_row_ft": 153.5, "roadbed_ft": 92.3, "median_ft": 43.3, "left_sw_ft": 15.0, "right_sw_ft": 2.9}, "geometry": {"type": "LineString", "coordinates": [[-73.81909167002534, 40.61188676583938], [-73.81949962713938, 40.61177799799797]]}}, {"type": "Feature", "properties": {"segment_id": 182258, "physicalid": "14261", "street_name": "CROSS BAY BLVD", "borough": "queens", "direction": "TF", "total_row_ft": 161.6, "roadbed_ft": 92.6, "median_ft": 52.7, "left_sw_ft": 15.0, "right_sw_ft": 1.3}, "geometry": {"type": "LineString", "coordinates": [[-73.81906788285423, 40.61183494944109], [-73.81947583969037, 40.61172618168362]]}}, {"type": "Feature", "properties": {"segment_id": 182259, "physicalid": "14261", "street_name": "CROSS BAY BLVD", "borough": "queens", "direction": "TF", "total_row_ft": 175.9, "roadbed_ft": 92.2, "median_ft": 53.7, "left_sw_ft": 15.0, "right_sw_ft": 15.0}, "geometry": {"type": "LineString", "coordinates": [[-73.81904409572003, 40.61178313303766], [-73.81945205227828, 40.611674365364046]]}}, {"type": "Feature", "properties": {"segment_id": 182260, "physicalid": "14261", "street_name": "CROSS BAY BLVD", "borough": "queens", "direction": "TF", "total_row_ft": 167.7, "roadbed_ft": 90.0, "median_ft": 47.7, "left_sw_ft": 15.0, "right_sw_ft": 15.0}, "geometry": {"type": "LineString", "coordinates": [[-73.81902030862277, 40.61173131662904], [-73.81942826490311, 40.611622549039275]]}}, {"type": "Feature", "properties": {"segment_id": 182261, "physicalid": "14261", "street_name": "CROSS BAY BLVD", "borough": "queens", "direction": "TF", "total_row_ft": 167.9, "roadbed_ft": 87.3, "median_ft": 50.6, "left_sw_ft": 15.0, "right_sw_ft": 15.0}, "geometry": {"type": "LineString", "coordinates": [[-73.81899349254337, 40.611663249894235], [-73.81941352108348, 40.61158562909948]]}}, {"type": "Feature", "properties": {"segment_id": 182262, "physicalid": "14261", "street_name": "CROSS BAY BLVD", "borough": "queens", "direction": "TF", "total_row_ft": 169.2, "roadbed_ft": 84.7, "median_ft": 54.5, "left_sw_ft": 15.0, "right_sw_ft": 15.0}, "geometry": {"type": "LineString", "coordinates": [[-73.8189765172419, 40.61160990009821], [-73.81939654546608, 40.61153227936516]]}}, {"type": "Feature", "properties": {"segment_id": 182263, "physicalid": "14261", "street_name": "CROSS BAY BLVD", "borough": "queens", "direction": "TF", "total_row_ft": 177.1, "roadbed_ft": 81.9, "median_ft": 65.3, "left_sw_ft": 15.0, "right_sw_ft": 15.0}, "geometry": {"type": "LineString", "coordinates": [[-73.81895954196756, 40.611556550299504], [-73.81937956987578, 40.611478929627985]]}}, {"type": "Feature", "properties": {"segment_id": 182264, "physicalid": "14261", "street_name": "CROSS BAY BLVD", "borough": "queens", "direction": "TF", "total_row_ft": 165.7, "roadbed_ft": 78.9, "median_ft": 56.9, "left_sw_ft": 15.0, "right_sw_ft": 15.0}, "geometry": {"type": "LineString", "coordinates": [[-73.81894256672034, 40.61150320049792], [-73.81936259431265, 40.611425579888085]]}}, {"type": "Feature", "properties": {"segment_id": 182265, "physicalid": "14261", "street_name": "CROSS BAY BLVD", "borough": "queens", "direction": "TF", "total_row_ft": 165.6, "roadbed_ft": 76.5, "median_ft": 59.0, "left_sw_ft": 15.0, "right_sw_ft": 15.0}, "geometry": {"type": "LineString", "coordinates": [[-73.81892559150027, 40.611449850693596], [-73.81934561877664, 40.611372230145314]]}}, {"type": "Feature", "properties": {"segment_id": 182266, "physicalid": "14261", "street_name": "CROSS BAY BLVD", "borough": "queens", "direction": "TF", "total_row_ft": 168.4, "roadbed_ft": 76.3, "median_ft": 62.1, "left_sw_ft": 15.0, "right_sw_ft": 15.0}, "geometry": {"type": "LineString", "coordinates": [[-73.81890861630733, 40.61139650088643], [-73.81932864326777, 40.6113188803998]]}}, {"type": "Feature", "properties": {"segment_id": 182267, "physicalid": "14261", "street_name": "CROSS BAY BLVD", "borough": "queens", "direction": "TF", "total_row_ft": 169.8, "roadbed_ft": 76.1, "median_ft": 63.7, "left_sw_ft": 15.0, "right_sw_ft": 15.0}, "geometry": {"type": "LineString", "coordinates": [[-73.8188916411415, 40.61134315107649], [-73.81931166778602, 40.61126553065148]]}}, {"type": "Feature", "properties": {"segment_id": 182268, "physicalid": "14261", "street_name": "CROSS BAY BLVD", "borough": "queens", "direction": "TF", "total_row_ft": 166.5, "roadbed_ft": 76.4, "median_ft": 60.0, "left_sw_ft": 15.0, "right_sw_ft": 15.0}, "geometry": {"type": "LineString", "coordinates": [[-73.81887534600209, 40.611281304526905], [-73.8192999190334, 40.611219703996284]]}}, {"type": "Feature", "properties": {"segment_id": 182269, "physicalid": "14261", "street_name": "CROSS BAY BLVD", "borough": "queens", "direction": "TF", "total_row_ft": 176.5, "roadbed_ft": 76.3, "median_ft": 70.2, "left_sw_ft": 15.0, "right_sw_ft": 15.0}, "geometry": {"type": "LineString", "coordinates": [[-73.81886187437276, 40.61122737721658], [-73.81928644707354, 40.61116577673538]]}}, {"type": "Feature", "properties": {"segment_id": 182270, "physicalid": "14261", "street_name": "CROSS BAY BLVD", "borough": "queens", "direction": "TF", "total_row_ft": 169.5, "roadbed_ft": 76.3, "median_ft": 63.1, "left_sw_ft": 15.0, "right_sw_ft": 15.0}, "geometry": {"type": "LineString", "coordinates": [[-73.8188484027652, 40.6111734499044], [-73.81927297513543, 40.61111184947259]]}}, {"type": "Feature", "properties": {"segment_id": 182271, "physicalid": "14261", "street_name": "CROSS BAY BLVD", "borough": "queens", "direction": "TF", "total_row_ft": 178.3, "roadbed_ft": 76.1, "median_ft": 72.2, "left_sw_ft": 15.0, "right_sw_ft": 15.0}, "geometry": {"type": "LineString", "coordinates": [[-73.81883493117941, 40.611119522590286], [-73.81925950321909, 40.61105792220794]]}}, {"type": "Feature", "properties": {"segment_id": 182272, "physicalid": "14261", "street_name": "CROSS BAY BLVD", "borough": "queens", "direction": "TF", "total_row_ft": 177.6, "roadbed_ft": 75.1, "median_ft": 72.5, "left_sw_ft": 15.0, "right_sw_ft": 15.0}, "geometry": {"type": "LineString", "coordinates": [[-73.81882000277915, 40.61105709788102], [-73.81924820272685, 40.61101240326652]]}}, {"type": "Feature", "properties": {"segment_id": 182273, "physicalid": "14261", "street_name": "CROSS BAY BLVD", "borough": "queens", "direction": "TF", "total_row_ft": 169.2, "roadbed_ft": 75.4, "median_ft": 63.8, "left_sw_ft": 15.0, "right_sw_ft": 15.0}, "geometry": {"type": "LineString", "coordinates": [[-73.81881022844514, 40.611002709726776], [-73.81923842805054, 40.610958015148356]]}}, {"type": "Feature", "properties": {"segment_id": 182274, "physicalid": "14261", "street_name": "CROSS BAY BLVD", "borough": "queens", "direction": "TF", "total_row_ft": 169.1, "roadbed_ft": 75.3, "median_ft": 63.8, "left_sw_ft": 15.0, "right_sw_ft": 15.0}, "geometry": {"type": "LineString", "coordinates": [[-73.81880045412709, 40.610948321571335], [-73.81922865339016, 40.610903627029145]]}}, {"type": "Feature", "properties": {"segment_id": 182275, "physicalid": "14261", "street_name": "CROSS BAY BLVD", "borough": "queens", "direction": "TF", "total_row_ft": 169.0, "roadbed_ft": 75.3, "median_ft": 63.7, "left_sw_ft": 15.0, "right_sw_ft": 15.0}, "geometry": {"type": "LineString", "coordinates": [[-73.81879067982496, 40.61089393341482], [-73.8192188787457, 40.61084923890873]]}}, {"type": "Feature", "properties": {"segment_id": 182276, "physicalid": "14261", "street_name": "CROSS BAY BLVD", "borough": "queens", "direction": "TF", "total_row_ft": 168.9, "roadbed_ft": 76.0, "median_ft": 62.9, "left_sw_ft": 15.0, "right_sw_ft": 15.0}, "geometry": {"type": "LineString", "coordinates": [[-73.81878079398138, 40.610835702068954], [-73.8192102387935, 40.610798596392556]]}}, {"type": "Feature", "properties": {"segment_id": 182277, "physicalid": "14261", "street_name": "CROSS BAY BLVD", "borough": "queens", "direction": "TF", "total_row_ft": 165.8, "roadbed_ft": 76.4, "median_ft": 59.4, "left_sw_ft": 15.0, "right_sw_ft": 15.0}, "geometry": {"type": "LineString", "coordinates": [[-73.81877267934168, 40.610781155621446], [-73.81920212380743, 40.61074404997517]]}}, {"type": "Feature", "properties": {"segment_id": 182278, "physicalid": "14261", "street_name": "CROSS BAY BLVD", "borough": "queens", "direction": "TF", "total_row_ft": 167.9, "roadbed_ft": 76.1, "median_ft": 61.8, "left_sw_ft": 15.0, "right_sw_ft": 15.0}, "geometry": {"type": "LineString", "coordinates": [[-73.81876456471524, 40.610726609173064], [-73.81919400883461, 40.61068950355687]]}}, {"type": "Feature", "properties": {"segment_id": 182279, "physicalid": "14261", "street_name": "CROSS BAY BLVD", "borough": "queens", "direction": "TF", "total_row_ft": 169.3, "roadbed_ft": 76.1, "median_ft": 63.2, "left_sw_ft": 15.0, "right_sw_ft": 15.0}, "geometry": {"type": "LineString", "coordinates": [[-73.81875715219456, 40.61066949276792], [-73.81918728543802, 40.61063735844729]]}}, {"type": "Feature", "properties": {"segment_id": 182280, "physicalid": "14261", "street_name": "CROSS BAY BLVD", "borough": "queens", "direction": "TF", "total_row_ft": 169.3, "roadbed_ft": 75.7, "median_ft": 63.5, "left_sw_ft": 15.0, "right_sw_ft": 15.0}, "geometry": {"type": "LineString", "coordinates": [[-73.81874979309306, 40.61060873813128], [-73.8191811958709, 40.61058880841347]]}}, {"type": "Feature", "properties": {"segment_id": 182281, "physicalid": "14261", "street_name": "CROSS BAY BLVD", "borough": "queens", "direction": "TF", "total_row_ft": 169.4, "roadbed_ft": 76.0, "median_ft": 63.4, "left_sw_ft": 15.0, "right_sw_ft": 15.0}, "geometry": {"type": "LineString", "coordinates": [[-73.81874543476118, 40.61055394281722], [-73.81917683718622, 40.61053401311557]]}}, {"type": "Feature", "properties": {"segment_id": 182282, "physicalid": "14261", "street_name": "CROSS BAY BLVD", "borough": "queens", "direction": "TF", "total_row_ft": 169.6, "roadbed_ft": 76.3, "median_ft": 63.3, "left_sw_ft": 15.0, "right_sw_ft": 15.0}, "geometry": {"type": "LineString", "coordinates": [[-73.81874089661075, 40.6104945486182], [-73.8191728607908, 40.610483809509915]]}}, {"type": "Feature", "properties": {"segment_id": 182283, "physicalid": "14261", "street_name": "CROSS BAY BLVD", "borough": "queens", "direction": "TF", "total_row_ft": 165.9, "roadbed_ft": 77.3, "median_ft": 58.6, "left_sw_ft": 15.0, "right_sw_ft": 15.0}, "geometry": {"type": "LineString", "coordinates": [[-73.81873854821418, 40.61043968190984], [-73.81917051203958, 40.61042894281026]]}}, {"type": "Feature", "properties": {"segment_id": 182284, "physicalid": "14261", "street_name": "CROSS BAY BLVD", "borough": "queens", "direction": "TF", "total_row_ft": 171.2, "roadbed_ft": 78.2, "median_ft": 63.0, "left_sw_ft": 15.0, "right_sw_ft": 15.0}, "geometry": {"type": "LineString", "coordinates": [[-73.81873619982147, 40.610384815201066], [-73.81916816329223, 40.610374076110304]]}}, {"type": "Feature", "properties": {"segment_id": 182285, "physicalid": "14261", "street_name": "CROSS BAY BLVD", "borough": "queens", "direction": "TF", "total_row_ft": 174.0, "roadbed_ft": 85.7, "median_ft": 58.3, "left_sw_ft": 15.0, "right_sw_ft": 15.0}, "geometry": {"type": "LineString", "coordinates": [[-73.81873371050408, 40.61033081130229], [-73.819165594295, 40.61031835629733]]}}, {"type": "Feature", "properties": {"segment_id": 182286, "physicalid": "14261", "street_name": "CROSS BAY BLVD", "borough": "queens", "direction": "TF", "total_row_ft": 182.9, "roadbed_ft": 98.5, "median_ft": 54.4, "left_sw_ft": 15.0, "right_sw_ft": 15.0}, "geometry": {"type": "LineString", "coordinates": [[-73.81873098685858, 40.610275954667806], [-73.8191628702951, 40.610263499673]]}}, {"type": "Feature", "properties": {"segment_id": 182287, "physicalid": "14261", "street_name": "CROSS BAY BLVD", "borough": "queens", "direction": "TF", "total_row_ft": 193.0, "roadbed_ft": 113.8, "median_ft": 49.2, "left_sw_ft": 15.0, "right_sw_ft": 15.0}, "geometry": {"type": "LineString", "coordinates": [[-73.81872826321755, 40.61022109803294], [-73.81916014629971, 40.6102086430483]]}}, {"type": "Feature", "properties": {"segment_id": 182288, "physicalid": "14261", "street_name": "CROSS BAY BLVD", "borough": "queens", "direction": "TF", "total_row_ft": 184.8, "roadbed_ft": 113.7, "median_ft": 41.1, "left_sw_ft": 15.0, "right_sw_ft": 15.0}, "geometry": {"type": "LineString", "coordinates": [[-73.81872583646994, 40.61016058051102], [-73.81915802567994, 40.61015943313788]]}}, {"type": "Feature", "properties": {"segment_id": 182289, "physicalid": "14261", "street_name": "CROSS BAY BLVD", "borough": "queens", "direction": "TF", "total_row_ft": 165.5, "roadbed_ft": 112.0, "median_ft": 36.7, "left_sw_ft": 15.0, "right_sw_ft": 1.7}, "geometry": {"type": "LineString", "coordinates": [[-73.81872558572576, 40.61010568495149], [-73.81915777458038, 40.61010453757926]]}}, {"type": "Feature", "properties": {"segment_id": 182290, "physicalid": "14261", "street_name": "CROSS BAY BLVD", "borough": "queens", "direction": "TF", "total_row_ft": 171.5, "roadbed_ft": 107.4, "median_ft": 42.9, "left_sw_ft": 15.0, "right_sw_ft": 6.2}, "geometry": {"type": "LineString", "coordinates": [[-73.81872533498199, 40.61005078939165], [-73.81915752348124, 40.610049642020385]]}}, {"type": "Feature", "properties": {"segment_id": 182562, "physicalid": "14277", "street_name": "CROSS BAY BLVD", "borough": "queens", "direction": "TF", "total_row_ft": 144.2, "roadbed_ft": 89.3, "median_ft": 30.6, "left_sw_ft": 15.0, "right_sw_ft": 9.4}, "geometry": {"type": "LineString", "coordinates": [[-73.81980476614036, 40.61299799990207], [-73.8201352270476, 40.612855828509026]]}}, {"type": "Feature", "properties": {"segment_id": 182563, "physicalid": "14277", "street_name": "CROSS BAY BLVD", "borough": "queens", "direction": "TF", "total_row_ft": 145.6, "roadbed_ft": 90.2, "median_ft": 31.1, "left_sw_ft": 15.0, "right_sw_ft": 9.3}, "geometry": {"type": "LineString", "coordinates": [[-73.81976655786343, 40.61294676313929], [-73.82010510889221, 40.61281185571719]]}}, {"type": "Feature", "properties": {"segment_id": 182564, "physicalid": "14277", "street_name": "CROSS BAY BLVD", "borough": "queens", "direction": "TF", "total_row_ft": 146.5, "roadbed_ft": 91.2, "median_ft": 31.1, "left_sw_ft": 15.0, "right_sw_ft": 9.1}, "geometry": {"type": "LineString", "coordinates": [[-73.81973094491566, 40.61289900659398], [-73.82007172991524, 40.61276320900016]]}}, {"type": "Feature", "properties": {"segment_id": 182565, "physicalid": "14277", "street_name": "CROSS BAY BLVD", "borough": "queens", "direction": "TF", "total_row_ft": 147.4, "roadbed_ft": 91.7, "median_ft": 31.7, "left_sw_ft": 15.0, "right_sw_ft": 9.0}, "geometry": {"type": "LineString", "coordinates": [[-73.81969533201888, 40.61285125003744], [-73.82003835098692, 40.61271456227316]]}}, {"type": "Feature", "properties": {"segment_id": 182566, "physicalid": "14277", "street_name": "CROSS BAY BLVD", "borough": "queens", "direction": "TF", "total_row_ft": 145.5, "roadbed_ft": 91.6, "median_ft": 29.5, "left_sw_ft": 15.0, "right_sw_ft": 9.4}, "geometry": {"type": "LineString", "coordinates": [[-73.81965971917306, 40.612803493469634], [-73.82000497210721, 40.61266591553621]]}}, {"type": "Feature", "properties": {"segment_id": 182567, "physicalid": "14277", "street_name": "CROSS BAY BLVD", "borough": "queens", "direction": "TF", "total_row_ft": 149.0, "roadbed_ft": 91.4, "median_ft": 33.1, "left_sw_ft": 15.0, "right_sw_ft": 9.5}, "geometry": {"type": "LineString", "coordinates": [[-73.81962499198025, 40.61275538399398], [-73.81997159327621, 40.61261726878937]]}}, {"type": "Feature", "properties": {"segment_id": 182568, "physicalid": "14277", "street_name": "CROSS BAY BLVD", "borough": "queens", "direction": "TF", "total_row_ft": 148.3, "roadbed_ft": 91.3, "median_ft": 32.5, "left_sw_ft": 15.0, "right_sw_ft": 9.5}, "geometry": {"type": "LineString", "coordinates": [[-73.8195904678265, 40.612707193620174], [-73.81993821449382, 40.61256862203258]]}}, {"type": "Feature", "properties": {"segment_id": 182569, "physicalid": "14277", "street_name": "CROSS BAY BLVD", "borough": "queens", "direction": "TF", "total_row_ft": 146.5, "roadbed_ft": 99.8, "median_ft": 22.7, "left_sw_ft": 15.0, "right_sw_ft": 9.1}, "geometry": {"type": "LineString", "coordinates": [[-73.81955732698884, 40.61265845202928], [-73.81990483576007, 40.612519975265805]]}}, {"type": "Feature", "properties": {"segment_id": 1059560, "physicalid": "73324", "street_name": "CROSS BAY BLVD", "borough": "queens", "direction": "FT", "total_row_ft": 109.4, "roadbed_ft": 70.0, "median_ft": 13.8, "left_sw_ft": 15.0, "right_sw_ft": 10.6}, "geometry": {"type": "LineString", "coordinates": [[-73.81941977552991, 40.612147651065975], [-73.81971202513014, 40.61205632026435]]}}, {"type": "Feature", "properties": {"segment_id": 1059561, "physicalid": "73324", "street_name": "CROSS BAY BLVD", "borough": "queens", "direction": "FT", "total_row_ft": 110.4, "roadbed_ft": 69.9, "median_ft": 14.8, "left_sw_ft": 15.0, "right_sw_ft": 10.7}, "geometry": {"type": "LineString", "coordinates": [[-73.81939244509958, 40.61209685981677], [-73.81968482401466, 40.61200548861401]]}}, {"type": "Feature", "properties": {"segment_id": 1059562, "physicalid": "73324", "street_name": "CROSS BAY BLVD", "borough": "queens", "direction": "FT", "total_row_ft": 112.2, "roadbed_ft": 70.1, "median_ft": 16.4, "left_sw_ft": 15.0, "right_sw_ft": 10.6}, "geometry": {"type": "LineString", "coordinates": [[-73.81936511471088, 40.612046068560836], [-73.81965804734574, 40.61195452432559]]}}, {"type": "Feature", "properties": {"segment_id": 1059563, "physicalid": "73324", "street_name": "CROSS BAY BLVD", "borough": "queens", "direction": "FT", "total_row_ft": 114.4, "roadbed_ft": 70.3, "median_ft": 18.2, "left_sw_ft": 15.0, "right_sw_ft": 10.9}, "geometry": {"type": "LineString", "coordinates": [[-73.81933778436373, 40.61199527729811], [-73.81963234707882, 40.61190322365578]]}}, {"type": "Feature", "properties": {"segment_id": 1059564, "physicalid": "73324", "street_name": "CROSS BAY BLVD", "borough": "queens", "direction": "FT", "total_row_ft": 116.0, "roadbed_ft": 70.7, "median_ft": 19.7, "left_sw_ft": 15.0, "right_sw_ft": 10.7}, "geometry": {"type": "LineString", "coordinates": [[-73.81930868855794, 40.61193703985646], [-73.81960830665261, 40.611855236140904]]}}, {"type": "Feature", "properties": {"segment_id": 1059565, "physicalid": "73324", "street_name": "CROSS BAY BLVD", "borough": "queens", "direction": "FT", "total_row_ft": 113.1, "roadbed_ft": 70.6, "median_ft": 17.1, "left_sw_ft": 15.0, "right_sw_ft": 10.4}, "geometry": {"type": "LineString", "coordinates": [[-73.81928439372487, 40.61188536042842], [-73.81958269721567, 40.611803915644565]]}}, {"type": "Feature", "properties": {"segment_id": 1059566, "physicalid": "73324", "street_name": "CROSS BAY BLVD", "borough": "queens", "direction": "FT", "total_row_ft": 116.7, "roadbed_ft": 70.6, "median_ft": 20.5, "left_sw_ft": 15.0, "right_sw_ft": 10.6}, "geometry": {"type": "LineString", "coordinates": [[-73.81926009892946, 40.611833680995026], [-73.81955905674526, 40.6117520575696]]}}, {"type": "Feature", "properties": {"segment_id": 1059567, "physicalid": "73324", "street_name": "CROSS BAY BLVD", "borough": "queens", "direction": "FT", "total_row_ft": 125.6, "roadbed_ft": 71.6, "median_ft": 28.7, "left_sw_ft": 15.0, "right_sw_ft": 10.3}, "geometry": {"type": "LineString", "coordinates": [[-73.81923580417164, 40.61178200155619], [-73.8195354157466, 40.611700199643764]]}}, {"type": "Feature", "properties": {"segment_id": 1059568, "physicalid": "73324", "street_name": "CROSS BAY BLVD", "borough": "queens", "direction": "FT", "total_row_ft": 125.6, "roadbed_ft": 71.7, "median_ft": 28.7, "left_sw_ft": 15.0, "right_sw_ft": 10.2}, "geometry": {"type": "LineString", "coordinates": [[-73.81920961959901, 40.61172297056838], [-73.81951411732048, 40.61165146848487]]}}, {"type": "Feature", "properties": {"segment_id": 1059569, "physicalid": "73324", "street_name": "CROSS BAY BLVD", "borough": "queens", "direction": "FT", "total_row_ft": 117.6, "roadbed_ft": 71.6, "median_ft": 20.5, "left_sw_ft": 15.0, "right_sw_ft": 10.4}, "geometry": {"type": "LineString", "coordinates": [[-73.81918840830544, 40.611670508623114], [-73.819493360283, 40.611598899875524]]}}, {"type": "Feature", "properties": {"segment_id": 1059570, "physicalid": "73324", "street_name": "CROSS BAY BLVD", "borough": "queens", "direction": "FT", "total_row_ft": 118.2, "roadbed_ft": 72.0, "median_ft": 20.8, "left_sw_ft": 15.0, "right_sw_ft": 10.4}, "geometry": {"type": "LineString", "coordinates": [[-73.81916719704518, 40.61161804667364], [-73.81947260339068, 40.61154633123576]]}}, {"type": "Feature", "properties": {"segment_id": 1059571, "physicalid": "73324", "street_name": "CROSS BAY BLVD", "borough": "queens", "direction": "FT", "total_row_ft": 119.3, "roadbed_ft": 72.3, "median_ft": 21.8, "left_sw_ft": 15.0, "right_sw_ft": 10.3}, "geometry": {"type": "LineString", "coordinates": [[-73.81914598581827, 40.61156558472001], [-73.81945184633607, 40.611493762637735]]}}, {"type": "Feature", "properties": {"segment_id": 1059572, "physicalid": "73324", "street_name": "CROSS BAY BLVD", "borough": "queens", "direction": "FT", "total_row_ft": 116.0, "roadbed_ft": 72.8, "median_ft": 18.0, "left_sw_ft": 15.0, "right_sw_ft": 10.2}, "geometry": {"type": "LineString", "coordinates": [[-73.81912274619157, 40.61150583820167], [-73.81943414184882, 40.61144428723094]]}}, {"type": "Feature", "properties": {"segment_id": 1059573, "physicalid": "73324", "street_name": "CROSS BAY BLVD", "borough": "queens", "direction": "FT", "total_row_ft": 115.9, "roadbed_ft": 72.7, "median_ft": 18.1, "left_sw_ft": 15.0, "right_sw_ft": 10.1}, "geometry": {"type": "LineString", "coordinates": [[-73.81910466156049, 40.61145270053392], [-73.81941544153997, 40.61139127126296]]}}, {"type": "Feature", "properties": {"segment_id": 1059574, "physicalid": "73324", "street_name": "CROSS BAY BLVD", "borough": "queens", "direction": "FT", "total_row_ft": 116.4, "roadbed_ft": 72.7, "median_ft": 18.2, "left_sw_ft": 15.0, "right_sw_ft": 10.5}, "geometry": {"type": "LineString", "coordinates": [[-73.81908657695818, 40.61139956286303], [-73.81939883875776, 40.61133784069381]]}}, {"type": "Feature", "properties": {"segment_id": 1059575, "physicalid": "73324", "street_name": "CROSS BAY BLVD", "borough": "queens", "direction": "FT", "total_row_ft": 120.7, "roadbed_ft": 73.0, "median_ft": 21.9, "left_sw_ft": 15.0, "right_sw_ft": 10.8}, "geometry": {"type": "LineString", "coordinates": [[-73.81906849238469, 40.611346425189005], [-73.81938342033921, 40.61128417602219]]}}, {"type": "Feature", "properties": {"segment_id": 1059576, "physicalid": "73325", "street_name": "CROSS BAY BLVD", "borough": "queens", "direction": "FT", "total_row_ft": 114.7, "roadbed_ft": 72.2, "median_ft": 17.0, "left_sw_ft": 15.0, "right_sw_ft": 10.6}, "geometry": {"type": "LineString", "coordinates": [[-73.81963789944554, 40.612527292386964], [-73.81993202157878, 40.61243234323976]]}}, {"type": "Feature", "properties": {"segment_id": 1059577, "physicalid": "73325", "street_name": "CROSS BAY BLVD", "borough": "queens", "direction": "FT", "total_row_ft": 114.6, "roadbed_ft": 70.4, "median_ft": 18.3, "left_sw_ft": 15.0, "right_sw_ft": 10.9}, "geometry": {"type": "LineString", "coordinates": [[-73.81961077467872, 40.61247932748662], [-73.81990166792143, 40.612381160710456]]}}, {"type": "Feature", "properties": {"segment_id": 1059578, "physicalid": "73325", "street_name": "CROSS BAY BLVD", "borough": "queens", "direction": "FT", "total_row_ft": 114.6, "roadbed_ft": 69.9, "median_ft": 18.5, "left_sw_ft": 15.0, "right_sw_ft": 11.3}, "geometry": {"type": "LineString", "coordinates": [[-73.81958160798787, 40.61242913281785], [-73.81987200040298, 40.612331135069084]]}}, {"type": "Feature", "properties": {"segment_id": 1059579, "physicalid": "73325", "street_name": "CROSS BAY BLVD", "borough": "queens", "direction": "FT", "total_row_ft": 106.5, "roadbed_ft": 70.0, "median_ft": 10.5, "left_sw_ft": 15.0, "right_sw_ft": 11.1}, "geometry": {"type": "LineString", "coordinates": [[-73.81955244134087, 40.61237893814139], [-73.81984233290932, 40.612281109426455]]}}, {"type": "Feature", "properties": {"segment_id": 1059580, "physicalid": "73325", "street_name": "CROSS BAY BLVD", "borough": "queens", "direction": "FT", "total_row_ft": 106.3, "roadbed_ft": 70.0, "median_ft": 10.3, "left_sw_ft": 15.0, "right_sw_ft": 10.9}, "geometry": {"type": "LineString", "coordinates": [[-73.81952327473775, 40.61232874345726], [-73.81981266543261, 40.612231083785204]]}}, {"type": "Feature", "properties": {"segment_id": 1059581, "physicalid": "73325", "street_name": "CROSS BAY BLVD", "borough": "queens", "direction": "FT", "total_row_ft": 106.1, "roadbed_ft": 70.1, "median_ft": 10.2, "left_sw_ft": 15.0, "right_sw_ft": 10.8}, "geometry": {"type": "LineString", "coordinates": [[-73.81949410817847, 40.6122785487655], [-73.81978326594101, 40.61218096771459]]}}, {"type": "Feature", "properties": {"segment_id": 1059582, "physicalid": "73325", "street_name": "CROSS BAY BLVD", "borough": "queens", "direction": "FT", "total_row_ft": 103.1, "roadbed_ft": 70.2, "median_ft": 7.1, "left_sw_ft": 15.0, "right_sw_ft": 10.8}, "geometry": {"type": "LineString", "coordinates": [[-73.81946494166307, 40.61222835406606], [-73.81975426467056, 40.61213071726412]]}}, {"type": "Feature", "properties": {"segment_id": 1059600, "physicalid": "73326", "street_name": "CROSS BAY BLVD", "borough": "queens", "direction": "FT", "total_row_ft": 112.5, "roadbed_ft": 67.4, "median_ft": 19.5, "left_sw_ft": 15.0, "right_sw_ft": 10.6}, "geometry": {"type": "LineString", "coordinates": [[-73.81985931427457, 40.612843056155164], [-73.8201252727413, 40.612730935830406]]}}, {"type": "Feature", "properties": {"segment_id": 1059601, "physicalid": "73326", "street_name": "CROSS BAY BLVD", "borough": "queens", "direction": "FT", "total_row_ft": 113.1, "roadbed_ft": 67.5, "median_ft": 19.8, "left_sw_ft": 15.0, "right_sw_ft": 10.8}, "geometry": {"type": "LineString", "coordinates": [[-73.81982444523909, 40.612795020288594], [-73.82009276006067, 40.61268190661339]]}}, {"type": "Feature", "properties": {"segment_id": 1059602, "physicalid": "73326", "street_name": "CROSS BAY BLVD", "borough": "queens", "direction": "FT", "total_row_ft": 118.7, "roadbed_ft": 67.8, "median_ft": 25.2, "left_sw_ft": 15.0, "right_sw_ft": 10.7}, "geometry": {"type": "LineString", "coordinates": [[-73.81978957625383, 40.61274698441123], [-73.8200602474278, 40.61263287738689]]}}, {"type": "Feature", "properties": {"segment_id": 1059603, "physicalid": "73326", "street_name": "CROSS BAY BLVD", "borough": "queens", "direction": "FT", "total_row_ft": 121.8, "roadbed_ft": 68.2, "median_ft": 28.0, "left_sw_ft": 15.0, "right_sw_ft": 10.6}, "geometry": {"type": "LineString", "coordinates": [[-73.81975470731872, 40.61269894852307], [-73.8200277348427, 40.612583848151004]]}}, {"type": "Feature", "properties": {"segment_id": 1059604, "physicalid": "73326", "street_name": "CROSS BAY BLVD", "borough": "queens", "direction": "FT", "total_row_ft": 115.6, "roadbed_ft": 68.7, "median_ft": 21.1, "left_sw_ft": 15.0, "right_sw_ft": 10.8}, "geometry": {"type": "LineString", "coordinates": [[-73.81971983843383, 40.61265091262409], [-73.8199961688828, 40.61253441985468]]}}, {"type": "Feature", "properties": {"segment_id": 1060029, "physicalid": "73332", "street_name": "CROSS BAY BLVD", "borough": "queens", "direction": "FT", "total_row_ft": 163.2, "roadbed_ft": 113.4, "median_ft": 19.7, "left_sw_ft": 15.0, "right_sw_ft": 15.0}, "geometry": {"type": "LineString", "coordinates": [[-73.81903757772106, 40.61124372303712], [-73.81946203054687, 40.61118164421406]]}}, {"type": "Feature", "properties": {"segment_id": 1060030, "physicalid": "73332", "street_name": "CROSS BAY BLVD", "borough": "queens", "direction": "FT", "total_row_ft": 123.4, "roadbed_ft": 73.5, "median_ft": 23.4, "left_sw_ft": 15.0, "right_sw_ft": 11.4}, "geometry": {"type": "LineString", "coordinates": [[-73.8190240014986, 40.6111898109638], [-73.8193483809137, 40.611142368642206]]}}, {"type": "Feature", "properties": {"segment_id": 1060031, "physicalid": "73332", "street_name": "CROSS BAY BLVD", "borough": "queens", "direction": "FT", "total_row_ft": 122.6, "roadbed_ft": 73.9, "median_ft": 23.4, "left_sw_ft": 15.0, "right_sw_ft": 10.3}, "geometry": {"type": "LineString", "coordinates": [[-73.81901042529806, 40.611135898888556], [-73.8193317354931, 40.611088905463504]]}}, {"type": "Feature", "properties": {"segment_id": 1060032, "physicalid": "73332", "street_name": "CROSS BAY BLVD", "borough": "queens", "direction": "FT", "total_row_ft": 131.6, "roadbed_ft": 73.8, "median_ft": 32.5, "left_sw_ft": 15.0, "right_sw_ft": 10.2}, "geometry": {"type": "LineString", "coordinates": [[-73.81899684911946, 40.611081986811435], [-73.81931855255375, 40.61103493587346]]}}, {"type": "Feature", "properties": {"segment_id": 1060033, "physicalid": "73332", "street_name": "CROSS BAY BLVD", "borough": "queens", "direction": "FT", "total_row_ft": 124.0, "roadbed_ft": 74.3, "median_ft": 24.3, "left_sw_ft": 15.0, "right_sw_ft": 10.4}, "geometry": {"type": "LineString", "coordinates": [[-73.818981767459, 40.61102052962106], [-73.8193082281484, 40.61098463965934]]}}, {"type": "Feature", "properties": {"segment_id": 1060034, "physicalid": "73332", "street_name": "CROSS BAY BLVD", "borough": "queens", "direction": "FT", "total_row_ft": 123.2, "roadbed_ft": 74.3, "median_ft": 23.6, "left_sw_ft": 15.0, "right_sw_ft": 10.3}, "geometry": {"type": "LineString", "coordinates": [[-73.81897148290126, 40.61096619613972], [-73.81929709419143, 40.61093039955969]]}}, {"type": "Feature", "properties": {"segment_id": 1060035, "physicalid": "73332", "street_name": "CROSS BAY BLVD", "borough": "queens", "direction": "FT", "total_row_ft": 123.0, "roadbed_ft": 73.9, "median_ft": 23.7, "left_sw_ft": 15.0, "right_sw_ft": 10.4}, "geometry": {"type": "LineString", "coordinates": [[-73.81896119836027, 40.610911862657204], [-73.81928655134602, 40.610876094475046]]}}, {"type": "Feature", "properties": {"segment_id": 1060036, "physicalid": "73332", "street_name": "CROSS BAY BLVD", "borough": "queens", "direction": "FT", "total_row_ft": 123.0, "roadbed_ft": 74.5, "median_ft": 23.4, "left_sw_ft": 15.0, "right_sw_ft": 10.1}, "geometry": {"type": "LineString", "coordinates": [[-73.81895091383602, 40.61085752917344], [-73.81927619052712, 40.61082176937939]]}}, {"type": "Feature", "properties": {"segment_id": 1060037, "physicalid": "73332", "street_name": "CROSS BAY BLVD", "borough": "queens", "direction": "FT", "total_row_ft": 124.2, "roadbed_ft": 75.1, "median_ft": 23.8, "left_sw_ft": 15.0, "right_sw_ft": 10.2}, "geometry": {"type": "LineString", "coordinates": [[-73.81894062932851, 40.61080319568847], [-73.81926777977768, 40.610767229897576]]}}, {"type": "Feature", "properties": {"segment_id": 1060038, "physicalid": "73332", "street_name": "CROSS BAY BLVD", "borough": "queens", "direction": "FT", "total_row_ft": 121.6, "roadbed_ft": 75.1, "median_ft": 21.2, "left_sw_ft": 15.0, "right_sw_ft": 10.3}, "geometry": {"type": "LineString", "coordinates": [[-73.81893025781977, 40.61074116822098], [-73.81925999641966, 40.61071675865353]]}}, {"type": "Feature", "properties": {"segment_id": 1060039, "physicalid": "73332", "street_name": "CROSS BAY BLVD", "borough": "queens", "direction": "FT", "total_row_ft": 131.9, "roadbed_ft": 75.2, "median_ft": 31.8, "left_sw_ft": 15.0, "right_sw_ft": 9.9}, "geometry": {"type": "LineString", "coordinates": [[-73.81892329379136, 40.610686529484965], [-73.81925158741778, 40.61066222688678]]}}, {"type": "Feature", "properties": {"segment_id": 1060040, "physicalid": "73332", "street_name": "CROSS BAY BLVD", "borough": "queens", "direction": "FT", "total_row_ft": 125.0, "roadbed_ft": 75.1, "median_ft": 24.5, "left_sw_ft": 15.0, "right_sw_ft": 10.4}, "geometry": {"type": "LineString", "coordinates": [[-73.81891632977434, 40.61063189074827], [-73.81924640478547, 40.610607456276895]]}}, {"type": "Feature", "properties": {"segment_id": 1060041, "physicalid": "73332", "street_name": "CROSS BAY BLVD", "borough": "queens", "direction": "FT", "total_row_ft": 125.5, "roadbed_ft": 75.0, "median_ft": 24.9, "left_sw_ft": 15.0, "right_sw_ft": 10.7}, "geometry": {"type": "LineString", "coordinates": [[-73.81890936576872, 40.61057725201082], [-73.81924127199517, 40.610552681977396]]}}, {"type": "Feature", "properties": {"segment_id": 1060042, "physicalid": "73332", "street_name": "CROSS BAY BLVD", "borough": "queens", "direction": "FT", "total_row_ft": 127.0, "roadbed_ft": 75.6, "median_ft": 25.7, "left_sw_ft": 15.0, "right_sw_ft": 10.6}, "geometry": {"type": "LineString", "coordinates": [[-73.8189024017745, 40.610522613272614], [-73.8192361388851, 40.610497907701664]]}}, {"type": "Feature", "properties": {"segment_id": 1060043, "physicalid": "73332", "street_name": "CROSS BAY BLVD", "borough": "queens", "direction": "FT", "total_row_ft": 123.8, "roadbed_ft": 75.7, "median_ft": 22.5, "left_sw_ft": 15.0, "right_sw_ft": 10.6}, "geometry": {"type": "LineString", "coordinates": [[-73.81889677511894, 40.61046023240888], [-73.81923151796708, 40.610447364319384]]}}, {"type": "Feature", "properties": {"segment_id": 1060044, "physicalid": "73332", "street_name": "CROSS BAY BLVD", "borough": "queens", "direction": "FT", "total_row_ft": 134.5, "roadbed_ft": 75.5, "median_ft": 33.5, "left_sw_ft": 15.0, "right_sw_ft": 10.5}, "geometry": {"type": "LineString", "coordinates": [[-73.8188931464379, 40.6104054062178], [-73.8192266050925, 40.61039258749674]]}}, {"type": "Feature", "properties": {"segment_id": 1060045, "physicalid": "73332", "street_name": "CROSS BAY BLVD", "borough": "queens", "direction": "FT", "total_row_ft": 125.6, "roadbed_ft": 75.9, "median_ft": 24.7, "left_sw_ft": 15.0, "right_sw_ft": 9.9}, "geometry": {"type": "LineString", "coordinates": [[-73.8188895177628, 40.61035058002631], [-73.81922169226357, 40.610337810672135]]}}, {"type": "Feature", "properties": {"segment_id": 1060046, "physicalid": "73332", "street_name": "CROSS BAY BLVD", "borough": "queens", "direction": "FT", "total_row_ft": 126.0, "roadbed_ft": 76.3, "median_ft": 24.5, "left_sw_ft": 15.0, "right_sw_ft": 10.1}, "geometry": {"type": "LineString", "coordinates": [[-73.81888588909366, 40.61029575383438], [-73.81921989166504, 40.61028291420334]]}}, {"type": "Feature", "properties": {"segment_id": 1060047, "physicalid": "73332", "street_name": "CROSS BAY BLVD", "borough": "queens", "direction": "FT", "total_row_ft": 126.6, "roadbed_ft": 76.8, "median_ft": 24.3, "left_sw_ft": 15.0, "right_sw_ft": 10.5}, "geometry": {"type": "LineString", "coordinates": [[-73.81888226043048, 40.61024092764207], [-73.81921877039322, 40.61022799161886]]}}, {"type": "Feature", "properties": {"segment_id": 1060048, "physicalid": "73332", "street_name": "CROSS BAY BLVD", "borough": "queens", "direction": "FT", "total_row_ft": 123.9, "roadbed_ft": 76.4, "median_ft": 21.9, "left_sw_ft": 15.0, "right_sw_ft": 10.6}, "geometry": {"type": "LineString", "coordinates": [[-73.81888140066758, 40.61017840659422], [-73.8192177412158, 40.61017737185641]]}}, {"type": "Feature", "properties": {"segment_id": 1060049, "physicalid": "73332", "street_name": "CROSS BAY BLVD", "borough": "queens", "direction": "FT", "total_row_ft": 123.8, "roadbed_ft": 76.6, "median_ft": 21.9, "left_sw_ft": 15.0, "right_sw_ft": 10.3}, "geometry": {"type": "LineString", "coordinates": [[-73.8188811100301, 40.61012351114904], [-73.81921666584557, 40.61012247882656]]}}, {"type": "Feature", "properties": {"segment_id": 1060050, "physicalid": "73332", "street_name": "CROSS BAY BLVD", "borough": "queens", "direction": "FT", "total_row_ft": 134.4, "roadbed_ft": 76.6, "median_ft": 32.7, "left_sw_ft": 15.0, "right_sw_ft": 10.1}, "geometry": {"type": "LineString", "coordinates": [[-73.81888081939312, 40.610068615703575], [-73.81921559050727, 40.61006758579627]]}}, {"type": "Feature", "properties": {"segment_id": 1060051, "physicalid": "73332", "street_name": "CROSS BAY BLVD", "borough": "queens", "direction": "FT", "total_row_ft": 129.7, "roadbed_ft": 75.8, "median_ft": 28.9, "left_sw_ft": 15.0, "right_sw_ft": 10.0}, "geometry": {"type": "LineString", "coordinates": [[-73.81888052875661, 40.61001372025776], [-73.81921533121015, 40.61001269025403]]}}, {"type": "Feature", "properties": {"segment_id": 1348658, "physicalid": "92075", "street_name": "E 4 RD", "borough": "queens", "direction": "TW", "total_row_ft": 191.5, "roadbed_ft": 120.0, "median_ft": 41.5, "left_sw_ft": 15.0, "right_sw_ft": 15.0}, "geometry": {"type": "LineString", "coordinates": [[-73.8197145137519, 40.61271638355681], [-73.81954710112181, 40.61241272077951]]}}, {"type": "Feature", "properties": {"segment_id": 1348659, "physicalid": "92075", "street_name": "E 4 RD", "borough": "queens", "direction": "TW", "total_row_ft": 135.0, "roadbed_ft": 112.5, "median_ft": 0.0, "left_sw_ft": 7.5, "right_sw_ft": 15.0}, "geometry": {"type": "LineString", "coordinates": [[-73.81964810237746, 40.612737647135106], [-73.81948068999613, 40.612433984261735]]}}, {"type": "Feature", "properties": {"segment_id": 1348660, "physicalid": "92075", "street_name": "E 4 RD", "borough": "queens", "direction": "TW", "total_row_ft": 40.6, "roadbed_ft": 10.6, "median_ft": 0.0, "left_sw_ft": 15.0, "right_sw_ft": 15.0}, "geometry": {"type": "LineString", "coordinates": [[-73.8195816909607, 40.61275891067496], [-73.81941427882812, 40.61245524770556]]}}, {"type": "Feature", "properties": {"segment_id": 1348661, "physicalid": "92075", "street_name": "E 4 RD", "borough": "queens", "direction": "TW", "total_row_ft": 41.2, "roadbed_ft": 11.2, "median_ft": 0.0, "left_sw_ft": 15.0, "right_sw_ft": 15.0}, "geometry": {"type": "LineString", "coordinates": [[-73.81951527950166, 40.612780174176415], [-73.81934786761781, 40.61247651111094]]}}, {"type": "Feature", "properties": {"segment_id": 1348662, "physicalid": "92076", "street_name": "E 4 RD", "borough": "queens", "direction": "TW", "total_row_ft": 150.0, "roadbed_ft": 119.2, "median_ft": 0.8, "left_sw_ft": 15.0, "right_sw_ft": 15.0}, "geometry": {"type": "LineString", "coordinates": [[-73.81988009608888, 40.61266988180834], [-73.81973411964422, 40.612359861581744]]}}, {"type": "Feature", "properties": {"segment_id": 1348663, "physicalid": "92076", "street_name": "E 4 RD", "borough": "queens", "direction": "TW", "total_row_ft": 160.9, "roadbed_ft": 120.0, "median_ft": 10.9, "left_sw_ft": 15.0, "right_sw_ft": 15.0}, "geometry": {"type": "LineString", "coordinates": [[-73.8198098577485, 40.61268879129326], [-73.81966851965545, 40.61237752531592]]}}, {"type": "Feature", "properties": {"segment_id": 1419454, "physicalid": "96190", "street_name": "BERT RD", "borough": "queens", "direction": "NV", "total_row_ft": 150.0, "roadbed_ft": 120.0, "median_ft": 0.0, "left_sw_ft": 15.0, "right_sw_ft": 15.0}, "geometry": {"type": "LineString", "coordinates": [[-73.81960018568107, 40.61195626784483], [-73.81977865818591, 40.612256249787606]]}}, {"type": "Feature", "properties": {"segment_id": 1419455, "physicalid": "96190", "street_name": "BERT RD", "borough": "queens", "direction": "NV", "total_row_ft": 39.7, "roadbed_ft": 9.7, "median_ft": 0.0, "left_sw_ft": 15.0, "right_sw_ft": 15.0}, "geometry": {"type": "LineString", "coordinates": [[-73.8196657913165, 40.61193359942471], [-73.81984426405549, 40.612233581266324]]}}, {"type": "Feature", "properties": {"segment_id": 1419456, "physicalid": "96190", "street_name": "BERT RD", "borough": "queens", "direction": "NV", "total_row_ft": 38.8, "roadbed_ft": 8.8, "median_ft": 0.0, "left_sw_ft": 15.0, "right_sw_ft": 15.0}, "geometry": {"type": "LineString", "coordinates": [[-73.81973139690732, 40.611910930967106], [-73.81990986988055, 40.612210912707525]]}}, {"type": "Feature", "properties": {"segment_id": 1419457, "physicalid": "96190", "street_name": "BERT RD", "borough": "queens", "direction": "NV", "total_row_ft": 38.0, "roadbed_ft": 8.0, "median_ft": 0.0, "left_sw_ft": 15.0, "right_sw_ft": 15.0}, "geometry": {"type": "LineString", "coordinates": [[-73.81980097942603, 40.61188708085786], [-73.8199716505819, 40.61218968790855]]}}, {"type": "Feature", "properties": {"segment_id": 1419458, "physicalid": "96190", "street_name": "BERT RD", "borough": "queens", "direction": "NV", "total_row_ft": 38.7, "roadbed_ft": 8.7, "median_ft": 0.0, "left_sw_ft": 15.0, "right_sw_ft": 15.0}, "geometry": {"type": "LineString", "coordinates": [[-73.81986715909798, 40.61186540329157], [-73.8200378304984, 40.61216801024467]]}}, {"type": "Feature", "properties": {"segment_id": 1709316, "physicalid": "179458", "street_name": "W 5 RD", "borough": "queens", "direction": "TW", "total_row_ft": 145.0, "roadbed_ft": 90.4, "median_ft": 10.0, "left_sw_ft": 15.0, "right_sw_ft": 29.6}, "geometry": {"type": "LineString", "coordinates": [[-73.81922552973312, 40.611085405002356], [-73.81939395185076, 40.611388742375084]]}}, {"type": "Feature", "properties": {"segment_id": 1709317, "physicalid": "179458", "street_name": "W 5 RD", "borough": "queens", "direction": "TW", "total_row_ft": 74.4, "roadbed_ft": 19.9, "median_ft": 0.0, "left_sw_ft": 47.6, "right_sw_ft": 6.9}, "geometry": {"type": "LineString", "coordinates": [[-73.81929186832274, 40.61106401283587], [-73.81939630882384, 40.61125211586406]]}}, {"type": "Feature", "properties": {"segment_id": 1745469, "physicalid": "189391", "street_name": "CROSS BAY BLVD", "borough": "queens", "direction": "TF", "total_row_ft": 138.4, "roadbed_ft": 97.3, "median_ft": 16.6, "left_sw_ft": 15.0, "right_sw_ft": 9.5}, "geometry": {"type": "LineString", "coordinates": [[-73.81943915754788, 40.612491477447826], [-73.81981951092651, 40.61237505706626]]}}, {"type": "Feature", "properties": {"segment_id": 1745470, "physicalid": "189391", "street_name": "CROSS BAY BLVD", "borough": "queens", "direction": "TF", "total_row_ft": 136.1, "roadbed_ft": 98.9, "median_ft": 12.6, "left_sw_ft": 15.0, "right_sw_ft": 9.6}, "geometry": {"type": "LineString", "coordinates": [[-73.8194068315796, 40.61244221365498], [-73.81979266316097, 40.61232411650501]]}}, {"type": "Feature", "properties": {"segment_id": 1745471, "physicalid": "189391", "street_name": "CROSS BAY BLVD", "borough": "queens", "direction": "TF", "total_row_ft": 136.1, "roadbed_ft": 94.2, "median_ft": 17.1, "left_sw_ft": 15.0, "right_sw_ft": 9.8}, "geometry": {"type": "LineString", "coordinates": [[-73.81937450565901, 40.612392949852804], [-73.81976581543641, 40.612273175937226]]}}, {"type": "Feature", "properties": {"segment_id": 1745472, "physicalid": "189391", "street_name": "CROSS BAY BLVD", "borough": "queens", "direction": "TF", "total_row_ft": 142.8, "roadbed_ft": 94.5, "median_ft": 23.3, "left_sw_ft": 15.0, "right_sw_ft": 10.0}, "geometry": {"type": "LineString", "coordinates": [[-73.81934217978615, 40.61234368604127], [-73.81973896775283, 40.61222223536287]]}}, {"type": "Feature", "properties": {"segment_id": 1745473, "physicalid": "189391", "street_name": "CROSS BAY BLVD", "borough": "queens", "direction": "TF", "total_row_ft": 151.5, "roadbed_ft": 95.2, "median_ft": 31.4, "left_sw_ft": 15.0, "right_sw_ft": 9.9}, "geometry": {"type": "LineString", "coordinates": [[-73.81931105526027, 40.612294054524085], [-73.81971212011022, 40.612171294782]]}}]}