{"type": "FeatureCollection", "features": [{"type": "Feature", "properties": {"segment_id": 186108, "physicalid": "14556", "street_name": "SHORE FRONT PKWY", "borough": "queens", "direction": "TF", "total_row_ft": 65.1, "roadbed_ft": 30.7, "median_ft": 8.4, "left_sw_ft": 15.0, "right_sw_ft": 10.9}, "geometry": {"type": "LineString", "coordinates": [[-73.82836572564139, 40.57992774912595], [-73.82861914457038, 40.5800671097535]]}}, {"type": "Feature", "properties": {"segment_id": 186109, "physicalid": "14556", "street_name": "SHORE FRONT PKWY", "borough": "queens", "direction": "TF", "total_row_ft": 65.2, "roadbed_ft": 29.4, "median_ft": 9.3, "left_sw_ft": 15.0, "right_sw_ft": 11.5}, "geometry": {"type": "LineString", "coordinates": [[-73.82841865844465, 40.57987894406314], [-73.82865077690863, 40.58004045432281]]}}, {"type": "Feature", "properties": {"segment_id": 186110, "physicalid": "14556", "street_name": "SHORE FRONT PKWY", "borough": "queens", "direction": "TF", "total_row_ft": 61.0, "roadbed_ft": 29.2, "median_ft": 9.4, "left_sw_ft": 15.0, "right_sw_ft": 7.4}, "geometry": {"type": "LineString", "coordinates": [[-73.8284903603669, 40.57984515513201], [-73.82868635394281, 40.58001685301138]]}}, {"type": "Feature", "properties": {"segment_id": 186111, "physicalid": "14556", "street_name": "SHORE FRONT PKWY", "borough": "queens", "direction": "TF", "total_row_ft": 62.1, "roadbed_ft": 28.6, "median_ft": 9.4, "left_sw_ft": 15.0, "right_sw_ft": 9.1}, "geometry": {"type": "LineString", "coordinates": [[-73.82855553658617, 40.57980789359256], [-73.82872537243647, 40.57999664243928]]}}, {"type": "Feature", "properties": {"segment_id": 186112, "physicalid": "14556", "street_name": "SHORE FRONT PKWY", "borough": "queens", "direction": "TF", "total_row_ft": 62.6, "roadbed_ft": 28.5, "median_ft": 9.4, "left_sw_ft": 15.0, "right_sw_ft": 9.7}, "geometry": {"type": "LineString", "coordinates": [[-73.8286280078577, 40.57977930195403], [-73.82876728018059, 40.579980111367156]]}}, {"type": "Feature", "properties": {"segment_id": 186113, "physicalid": "14556", "street_name": "SHORE FRONT PKWY", "borough": "queens", "direction": "TF", "total_row_ft": 62.9, "roadbed_ft": 28.8, "median_ft": 9.4, "left_sw_ft": 15.0, "right_sw_ft": 9.7}, "geometry": {"type": "LineString", "coordinates": [[-73.82870496764201, 40.57975854952339], [-73.8288064820225, 40.57996371874841]]}}, {"type": "Feature", "properties": {"segment_id": 186114, "physicalid": "14556", "street_name": "SHORE FRONT PKWY", "borough": "queens", "direction": "TF", "total_row_ft": 62.4, "roadbed_ft": 30.0, "median_ft": 9.4, "left_sw_ft": 15.0, "right_sw_ft": 7.9}, "geometry": {"type": "LineString", "coordinates": [[-73.82879860137984, 40.5797461658115], [-73.82880524193855, 40.57996262668786]]}}, {"type": "Feature", "properties": {"segment_id": 186115, "physicalid": "14556", "street_name": "SHORE FRONT PKWY", "borough": "queens", "direction": "TF", "total_row_ft": 61.3, "roadbed_ft": 29.5, "median_ft": 9.4, "left_sw_ft": 15.0, "right_sw_ft": 7.3}, "geometry": {"type": "LineString", "coordinates": [[-73.82888244649354, 40.57974610746504], [-73.82884049279158, 40.57996471939586]]}}, {"type": "Feature", "properties": {"segment_id": 186116, "physicalid": "14556", "street_name": "SHORE FRONT PKWY", "borough": "queens", "direction": "TF", "total_row_ft": 65.1, "roadbed_ft": 28.7, "median_ft": 9.5, "left_sw_ft": 15.0, "right_sw_ft": 11.9}, "geometry": {"type": "LineString", "coordinates": [[-73.8289846115107, 40.579754584519996], [-73.82883835862371, 40.579967400413096]]}}, {"type": "Feature", "properties": {"segment_id": 186117, "physicalid": "14556", "street_name": "SHORE FRONT PKWY", "borough": "queens", "direction": "TF", "total_row_ft": 70.5, "roadbed_ft": 29.1, "median_ft": 9.4, "left_sw_ft": 15.0, "right_sw_ft": 17.0}, "geometry": {"type": "LineString", "coordinates": [[-73.8290864209819, 40.579789899689935], [-73.82883778406517, 40.57996678800113]]}}, {"type": "Feature", "properties": {"segment_id": 186118, "physicalid": "14556", "street_name": "SHORE FRONT PKWY", "borough": "queens", "direction": "TF", "total_row_ft": 95.9, "roadbed_ft": 29.6, "median_ft": 9.4, "left_sw_ft": 15.0, "right_sw_ft": 41.9}, "geometry": {"type": "LineString", "coordinates": [[-73.82923669215782, 40.57983193400865], [-73.82884109442399, 40.57996426501525]]}}, {"type": "Feature", "properties": {"segment_id": 186119, "physicalid": "14556", "street_name": "SHORE FRONT PKWY", "borough": "queens", "direction": "TF", "total_row_ft": 71.2, "roadbed_ft": 31.9, "median_ft": 10.4, "left_sw_ft": 15.0, "right_sw_ft": 13.9}, "geometry": {"type": "LineString", "coordinates": [[-73.82927247701471, 40.579909738693196], [-73.82885335643269, 40.57998955530781]]}}, {"type": "Feature", "properties": {"segment_id": 186263, "physicalid": "14564", "street_name": "SHORE FRONT PKWY", "borough": "queens", "direction": "FT", "total_row_ft": 73.6, "roadbed_ft": 24.8, "median_ft": 0.0, "left_sw_ft": 29.8, "right_sw_ft": 19.0}, "geometry": {"type": "LineString", "coordinates": [[-73.8292938031658, 40.5798674703181], [-73.8294124305938, 40.58010638135376]]}}, {"type": "Feature", "properties": {"segment_id": 186264, "physicalid": "14564", "street_name": "SHORE FRONT PKWY", "borough": "queens", "direction": "FT", "total_row_ft": 59.7, "roadbed_ft": 24.7, "median_ft": 0.0, "left_sw_ft": 16.3, "right_sw_ft": 18.8}, "geometry": {"type": "LineString", "coordinates": [[-73.82936113856198, 40.57984803387074], [-73.82947885101659, 40.580085101711525]]}}, {"type": "Feature", "properties": {"segment_id": 186265, "physicalid": "14564", "street_name": "SHORE FRONT PKWY", "borough": "queens", "direction": "FT", "total_row_ft": 56.3, "roadbed_ft": 24.6, "median_ft": 0.0, "left_sw_ft": 13.3, "right_sw_ft": 18.4}, "geometry": {"type": "LineString", "coordinates": [[-73.82944701260746, 40.57986593355247], [-73.82954514009833, 40.58006355760243]]}}, {"type": "Feature", "properties": {"segment_id": 186266, "physicalid": "14564", "street_name": "SHORE FRONT PKWY", "borough": "queens", "direction": "FT", "total_row_ft": 56.1, "roadbed_ft": 24.5, "median_ft": 0.0, "left_sw_ft": 13.6, "right_sw_ft": 18.0}, "geometry": {"type": "LineString", "coordinates": [[-73.82951540313822, 40.579848622100904], [-73.8296114291373, 40.58004201345502]]}}, {"type": "Feature", "properties": {"segment_id": 186267, "physicalid": "14564", "street_name": "SHORE FRONT PKWY", "borough": "queens", "direction": "FT", "total_row_ft": 55.9, "roadbed_ft": 24.5, "median_ft": 0.0, "left_sw_ft": 13.8, "right_sw_ft": 17.6}, "geometry": {"type": "LineString", "coordinates": [[-73.8295827419627, 40.5798291925962], [-73.82967771813352, 40.58002046926934]]}}, {"type": "Feature", "properties": {"segment_id": 186268, "physicalid": "14564", "street_name": "SHORE FRONT PKWY", "borough": "queens", "direction": "FT", "total_row_ft": 55.2, "roadbed_ft": 24.4, "median_ft": 0.0, "left_sw_ft": 13.6, "right_sw_ft": 17.2}, "geometry": {"type": "LineString", "coordinates": [[-73.82965008074802, 40.57980976305196], [-73.82974400708697, 40.57999892504537]]}}, {"type": "Feature", "properties": {"segment_id": 186269, "physicalid": "14564", "street_name": "SHORE FRONT PKWY", "borough": "queens", "direction": "FT", "total_row_ft": 60.1, "roadbed_ft": 25.6, "median_ft": 0.0, "left_sw_ft": 13.4, "right_sw_ft": 21.1}, "geometry": {"type": "LineString", "coordinates": [[-73.82971741949416, 40.579790333468246], [-73.82981825638294, 40.57999341243555]]}}, {"type": "Feature", "properties": {"segment_id": 1350113, "physicalid": "92178", "street_name": "BCH 109 ST", "borough": "queens", "direction": "FT", "total_row_ft": 87.8, "roadbed_ft": 31.8, "median_ft": 0.0, "left_sw_ft": 16.0, "right_sw_ft": 40.0}, "geometry": {"type": "LineString", "coordinates": [[-73.8299658088576, 40.57988930805967], [-73.82967647507132, 40.57998623540185]]}}]}