{"type": "FeatureCollection", "features": [{"type": "Feature", "properties": {"segment_id": 381826, "physicalid": "28244", "street_name": "115 ST", "borough": "queens", "direction": "FT", "total_row_ft": 123.7, "roadbed_ft": 84.5, "median_ft": 0.0, "left_sw_ft": 15.0, "right_sw_ft": 24.3}, "geometry": {"type": "LineString", "coordinates": [[-73.85207237530493, 40.79125245649349], [-73.8524222687583, 40.791058120923076]]}}, {"type": "Feature", "properties": {"segment_id": 381827, "physicalid": "28244", "street_name": "115 ST", "borough": "queens", "direction": "FT", "total_row_ft": 72.6, "roadbed_ft": 49.9, "median_ft": 0.0, "left_sw_ft": 7.9, "right_sw_ft": 14.9}, "geometry": {"type": "LineString", "coordinates": [[-73.85211450429063, 40.79116106696874], [-73.85232628480203, 40.79104344118107]]}}, {"type": "Feature", "properties": {"segment_id": 381828, "physicalid": "28244", "street_name": "115 ST", "borough": "queens", "direction": "FT", "total_row_ft": 72.8, "roadbed_ft": 50.1, "median_ft": 0.0, "left_sw_ft": 7.9, "right_sw_ft": 14.8}, "geometry": {"type": "LineString", "coordinates": [[-73.85207832949023, 40.79111316825489], [-73.85229046712101, 40.79099534413403]]}}, {"type": "Feature", "properties": {"segment_id": 381829, "physicalid": "28244", "street_name": "115 ST", "borough": "queens", "direction": "FT", "total_row_ft": 72.6, "roadbed_ft": 49.9, "median_ft": 0.0, "left_sw_ft": 8.0, "right_sw_ft": 14.7}, "geometry": {"type": "LineString", "coordinates": [[-73.85203739166352, 40.7910600933739], [-73.85226164719417, 40.79095664382057]]}}, {"type": "Feature", "properties": {"segment_id": 381830, "physicalid": "28244", "street_name": "115 ST", "borough": "queens", "direction": "FT", "total_row_ft": 73.3, "roadbed_ft": 50.1, "median_ft": 0.0, "left_sw_ft": 8.6, "right_sw_ft": 14.6}, "geometry": {"type": "LineString", "coordinates": [[-73.8519995638789, 40.79101332846042], [-73.85222598633018, 40.79090887932586]]}}, {"type": "Feature", "properties": {"segment_id": 381831, "physicalid": "28244", "street_name": "115 ST", "borough": "queens", "direction": "FT", "total_row_ft": 73.7, "roadbed_ft": 50.3, "median_ft": 0.0, "left_sw_ft": 9.0, "right_sw_ft": 14.5}, "geometry": {"type": "LineString", "coordinates": [[-73.85196241733485, 40.79096624930236], [-73.85219008501248, 40.79086122576554]]}}, {"type": "Feature", "properties": {"segment_id": 381832, "physicalid": "28244", "street_name": "115 ST", "borough": "queens", "direction": "FT", "total_row_ft": 74.1, "roadbed_ft": 50.5, "median_ft": 0.0, "left_sw_ft": 9.1, "right_sw_ft": 14.4}, "geometry": {"type": "LineString", "coordinates": [[-73.85192173844506, 40.79091331905126], [-73.8521614541998, 40.79082322264204]]}}, {"type": "Feature", "properties": {"segment_id": 381833, "physicalid": "28244", "street_name": "115 ST", "borough": "queens", "direction": "FT", "total_row_ft": 74.0, "roadbed_ft": 50.1, "median_ft": 0.0, "left_sw_ft": 9.0, "right_sw_ft": 14.8}, "geometry": {"type": "LineString", "coordinates": [[-73.85188598422435, 40.79086551705089], [-73.85212549828883, 40.790775496473806]]}}, {"type": "Feature", "properties": {"segment_id": 381834, "physicalid": "28244", "street_name": "115 ST", "borough": "queens", "direction": "FT", "total_row_ft": 73.9, "roadbed_ft": 49.9, "median_ft": 0.0, "left_sw_ft": 8.7, "right_sw_ft": 15.2}, "geometry": {"type": "LineString", "coordinates": [[-73.85185094666426, 40.79081744570504], [-73.8520901750461, 40.790727532526155]]}}, {"type": "Feature", "properties": {"segment_id": 381835, "physicalid": "28244", "street_name": "115 ST", "borough": "queens", "direction": "FT", "total_row_ft": 73.7, "roadbed_ft": 50.2, "median_ft": 0.0, "left_sw_ft": 8.3, "right_sw_ft": 15.2}, "geometry": {"type": "LineString", "coordinates": [[-73.85181662536398, 40.79076910516449], [-73.8520552727182, 40.79067941038644]]}}, {"type": "Feature", "properties": {"segment_id": 381836, "physicalid": "28244", "street_name": "115 ST", "borough": "queens", "direction": "FT", "total_row_ft": 73.9, "roadbed_ft": 51.0, "median_ft": 0.0, "left_sw_ft": 8.1, "right_sw_ft": 14.8}, "geometry": {"type": "LineString", "coordinates": [[-73.8517781581724, 40.79071405767922], [-73.85202681452638, 40.79064017284897]]}}, {"type": "Feature", "properties": {"segment_id": 381837, "physicalid": "28244", "street_name": "115 ST", "borough": "queens", "direction": "FT", "total_row_ft": 73.9, "roadbed_ft": 51.3, "median_ft": 0.0, "left_sw_ft": 8.7, "right_sw_ft": 13.9}, "geometry": {"type": "LineString", "coordinates": [[-73.85174401483151, 40.79066526217096], [-73.8519924455878, 40.79059144440448]]}}, {"type": "Feature", "properties": {"segment_id": 381838, "physicalid": "28244", "street_name": "115 ST", "borough": "queens", "direction": "FT", "total_row_ft": 74.4, "roadbed_ft": 51.3, "median_ft": 0.0, "left_sw_ft": 9.2, "right_sw_ft": 13.9}, "geometry": {"type": "LineString", "coordinates": [[-73.85171309192026, 40.79061550976579], [-73.8519633920239, 40.79054113656718]]}}, {"type": "Feature", "properties": {"segment_id": 381839, "physicalid": "28244", "street_name": "115 ST", "borough": "queens", "direction": "FT", "total_row_ft": 74.9, "roadbed_ft": 51.3, "median_ft": 0.0, "left_sw_ft": 9.4, "right_sw_ft": 14.3}, "geometry": {"type": "LineString", "coordinates": [[-73.85168131173712, 40.790556770451516], [-73.85194091057761, 40.79049873179599]]}}, {"type": "Feature", "properties": {"segment_id": 381840, "physicalid": "28244", "street_name": "115 ST", "borough": "queens", "direction": "FT", "total_row_ft": 74.6, "roadbed_ft": 50.3, "median_ft": 0.0, "left_sw_ft": 9.3, "right_sw_ft": 15.0}, "geometry": {"type": "LineString", "coordinates": [[-73.8516573065896, 40.790504916903885], [-73.85191567961569, 40.790447152318976]]}}, {"type": "Feature", "properties": {"segment_id": 381841, "physicalid": "28244", "street_name": "115 ST", "borough": "queens", "direction": "FT", "total_row_ft": 74.6, "roadbed_ft": 49.8, "median_ft": 0.0, "left_sw_ft": 9.4, "right_sw_ft": 15.3}, "geometry": {"type": "LineString", "coordinates": [[-73.85163469916014, 40.79045275087257], [-73.85189304699018, 40.79039499193013]]}}, {"type": "Feature", "properties": {"segment_id": 381842, "physicalid": "28244", "street_name": "115 ST", "borough": "queens", "direction": "FT", "total_row_ft": 75.0, "roadbed_ft": 49.9, "median_ft": 0.0, "left_sw_ft": 9.8, "right_sw_ft": 15.3}, "geometry": {"type": "LineString", "coordinates": [[-73.85161404250981, 40.79040014871035], [-73.85187375282291, 40.79034208515939]]}}, {"type": "Feature", "properties": {"segment_id": 381843, "physicalid": "28244", "street_name": "115 ST", "borough": "queens", "direction": "FT", "total_row_ft": 75.3, "roadbed_ft": 50.4, "median_ft": 0.0, "left_sw_ft": 9.9, "right_sw_ft": 15.0}, "geometry": {"type": "LineString", "coordinates": [[-73.8515934838281, 40.79033810249793], [-73.85186004113456, 40.79029706912567]]}}, {"type": "Feature", "properties": {"segment_id": 381844, "physicalid": "28244", "street_name": "115 ST", "borough": "queens", "direction": "FT", "total_row_ft": 75.7, "roadbed_ft": 51.3, "median_ft": 0.0, "left_sw_ft": 10.0, "right_sw_ft": 14.4}, "geometry": {"type": "LineString", "coordinates": [[-73.85157879903282, 40.79028435376268], [-73.85184688094645, 40.790243085695025]]}}, {"type": "Feature", "properties": {"segment_id": 381845, "physicalid": "28244", "street_name": "115 ST", "borough": "queens", "direction": "FT", "total_row_ft": 76.3, "roadbed_ft": 51.8, "median_ft": 0.0, "left_sw_ft": 10.0, "right_sw_ft": 14.6}, "geometry": {"type": "LineString", "coordinates": [[-73.85156689159919, 40.79023017748998], [-73.85183708283857, 40.790188584708545]]}}, {"type": "Feature", "properties": {"segment_id": 381846, "physicalid": "28244", "street_name": "115 ST", "borough": "queens", "direction": "FT", "total_row_ft": 76.7, "roadbed_ft": 52.1, "median_ft": 0.0, "left_sw_ft": 9.8, "right_sw_ft": 14.7}, "geometry": {"type": "LineString", "coordinates": [[-73.85155584020337, 40.790166919188444], [-73.8518310384165, 40.7901429183653]]}}, {"type": "Feature", "properties": {"segment_id": 381847, "physicalid": "28244", "street_name": "115 ST", "borough": "queens", "direction": "FT", "total_row_ft": 76.8, "roadbed_ft": 52.2, "median_ft": 0.0, "left_sw_ft": 9.8, "right_sw_ft": 14.8}, "geometry": {"type": "LineString", "coordinates": [[-73.85154831597744, 40.79011232054941], [-73.85182386342318, 40.790088289266514]]}}, {"type": "Feature", "properties": {"segment_id": 381848, "physicalid": "28244", "street_name": "115 ST", "borough": "queens", "direction": "FT", "total_row_ft": 76.1, "roadbed_ft": 58.0, "median_ft": 0.0, "left_sw_ft": 9.7, "right_sw_ft": 8.4}, "geometry": {"type": "LineString", "coordinates": [[-73.85154280711099, 40.79005754614759], [-73.8518156802351, 40.79003374809669]]}}, {"type": "Feature", "properties": {"segment_id": 398142, "physicalid": "29228", "street_name": "117 ST", "borough": "queens", "direction": "TF", "total_row_ft": 120.0, "roadbed_ft": 44.9, "median_ft": 0.0, "left_sw_ft": 34.2, "right_sw_ft": 40.9}, "geometry": {"type": "LineString", "coordinates": [[-73.85132783223408, 40.79155984283759], [-73.85170537030349, 40.79139812951971]]}}, {"type": "Feature", "properties": {"segment_id": 398143, "physicalid": "29228", "street_name": "117 ST", "borough": "queens", "direction": "TF", "total_row_ft": 48.1, "roadbed_ft": 29.4, "median_ft": 0.0, "left_sw_ft": 10.3, "right_sw_ft": 8.4}, "geometry": {"type": "LineString", "coordinates": [[-73.8514075712042, 40.79146267544267], [-73.85155879563898, 40.791397900514454]]}}, {"type": "Feature", "properties": {"segment_id": 398144, "physicalid": "29228", "street_name": "117 ST", "borough": "queens", "direction": "TF", "total_row_ft": 48.4, "roadbed_ft": 29.3, "median_ft": 0.0, "left_sw_ft": 10.6, "right_sw_ft": 8.5}, "geometry": {"type": "LineString", "coordinates": [[-73.85137138488732, 40.79141516286893], [-73.85152362337477, 40.7913499535999]]}}, {"type": "Feature", "properties": {"segment_id": 398145, "physicalid": "29228", "street_name": "117 ST", "borough": "queens", "direction": "TF", "total_row_ft": 48.7, "roadbed_ft": 29.3, "median_ft": 0.0, "left_sw_ft": 10.9, "right_sw_ft": 8.6}, "geometry": {"type": "LineString", "coordinates": [[-73.8513351986221, 40.791367650283505], [-73.85148845116126, 40.791302006674265]]}}, {"type": "Feature", "properties": {"segment_id": 398146, "physicalid": "29228", "street_name": "117 ST", "borough": "queens", "direction": "TF", "total_row_ft": 49.0, "roadbed_ft": 29.2, "median_ft": 0.0, "left_sw_ft": 11.2, "right_sw_ft": 8.7}, "geometry": {"type": "LineString", "coordinates": [[-73.85129901240852, 40.791320137686334], [-73.85145327899839, 40.79125405973754]]}}, {"type": "Feature", "properties": {"segment_id": 398147, "physicalid": "29228", "street_name": "117 ST", "borough": "queens", "direction": "TF", "total_row_ft": 49.4, "roadbed_ft": 29.2, "median_ft": 0.0, "left_sw_ft": 11.4, "right_sw_ft": 8.8}, "geometry": {"type": "LineString", "coordinates": [[-73.8512628262466, 40.79127262507746], [-73.8514181068862, 40.791206112789716]]}}, {"type": "Feature", "properties": {"segment_id": 398148, "physicalid": "29228", "street_name": "117 ST", "borough": "queens", "direction": "TF", "total_row_ft": 49.7, "roadbed_ft": 29.1, "median_ft": 0.0, "left_sw_ft": 11.7, "right_sw_ft": 8.8}, "geometry": {"type": "LineString", "coordinates": [[-73.8512266401363, 40.79122511245688], [-73.85138293482466, 40.79115816583083]]}}, {"type": "Feature", "properties": {"segment_id": 398149, "physicalid": "29228", "street_name": "117 ST", "borough": "queens", "direction": "TF", "total_row_ft": 50.0, "roadbed_ft": 29.1, "median_ft": 0.0, "left_sw_ft": 12.0, "right_sw_ft": 8.9}, "geometry": {"type": "LineString", "coordinates": [[-73.85119045407768, 40.791177599824614], [-73.85134776281377, 40.79111021886082]]}}, {"type": "Feature", "properties": {"segment_id": 398150, "physicalid": "29228", "street_name": "117 ST", "borough": "queens", "direction": "TF", "total_row_ft": 50.0, "roadbed_ft": 29.1, "median_ft": 0.0, "left_sw_ft": 11.8, "right_sw_ft": 9.0}, "geometry": {"type": "LineString", "coordinates": [[-73.8511542680707, 40.791130087180576], [-73.85131144642688, 40.791062762079804]]}}, {"type": "Feature", "properties": {"segment_id": 398151, "physicalid": "29228", "street_name": "117 ST", "borough": "queens", "direction": "TF", "total_row_ft": 49.8, "roadbed_ft": 29.2, "median_ft": 0.0, "left_sw_ft": 11.5, "right_sw_ft": 9.1}, "geometry": {"type": "LineString", "coordinates": [[-73.85111852602985, 40.79108238438099], [-73.85127512586799, 40.791015307096224]]}}, {"type": "Feature", "properties": {"segment_id": 398152, "physicalid": "29228", "street_name": "117 ST", "borough": "queens", "direction": "TF", "total_row_ft": 49.5, "roadbed_ft": 29.2, "median_ft": 0.0, "left_sw_ft": 11.2, "right_sw_ft": 9.2}, "geometry": {"type": "LineString", "coordinates": [[-73.85108292834339, 40.79103461975993], [-73.85123880546817, 40.79096785205485]]}}, {"type": "Feature", "properties": {"segment_id": 398153, "physicalid": "29228", "street_name": "117 ST", "borough": "queens", "direction": "TF", "total_row_ft": 49.3, "roadbed_ft": 29.3, "median_ft": 0.0, "left_sw_ft": 10.8, "right_sw_ft": 9.3}, "geometry": {"type": "LineString", "coordinates": [[-73.85104733070801, 40.790986855127535], [-73.85120248512013, 40.79092039700171]]}}, {"type": "Feature", "properties": {"segment_id": 398154, "physicalid": "29228", "street_name": "117 ST", "borough": "queens", "direction": "TF", "total_row_ft": 49.3, "roadbed_ft": 29.3, "median_ft": 0.0, "left_sw_ft": 10.7, "right_sw_ft": 9.3}, "geometry": {"type": "LineString", "coordinates": [[-73.85101173312371, 40.79093909048378], [-73.85116681709476, 40.79087266254538]]}}, {"type": "Feature", "properties": {"segment_id": 398155, "physicalid": "29228", "street_name": "117 ST", "borough": "queens", "direction": "TF", "total_row_ft": 49.5, "roadbed_ft": 29.2, "median_ft": 0.0, "left_sw_ft": 10.8, "right_sw_ft": 9.4}, "geometry": {"type": "LineString", "coordinates": [[-73.85097613559047, 40.79089132582868], [-73.85113178548522, 40.7908246554996]]}}, {"type": "Feature", "properties": {"segment_id": 398156, "physicalid": "29228", "street_name": "117 ST", "borough": "queens", "direction": "TF", "total_row_ft": 49.7, "roadbed_ft": 29.2, "median_ft": 0.0, "left_sw_ft": 10.9, "right_sw_ft": 9.5}, "geometry": {"type": "LineString", "coordinates": [[-73.85094053810833, 40.790843561162234], [-73.85109675392619, 40.790776648442794]]}}, {"type": "Feature", "properties": {"segment_id": 398157, "physicalid": "29228", "street_name": "117 ST", "borough": "queens", "direction": "TF", "total_row_ft": 49.8, "roadbed_ft": 29.2, "median_ft": 0.0, "left_sw_ft": 11.0, "right_sw_ft": 9.6}, "geometry": {"type": "LineString", "coordinates": [[-73.85090494067727, 40.79079579648443], [-73.85106172241767, 40.790728641375]]}}, {"type": "Feature", "properties": {"segment_id": 398158, "physicalid": "29228", "street_name": "117 ST", "borough": "queens", "direction": "TF", "total_row_ft": 50.1, "roadbed_ft": 29.3, "median_ft": 0.0, "left_sw_ft": 11.0, "right_sw_ft": 9.8}, "geometry": {"type": "LineString", "coordinates": [[-73.85086904567937, 40.79074815927508], [-73.85102654802716, 40.79068069551932]]}}, {"type": "Feature", "properties": {"segment_id": 398159, "physicalid": "29228", "street_name": "117 ST", "borough": "queens", "direction": "TF", "total_row_ft": 50.3, "roadbed_ft": 29.3, "median_ft": 0.0, "left_sw_ft": 10.9, "right_sw_ft": 10.1}, "geometry": {"type": "LineString", "coordinates": [[-73.8508326805384, 40.79070072345433], [-73.85099079174071, 40.790632998921204]]}}, {"type": "Feature", "properties": {"segment_id": 398160, "physicalid": "29228", "street_name": "117 ST", "borough": "queens", "direction": "TF", "total_row_ft": 50.3, "roadbed_ft": 29.3, "median_ft": 0.0, "left_sw_ft": 10.7, "right_sw_ft": 10.3}, "geometry": {"type": "LineString", "coordinates": [[-73.85079683751337, 40.79065306400416], [-73.85095503550549, 40.79058530231166]]}}, {"type": "Feature", "properties": {"segment_id": 398161, "physicalid": "29228", "street_name": "117 ST", "borough": "queens", "direction": "TF", "total_row_ft": 50.2, "roadbed_ft": 29.4, "median_ft": 0.0, "left_sw_ft": 10.5, "right_sw_ft": 10.2}, "geometry": {"type": "LineString", "coordinates": [[-73.85076143609713, 40.790605215408625], [-73.85091927932152, 40.790537605690645]]}}, {"type": "Feature", "properties": {"segment_id": 398162, "physicalid": "29228", "street_name": "117 ST", "borough": "queens", "direction": "TF", "total_row_ft": 49.9, "roadbed_ft": 29.6, "median_ft": 0.0, "left_sw_ft": 10.4, "right_sw_ft": 10.0}, "geometry": {"type": "LineString", "coordinates": [[-73.85072643393757, 40.7905571958087], [-73.85088352318876, 40.79048990905818]]}}, {"type": "Feature", "properties": {"segment_id": 398163, "physicalid": "29228", "street_name": "117 ST", "borough": "queens", "direction": "TF", "total_row_ft": 49.6, "roadbed_ft": 29.7, "median_ft": 0.0, "left_sw_ft": 10.2, "right_sw_ft": 9.7}, "geometry": {"type": "LineString", "coordinates": [[-73.85069183106278, 40.79050900519241], [-73.85084776710724, 40.7904422124143]]}}, {"type": "Feature", "properties": {"segment_id": 398164, "physicalid": "29228", "street_name": "117 ST", "borough": "queens", "direction": "TF", "total_row_ft": 49.1, "roadbed_ft": 29.8, "median_ft": 0.0, "left_sw_ft": 10.0, "right_sw_ft": 9.2}, "geometry": {"type": "LineString", "coordinates": [[-73.85065768118261, 40.790460620554185], [-73.85081201095551, 40.79039451581097]]}}, {"type": "Feature", "properties": {"segment_id": 398165, "physicalid": "29228", "street_name": "117 ST", "borough": "queens", "direction": "TF", "total_row_ft": 48.7, "roadbed_ft": 30.0, "median_ft": 0.0, "left_sw_ft": 11.7, "right_sw_ft": 7.0}, "geometry": {"type": "LineString", "coordinates": [[-73.85063067278878, 40.79040917699083], [-73.85078387292587, 40.79034355610674]]}}, {"type": "Feature", "properties": {"segment_id": 398166, "physicalid": "29228", "street_name": "117 ST", "borough": "queens", "direction": "TF", "total_row_ft": 46.0, "roadbed_ft": 28.7, "median_ft": 0.0, "left_sw_ft": 10.2, "right_sw_ft": 7.0}, "geometry": {"type": "LineString", "coordinates": [[-73.85061396473968, 40.79032723852172], [-73.85077986943031, 40.79032236182355]]}}, {"type": "Feature", "properties": {"segment_id": 398167, "physicalid": "29228", "street_name": "117 ST", "borough": "queens", "direction": "TF", "total_row_ft": 45.7, "roadbed_ft": 29.1, "median_ft": 0.0, "left_sw_ft": 10.3, "right_sw_ft": 6.3}, "geometry": {"type": "LineString", "coordinates": [[-73.8506127215953, 40.790272339401696], [-73.85077767091704, 40.790267490784615]]}}, {"type": "Feature", "properties": {"segment_id": 398168, "physicalid": "29228", "street_name": "117 ST", "borough": "queens", "direction": "TF", "total_row_ft": 45.9, "roadbed_ft": 29.3, "median_ft": 0.0, "left_sw_ft": 10.5, "right_sw_ft": 6.2}, "geometry": {"type": "LineString", "coordinates": [[-73.85060970224694, 40.790217492490754], [-73.85077547223415, 40.79021261975027]]}}, {"type": "Feature", "properties": {"segment_id": 398169, "physicalid": "29228", "street_name": "117 ST", "borough": "queens", "direction": "TF", "total_row_ft": 45.9, "roadbed_ft": 29.2, "median_ft": 0.0, "left_sw_ft": 10.4, "right_sw_ft": 6.4}, "geometry": {"type": "LineString", "coordinates": [[-73.85060659508027, 40.79016264816073], [-73.85077236646836, 40.79015777537951]]}}, {"type": "Feature", "properties": {"segment_id": 398170, "physicalid": "29228", "street_name": "117 ST", "borough": "queens", "direction": "TF", "total_row_ft": 45.9, "roadbed_ft": 28.7, "median_ft": 0.0, "left_sw_ft": 10.2, "right_sw_ft": 7.0}, "geometry": {"type": "LineString", "coordinates": [[-73.85060348843467, 40.79010780381502], [-73.85076923356034, 40.79010293180619]]}}, {"type": "Feature", "properties": {"segment_id": 398171, "physicalid": "29228", "street_name": "117 ST", "borough": "queens", "direction": "TF", "total_row_ft": 43.4, "roadbed_ft": 26.6, "median_ft": 0.0, "left_sw_ft": 10.2, "right_sw_ft": 6.6}, "geometry": {"type": "LineString", "coordinates": [[-73.85060931798222, 40.79005269679935], [-73.85076610031372, 40.79004808824241]]}}, {"type": "Feature", "properties": {"segment_id": 398911, "physicalid": "29277", "street_name": "119 ST", "borough": "queens", "direction": "FT", "total_row_ft": 98.8, "roadbed_ft": 73.6, "median_ft": 0.0, "left_sw_ft": 15.0, "right_sw_ft": 10.1}, "geometry": {"type": "LineString", "coordinates": [[-73.85021480751004, 40.79148180371639], [-73.85047790451436, 40.791368388867156]]}}, {"type": "Feature", "properties": {"segment_id": 398912, "physicalid": "29277", "street_name": "119 ST", "borough": "queens", "direction": "FT", "total_row_ft": 69.0, "roadbed_ft": 28.7, "median_ft": 0.0, "left_sw_ft": 30.2, "right_sw_ft": 10.0}, "geometry": {"type": "LineString", "coordinates": [[-73.85021954998702, 40.79141664952697], [-73.85044204865103, 40.79132073561236]]}}, {"type": "Feature", "properties": {"segment_id": 398913, "physicalid": "29277", "street_name": "119 ST", "borough": "queens", "direction": "FT", "total_row_ft": 48.6, "roadbed_ft": 28.8, "median_ft": 0.0, "left_sw_ft": 9.9, "right_sw_ft": 9.9}, "geometry": {"type": "LineString", "coordinates": [[-73.85025367213727, 40.79133883047637], [-73.85040619283905, 40.791273082346095]]}}, {"type": "Feature", "properties": {"segment_id": 398914, "physicalid": "29277", "street_name": "119 ST", "borough": "queens", "direction": "FT", "total_row_ft": 48.5, "roadbed_ft": 28.8, "median_ft": 0.0, "left_sw_ft": 9.8, "right_sw_ft": 10.0}, "geometry": {"type": "LineString", "coordinates": [[-73.8502183458264, 40.79129094895055], [-73.85037075829868, 40.79122524748957]]}}, {"type": "Feature", "properties": {"segment_id": 398915, "physicalid": "29277", "street_name": "119 ST", "borough": "queens", "direction": "FT", "total_row_ft": 48.9, "roadbed_ft": 28.8, "median_ft": 0.0, "left_sw_ft": 10.0, "right_sw_ft": 10.0}, "geometry": {"type": "LineString", "coordinates": [[-73.85018189324694, 40.7912435529422], [-73.8503353472378, 40.791177402522294]]}}, {"type": "Feature", "properties": {"segment_id": 398916, "physicalid": "29277", "street_name": "119 ST", "borough": "queens", "direction": "FT", "total_row_ft": 49.2, "roadbed_ft": 28.8, "median_ft": 0.0, "left_sw_ft": 10.3, "right_sw_ft": 10.1}, "geometry": {"type": "LineString", "coordinates": [[-73.85014544071937, 40.79119615692197], [-73.85029993624914, 40.791129557534596]]}}, {"type": "Feature", "properties": {"segment_id": 398917, "physicalid": "29277", "street_name": "119 ST", "borough": "queens", "direction": "FT", "total_row_ft": 49.5, "roadbed_ft": 28.9, "median_ft": 0.0, "left_sw_ft": 10.5, "right_sw_ft": 10.1}, "geometry": {"type": "LineString", "coordinates": [[-73.85010904879317, 40.79114873478849], [-73.85026452531136, 40.79108171253565]]}}, {"type": "Feature", "properties": {"segment_id": 398918, "physicalid": "29277", "street_name": "119 ST", "borough": "queens", "direction": "FT", "total_row_ft": 49.3, "roadbed_ft": 28.9, "median_ft": 0.0, "left_sw_ft": 10.2, "right_sw_ft": 10.1}, "geometry": {"type": "LineString", "coordinates": [[-73.85007420975441, 40.79110064325432], [-73.85022911468879, 40.79103386741154]]}}, {"type": "Feature", "properties": {"segment_id": 398919, "physicalid": "29277", "street_name": "119 ST", "borough": "queens", "direction": "FT", "total_row_ft": 49.2, "roadbed_ft": 29.0, "median_ft": 0.0, "left_sw_ft": 9.9, "right_sw_ft": 10.3}, "geometry": {"type": "LineString", "coordinates": [[-73.85003937076598, 40.79105255170926], [-73.85019401809662, 40.790985886926755]]}}, {"type": "Feature", "properties": {"segment_id": 398920, "physicalid": "29277", "street_name": "119 ST", "borough": "queens", "direction": "FT", "total_row_ft": 49.2, "roadbed_ft": 29.1, "median_ft": 0.0, "left_sw_ft": 9.6, "right_sw_ft": 10.4}, "geometry": {"type": "LineString", "coordinates": [[-73.85000453178137, 40.79100446017337], [-73.8501589374638, 40.79093789957299]]}}, {"type": "Feature", "properties": {"segment_id": 398921, "physicalid": "29277", "street_name": "119 ST", "borough": "queens", "direction": "FT", "total_row_ft": 49.1, "roadbed_ft": 29.2, "median_ft": 0.0, "left_sw_ft": 9.3, "right_sw_ft": 10.6}, "geometry": {"type": "LineString", "coordinates": [[-73.8499696926432, 40.790956368714454], [-73.85012385703313, 40.7908899121429]]}}, {"type": "Feature", "properties": {"segment_id": 398922, "physicalid": "29277", "street_name": "119 ST", "borough": "queens", "direction": "FT", "total_row_ft": 48.9, "roadbed_ft": 29.3, "median_ft": 0.0, "left_sw_ft": 9.0, "right_sw_ft": 10.7}, "geometry": {"type": "LineString", "coordinates": [[-73.84993479214364, 40.7909083037177], [-73.85008851152881, 40.79084203899069]]}}, {"type": "Feature", "properties": {"segment_id": 398925, "physicalid": "29278", "street_name": "119 ST", "borough": "queens", "direction": "FT", "total_row_ft": 120.0, "roadbed_ft": 41.7, "median_ft": 0.0, "left_sw_ft": 39.9, "right_sw_ft": 38.4}, "geometry": {"type": "LineString", "coordinates": [[-73.85052468889556, 40.79190229905312], [-73.85090289805993, 40.79174149144615]]}}, {"type": "Feature", "properties": {"segment_id": 398926, "physicalid": "29278", "street_name": "119 ST", "borough": "queens", "direction": "FT", "total_row_ft": 49.0, "roadbed_ft": 29.1, "median_ft": 0.0, "left_sw_ft": 9.6, "right_sw_ft": 10.3}, "geometry": {"type": "LineString", "coordinates": [[-73.8506009783309, 40.79180696137978], [-73.85075553104859, 40.791741248410915]]}}, {"type": "Feature", "properties": {"segment_id": 398927, "physicalid": "29278", "street_name": "119 ST", "borough": "queens", "direction": "FT", "total_row_ft": 49.5, "roadbed_ft": 29.0, "median_ft": 0.0, "left_sw_ft": 10.2, "right_sw_ft": 10.3}, "geometry": {"type": "LineString", "coordinates": [[-73.85056394495159, 40.791759806288816], [-73.8507201129403, 40.791693406553044]]}}, {"type": "Feature", "properties": {"segment_id": 398928, "physicalid": "29278", "street_name": "119 ST", "borough": "queens", "direction": "FT", "total_row_ft": 50.1, "roadbed_ft": 28.9, "median_ft": 0.0, "left_sw_ft": 10.8, "right_sw_ft": 10.4}, "geometry": {"type": "LineString", "coordinates": [[-73.85052691149876, 40.79171265123916], [-73.8506846948829, 40.79164556468391]]}}, {"type": "Feature", "properties": {"segment_id": 398929, "physicalid": "29278", "street_name": "119 ST", "borough": "queens", "direction": "FT", "total_row_ft": 50.5, "roadbed_ft": 28.8, "median_ft": 0.0, "left_sw_ft": 11.3, "right_sw_ft": 10.4}, "geometry": {"type": "LineString", "coordinates": [[-73.85048996179705, 40.79166546059024], [-73.85064927687641, 40.79159772280356]]}}, {"type": "Feature", "properties": {"segment_id": 398930, "physicalid": "29278", "street_name": "119 ST", "borough": "queens", "direction": "FT", "total_row_ft": 50.8, "roadbed_ft": 28.8, "median_ft": 0.0, "left_sw_ft": 11.6, "right_sw_ft": 10.4}, "geometry": {"type": "LineString", "coordinates": [[-73.85045371409066, 40.79161797147702], [-73.85061385892082, 40.79154988091194]]}}, {"type": "Feature", "properties": {"segment_id": 398931, "physicalid": "29278", "street_name": "119 ST", "borough": "queens", "direction": "FT", "total_row_ft": 51.1, "roadbed_ft": 28.7, "median_ft": 0.0, "left_sw_ft": 11.9, "right_sw_ft": 10.4}, "geometry": {"type": "LineString", "coordinates": [[-73.85041746643599, 40.79157048235204], [-73.85057844137312, 40.7915020388573]]}}, {"type": "Feature", "properties": {"segment_id": 398932, "physicalid": "29278", "street_name": "119 ST", "borough": "queens", "direction": "FT", "total_row_ft": 51.2, "roadbed_ft": 28.6, "median_ft": 0.0, "left_sw_ft": 12.3, "right_sw_ft": 10.3}, "geometry": {"type": "LineString", "coordinates": [[-73.85038121883302, 40.791522993215295], [-73.85054260398738, 40.791454375320704]]}}, {"type": "Feature", "properties": {"segment_id": 483127, "physicalid": "34766", "street_name": "6 AVE", "borough": "queens", "direction": "TW", "total_row_ft": 109.7, "roadbed_ft": 73.8, "median_ft": 0.0, "left_sw_ft": 20.9, "right_sw_ft": 15.0}, "geometry": {"type": "LineString", "coordinates": [[-73.85039103654078, 40.791535855714145], [-73.850350612541, 40.7912777027563]]}}, {"type": "Feature", "properties": {"segment_id": 483128, "physicalid": "34766", "street_name": "6 AVE", "borough": "queens", "direction": "TW", "total_row_ft": 68.2, "roadbed_ft": 28.9, "median_ft": 0.0, "left_sw_ft": 8.9, "right_sw_ft": 30.4}, "geometry": {"type": "LineString", "coordinates": [[-73.85031462822553, 40.79151241597431], [-73.85028552559532, 40.791326561522176]]}}, {"type": "Feature", "properties": {"segment_id": 483129, "physicalid": "34766", "street_name": "6 AVE", "borough": "queens", "direction": "TW", "total_row_ft": 46.4, "roadbed_ft": 29.4, "median_ft": 0.0, "left_sw_ft": 9.1, "right_sw_ft": 7.9}, "geometry": {"type": "LineString", "coordinates": [[-73.85024323128303, 40.79152097948042], [-73.85022342592953, 40.79139449830453]]}}, {"type": "Feature", "properties": {"segment_id": 483130, "physicalid": "34766", "street_name": "6 AVE", "borough": "queens", "direction": "TW", "total_row_ft": 46.7, "roadbed_ft": 30.0, "median_ft": 0.0, "left_sw_ft": 8.7, "right_sw_ft": 8.0}, "geometry": {"type": "LineString", "coordinates": [[-73.85017160952657, 40.79152810734299], [-73.8501516772114, 40.79140081448832]]}}, {"type": "Feature", "properties": {"segment_id": 483131, "physicalid": "34766", "street_name": "6 AVE", "borough": "queens", "direction": "TW", "total_row_ft": 47.3, "roadbed_ft": 30.6, "median_ft": 0.0, "left_sw_ft": 8.7, "right_sw_ft": 8.0}, "geometry": {"type": "LineString", "coordinates": [[-73.85010011992776, 40.79153607925562], [-73.85007992847967, 40.791407130627434]]}}, {"type": "Feature", "properties": {"segment_id": 483132, "physicalid": "34766", "street_name": "6 AVE", "borough": "queens", "direction": "TW", "total_row_ft": 48.2, "roadbed_ft": 31.1, "median_ft": 0.0, "left_sw_ft": 9.0, "right_sw_ft": 8.1}, "geometry": {"type": "LineString", "coordinates": [[-73.85002876262189, 40.791544896099666], [-73.8500081797343, 40.791413446721876]]}}, {"type": "Feature", "properties": {"segment_id": 1107858, "physicalid": "76714", "street_name": "BAY PARK DRIVE", "borough": "queens", "direction": "TW", "total_row_ft": 83.4, "roadbed_ft": 54.6, "median_ft": 0.0, "left_sw_ft": 15.0, "right_sw_ft": 13.8}, "geometry": {"type": "LineString", "coordinates": [[-73.85212601954679, 40.78998823942974], [-73.85176879102413, 40.79005217483279]]}}, {"type": "Feature", "properties": {"segment_id": 1107859, "physicalid": "76714", "street_name": "BAY PARK DRIVE", "borough": "queens", "direction": "TW", "total_row_ft": 90.3, "roadbed_ft": 60.3, "median_ft": 0.0, "left_sw_ft": 15.0, "right_sw_ft": 15.0}, "geometry": {"type": "LineString", "coordinates": [[-73.85214257510619, 40.790041672503754], [-73.85177241656841, 40.79010792205114]]}}, {"type": "Feature", "properties": {"segment_id": 1107860, "physicalid": "76714", "street_name": "BAY PARK DRIVE", "borough": "queens", "direction": "TW", "total_row_ft": 90.2, "roadbed_ft": 60.4, "median_ft": 0.0, "left_sw_ft": 15.0, "right_sw_ft": 14.8}, "geometry": {"type": "LineString", "coordinates": [[-73.85215913069219, 40.790095105575006], [-73.85178043338044, 40.790162883346014]]}}, {"type": "Feature", "properties": {"segment_id": 1107881, "physicalid": "76715", "street_name": "BAY PARK DRIVE", "borough": "queens", "direction": "TW", "total_row_ft": 77.8, "roadbed_ft": 47.8, "median_ft": 0.0, "left_sw_ft": 15.0, "right_sw_ft": 15.0}, "geometry": {"type": "LineString", "coordinates": [[-73.85440366233072, 40.79002024873066], [-73.85397073773356, 40.79000549891278]]}}, {"type": "Feature", "properties": {"segment_id": 1107882, "physicalid": "76715", "street_name": "BAY PARK DRIVE", "borough": "queens", "direction": "TW", "total_row_ft": 77.2, "roadbed_ft": 47.2, "median_ft": 0.0, "left_sw_ft": 15.0, "right_sw_ft": 15.0}, "geometry": {"type": "LineString", "coordinates": [[-73.85432895757872, 40.790166702732634], [-73.85399228237408, 40.789959323080026]]}}, {"type": "Feature", "properties": {"segment_id": 1107883, "physicalid": "76715", "street_name": "BAY PARK DRIVE", "borough": "queens", "direction": "TW", "total_row_ft": 60.0, "roadbed_ft": 30.0, "median_ft": 0.0, "left_sw_ft": 15.0, "right_sw_ft": 15.0}, "geometry": {"type": "LineString", "coordinates": [[-73.8542046756679, 40.790241980245646], [-73.8540030431823, 40.78995043543785]]}}, {"type": "Feature", "properties": {"segment_id": 1107884, "physicalid": "76715", "street_name": "BAY PARK DRIVE", "borough": "queens", "direction": "TW", "total_row_ft": 60.0, "roadbed_ft": 30.0, "median_ft": 0.0, "left_sw_ft": 15.0, "right_sw_ft": 15.0}, "geometry": {"type": "LineString", "coordinates": [[-73.8541407430383, 40.790267521501065], [-73.85393911075532, 40.7899759765826]]}}, {"type": "Feature", "properties": {"segment_id": 1107885, "physicalid": "76715", "street_name": "BAY PARK DRIVE", "borough": "queens", "direction": "TW", "total_row_ft": 73.3, "roadbed_ft": 43.3, "median_ft": 0.0, "left_sw_ft": 15.0, "right_sw_ft": 15.0}, "geometry": {"type": "LineString", "coordinates": [[-73.85407681035967, 40.79029306272093], [-73.85387517827931, 40.79000151769177]]}}, {"type": "Feature", "properties": {"segment_id": 1107886, "physicalid": "76715", "street_name": "BAY PARK DRIVE", "borough": "queens", "direction": "TW", "total_row_ft": 81.7, "roadbed_ft": 43.1, "median_ft": 0.0, "left_sw_ft": 15.0, "right_sw_ft": 23.6}, "geometry": {"type": "LineString", "coordinates": [[-73.85401287763196, 40.79031860390522], [-73.85385737895555, 40.790093764301815]]}}, {"type": "Feature", "properties": {"segment_id": 1107887, "physicalid": "76715", "street_name": "BAY PARK DRIVE", "borough": "queens", "direction": "TW", "total_row_ft": 76.5, "roadbed_ft": 57.3, "median_ft": 0.0, "left_sw_ft": 15.0, "right_sw_ft": 4.2}, "geometry": {"type": "LineString", "coordinates": [[-73.85394894485522, 40.79034414505395], [-73.85379470032478, 40.790121118551184]]}}, {"type": "Feature", "properties": {"segment_id": 1107888, "physicalid": "76715", "street_name": "BAY PARK DRIVE", "borough": "queens", "direction": "TW", "total_row_ft": 76.1, "roadbed_ft": 57.1, "median_ft": 0.0, "left_sw_ft": 15.0, "right_sw_ft": 4.0}, "geometry": {"type": "LineString", "coordinates": [[-73.85388501202942, 40.79036968616712], [-73.85373202164251, 40.79014847276635]]}}, {"type": "Feature", "properties": {"segment_id": 1107889, "physicalid": "76715", "street_name": "BAY PARK DRIVE", "borough": "queens", "direction": "TW", "total_row_ft": 75.8, "roadbed_ft": 56.9, "median_ft": 0.0, "left_sw_ft": 15.0, "right_sw_ft": 4.0}, "geometry": {"type": "LineString", "coordinates": [[-73.85382107915456, 40.790395227244716], [-73.85366934290873, 40.7901758269473]]}}, {"type": "Feature", "properties": {"segment_id": 1107890, "physicalid": "76715", "street_name": "BAY PARK DRIVE", "borough": "queens", "direction": "TW", "total_row_ft": 68.3, "roadbed_ft": 49.4, "median_ft": 0.0, "left_sw_ft": 15.0, "right_sw_ft": 3.9}, "geometry": {"type": "LineString", "coordinates": [[-73.85375714623065, 40.79042076828675], [-73.85360666412345, 40.790203181094064]]}}, {"type": "Feature", "properties": {"segment_id": 1107891, "physicalid": "76715", "street_name": "BAY PARK DRIVE", "borough": "queens", "direction": "TW", "total_row_ft": 68.2, "roadbed_ft": 49.4, "median_ft": 0.0, "left_sw_ft": 15.0, "right_sw_ft": 3.8}, "geometry": {"type": "LineString", "coordinates": [[-73.85369321325769, 40.79044630929322], [-73.85354398528666, 40.7902305352066]]}}, {"type": "Feature", "properties": {"segment_id": 1107892, "physicalid": "76715", "street_name": "BAY PARK DRIVE", "borough": "queens", "direction": "TW", "total_row_ft": 68.1, "roadbed_ft": 49.4, "median_ft": 0.0, "left_sw_ft": 15.0, "right_sw_ft": 3.7}, "geometry": {"type": "LineString", "coordinates": [[-73.85362928023567, 40.79047185026412], [-73.85348130639836, 40.79025788928495]]}}, {"type": "Feature", "properties": {"segment_id": 1107893, "physicalid": "76715", "street_name": "BAY PARK DRIVE", "borough": "queens", "direction": "TW", "total_row_ft": 75.6, "roadbed_ft": 37.1, "median_ft": 0.0, "left_sw_ft": 15.0, "right_sw_ft": 23.6}, "geometry": {"type": "LineString", "coordinates": [[-73.85356534716459, 40.79049739119944], [-73.85338787336038, 40.79024077455688]]}}, {"type": "Feature", "properties": {"segment_id": 1107894, "physicalid": "76715", "street_name": "BAY PARK DRIVE", "borough": "queens", "direction": "TW", "total_row_ft": 69.7, "roadbed_ft": 39.7, "median_ft": 0.0, "left_sw_ft": 15.0, "right_sw_ft": 15.0}, "geometry": {"type": "LineString", "coordinates": [[-73.85350141404447, 40.79052293209921], [-73.85329978378763, 40.79023138607388]]}}, {"type": "Feature", "properties": {"segment_id": 1107895, "physicalid": "76715", "street_name": "BAY PARK DRIVE", "borough": "queens", "direction": "TW", "total_row_ft": 70.0, "roadbed_ft": 40.0, "median_ft": 0.0, "left_sw_ft": 15.0, "right_sw_ft": 15.0}, "geometry": {"type": "LineString", "coordinates": [[-73.85343748087529, 40.79054847296342], [-73.85323585082108, 40.79025692682738]]}}, {"type": "Feature", "properties": {"segment_id": 1107896, "physicalid": "76715", "street_name": "BAY PARK DRIVE", "borough": "queens", "direction": "TW", "total_row_ft": 64.8, "roadbed_ft": 34.8, "median_ft": 0.0, "left_sw_ft": 15.0, "right_sw_ft": 15.0}, "geometry": {"type": "LineString", "coordinates": [[-73.85337354765706, 40.790574013792046], [-73.85317191780547, 40.79028246754536]]}}, {"type": "Feature", "properties": {"segment_id": 1107897, "physicalid": "76716", "street_name": "BAY PARK DRIVE", "borough": "queens", "direction": "TW", "total_row_ft": 73.3, "roadbed_ft": 43.3, "median_ft": 0.0, "left_sw_ft": 15.0, "right_sw_ft": 15.0}, "geometry": {"type": "LineString", "coordinates": [[-73.85322133917022, 40.790634320859155], [-73.85302375028527, 40.790341180747234]]}}, {"type": "Feature", "properties": {"segment_id": 1107898, "physicalid": "76716", "street_name": "BAY PARK DRIVE", "borough": "queens", "direction": "TW", "total_row_ft": 69.2, "roadbed_ft": 39.2, "median_ft": 0.0, "left_sw_ft": 15.0, "right_sw_ft": 15.0}, "geometry": {"type": "LineString", "coordinates": [[-73.85315705632365, 40.79065934975333], [-73.85295946764747, 40.79036620953235]]}}, {"type": "Feature", "properties": {"segment_id": 1107899, "physicalid": "76716", "street_name": "BAY PARK DRIVE", "borough": "queens", "direction": "TW", "total_row_ft": 68.7, "roadbed_ft": 38.7, "median_ft": 0.0, "left_sw_ft": 15.0, "right_sw_ft": 15.0}, "geometry": {"type": "LineString", "coordinates": [[-73.85309277342878, 40.79068437861152], [-73.85289518496133, 40.7903912382815]]}}, {"type": "Feature", "properties": {"segment_id": 1107900, "physicalid": "76716", "street_name": "BAY PARK DRIVE", "borough": "queens", "direction": "TW", "total_row_ft": 43.1, "roadbed_ft": 19.4, "median_ft": 0.0, "left_sw_ft": 15.0, "right_sw_ft": 8.7}, "geometry": {"type": "LineString", "coordinates": [[-73.85302849048557, 40.79070940743377], [-73.85289184334971, 40.79050667909434]]}}, {"type": "Feature", "properties": {"segment_id": 1107901, "physicalid": "76716", "street_name": "BAY PARK DRIVE", "borough": "queens", "direction": "TW", "total_row_ft": 77.3, "roadbed_ft": 60.6, "median_ft": 0.0, "left_sw_ft": 15.0, "right_sw_ft": 1.7}, "geometry": {"type": "LineString", "coordinates": [[-73.85296420749401, 40.79073443622008], [-73.85276661944405, 40.790441295671975]]}}, {"type": "Feature", "properties": {"segment_id": 1107902, "physicalid": "76716", "street_name": "BAY PARK DRIVE", "borough": "queens", "direction": "TW", "total_row_ft": 90.7, "roadbed_ft": 60.7, "median_ft": 0.0, "left_sw_ft": 15.0, "right_sw_ft": 15.0}, "geometry": {"type": "LineString", "coordinates": [[-73.85289992445409, 40.79075946497046], [-73.85270233661296, 40.79046632431324]]}}, {"type": "Feature", "properties": {"segment_id": 1107903, "physicalid": "76716", "street_name": "BAY PARK DRIVE", "borough": "queens", "direction": "TW", "total_row_ft": 90.7, "roadbed_ft": 60.7, "median_ft": 0.0, "left_sw_ft": 15.0, "right_sw_ft": 15.0}, "geometry": {"type": "LineString", "coordinates": [[-73.85283564136587, 40.79078449368486], [-73.85263805373349, 40.790491352918615]]}}, {"type": "Feature", "properties": {"segment_id": 1107904, "physicalid": "76716", "street_name": "BAY PARK DRIVE", "borough": "queens", "direction": "TW", "total_row_ft": 90.6, "roadbed_ft": 60.6, "median_ft": 0.0, "left_sw_ft": 15.0, "right_sw_ft": 15.0}, "geometry": {"type": "LineString", "coordinates": [[-73.85277135822932, 40.790809522363325], [-73.85257377080568, 40.790516381488004]]}}, {"type": "Feature", "properties": {"segment_id": 1107905, "physicalid": "76716", "street_name": "BAY PARK DRIVE", "borough": "queens", "direction": "TW", "total_row_ft": 79.7, "roadbed_ft": 60.3, "median_ft": 0.0, "left_sw_ft": 15.0, "right_sw_ft": 4.4}, "geometry": {"type": "LineString", "coordinates": [[-73.85270707504442, 40.79083455100583], [-73.85253776110014, 40.79058335651027]]}}, {"type": "Feature", "properties": {"segment_id": 1365466, "physicalid": "93042", "street_name": "POPPENHUSEN AVE", "borough": "queens", "direction": "TF", "total_row_ft": 103.1, "roadbed_ft": 37.6, "median_ft": 0.0, "left_sw_ft": 37.7, "right_sw_ft": 27.8}, "geometry": {"type": "LineString", "coordinates": [[-73.85077005041617, 40.79198166993353], [-73.8505865220313, 40.79173467245426]]}}, {"type": "Feature", "properties": {"segment_id": 1365467, "physicalid": "93042", "street_name": "POPPENHUSEN AVE", "borough": "queens", "direction": "TF", "total_row_ft": 59.9, "roadbed_ft": 29.1, "median_ft": 0.0, "left_sw_ft": 10.3, "right_sw_ft": 20.6}, "geometry": {"type": "LineString", "coordinates": [[-73.85072166337973, 40.79202818569187], [-73.85058764801317, 40.791847824280794]]}}, {"type": "Feature", "properties": {"segment_id": 1365468, "physicalid": "93042", "street_name": "POPPENHUSEN AVE", "borough": "queens", "direction": "TF", "total_row_ft": 55.1, "roadbed_ft": 28.8, "median_ft": 0.0, "left_sw_ft": 10.7, "right_sw_ft": 15.6}, "geometry": {"type": "LineString", "coordinates": [[-73.85067383655641, 40.79207545546819], [-73.85052452504125, 40.7918745079129]]}}, {"type": "Feature", "properties": {"segment_id": 1365469, "physicalid": "93042", "street_name": "POPPENHUSEN AVE", "borough": "queens", "direction": "TF", "total_row_ft": 48.9, "roadbed_ft": 28.5, "median_ft": 0.0, "left_sw_ft": 11.1, "right_sw_ft": 9.4}, "geometry": {"type": "LineString", "coordinates": [[-73.85054831009568, 40.79201815511864], [-73.85046140201874, 40.791901191510334]]}}, {"type": "Feature", "properties": {"segment_id": 1365470, "physicalid": "93042", "street_name": "POPPENHUSEN AVE", "borough": "queens", "direction": "TF", "total_row_ft": 48.7, "roadbed_ft": 28.2, "median_ft": 0.0, "left_sw_ft": 11.5, "right_sw_ft": 8.9}, "geometry": {"type": "LineString", "coordinates": [[-73.85048462969029, 40.792044088756214], [-73.85039820369485, 40.791927773797894]]}}, {"type": "Feature", "properties": {"segment_id": 1365471, "physicalid": "93042", "street_name": "POPPENHUSEN AVE", "borough": "queens", "direction": "TF", "total_row_ft": 48.4, "roadbed_ft": 27.9, "median_ft": 0.0, "left_sw_ft": 12.0, "right_sw_ft": 8.5}, "geometry": {"type": "LineString", "coordinates": [[-73.85042094923527, 40.79207002235852], [-73.85033499406241, 40.791954340899125]]}}, {"type": "Feature", "properties": {"segment_id": 1365472, "physicalid": "93042", "street_name": "POPPENHUSEN AVE", "borough": "queens", "direction": "TF", "total_row_ft": 48.5, "roadbed_ft": 27.9, "median_ft": 0.0, "left_sw_ft": 12.1, "right_sw_ft": 8.5}, "geometry": {"type": "LineString", "coordinates": [[-73.85035799570119, 40.79209693430698], [-73.8502717843795, 40.79198090796559]]}}, {"type": "Feature", "properties": {"segment_id": 1365473, "physicalid": "93042", "street_name": "POPPENHUSEN AVE", "borough": "queens", "direction": "TF", "total_row_ft": 49.2, "roadbed_ft": 27.9, "median_ft": 0.0, "left_sw_ft": 12.3, "right_sw_ft": 9.0}, "geometry": {"type": "LineString", "coordinates": [[-73.85029587618165, 40.7921249687358], [-73.8502085744363, 40.79200747471485]]}}, {"type": "Feature", "properties": {"segment_id": 1365474, "physicalid": "93042", "street_name": "POPPENHUSEN AVE", "borough": "queens", "direction": "TF", "total_row_ft": 49.5, "roadbed_ft": 27.9, "median_ft": 0.0, "left_sw_ft": 12.2, "right_sw_ft": 9.4}, "geometry": {"type": "LineString", "coordinates": [[-73.85023375660978, 40.79215300313102], [-73.85014577153301, 40.79203458930888]]}}, {"type": "Feature", "properties": {"segment_id": 1365475, "physicalid": "93042", "street_name": "POPPENHUSEN AVE", "borough": "queens", "direction": "TF", "total_row_ft": 49.9, "roadbed_ft": 27.9, "median_ft": 0.0, "left_sw_ft": 12.1, "right_sw_ft": 9.9}, "geometry": {"type": "LineString", "coordinates": [[-73.8501716369856, 40.79218103749262], [-73.85008301620927, 40.792061767972136]]}}, {"type": "Feature", "properties": {"segment_id": 1365476, "physicalid": "93042", "street_name": "POPPENHUSEN AVE", "borough": "queens", "direction": "TF", "total_row_ft": 50.3, "roadbed_ft": 27.9, "median_ft": 0.0, "left_sw_ft": 12.0, "right_sw_ft": 10.3}, "geometry": {"type": "LineString", "coordinates": [[-73.85010951730911, 40.79220907182063], [-73.8500202608343, 40.79208894660109]]}}, {"type": "Feature", "properties": {"segment_id": 1365477, "physicalid": "93042", "street_name": "POPPENHUSEN AVE", "borough": "queens", "direction": "TF", "total_row_ft": 50.6, "roadbed_ft": 27.9, "median_ft": 0.0, "left_sw_ft": 12.0, "right_sw_ft": 10.8}, "geometry": {"type": "LineString", "coordinates": [[-73.8500473975803, 40.792237106115024], [-73.8499575054081, 40.792116125195776]]}}, {"type": "Feature", "properties": {"segment_id": 1365501, "physicalid": "93043", "street_name": "POPPENHUSEN AVE", "borough": "queens", "direction": "TF", "total_row_ft": 56.8, "roadbed_ft": 35.0, "median_ft": 0.0, "left_sw_ft": 11.3, "right_sw_ft": 10.5}, "geometry": {"type": "LineString", "coordinates": [[-73.85153982097795, 40.791594318133434], [-73.85143928803785, 40.79145836734185]]}}, {"type": "Feature", "properties": {"segment_id": 1365502, "physicalid": "93043", "street_name": "POPPENHUSEN AVE", "borough": "queens", "direction": "TF", "total_row_ft": 49.1, "roadbed_ft": 27.9, "median_ft": 0.0, "left_sw_ft": 10.9, "right_sw_ft": 10.3}, "geometry": {"type": "LineString", "coordinates": [[-73.85147668578324, 40.791620983661716], [-73.85138987492321, 40.791503589139715]]}}, {"type": "Feature", "properties": {"segment_id": 1365503, "physicalid": "93043", "street_name": "POPPENHUSEN AVE", "borough": "queens", "direction": "TF", "total_row_ft": 48.6, "roadbed_ft": 28.1, "median_ft": 0.0, "left_sw_ft": 10.4, "right_sw_ft": 10.0}, "geometry": {"type": "LineString", "coordinates": [[-73.85141355053794, 40.791647649155315], [-73.85132764421773, 40.79153147769798]]}}, {"type": "Feature", "properties": {"segment_id": 1365504, "physicalid": "93043", "street_name": "POPPENHUSEN AVE", "borough": "queens", "direction": "TF", "total_row_ft": 48.0, "roadbed_ft": 28.2, "median_ft": 0.0, "left_sw_ft": 10.0, "right_sw_ft": 9.9}, "geometry": {"type": "LineString", "coordinates": [[-73.85135041524208, 40.79167431461421], [-73.8512654134601, 40.791559366222536]]}}, {"type": "Feature", "properties": {"segment_id": 1365505, "physicalid": "93043", "street_name": "POPPENHUSEN AVE", "borough": "queens", "direction": "TF", "total_row_ft": 47.5, "roadbed_ft": 28.2, "median_ft": 0.0, "left_sw_ft": 9.6, "right_sw_ft": 9.7}, "geometry": {"type": "LineString", "coordinates": [[-73.85128727989564, 40.79170098003842], [-73.85120318265034, 40.79158725471334]]}}, {"type": "Feature", "properties": {"segment_id": 1365506, "physicalid": "93043", "street_name": "POPPENHUSEN AVE", "borough": "queens", "direction": "TF", "total_row_ft": 47.5, "roadbed_ft": 28.3, "median_ft": 0.0, "left_sw_ft": 9.6, "right_sw_ft": 9.5}, "geometry": {"type": "LineString", "coordinates": [[-73.85122414449862, 40.79172764542794], [-73.85114016835864, 40.791614083729144]]}}, {"type": "Feature", "properties": {"segment_id": 1365507, "physicalid": "93043", "street_name": "POPPENHUSEN AVE", "borough": "queens", "direction": "TF", "total_row_ft": 47.6, "roadbed_ft": 28.5, "median_ft": 0.0, "left_sw_ft": 9.8, "right_sw_ft": 9.3}, "geometry": {"type": "LineString", "coordinates": [[-73.85116100893566, 40.79175431062674], [-73.8510767502077, 40.7916403666347]]}}, {"type": "Feature", "properties": {"segment_id": 1365508, "physicalid": "93043", "street_name": "POPPENHUSEN AVE", "borough": "queens", "direction": "TF", "total_row_ft": 47.8, "roadbed_ft": 28.8, "median_ft": 0.0, "left_sw_ft": 9.9, "right_sw_ft": 9.2}, "geometry": {"type": "LineString", "coordinates": [[-73.85109787329164, 40.79178097574962], [-73.8510133320179, 40.79166664952043]]}}, {"type": "Feature", "properties": {"segment_id": 1365509, "physicalid": "93043", "street_name": "POPPENHUSEN AVE", "borough": "queens", "direction": "TF", "total_row_ft": 48.1, "roadbed_ft": 29.0, "median_ft": 0.0, "left_sw_ft": 9.9, "right_sw_ft": 9.1}, "geometry": {"type": "LineString", "coordinates": [[-73.85103498795637, 40.79180797940164], [-73.85094991377802, 40.791692932371156]]}}, {"type": "Feature", "properties": {"segment_id": 1365510, "physicalid": "93043", "street_name": "POPPENHUSEN AVE", "borough": "queens", "direction": "TF", "total_row_ft": 48.6, "roadbed_ft": 29.3, "median_ft": 0.0, "left_sw_ft": 10.0, "right_sw_ft": 9.4}, "geometry": {"type": "LineString", "coordinates": [[-73.85097257178094, 40.791835617539334], [-73.85088649548807, 40.79171921518689]]}}, {"type": "Feature", "properties": {"segment_id": 1365511, "physicalid": "93043", "street_name": "POPPENHUSEN AVE", "borough": "queens", "direction": "TF", "total_row_ft": 49.2, "roadbed_ft": 29.5, "median_ft": 0.0, "left_sw_ft": 10.1, "right_sw_ft": 9.6}, "geometry": {"type": "LineString", "coordinates": [[-73.8509101555537, 40.7918632556431], [-73.85082307714805, 40.791745497967604]]}}, {"type": "Feature", "properties": {"segment_id": 1365512, "physicalid": "93043", "street_name": "POPPENHUSEN AVE", "borough": "queens", "direction": "TF", "total_row_ft": 85.1, "roadbed_ft": 30.8, "median_ft": 0.0, "left_sw_ft": 44.4, "right_sw_ft": 9.9}, "geometry": {"type": "LineString", "coordinates": [[-73.85084773938439, 40.791890893861364], [-73.85069719132052, 40.791687304479574]]}}, {"type": "Feature", "properties": {"segment_id": 1365513, "physicalid": "93044", "street_name": "POPPENHUSEN AVE", "borough": "queens", "direction": "TF", "total_row_ft": 105.7, "roadbed_ft": 76.9, "median_ft": 0.0, "left_sw_ft": 15.0, "right_sw_ft": 13.8}, "geometry": {"type": "LineString", "coordinates": [[-73.85234166996167, 40.79135152567735], [-73.85212331528855, 40.79106702194719]]}}, {"type": "Feature", "properties": {"segment_id": 1365514, "physicalid": "93044", "street_name": "POPPENHUSEN AVE", "borough": "queens", "direction": "TF", "total_row_ft": 53.9, "roadbed_ft": 28.1, "median_ft": 0.0, "left_sw_ft": 14.0, "right_sw_ft": 11.8}, "geometry": {"type": "LineString", "coordinates": [[-73.85222049232502, 40.79130258747687], [-73.8521223754837, 40.7911747466608]]}}, {"type": "Feature", "properties": {"segment_id": 1365515, "physicalid": "93044", "street_name": "POPPENHUSEN AVE", "borough": "queens", "direction": "TF", "total_row_ft": 54.1, "roadbed_ft": 28.0, "median_ft": 0.0, "left_sw_ft": 14.1, "right_sw_ft": 11.9}, "geometry": {"type": "LineString", "coordinates": [[-73.85215786934396, 40.791329942417455], [-73.85205951508189, 40.791201792097276]]}}, {"type": "Feature", "properties": {"segment_id": 1365516, "physicalid": "93044", "street_name": "POPPENHUSEN AVE", "borough": "queens", "direction": "TF", "total_row_ft": 54.2, "roadbed_ft": 28.0, "median_ft": 0.0, "left_sw_ft": 14.2, "right_sw_ft": 11.9}, "geometry": {"type": "LineString", "coordinates": [[-73.85209524631144, 40.791357297323906], [-73.85199665462898, 40.791228837499354]]}}, {"type": "Feature", "properties": {"segment_id": 1365517, "physicalid": "93044", "street_name": "POPPENHUSEN AVE", "borough": "queens", "direction": "TF", "total_row_ft": 54.3, "roadbed_ft": 28.0, "median_ft": 0.0, "left_sw_ft": 14.3, "right_sw_ft": 12.0}, "geometry": {"type": "LineString", "coordinates": [[-73.85203262322744, 40.791384652196214], [-73.85193379412503, 40.79125588286705]]}}, {"type": "Feature", "properties": {"segment_id": 1365518, "physicalid": "93044", "street_name": "POPPENHUSEN AVE", "borough": "queens", "direction": "TF", "total_row_ft": 54.4, "roadbed_ft": 28.0, "median_ft": 0.0, "left_sw_ft": 14.4, "right_sw_ft": 12.0}, "geometry": {"type": "LineString", "coordinates": [[-73.85197000009201, 40.79141200703438], [-73.85187093107855, 40.79128292495413]]}}, {"type": "Feature", "properties": {"segment_id": 1365519, "physicalid": "93044", "street_name": "POPPENHUSEN AVE", "borough": "queens", "direction": "TF", "total_row_ft": 54.5, "roadbed_ft": 28.1, "median_ft": 0.0, "left_sw_ft": 14.4, "right_sw_ft": 11.9}, "geometry": {"type": "LineString", "coordinates": [[-73.85190713146163, 40.79143904203791], [-73.85180804740341, 40.79130994019506]]}}, {"type": "Feature", "properties": {"segment_id": 1365520, "physicalid": "93044", "street_name": "POPPENHUSEN AVE", "borough": "queens", "direction": "TF", "total_row_ft": 54.4, "roadbed_ft": 28.2, "median_ft": 0.0, "left_sw_ft": 14.5, "right_sw_ft": 11.7}, "geometry": {"type": "LineString", "coordinates": [[-73.85184406427567, 40.791465818365275], [-73.85174516370917, 40.79133695544321]]}}, {"type": "Feature", "properties": {"segment_id": 1365521, "physicalid": "93044", "street_name": "POPPENHUSEN AVE", "borough": "queens", "direction": "TF", "total_row_ft": 54.2, "roadbed_ft": 28.2, "median_ft": 0.0, "left_sw_ft": 14.5, "right_sw_ft": 11.5}, "geometry": {"type": "LineString", "coordinates": [[-73.85178091635966, 40.79149248953666], [-73.8516822799639, 40.79136397065693]]}}, {"type": "Feature", "properties": {"segment_id": 1365522, "physicalid": "93044", "street_name": "POPPENHUSEN AVE", "borough": "queens", "direction": "TF", "total_row_ft": 54.1, "roadbed_ft": 28.3, "median_ft": 0.0, "left_sw_ft": 14.5, "right_sw_ft": 11.2}, "geometry": {"type": "LineString", "coordinates": [[-73.85171776839303, 40.79151916067333], [-73.8516193961676, 40.79139098583622]]}}, {"type": "Feature", "properties": {"segment_id": 1365523, "physicalid": "93044", "street_name": "POPPENHUSEN AVE", "borough": "queens", "direction": "TF", "total_row_ft": 85.3, "roadbed_ft": 31.5, "median_ft": 0.0, "left_sw_ft": 42.8, "right_sw_ft": 11.0}, "geometry": {"type": "LineString", "coordinates": [[-73.85165462037584, 40.7915458317753], [-73.85149941829249, 40.791343609526486]]}}, {"type": "Feature", "properties": {"segment_id": 1561961, "physicalid": "105663", "street_name": "SOUND VIEW RD", "borough": "queens", "direction": "TW", "total_row_ft": 68.3, "roadbed_ft": 38.3, "median_ft": 0.0, "left_sw_ft": 15.0, "right_sw_ft": 15.0}, "geometry": {"type": "LineString", "coordinates": [[-73.85305206414479, 40.789940861104114], [-73.852668000522, 40.790093428270396]]}}, {"type": "Feature", "properties": {"segment_id": 1561962, "physicalid": "105663", "street_name": "SOUND VIEW RD", "borough": "queens", "direction": "TW", "total_row_ft": 59.5, "roadbed_ft": 29.5, "median_ft": 0.0, "left_sw_ft": 15.0, "right_sw_ft": 15.0}, "geometry": {"type": "LineString", "coordinates": [[-73.8530855204981, 40.78998951126215], [-73.85270145667133, 40.790142078538786]]}}, {"type": "Feature", "properties": {"segment_id": 1561963, "physicalid": "105663", "street_name": "SOUND VIEW RD", "borough": "queens", "direction": "TW", "total_row_ft": 92.0, "roadbed_ft": 62.0, "median_ft": 0.0, "left_sw_ft": 15.0, "right_sw_ft": 15.0}, "geometry": {"type": "LineString", "coordinates": [[-73.85311897690029, 40.79003816141012], [-73.85273491286956, 40.790190728797114]]}}, {"type": "Feature", "properties": {"segment_id": 1561964, "physicalid": "105663", "street_name": "SOUND VIEW RD", "borough": "queens", "direction": "TW", "total_row_ft": 91.8, "roadbed_ft": 61.8, "median_ft": 0.0, "left_sw_ft": 15.0, "right_sw_ft": 15.0}, "geometry": {"type": "LineString", "coordinates": [[-73.85315243335137, 40.790086811548], [-73.85276836911667, 40.79023937904535]]}}, {"type": "Feature", "properties": {"segment_id": 1561965, "physicalid": "105663", "street_name": "SOUND VIEW RD", "borough": "queens", "direction": "TW", "total_row_ft": 77.8, "roadbed_ft": 47.8, "median_ft": 0.0, "left_sw_ft": 15.0, "right_sw_ft": 15.0}, "geometry": {"type": "LineString", "coordinates": [[-73.85318588985136, 40.79013546167582], [-73.8528018254127, 40.7902880292835]]}}, {"type": "Feature", "properties": {"segment_id": 1561966, "physicalid": "105663", "street_name": "SOUND VIEW RD", "borough": "queens", "direction": "TW", "total_row_ft": 59.3, "roadbed_ft": 29.3, "median_ft": 0.0, "left_sw_ft": 15.0, "right_sw_ft": 15.0}, "geometry": {"type": "LineString", "coordinates": [[-73.85321934640025, 40.790184111793565], [-73.85283528175759, 40.79033667951157]]}}, {"type": "Feature", "properties": {"segment_id": 1561967, "physicalid": "105663", "street_name": "SOUND VIEW RD", "borough": "queens", "direction": "TW", "total_row_ft": 59.2, "roadbed_ft": 29.2, "median_ft": 0.0, "left_sw_ft": 15.0, "right_sw_ft": 15.0}, "geometry": {"type": "LineString", "coordinates": [[-73.85325280299806, 40.790232761901244], [-73.85286873815137, 40.79038532972953]]}}, {"type": "Feature", "properties": {"segment_id": 1561968, "physicalid": "105663", "street_name": "SOUND VIEW RD", "borough": "queens", "direction": "TW", "total_row_ft": 59.2, "roadbed_ft": 29.2, "median_ft": 0.0, "left_sw_ft": 15.0, "right_sw_ft": 15.0}, "geometry": {"type": "LineString", "coordinates": [[-73.85328625964473, 40.79028141199881], [-73.85290219459408, 40.79043397993742]]}}, {"type": "Feature", "properties": {"segment_id": 1561969, "physicalid": "105663", "street_name": "SOUND VIEW RD", "borough": "queens", "direction": "TW", "total_row_ft": 91.4, "roadbed_ft": 61.4, "median_ft": 0.0, "left_sw_ft": 15.0, "right_sw_ft": 15.0}, "geometry": {"type": "LineString", "coordinates": [[-73.8533197163403, 40.79033006208629], [-73.8529356510857, 40.79048263013529]]}}, {"type": "Feature", "properties": {"segment_id": 1720303, "physicalid": "182714", "street_name": "8 AVE", "borough": "queens", "direction": "TW", "total_row_ft": 64.4, "roadbed_ft": 41.2, "median_ft": 0.0, "left_sw_ft": 15.0, "right_sw_ft": 8.2}, "geometry": {"type": "LineString", "coordinates": [[-73.85002246209109, 40.79021171499383], [-73.85000322377743, 40.78997101947712]]}}]}