{"type": "FeatureCollection", "features": [{"type": "Feature", "properties": {"segment_id": 274927, "physicalid": "20989", "street_name": "JFK ACCESS RD", "borough": "queens", "direction": "TW", "total_row_ft": 126.5, "roadbed_ft": 96.5, "median_ft": 0.0, "left_sw_ft": 15.0, "right_sw_ft": 15.0}, "geometry": {"type": "LineString", "coordinates": [[-73.79012224910753, 40.638847231642906], [-73.78989787287865, 40.63912878541232]]}}, {"type": "Feature", "properties": {"segment_id": 274928, "physicalid": "20989", "street_name": "JFK ACCESS RD", "borough": "queens", "direction": "TW", "total_row_ft": 138.7, "roadbed_ft": 108.7, "median_ft": 0.0, "left_sw_ft": 15.0, "right_sw_ft": 15.0}, "geometry": {"type": "LineString", "coordinates": [[-73.79018384958258, 40.63887571886317], [-73.78995947351783, 40.639157272751916]]}}, {"type": "Feature", "properties": {"segment_id": 274929, "physicalid": "20989", "street_name": "JFK ACCESS RD", "borough": "queens", "direction": "TW", "total_row_ft": 150.0, "roadbed_ft": 120.0, "median_ft": 0.0, "left_sw_ft": 15.0, "right_sw_ft": 15.0}, "geometry": {"type": "LineString", "coordinates": [[-73.79024545011022, 40.638904206050334], [-73.7900210742096, 40.639185760058396]]}}, {"type": "Feature", "properties": {"segment_id": 274930, "physicalid": "20989", "street_name": "JFK ACCESS RD", "borough": "queens", "direction": "TW", "total_row_ft": 150.0, "roadbed_ft": 120.0, "median_ft": 0.0, "left_sw_ft": 15.0, "right_sw_ft": 15.0}, "geometry": {"type": "LineString", "coordinates": [[-73.79030705069047, 40.63893269320443], [-73.79008267495395, 40.639214247331786]]}}, {"type": "Feature", "properties": {"segment_id": 274931, "physicalid": "20989", "street_name": "JFK ACCESS RD", "borough": "queens", "direction": "TW", "total_row_ft": 150.0, "roadbed_ft": 120.0, "median_ft": 0.0, "left_sw_ft": 15.0, "right_sw_ft": 15.0}, "geometry": {"type": "LineString", "coordinates": [[-73.7903686513233, 40.63896118032542], [-73.7901442757509, 40.63924273457209]]}}, {"type": "Feature", "properties": {"segment_id": 274932, "physicalid": "20989", "street_name": "JFK ACCESS RD", "borough": "queens", "direction": "TW", "total_row_ft": 150.0, "roadbed_ft": 120.0, "median_ft": 0.0, "left_sw_ft": 15.0, "right_sw_ft": 15.0}, "geometry": {"type": "LineString", "coordinates": [[-73.79043025200873, 40.63898966741334], [-73.79020587660047, 40.639271221779325]]}}, {"type": "Feature", "properties": {"segment_id": 274933, "physicalid": "20989", "street_name": "JFK ACCESS RD", "borough": "queens", "direction": "TW", "total_row_ft": 150.0, "roadbed_ft": 120.0, "median_ft": 0.0, "left_sw_ft": 15.0, "right_sw_ft": 15.0}, "geometry": {"type": "LineString", "coordinates": [[-73.79049185274675, 40.63901815446814], [-73.79026747750262, 40.63929970895346]]}}, {"type": "Feature", "properties": {"segment_id": 274934, "physicalid": "20989", "street_name": "JFK ACCESS RD", "borough": "queens", "direction": "TW", "total_row_ft": 150.0, "roadbed_ft": 120.0, "median_ft": 0.0, "left_sw_ft": 15.0, "right_sw_ft": 15.0}, "geometry": {"type": "LineString", "coordinates": [[-73.79055345353738, 40.639046641489884], [-73.79032907845738, 40.63932819609451]]}}, {"type": "Feature", "properties": {"segment_id": 274935, "physicalid": "20989", "street_name": "JFK ACCESS RD", "borough": "queens", "direction": "TW", "total_row_ft": 150.0, "roadbed_ft": 120.0, "median_ft": 0.0, "left_sw_ft": 15.0, "right_sw_ft": 15.0}, "geometry": {"type": "LineString", "coordinates": [[-73.79061505438058, 40.63907512847852], [-73.79039067946472, 40.63935668320245]]}}, {"type": "Feature", "properties": {"segment_id": 274936, "physicalid": "20989", "street_name": "JFK ACCESS RD", "borough": "queens", "direction": "TW", "total_row_ft": 150.0, "roadbed_ft": 120.0, "median_ft": 0.0, "left_sw_ft": 15.0, "right_sw_ft": 15.0}, "geometry": {"type": "LineString", "coordinates": [[-73.79067665527637, 40.63910361543405], [-73.79045228052469, 40.639385170277336]]}}, {"type": "Feature", "properties": {"segment_id": 274937, "physicalid": "20989", "street_name": "JFK ACCESS RD", "borough": "queens", "direction": "TW", "total_row_ft": 150.0, "roadbed_ft": 120.0, "median_ft": 0.0, "left_sw_ft": 15.0, "right_sw_ft": 15.0}, "geometry": {"type": "LineString", "coordinates": [[-73.7907382562248, 40.63913210235654], [-73.79051388163721, 40.63941365731912]]}}, {"type": "Feature", "properties": {"segment_id": 274938, "physicalid": "20989", "street_name": "JFK ACCESS RD", "borough": "queens", "direction": "TW", "total_row_ft": 150.0, "roadbed_ft": 120.0, "median_ft": 0.0, "left_sw_ft": 15.0, "right_sw_ft": 15.0}, "geometry": {"type": "LineString", "coordinates": [[-73.7907998572258, 40.639160589245904], [-73.79057548280235, 40.6394421443278]]}}, {"type": "Feature", "properties": {"segment_id": 274939, "physicalid": "20989", "street_name": "JFK ACCESS RD", "borough": "queens", "direction": "TW", "total_row_ft": 150.0, "roadbed_ft": 120.0, "median_ft": 0.0, "left_sw_ft": 15.0, "right_sw_ft": 15.0}, "geometry": {"type": "LineString", "coordinates": [[-73.79086145827938, 40.639189076102184], [-73.79063708402009, 40.63947063130342]]}}, {"type": "Feature", "properties": {"segment_id": 274940, "physicalid": "20989", "street_name": "JFK ACCESS RD", "borough": "queens", "direction": "TW", "total_row_ft": 150.0, "roadbed_ft": 120.0, "median_ft": 0.0, "left_sw_ft": 15.0, "right_sw_ft": 15.0}, "geometry": {"type": "LineString", "coordinates": [[-73.79092305938559, 40.63921756292538], [-73.7906986852904, 40.639499118245915]]}}, {"type": "Feature", "properties": {"segment_id": 274941, "physicalid": "20989", "street_name": "JFK ACCESS RD", "borough": "queens", "direction": "TW", "total_row_ft": 150.0, "roadbed_ft": 120.0, "median_ft": 0.0, "left_sw_ft": 15.0, "right_sw_ft": 15.0}, "geometry": {"type": "LineString", "coordinates": [[-73.79098466054438, 40.63924604971549], [-73.7907602866133, 40.639527605155344]]}}, {"type": "Feature", "properties": {"segment_id": 274942, "physicalid": "20989", "street_name": "JFK ACCESS RD", "borough": "queens", "direction": "TW", "total_row_ft": 150.0, "roadbed_ft": 120.0, "median_ft": 0.0, "left_sw_ft": 15.0, "right_sw_ft": 15.0}, "geometry": {"type": "LineString", "coordinates": [[-73.79104626175574, 40.639274536472506], [-73.79082188798887, 40.63955609203169]]}}, {"type": "Feature", "properties": {"segment_id": 274943, "physicalid": "20989", "street_name": "JFK ACCESS RD", "borough": "queens", "direction": "TW", "total_row_ft": 150.0, "roadbed_ft": 120.0, "median_ft": 0.0, "left_sw_ft": 15.0, "right_sw_ft": 15.0}, "geometry": {"type": "LineString", "coordinates": [[-73.79110786301973, 40.639303023196426], [-73.79088348941694, 40.63958457887493]]}}, {"type": "Feature", "properties": {"segment_id": 274944, "physicalid": "20989", "street_name": "JFK ACCESS RD", "borough": "queens", "direction": "TW", "total_row_ft": 124.8, "roadbed_ft": 94.8, "median_ft": 0.0, "left_sw_ft": 15.0, "right_sw_ft": 15.0}, "geometry": {"type": "LineString", "coordinates": [[-73.7911694643363, 40.639331509887285], [-73.79094509089765, 40.639613065685076]]}}, {"type": "Feature", "properties": {"segment_id": 274945, "physicalid": "20989", "street_name": "JFK ACCESS RD", "borough": "queens", "direction": "TW", "total_row_ft": 115.0, "roadbed_ft": 85.0, "median_ft": 0.0, "left_sw_ft": 15.0, "right_sw_ft": 15.0}, "geometry": {"type": "LineString", "coordinates": [[-73.79123106570546, 40.639359996545046], [-73.79100669243098, 40.639641552462145]]}}, {"type": "Feature", "properties": {"segment_id": 274946, "physicalid": "20989", "street_name": "JFK ACCESS RD", "borough": "queens", "direction": "TW", "total_row_ft": 115.2, "roadbed_ft": 85.2, "median_ft": 0.0, "left_sw_ft": 15.0, "right_sw_ft": 15.0}, "geometry": {"type": "LineString", "coordinates": [[-73.79129266712725, 40.63938848316971], [-73.79106829401687, 40.63967003920612]]}}, {"type": "Feature", "properties": {"segment_id": 274947, "physicalid": "20989", "street_name": "JFK ACCESS RD", "borough": "queens", "direction": "TW", "total_row_ft": 115.3, "roadbed_ft": 85.3, "median_ft": 0.0, "left_sw_ft": 15.0, "right_sw_ft": 15.0}, "geometry": {"type": "LineString", "coordinates": [[-73.79135426860162, 40.63941696976127], [-73.79112989565536, 40.639698525917005]]}}, {"type": "Feature", "properties": {"segment_id": 274948, "physicalid": "20989", "street_name": "JFK ACCESS RD", "borough": "queens", "direction": "TW", "total_row_ft": 115.4, "roadbed_ft": 85.4, "median_ft": 0.0, "left_sw_ft": 15.0, "right_sw_ft": 15.0}, "geometry": {"type": "LineString", "coordinates": [[-73.79141587012856, 40.639445456319756], [-73.79119149734647, 40.639727012594825]]}}, {"type": "Feature", "properties": {"segment_id": 274949, "physicalid": "20989", "street_name": "JFK ACCESS RD", "borough": "queens", "direction": "TW", "total_row_ft": 115.6, "roadbed_ft": 85.6, "median_ft": 0.0, "left_sw_ft": 15.0, "right_sw_ft": 15.0}, "geometry": {"type": "LineString", "coordinates": [[-73.79147747170812, 40.63947394284514], [-73.79125309909014, 40.63975549923952]]}}, {"type": "Feature", "properties": {"segment_id": 274950, "physicalid": "20989", "street_name": "JFK ACCESS RD", "borough": "queens", "direction": "TW", "total_row_ft": 115.2, "roadbed_ft": 85.2, "median_ft": 0.0, "left_sw_ft": 15.0, "right_sw_ft": 15.0}, "geometry": {"type": "LineString", "coordinates": [[-73.79151767872467, 40.63949168610527], [-73.79133839836831, 40.63979141296391]]}}, {"type": "Feature", "properties": {"segment_id": 274951, "physicalid": "20989", "street_name": "JFK ACCESS RD", "borough": "queens", "direction": "TW", "total_row_ft": 112.9, "roadbed_ft": 82.9, "median_ft": 0.0, "left_sw_ft": 15.0, "right_sw_ft": 15.0}, "geometry": {"type": "LineString", "coordinates": [[-73.79158325585837, 40.63951444763714], [-73.79140397573546, 40.639814174597284]]}}, {"type": "Feature", "properties": {"segment_id": 274952, "physicalid": "20989", "street_name": "JFK ACCESS RD", "borough": "queens", "direction": "TW", "total_row_ft": 110.7, "roadbed_ft": 80.7, "median_ft": 0.0, "left_sw_ft": 15.0, "right_sw_ft": 15.0}, "geometry": {"type": "LineString", "coordinates": [[-73.79164883303685, 40.63953720913157], [-73.79146955314732, 40.6398369361932]]}}, {"type": "Feature", "properties": {"segment_id": 274953, "physicalid": "20989", "street_name": "JFK ACCESS RD", "borough": "queens", "direction": "TW", "total_row_ft": 108.4, "roadbed_ft": 78.4, "median_ft": 0.0, "left_sw_ft": 15.0, "right_sw_ft": 15.0}, "geometry": {"type": "LineString", "coordinates": [[-73.79171441026006, 40.63955997058854], [-73.7915351306039, 40.63985969775164]]}}, {"type": "Feature", "properties": {"segment_id": 274954, "physicalid": "20989", "street_name": "JFK ACCESS RD", "borough": "queens", "direction": "TW", "total_row_ft": 106.5, "roadbed_ft": 76.5, "median_ft": 0.0, "left_sw_ft": 15.0, "right_sw_ft": 15.0}, "geometry": {"type": "LineString", "coordinates": [[-73.79177998752797, 40.639582732008066], [-73.79160070810526, 40.639882459272656]]}}, {"type": "Feature", "properties": {"segment_id": 274955, "physicalid": "20989", "street_name": "JFK ACCESS RD", "borough": "queens", "direction": "TW", "total_row_ft": 114.1, "roadbed_ft": 84.1, "median_ft": 0.0, "left_sw_ft": 15.0, "right_sw_ft": 15.0}, "geometry": {"type": "LineString", "coordinates": [[-73.79184556484064, 40.63960549339012], [-73.79166628565135, 40.63990522075621]]}}, {"type": "Feature", "properties": {"segment_id": 274956, "physicalid": "20989", "street_name": "JFK ACCESS RD", "borough": "queens", "direction": "TW", "total_row_ft": 150.0, "roadbed_ft": 120.0, "median_ft": 0.0, "left_sw_ft": 15.0, "right_sw_ft": 15.0}, "geometry": {"type": "LineString", "coordinates": [[-73.79191114219807, 40.63962825473473], [-73.79173186324213, 40.6399279822023]]}}, {"type": "Feature", "properties": {"segment_id": 274957, "physicalid": "20989", "street_name": "JFK ACCESS RD", "borough": "queens", "direction": "TW", "total_row_ft": 150.0, "roadbed_ft": 120.0, "median_ft": 0.0, "left_sw_ft": 15.0, "right_sw_ft": 15.0}, "geometry": {"type": "LineString", "coordinates": [[-73.7919767196002, 40.639651016041874], [-73.79179744087772, 40.63995074361095]]}}, {"type": "Feature", "properties": {"segment_id": 274958, "physicalid": "20989", "street_name": "JFK ACCESS RD", "borough": "queens", "direction": "TW", "total_row_ft": 150.0, "roadbed_ft": 120.0, "median_ft": 0.0, "left_sw_ft": 15.0, "right_sw_ft": 15.0}, "geometry": {"type": "LineString", "coordinates": [[-73.79204229704708, 40.63967377731158], [-73.791863018558, 40.63997350498212]]}}, {"type": "Feature", "properties": {"segment_id": 274959, "physicalid": "20989", "street_name": "JFK ACCESS RD", "borough": "queens", "direction": "TW", "total_row_ft": 150.0, "roadbed_ft": 120.0, "median_ft": 0.0, "left_sw_ft": 15.0, "right_sw_ft": 15.0}, "geometry": {"type": "LineString", "coordinates": [[-73.79212766027266, 40.63970982048802], [-73.7919030532513, 40.639991268769656]]}}, {"type": "Feature", "properties": {"segment_id": 274960, "physicalid": "20989", "street_name": "JFK ACCESS RD", "borough": "queens", "direction": "TW", "total_row_ft": 150.0, "roadbed_ft": 120.0, "median_ft": 0.0, "left_sw_ft": 15.0, "right_sw_ft": 15.0}, "geometry": {"type": "LineString", "coordinates": [[-73.79218923847026, 40.63973833663886], [-73.79196463161264, 40.640019785039875]]}}, {"type": "Feature", "properties": {"segment_id": 274961, "physicalid": "20989", "street_name": "JFK ACCESS RD", "borough": "queens", "direction": "TW", "total_row_ft": 150.0, "roadbed_ft": 120.0, "median_ft": 0.0, "left_sw_ft": 15.0, "right_sw_ft": 15.0}, "geometry": {"type": "LineString", "coordinates": [[-73.7922508167205, 40.63976685275665], [-73.79202621002663, 40.640048301277055]]}}, {"type": "Feature", "properties": {"segment_id": 274962, "physicalid": "20989", "street_name": "JFK ACCESS RD", "borough": "queens", "direction": "TW", "total_row_ft": 150.0, "roadbed_ft": 120.0, "median_ft": 0.0, "left_sw_ft": 15.0, "right_sw_ft": 15.0}, "geometry": {"type": "LineString", "coordinates": [[-73.79231239502336, 40.63979536884137], [-73.79208778849323, 40.640076817481145]]}}, {"type": "Feature", "properties": {"segment_id": 274963, "physicalid": "20989", "street_name": "JFK ACCESS RD", "borough": "queens", "direction": "TW", "total_row_ft": 150.0, "roadbed_ft": 120.0, "median_ft": 0.0, "left_sw_ft": 15.0, "right_sw_ft": 15.0}, "geometry": {"type": "LineString", "coordinates": [[-73.79237397337886, 40.63982388489301], [-73.79214936701247, 40.6401053336522]]}}, {"type": "Feature", "properties": {"segment_id": 274964, "physicalid": "20989", "street_name": "JFK ACCESS RD", "borough": "queens", "direction": "TW", "total_row_ft": 150.0, "roadbed_ft": 120.0, "median_ft": 0.0, "left_sw_ft": 15.0, "right_sw_ft": 15.0}, "geometry": {"type": "LineString", "coordinates": [[-73.79243555178701, 40.63985240091161], [-73.79221094558433, 40.64013384979016]]}}]}