{"type": "FeatureCollection", "features": [{"type": "Feature", "properties": {"segment_id": 1209070, "physicalid": "83617", "street_name": "RIKERS ISLAND BRG", "borough": "queens", "direction": "TW", "total_row_ft": 63.3, "roadbed_ft": 33.3, "median_ft": 0.0, "left_sw_ft": 15.0, "right_sw_ft": 15.0}, "geometry": {"type": "LineString", "coordinates": [[-73.88505331654812, 40.78651911691872], [-73.88543954317416, 40.786668467024455]]}}, {"type": "Feature", "properties": {"segment_id": 1209071, "physicalid": "83617", "street_name": "RIKERS ISLAND BRG", "borough": "queens", "direction": "TW", "total_row_ft": 63.3, "roadbed_ft": 33.3, "median_ft": 0.0, "left_sw_ft": 15.0, "right_sw_ft": 15.0}, "geometry": {"type": "LineString", "coordinates": [[-73.88508606569034, 40.786470190215674], [-73.88547229210603, 40.78661954021282]]}}, {"type": "Feature", "properties": {"segment_id": 1209072, "physicalid": "83617", "street_name": "RIKERS ISLAND BRG", "borough": "queens", "direction": "TW", "total_row_ft": 63.3, "roadbed_ft": 33.3, "median_ft": 0.0, "left_sw_ft": 15.0, "right_sw_ft": 15.0}, "geometry": {"type": "LineString", "coordinates": [[-73.88511881478443, 40.786421263503], [-73.88550504098976, 40.78657061339153]]}}, {"type": "Feature", "properties": {"segment_id": 1209073, "physicalid": "83617", "street_name": "RIKERS ISLAND BRG", "borough": "queens", "direction": "TW", "total_row_ft": 63.3, "roadbed_ft": 33.3, "median_ft": 0.0, "left_sw_ft": 15.0, "right_sw_ft": 15.0}, "geometry": {"type": "LineString", "coordinates": [[-73.8851515638304, 40.7863723367806], [-73.88553778982534, 40.786521686560576]]}}, {"type": "Feature", "properties": {"segment_id": 1209074, "physicalid": "83617", "street_name": "RIKERS ISLAND BRG", "borough": "queens", "direction": "TW", "total_row_ft": 63.3, "roadbed_ft": 33.3, "median_ft": 0.0, "left_sw_ft": 15.0, "right_sw_ft": 15.0}, "geometry": {"type": "LineString", "coordinates": [[-73.88518431282824, 40.78632341004858], [-73.88557053861281, 40.786472759719906]]}}, {"type": "Feature", "properties": {"segment_id": 1209075, "physicalid": "83617", "street_name": "RIKERS ISLAND BRG", "borough": "queens", "direction": "TW", "total_row_ft": 63.2, "roadbed_ft": 33.2, "median_ft": 0.0, "left_sw_ft": 15.0, "right_sw_ft": 15.0}, "geometry": {"type": "LineString", "coordinates": [[-73.88521706177794, 40.78627448330687], [-73.88560328735215, 40.78642383286958]]}}, {"type": "Feature", "properties": {"segment_id": 1209076, "physicalid": "83617", "street_name": "RIKERS ISLAND BRG", "borough": "queens", "direction": "TW", "total_row_ft": 63.1, "roadbed_ft": 33.1, "median_ft": 0.0, "left_sw_ft": 15.0, "right_sw_ft": 15.0}, "geometry": {"type": "LineString", "coordinates": [[-73.88524981067948, 40.78622555655551], [-73.88563603604338, 40.78637490600953]]}}, {"type": "Feature", "properties": {"segment_id": 1209077, "physicalid": "83617", "street_name": "RIKERS ISLAND BRG", "borough": "queens", "direction": "TW", "total_row_ft": 63.1, "roadbed_ft": 33.1, "median_ft": 0.0, "left_sw_ft": 15.0, "right_sw_ft": 15.0}, "geometry": {"type": "LineString", "coordinates": [[-73.88528255953291, 40.78617662979444], [-73.88566878468646, 40.78632597913987]]}}, {"type": "Feature", "properties": {"segment_id": 1209078, "physicalid": "83617", "street_name": "RIKERS ISLAND BRG", "borough": "queens", "direction": "TW", "total_row_ft": 63.0, "roadbed_ft": 33.0, "median_ft": 0.0, "left_sw_ft": 15.0, "right_sw_ft": 15.0}, "geometry": {"type": "LineString", "coordinates": [[-73.88531530833822, 40.7861277030237], [-73.8857015332814, 40.78627705226048]]}}, {"type": "Feature", "properties": {"segment_id": 1209079, "physicalid": "83617", "street_name": "RIKERS ISLAND BRG", "borough": "queens", "direction": "TW", "total_row_ft": 62.9, "roadbed_ft": 32.9, "median_ft": 0.0, "left_sw_ft": 15.0, "right_sw_ft": 15.0}, "geometry": {"type": "LineString", "coordinates": [[-73.88534805709541, 40.78607877624329], [-73.88573428182822, 40.786228125371444]]}}, {"type": "Feature", "properties": {"segment_id": 1209080, "physicalid": "83617", "street_name": "RIKERS ISLAND BRG", "borough": "queens", "direction": "TW", "total_row_ft": 62.8, "roadbed_ft": 32.8, "median_ft": 0.0, "left_sw_ft": 15.0, "right_sw_ft": 15.0}, "geometry": {"type": "LineString", "coordinates": [[-73.88538080580445, 40.786029849453186], [-73.8857670303269, 40.78617919847274]]}}, {"type": "Feature", "properties": {"segment_id": 1209081, "physicalid": "83617", "street_name": "RIKERS ISLAND BRG", "borough": "queens", "direction": "TW", "total_row_ft": 62.8, "roadbed_ft": 32.8, "median_ft": 0.0, "left_sw_ft": 15.0, "right_sw_ft": 15.0}, "geometry": {"type": "LineString", "coordinates": [[-73.88541355446537, 40.785980922653415], [-73.88579977877744, 40.78613027156439]]}}, {"type": "Feature", "properties": {"segment_id": 1209082, "physicalid": "83617", "street_name": "RIKERS ISLAND BRG", "borough": "queens", "direction": "TW", "total_row_ft": 62.7, "roadbed_ft": 32.7, "median_ft": 0.0, "left_sw_ft": 15.0, "right_sw_ft": 15.0}, "geometry": {"type": "LineString", "coordinates": [[-73.88544630307817, 40.78593199584394], [-73.88583252717987, 40.78608134464633]]}}, {"type": "Feature", "properties": {"segment_id": 1209083, "physicalid": "83617", "street_name": "RIKERS ISLAND BRG", "borough": "queens", "direction": "TW", "total_row_ft": 62.6, "roadbed_ft": 32.6, "median_ft": 0.0, "left_sw_ft": 15.0, "right_sw_ft": 15.0}, "geometry": {"type": "LineString", "coordinates": [[-73.88547905164279, 40.78588306902486], [-73.88586527553419, 40.78603241771856]]}}, {"type": "Feature", "properties": {"segment_id": 1209084, "physicalid": "83617", "street_name": "RIKERS ISLAND BRG", "borough": "queens", "direction": "TW", "total_row_ft": 62.5, "roadbed_ft": 32.5, "median_ft": 0.0, "left_sw_ft": 15.0, "right_sw_ft": 15.0}, "geometry": {"type": "LineString", "coordinates": [[-73.8855118001593, 40.78583414219608], [-73.88589802384034, 40.78598349078113]]}}, {"type": "Feature", "properties": {"segment_id": 1209085, "physicalid": "83617", "street_name": "RIKERS ISLAND BRG", "borough": "queens", "direction": "TW", "total_row_ft": 62.5, "roadbed_ft": 32.5, "median_ft": 0.0, "left_sw_ft": 15.0, "right_sw_ft": 15.0}, "geometry": {"type": "LineString", "coordinates": [[-73.8855445486277, 40.78578521535761], [-73.88593077209839, 40.785934563834054]]}}, {"type": "Feature", "properties": {"segment_id": 1209086, "physicalid": "83617", "street_name": "RIKERS ISLAND BRG", "borough": "queens", "direction": "TW", "total_row_ft": 62.4, "roadbed_ft": 32.4, "median_ft": 0.0, "left_sw_ft": 15.0, "right_sw_ft": 15.0}, "geometry": {"type": "LineString", "coordinates": [[-73.88557729704797, 40.785736288509455], [-73.8859635203083, 40.78588563687729]]}}, {"type": "Feature", "properties": {"segment_id": 1209087, "physicalid": "83617", "street_name": "RIKERS ISLAND BRG", "borough": "queens", "direction": "TW", "total_row_ft": 62.3, "roadbed_ft": 32.3, "median_ft": 0.0, "left_sw_ft": 15.0, "right_sw_ft": 15.0}, "geometry": {"type": "LineString", "coordinates": [[-73.88561004542011, 40.78568736165164], [-73.88599626847007, 40.78583670991083]]}}, {"type": "Feature", "properties": {"segment_id": 1209088, "physicalid": "83617", "street_name": "RIKERS ISLAND BRG", "borough": "queens", "direction": "TW", "total_row_ft": 62.1, "roadbed_ft": 32.1, "median_ft": 0.0, "left_sw_ft": 15.0, "right_sw_ft": 15.0}, "geometry": {"type": "LineString", "coordinates": [[-73.8856427937441, 40.785638434784154], [-73.8860290165837, 40.78578778293474]]}}, {"type": "Feature", "properties": {"segment_id": 1209089, "physicalid": "83617", "street_name": "RIKERS ISLAND BRG", "borough": "queens", "direction": "TW", "total_row_ft": 62.0, "roadbed_ft": 32.0, "median_ft": 0.0, "left_sw_ft": 15.0, "right_sw_ft": 15.0}, "geometry": {"type": "LineString", "coordinates": [[-73.88567554202, 40.78558950790694], [-73.8860617646492, 40.78573885594897]]}}, {"type": "Feature", "properties": {"segment_id": 1209090, "physicalid": "83617", "street_name": "RIKERS ISLAND BRG", "borough": "queens", "direction": "TW", "total_row_ft": 61.9, "roadbed_ft": 31.9, "median_ft": 0.0, "left_sw_ft": 15.0, "right_sw_ft": 15.0}, "geometry": {"type": "LineString", "coordinates": [[-73.88570829024773, 40.78554058102008], [-73.88609451266659, 40.785689928953516]]}}, {"type": "Feature", "properties": {"segment_id": 1209091, "physicalid": "83617", "street_name": "RIKERS ISLAND BRG", "borough": "queens", "direction": "TW", "total_row_ft": 61.8, "roadbed_ft": 31.8, "median_ft": 0.0, "left_sw_ft": 15.0, "right_sw_ft": 15.0}, "geometry": {"type": "LineString", "coordinates": [[-73.88574103842734, 40.785491654123604], [-73.88612726063586, 40.78564100194835]]}}, {"type": "Feature", "properties": {"segment_id": 1209092, "physicalid": "83617", "street_name": "RIKERS ISLAND BRG", "borough": "queens", "direction": "TW", "total_row_ft": 61.7, "roadbed_ft": 31.7, "median_ft": 0.0, "left_sw_ft": 15.0, "right_sw_ft": 15.0}, "geometry": {"type": "LineString", "coordinates": [[-73.8857737865588, 40.78544272721741], [-73.886160008557, 40.78559207493351]]}}, {"type": "Feature", "properties": {"segment_id": 1209093, "physicalid": "83617", "street_name": "RIKERS ISLAND BRG", "borough": "queens", "direction": "TW", "total_row_ft": 61.7, "roadbed_ft": 31.7, "median_ft": 0.0, "left_sw_ft": 15.0, "right_sw_ft": 15.0}, "geometry": {"type": "LineString", "coordinates": [[-73.88580653464216, 40.785393800301534], [-73.88619275642999, 40.78554314790903]]}}, {"type": "Feature", "properties": {"segment_id": 1209094, "physicalid": "83617", "street_name": "RIKERS ISLAND BRG", "borough": "queens", "direction": "TW", "total_row_ft": 61.8, "roadbed_ft": 31.8, "median_ft": 0.0, "left_sw_ft": 15.0, "right_sw_ft": 15.0}, "geometry": {"type": "LineString", "coordinates": [[-73.8858392826774, 40.785344873376], [-73.88622550425485, 40.785494220874874]]}}, {"type": "Feature", "properties": {"segment_id": 1209095, "physicalid": "83617", "street_name": "RIKERS ISLAND BRG", "borough": "queens", "direction": "TW", "total_row_ft": 61.8, "roadbed_ft": 31.8, "median_ft": 0.0, "left_sw_ft": 15.0, "right_sw_ft": 15.0}, "geometry": {"type": "LineString", "coordinates": [[-73.88587203066449, 40.785295946440776], [-73.8862582520316, 40.785445293831046]]}}, {"type": "Feature", "properties": {"segment_id": 1209096, "physicalid": "83617", "street_name": "RIKERS ISLAND BRG", "borough": "queens", "direction": "TW", "total_row_ft": 61.9, "roadbed_ft": 31.9, "median_ft": 0.0, "left_sw_ft": 15.0, "right_sw_ft": 15.0}, "geometry": {"type": "LineString", "coordinates": [[-73.88590477860348, 40.78524701949584], [-73.88629099976019, 40.78539636677755]]}}, {"type": "Feature", "properties": {"segment_id": 1209097, "physicalid": "83617", "street_name": "RIKERS ISLAND BRG", "borough": "queens", "direction": "TW", "total_row_ft": 61.9, "roadbed_ft": 31.9, "median_ft": 0.0, "left_sw_ft": 15.0, "right_sw_ft": 15.0}, "geometry": {"type": "LineString", "coordinates": [[-73.8859375264943, 40.785198092541286], [-73.88632374744067, 40.78534743971435]]}}, {"type": "Feature", "properties": {"segment_id": 1209098, "physicalid": "83617", "street_name": "RIKERS ISLAND BRG", "borough": "queens", "direction": "TW", "total_row_ft": 62.0, "roadbed_ft": 32.0, "median_ft": 0.0, "left_sw_ft": 15.0, "right_sw_ft": 15.0}, "geometry": {"type": "LineString", "coordinates": [[-73.88597027433701, 40.785149165577046], [-73.88635649507302, 40.78529851264149]]}}, {"type": "Feature", "properties": {"segment_id": 1209099, "physicalid": "83617", "street_name": "RIKERS ISLAND BRG", "borough": "queens", "direction": "TW", "total_row_ft": 62.0, "roadbed_ft": 32.0, "median_ft": 0.0, "left_sw_ft": 15.0, "right_sw_ft": 15.0}, "geometry": {"type": "LineString", "coordinates": [[-73.88600302213158, 40.785100238603164], [-73.88638924265726, 40.78524958555893]]}}, {"type": "Feature", "properties": {"segment_id": 1209100, "physicalid": "83617", "street_name": "RIKERS ISLAND BRG", "borough": "queens", "direction": "TW", "total_row_ft": 62.0, "roadbed_ft": 32.0, "median_ft": 0.0, "left_sw_ft": 15.0, "right_sw_ft": 15.0}, "geometry": {"type": "LineString", "coordinates": [[-73.88603576987802, 40.78505131161956], [-73.88642199019336, 40.78520065846672]]}}, {"type": "Feature", "properties": {"segment_id": 1209101, "physicalid": "83617", "street_name": "RIKERS ISLAND BRG", "borough": "queens", "direction": "TW", "total_row_ft": 62.1, "roadbed_ft": 32.1, "median_ft": 0.0, "left_sw_ft": 15.0, "right_sw_ft": 15.0}, "geometry": {"type": "LineString", "coordinates": [[-73.88606851757635, 40.7850023846263], [-73.88645473768132, 40.78515173136482]]}}, {"type": "Feature", "properties": {"segment_id": 1209102, "physicalid": "83617", "street_name": "RIKERS ISLAND BRG", "borough": "queens", "direction": "TW", "total_row_ft": 62.1, "roadbed_ft": 32.1, "median_ft": 0.0, "left_sw_ft": 15.0, "right_sw_ft": 15.0}, "geometry": {"type": "LineString", "coordinates": [[-73.88610126522654, 40.78495345762336], [-73.88648748512117, 40.78510280425326]]}}, {"type": "Feature", "properties": {"segment_id": 1209103, "physicalid": "83617", "street_name": "RIKERS ISLAND BRG", "borough": "queens", "direction": "TW", "total_row_ft": 62.2, "roadbed_ft": 32.2, "median_ft": 0.0, "left_sw_ft": 15.0, "right_sw_ft": 15.0}, "geometry": {"type": "LineString", "coordinates": [[-73.8861340128286, 40.78490453061074], [-73.88652023251286, 40.78505387713203]]}}, {"type": "Feature", "properties": {"segment_id": 1209104, "physicalid": "83617", "street_name": "RIKERS ISLAND BRG", "borough": "queens", "direction": "TW", "total_row_ft": 62.2, "roadbed_ft": 32.2, "median_ft": 0.0, "left_sw_ft": 15.0, "right_sw_ft": 15.0}, "geometry": {"type": "LineString", "coordinates": [[-73.88616676038257, 40.784855603588426], [-73.88655297985643, 40.785004950001145]]}}, {"type": "Feature", "properties": {"segment_id": 1209105, "physicalid": "83617", "street_name": "RIKERS ISLAND BRG", "borough": "queens", "direction": "TW", "total_row_ft": 62.2, "roadbed_ft": 32.2, "median_ft": 0.0, "left_sw_ft": 15.0, "right_sw_ft": 15.0}, "geometry": {"type": "LineString", "coordinates": [[-73.88619950788836, 40.78480667655644], [-73.88658572715188, 40.784956022860555]]}}, {"type": "Feature", "properties": {"segment_id": 1209106, "physicalid": "83617", "street_name": "RIKERS ISLAND BRG", "borough": "queens", "direction": "TW", "total_row_ft": 62.2, "roadbed_ft": 32.2, "median_ft": 0.0, "left_sw_ft": 15.0, "right_sw_ft": 15.0}, "geometry": {"type": "LineString", "coordinates": [[-73.88623225534604, 40.78475774951482], [-73.8866184743992, 40.78490709571032]]}}, {"type": "Feature", "properties": {"segment_id": 1209107, "physicalid": "83617", "street_name": "RIKERS ISLAND BRG", "borough": "queens", "direction": "TW", "total_row_ft": 62.3, "roadbed_ft": 32.3, "median_ft": 0.0, "left_sw_ft": 15.0, "right_sw_ft": 15.0}, "geometry": {"type": "LineString", "coordinates": [[-73.88626500275558, 40.784708822463536], [-73.88665122159841, 40.78485816855034]]}}, {"type": "Feature", "properties": {"segment_id": 1209108, "physicalid": "83617", "street_name": "RIKERS ISLAND BRG", "borough": "queens", "direction": "TW", "total_row_ft": 62.3, "roadbed_ft": 32.3, "median_ft": 0.0, "left_sw_ft": 15.0, "right_sw_ft": 15.0}, "geometry": {"type": "LineString", "coordinates": [[-73.886297750117, 40.78465989540256], [-73.88668396874948, 40.784809241380735]]}}, {"type": "Feature", "properties": {"segment_id": 1209109, "physicalid": "83617", "street_name": "RIKERS ISLAND BRG", "borough": "queens", "direction": "TW", "total_row_ft": 62.3, "roadbed_ft": 32.3, "median_ft": 0.0, "left_sw_ft": 15.0, "right_sw_ft": 15.0}, "geometry": {"type": "LineString", "coordinates": [[-73.88633049743031, 40.784610968331876], [-73.88671671585243, 40.78476031420146]]}}, {"type": "Feature", "properties": {"segment_id": 1209110, "physicalid": "83617", "street_name": "RIKERS ISLAND BRG", "borough": "queens", "direction": "TW", "total_row_ft": 62.3, "roadbed_ft": 32.3, "median_ft": 0.0, "left_sw_ft": 15.0, "right_sw_ft": 15.0}, "geometry": {"type": "LineString", "coordinates": [[-73.88636324469547, 40.78456204125156], [-73.88674946290725, 40.78471138701251]]}}, {"type": "Feature", "properties": {"segment_id": 1209111, "physicalid": "83617", "street_name": "RIKERS ISLAND BRG", "borough": "queens", "direction": "TW", "total_row_ft": 62.3, "roadbed_ft": 32.3, "median_ft": 0.0, "left_sw_ft": 15.0, "right_sw_ft": 15.0}, "geometry": {"type": "LineString", "coordinates": [[-73.88639599191251, 40.78451311416155], [-73.88678220991393, 40.78466245981388]]}}, {"type": "Feature", "properties": {"segment_id": 1209112, "physicalid": "83617", "street_name": "RIKERS ISLAND BRG", "borough": "queens", "direction": "TW", "total_row_ft": 62.3, "roadbed_ft": 32.3, "median_ft": 0.0, "left_sw_ft": 15.0, "right_sw_ft": 15.0}, "geometry": {"type": "LineString", "coordinates": [[-73.88642873908144, 40.78446418706183], [-73.88681495687247, 40.78461353260562]]}}, {"type": "Feature", "properties": {"segment_id": 1209113, "physicalid": "83617", "street_name": "RIKERS ISLAND BRG", "borough": "queens", "direction": "TW", "total_row_ft": 62.4, "roadbed_ft": 32.4, "median_ft": 0.0, "left_sw_ft": 15.0, "right_sw_ft": 15.0}, "geometry": {"type": "LineString", "coordinates": [[-73.88646148620224, 40.78441525995246], [-73.88684770378289, 40.784564605387644]]}}, {"type": "Feature", "properties": {"segment_id": 1209114, "physicalid": "83617", "street_name": "RIKERS ISLAND BRG", "borough": "queens", "direction": "TW", "total_row_ft": 62.4, "roadbed_ft": 32.4, "median_ft": 0.0, "left_sw_ft": 15.0, "right_sw_ft": 15.0}, "geometry": {"type": "LineString", "coordinates": [[-73.88649423327487, 40.78436633283347], [-73.88688045064522, 40.78451567815996]]}}, {"type": "Feature", "properties": {"segment_id": 1209115, "physicalid": "83617", "street_name": "RIKERS ISLAND BRG", "borough": "queens", "direction": "TW", "total_row_ft": 62.4, "roadbed_ft": 32.4, "median_ft": 0.0, "left_sw_ft": 15.0, "right_sw_ft": 15.0}, "geometry": {"type": "LineString", "coordinates": [[-73.8865269802994, 40.78431740570478], [-73.88691319745939, 40.78446675092264]]}}, {"type": "Feature", "properties": {"segment_id": 1209116, "physicalid": "83617", "street_name": "RIKERS ISLAND BRG", "borough": "queens", "direction": "TW", "total_row_ft": 62.3, "roadbed_ft": 32.3, "median_ft": 0.0, "left_sw_ft": 15.0, "right_sw_ft": 15.0}, "geometry": {"type": "LineString", "coordinates": [[-73.8865597272758, 40.78426847856642], [-73.88694594422546, 40.78441782367564]]}}, {"type": "Feature", "properties": {"segment_id": 1209117, "physicalid": "83617", "street_name": "RIKERS ISLAND BRG", "borough": "queens", "direction": "TW", "total_row_ft": 62.1, "roadbed_ft": 32.1, "median_ft": 0.0, "left_sw_ft": 15.0, "right_sw_ft": 15.0}, "geometry": {"type": "LineString", "coordinates": [[-73.88659247420408, 40.78421955141835], [-73.88697869094338, 40.78436889641897]]}}, {"type": "Feature", "properties": {"segment_id": 1209118, "physicalid": "83617", "street_name": "RIKERS ISLAND BRG", "borough": "queens", "direction": "TW", "total_row_ft": 62.0, "roadbed_ft": 32.0, "median_ft": 0.0, "left_sw_ft": 15.0, "right_sw_ft": 15.0}, "geometry": {"type": "LineString", "coordinates": [[-73.88662522108423, 40.78417062426064], [-73.88701143761317, 40.784319969152634]]}}, {"type": "Feature", "properties": {"segment_id": 1209119, "physicalid": "83617", "street_name": "RIKERS ISLAND BRG", "borough": "queens", "direction": "TW", "total_row_ft": 61.8, "roadbed_ft": 31.8, "median_ft": 0.0, "left_sw_ft": 15.0, "right_sw_ft": 15.0}, "geometry": {"type": "LineString", "coordinates": [[-73.88665796791626, 40.784121697093205], [-73.88704418423481, 40.784271041876636]]}}, {"type": "Feature", "properties": {"segment_id": 1209120, "physicalid": "83617", "street_name": "RIKERS ISLAND BRG", "borough": "queens", "direction": "TW", "total_row_ft": 61.6, "roadbed_ft": 31.6, "median_ft": 0.0, "left_sw_ft": 15.0, "right_sw_ft": 15.0}, "geometry": {"type": "LineString", "coordinates": [[-73.88669071470017, 40.78407276991613], [-73.88707693080836, 40.784222114590946]]}}, {"type": "Feature", "properties": {"segment_id": 1209121, "physicalid": "83617", "street_name": "RIKERS ISLAND BRG", "borough": "queens", "direction": "TW", "total_row_ft": 61.5, "roadbed_ft": 31.5, "median_ft": 0.0, "left_sw_ft": 15.0, "right_sw_ft": 15.0}, "geometry": {"type": "LineString", "coordinates": [[-73.88672346143593, 40.78402384272939], [-73.88710967733378, 40.784173187295586]]}}, {"type": "Feature", "properties": {"segment_id": 1209122, "physicalid": "83617", "street_name": "RIKERS ISLAND BRG", "borough": "queens", "direction": "TW", "total_row_ft": 61.4, "roadbed_ft": 31.4, "median_ft": 0.0, "left_sw_ft": 15.0, "right_sw_ft": 15.0}, "geometry": {"type": "LineString", "coordinates": [[-73.88675620812356, 40.783974915533], [-73.88714242381108, 40.78412425999051]]}}, {"type": "Feature", "properties": {"segment_id": 1209123, "physicalid": "83617", "street_name": "RIKERS ISLAND BRG", "borough": "queens", "direction": "TW", "total_row_ft": 61.5, "roadbed_ft": 31.5, "median_ft": 0.0, "left_sw_ft": 15.0, "right_sw_ft": 15.0}, "geometry": {"type": "LineString", "coordinates": [[-73.88678895476308, 40.7839259883269], [-73.88717517024024, 40.78407533267582]]}}, {"type": "Feature", "properties": {"segment_id": 1209124, "physicalid": "83617", "street_name": "RIKERS ISLAND BRG", "borough": "queens", "direction": "TW", "total_row_ft": 61.5, "roadbed_ft": 31.5, "median_ft": 0.0, "left_sw_ft": 15.0, "right_sw_ft": 15.0}, "geometry": {"type": "LineString", "coordinates": [[-73.88682170135446, 40.783877061111134], [-73.88720791662129, 40.78402640535142]]}}, {"type": "Feature", "properties": {"segment_id": 1209125, "physicalid": "83617", "street_name": "RIKERS ISLAND BRG", "borough": "queens", "direction": "TW", "total_row_ft": 61.6, "roadbed_ft": 31.6, "median_ft": 0.0, "left_sw_ft": 15.0, "right_sw_ft": 15.0}, "geometry": {"type": "LineString", "coordinates": [[-73.88685444789773, 40.78382813388573], [-73.8872406629542, 40.783977478017384]]}}, {"type": "Feature", "properties": {"segment_id": 1209126, "physicalid": "83617", "street_name": "RIKERS ISLAND BRG", "borough": "queens", "direction": "TW", "total_row_ft": 61.6, "roadbed_ft": 31.6, "median_ft": 0.0, "left_sw_ft": 15.0, "right_sw_ft": 15.0}, "geometry": {"type": "LineString", "coordinates": [[-73.88688719439287, 40.7837792066506], [-73.88727340923897, 40.78392855067364]]}}, {"type": "Feature", "properties": {"segment_id": 1209127, "physicalid": "83617", "street_name": "RIKERS ISLAND BRG", "borough": "queens", "direction": "TW", "total_row_ft": 61.6, "roadbed_ft": 31.6, "median_ft": 0.0, "left_sw_ft": 15.0, "right_sw_ft": 15.0}, "geometry": {"type": "LineString", "coordinates": [[-73.88691994083989, 40.783730279405795], [-73.88730615547561, 40.78387962332028]]}}, {"type": "Feature", "properties": {"segment_id": 1209128, "physicalid": "83617", "street_name": "RIKERS ISLAND BRG", "borough": "queens", "direction": "TW", "total_row_ft": 61.7, "roadbed_ft": 31.7, "median_ft": 0.0, "left_sw_ft": 15.0, "right_sw_ft": 15.0}, "geometry": {"type": "LineString", "coordinates": [[-73.88695268723879, 40.78368135215133], [-73.88733890166414, 40.78383069595719]]}}, {"type": "Feature", "properties": {"segment_id": 1209129, "physicalid": "83617", "street_name": "RIKERS ISLAND BRG", "borough": "queens", "direction": "TW", "total_row_ft": 61.7, "roadbed_ft": 31.7, "median_ft": 0.0, "left_sw_ft": 15.0, "right_sw_ft": 15.0}, "geometry": {"type": "LineString", "coordinates": [[-73.88698543358954, 40.78363242488721], [-73.88737164780454, 40.78378176858444]]}}, {"type": "Feature", "properties": {"segment_id": 1209130, "physicalid": "83617", "street_name": "RIKERS ISLAND BRG", "borough": "queens", "direction": "TW", "total_row_ft": 61.7, "roadbed_ft": 31.7, "median_ft": 0.0, "left_sw_ft": 15.0, "right_sw_ft": 15.0}, "geometry": {"type": "LineString", "coordinates": [[-73.88701817989217, 40.78358349761343], [-73.88740439389684, 40.78373284120201]]}}, {"type": "Feature", "properties": {"segment_id": 1209131, "physicalid": "83617", "street_name": "RIKERS ISLAND BRG", "borough": "queens", "direction": "TW", "total_row_ft": 61.9, "roadbed_ft": 31.9, "median_ft": 0.0, "left_sw_ft": 15.0, "right_sw_ft": 15.0}, "geometry": {"type": "LineString", "coordinates": [[-73.88705092614667, 40.78353457032997], [-73.88743713994101, 40.78368391380991]]}}, {"type": "Feature", "properties": {"segment_id": 1209132, "physicalid": "83617", "street_name": "RIKERS ISLAND BRG", "borough": "queens", "direction": "TW", "total_row_ft": 62.0, "roadbed_ft": 32.0, "median_ft": 0.0, "left_sw_ft": 15.0, "right_sw_ft": 15.0}, "geometry": {"type": "LineString", "coordinates": [[-73.88708367235304, 40.78348564303681], [-73.88746988593704, 40.783634986408146]]}}, {"type": "Feature", "properties": {"segment_id": 1209133, "physicalid": "83617", "street_name": "RIKERS ISLAND BRG", "borough": "queens", "direction": "TW", "total_row_ft": 62.2, "roadbed_ft": 32.2, "median_ft": 0.0, "left_sw_ft": 15.0, "right_sw_ft": 15.0}, "geometry": {"type": "LineString", "coordinates": [[-73.88711641851131, 40.783436715733984], [-73.88750263188494, 40.78358605899671]]}}, {"type": "Feature", "properties": {"segment_id": 1209134, "physicalid": "83617", "street_name": "RIKERS ISLAND BRG", "borough": "queens", "direction": "TW", "total_row_ft": 62.4, "roadbed_ft": 32.4, "median_ft": 0.0, "left_sw_ft": 15.0, "right_sw_ft": 15.0}, "geometry": {"type": "LineString", "coordinates": [[-73.88714916462143, 40.783387788421514], [-73.88753537778472, 40.7835371315756]]}}, {"type": "Feature", "properties": {"segment_id": 1209135, "physicalid": "83617", "street_name": "RIKERS ISLAND BRG", "borough": "queens", "direction": "TW", "total_row_ft": 62.5, "roadbed_ft": 32.5, "median_ft": 0.0, "left_sw_ft": 15.0, "right_sw_ft": 15.0}, "geometry": {"type": "LineString", "coordinates": [[-73.88718191068345, 40.7833388610993], [-73.88756812363636, 40.78348820414484]]}}, {"type": "Feature", "properties": {"segment_id": 1209136, "physicalid": "83617", "street_name": "RIKERS ISLAND BRG", "borough": "queens", "direction": "TW", "total_row_ft": 62.6, "roadbed_ft": 32.6, "median_ft": 0.0, "left_sw_ft": 15.0, "right_sw_ft": 15.0}, "geometry": {"type": "LineString", "coordinates": [[-73.88721465669734, 40.78328993376747], [-73.88760086943988, 40.78343927670439]]}}, {"type": "Feature", "properties": {"segment_id": 1209137, "physicalid": "83617", "street_name": "RIKERS ISLAND BRG", "borough": "queens", "direction": "TW", "total_row_ft": 62.7, "roadbed_ft": 32.7, "median_ft": 0.0, "left_sw_ft": 15.0, "right_sw_ft": 15.0}, "geometry": {"type": "LineString", "coordinates": [[-73.88724740266309, 40.78324100642596], [-73.88763361519528, 40.783390349254255]]}}, {"type": "Feature", "properties": {"segment_id": 1209138, "physicalid": "83617", "street_name": "RIKERS ISLAND BRG", "borough": "queens", "direction": "TW", "total_row_ft": 62.8, "roadbed_ft": 32.8, "median_ft": 0.0, "left_sw_ft": 15.0, "right_sw_ft": 15.0}, "geometry": {"type": "LineString", "coordinates": [[-73.88728014858071, 40.78319207907481], [-73.88766636090259, 40.78334142179445]]}}, {"type": "Feature", "properties": {"segment_id": 1209139, "physicalid": "83617", "street_name": "RIKERS ISLAND BRG", "borough": "queens", "direction": "TW", "total_row_ft": 62.8, "roadbed_ft": 32.8, "median_ft": 0.0, "left_sw_ft": 15.0, "right_sw_ft": 15.0}, "geometry": {"type": "LineString", "coordinates": [[-73.8873128944502, 40.78314315171396], [-73.88769910656173, 40.78329249432496]]}}, {"type": "Feature", "properties": {"segment_id": 1209140, "physicalid": "83617", "street_name": "RIKERS ISLAND BRG", "borough": "queens", "direction": "TW", "total_row_ft": 62.9, "roadbed_ft": 32.9, "median_ft": 0.0, "left_sw_ft": 15.0, "right_sw_ft": 15.0}, "geometry": {"type": "LineString", "coordinates": [[-73.88734564027159, 40.783094224343415], [-73.88773185217276, 40.78324356684582]]}}, {"type": "Feature", "properties": {"segment_id": 1209141, "physicalid": "83617", "street_name": "RIKERS ISLAND BRG", "borough": "queens", "direction": "TW", "total_row_ft": 62.9, "roadbed_ft": 32.9, "median_ft": 0.0, "left_sw_ft": 15.0, "right_sw_ft": 15.0}, "geometry": {"type": "LineString", "coordinates": [[-73.88737838604484, 40.783045296963216], [-73.88776459773567, 40.78319463935699]]}}, {"type": "Feature", "properties": {"segment_id": 1209142, "physicalid": "83617", "street_name": "RIKERS ISLAND BRG", "borough": "queens", "direction": "TW", "total_row_ft": 62.8, "roadbed_ft": 32.8, "median_ft": 0.0, "left_sw_ft": 15.0, "right_sw_ft": 15.0}, "geometry": {"type": "LineString", "coordinates": [[-73.88741113176998, 40.78299636957336], [-73.88779734325045, 40.783145711858495]]}}, {"type": "Feature", "properties": {"segment_id": 1209143, "physicalid": "83617", "street_name": "RIKERS ISLAND BRG", "borough": "queens", "direction": "TW", "total_row_ft": 62.6, "roadbed_ft": 32.6, "median_ft": 0.0, "left_sw_ft": 15.0, "right_sw_ft": 15.0}, "geometry": {"type": "LineString", "coordinates": [[-73.887443877447, 40.78294744217379], [-73.88783008871707, 40.78309678435037]]}}, {"type": "Feature", "properties": {"segment_id": 1209144, "physicalid": "83617", "street_name": "RIKERS ISLAND BRG", "borough": "queens", "direction": "TW", "total_row_ft": 62.3, "roadbed_ft": 32.3, "median_ft": 0.0, "left_sw_ft": 15.0, "right_sw_ft": 15.0}, "geometry": {"type": "LineString", "coordinates": [[-73.88747662307588, 40.782898514764575], [-73.8878628341356, 40.783047856832546]]}}, {"type": "Feature", "properties": {"segment_id": 1209145, "physicalid": "83617", "street_name": "RIKERS ISLAND BRG", "borough": "queens", "direction": "TW", "total_row_ft": 62.1, "roadbed_ft": 32.1, "median_ft": 0.0, "left_sw_ft": 15.0, "right_sw_ft": 15.0}, "geometry": {"type": "LineString", "coordinates": [[-73.88750936865662, 40.78284958734572], [-73.88789557950604, 40.782998929305]]}}, {"type": "Feature", "properties": {"segment_id": 1209146, "physicalid": "83617", "street_name": "RIKERS ISLAND BRG", "borough": "queens", "direction": "TW", "total_row_ft": 61.9, "roadbed_ft": 31.9, "median_ft": 0.0, "left_sw_ft": 15.0, "right_sw_ft": 15.0}, "geometry": {"type": "LineString", "coordinates": [[-73.88754211418924, 40.78280065991716], [-73.88792832482832, 40.78295000176783]]}}, {"type": "Feature", "properties": {"segment_id": 1209147, "physicalid": "83617", "street_name": "RIKERS ISLAND BRG", "borough": "queens", "direction": "TW", "total_row_ft": 61.7, "roadbed_ft": 31.7, "median_ft": 0.0, "left_sw_ft": 15.0, "right_sw_ft": 15.0}, "geometry": {"type": "LineString", "coordinates": [[-73.88757485967376, 40.78275173247894], [-73.88796107010248, 40.78290107422097]]}}, {"type": "Feature", "properties": {"segment_id": 1209148, "physicalid": "83617", "street_name": "RIKERS ISLAND BRG", "borough": "queens", "direction": "TW", "total_row_ft": 61.7, "roadbed_ft": 31.7, "median_ft": 0.0, "left_sw_ft": 15.0, "right_sw_ft": 15.0}, "geometry": {"type": "LineString", "coordinates": [[-73.88760760511015, 40.78270280503103], [-73.88799381532851, 40.78285214666445]]}}, {"type": "Feature", "properties": {"segment_id": 1209149, "physicalid": "83617", "street_name": "RIKERS ISLAND BRG", "borough": "queens", "direction": "TW", "total_row_ft": 61.9, "roadbed_ft": 31.9, "median_ft": 0.0, "left_sw_ft": 15.0, "right_sw_ft": 15.0}, "geometry": {"type": "LineString", "coordinates": [[-73.88764035049842, 40.78265387757345], [-73.88802656050642, 40.78280321909826]]}}, {"type": "Feature", "properties": {"segment_id": 1209150, "physicalid": "83617", "street_name": "RIKERS ISLAND BRG", "borough": "queens", "direction": "TW", "total_row_ft": 62.1, "roadbed_ft": 32.1, "median_ft": 0.0, "left_sw_ft": 15.0, "right_sw_ft": 15.0}, "geometry": {"type": "LineString", "coordinates": [[-73.88767309583857, 40.78260495010618], [-73.88805930563619, 40.78275429152244]]}}, {"type": "Feature", "properties": {"segment_id": 1209151, "physicalid": "83617", "street_name": "RIKERS ISLAND BRG", "borough": "queens", "direction": "TW", "total_row_ft": 62.4, "roadbed_ft": 32.4, "median_ft": 0.0, "left_sw_ft": 15.0, "right_sw_ft": 15.0}, "geometry": {"type": "LineString", "coordinates": [[-73.88770584113058, 40.78255602262926], [-73.88809205071784, 40.782705363936905]]}}, {"type": "Feature", "properties": {"segment_id": 1209152, "physicalid": "83617", "street_name": "RIKERS ISLAND BRG", "borough": "queens", "direction": "TW", "total_row_ft": 62.6, "roadbed_ft": 32.6, "median_ft": 0.0, "left_sw_ft": 15.0, "right_sw_ft": 15.0}, "geometry": {"type": "LineString", "coordinates": [[-73.88773858637447, 40.78250709514268], [-73.88812479575138, 40.782656436341696]]}}, {"type": "Feature", "properties": {"segment_id": 1209153, "physicalid": "83617", "street_name": "RIKERS ISLAND BRG", "borough": "queens", "direction": "TW", "total_row_ft": 62.7, "roadbed_ft": 32.7, "median_ft": 0.0, "left_sw_ft": 15.0, "right_sw_ft": 15.0}, "geometry": {"type": "LineString", "coordinates": [[-73.88777133157022, 40.782458167646446], [-73.88815754073683, 40.78260750873678]]}}, {"type": "Feature", "properties": {"segment_id": 1209154, "physicalid": "83617", "street_name": "RIKERS ISLAND BRG", "borough": "queens", "direction": "TW", "total_row_ft": 62.8, "roadbed_ft": 32.8, "median_ft": 0.0, "left_sw_ft": 15.0, "right_sw_ft": 15.0}, "geometry": {"type": "LineString", "coordinates": [[-73.88780407671786, 40.78240924014052], [-73.88819028567411, 40.78255858112223]]}}, {"type": "Feature", "properties": {"segment_id": 1209155, "physicalid": "83617", "street_name": "RIKERS ISLAND BRG", "borough": "queens", "direction": "TW", "total_row_ft": 62.9, "roadbed_ft": 32.9, "median_ft": 0.0, "left_sw_ft": 15.0, "right_sw_ft": 15.0}, "geometry": {"type": "LineString", "coordinates": [[-73.88783682181739, 40.78236031262492], [-73.88822303056328, 40.78250965349802]]}}, {"type": "Feature", "properties": {"segment_id": 1209156, "physicalid": "83617", "street_name": "RIKERS ISLAND BRG", "borough": "queens", "direction": "TW", "total_row_ft": 63.0, "roadbed_ft": 33.0, "median_ft": 0.0, "left_sw_ft": 15.0, "right_sw_ft": 15.0}, "geometry": {"type": "LineString", "coordinates": [[-73.88786956686877, 40.78231138509963], [-73.88825577540433, 40.78246072586413]]}}, {"type": "Feature", "properties": {"segment_id": 1209157, "physicalid": "83617", "street_name": "RIKERS ISLAND BRG", "borough": "queens", "direction": "TW", "total_row_ft": 63.1, "roadbed_ft": 33.1, "median_ft": 0.0, "left_sw_ft": 15.0, "right_sw_ft": 15.0}, "geometry": {"type": "LineString", "coordinates": [[-73.88790231187204, 40.7822624575647], [-73.88828852019725, 40.78241179822057]]}}, {"type": "Feature", "properties": {"segment_id": 1209158, "physicalid": "83617", "street_name": "RIKERS ISLAND BRG", "borough": "queens", "direction": "TW", "total_row_ft": 63.1, "roadbed_ft": 33.1, "median_ft": 0.0, "left_sw_ft": 15.0, "right_sw_ft": 15.0}, "geometry": {"type": "LineString", "coordinates": [[-73.88793505682722, 40.78221353002005], [-73.88832126494202, 40.782362870567354]]}}, {"type": "Feature", "properties": {"segment_id": 1209159, "physicalid": "83617", "street_name": "RIKERS ISLAND BRG", "borough": "queens", "direction": "TW", "total_row_ft": 63.0, "roadbed_ft": 33.0, "median_ft": 0.0, "left_sw_ft": 15.0, "right_sw_ft": 15.0}, "geometry": {"type": "LineString", "coordinates": [[-73.88796780173425, 40.78216460246575], [-73.8883540096387, 40.78231394290445]]}}, {"type": "Feature", "properties": {"segment_id": 1209160, "physicalid": "83617", "street_name": "RIKERS ISLAND BRG", "borough": "queens", "direction": "TW", "total_row_ft": 62.8, "roadbed_ft": 32.8, "median_ft": 0.0, "left_sw_ft": 15.0, "right_sw_ft": 15.0}, "geometry": {"type": "LineString", "coordinates": [[-73.88800054659315, 40.78211567490179], [-73.88838675428725, 40.78226501523187]]}}, {"type": "Feature", "properties": {"segment_id": 1209161, "physicalid": "83617", "street_name": "RIKERS ISLAND BRG", "borough": "queens", "direction": "TW", "total_row_ft": 62.7, "roadbed_ft": 32.7, "median_ft": 0.0, "left_sw_ft": 15.0, "right_sw_ft": 15.0}, "geometry": {"type": "LineString", "coordinates": [[-73.88803329140391, 40.7820667473282], [-73.8884194988877, 40.78221608754961]]}}, {"type": "Feature", "properties": {"segment_id": 1209162, "physicalid": "83617", "street_name": "RIKERS ISLAND BRG", "borough": "queens", "direction": "TW", "total_row_ft": 62.5, "roadbed_ft": 32.5, "median_ft": 0.0, "left_sw_ft": 15.0, "right_sw_ft": 15.0}, "geometry": {"type": "LineString", "coordinates": [[-73.88806603616656, 40.7820178197449], [-73.88845224344001, 40.78216715985767]]}}, {"type": "Feature", "properties": {"segment_id": 1209163, "physicalid": "83617", "street_name": "RIKERS ISLAND BRG", "borough": "queens", "direction": "TW", "total_row_ft": 62.4, "roadbed_ft": 32.4, "median_ft": 0.0, "left_sw_ft": 15.0, "right_sw_ft": 15.0}, "geometry": {"type": "LineString", "coordinates": [[-73.88809878088111, 40.78196889215192], [-73.8884849879442, 40.78211823215608]]}}, {"type": "Feature", "properties": {"segment_id": 1209164, "physicalid": "83617", "street_name": "RIKERS ISLAND BRG", "borough": "queens", "direction": "TW", "total_row_ft": 62.3, "roadbed_ft": 32.3, "median_ft": 0.0, "left_sw_ft": 15.0, "right_sw_ft": 15.0}, "geometry": {"type": "LineString", "coordinates": [[-73.88813152554751, 40.78191996454928], [-73.88851773240027, 40.78206930444482]]}}, {"type": "Feature", "properties": {"segment_id": 1209165, "physicalid": "83617", "street_name": "RIKERS ISLAND BRG", "borough": "queens", "direction": "TW", "total_row_ft": 62.3, "roadbed_ft": 32.3, "median_ft": 0.0, "left_sw_ft": 15.0, "right_sw_ft": 15.0}, "geometry": {"type": "LineString", "coordinates": [[-73.8881642701658, 40.78187103693697], [-73.8885504768082, 40.7820203767239]]}}, {"type": "Feature", "properties": {"segment_id": 1209166, "physicalid": "83617", "street_name": "RIKERS ISLAND BRG", "borough": "queens", "direction": "TW", "total_row_ft": 62.3, "roadbed_ft": 32.3, "median_ft": 0.0, "left_sw_ft": 15.0, "right_sw_ft": 15.0}, "geometry": {"type": "LineString", "coordinates": [[-73.888197014736, 40.78182210931493], [-73.888583221168, 40.78197144899331]]}}, {"type": "Feature", "properties": {"segment_id": 1209167, "physicalid": "83617", "street_name": "RIKERS ISLAND BRG", "borough": "queens", "direction": "TW", "total_row_ft": 62.2, "roadbed_ft": 32.2, "median_ft": 0.0, "left_sw_ft": 15.0, "right_sw_ft": 15.0}, "geometry": {"type": "LineString", "coordinates": [[-73.88822975925804, 40.781773181683306], [-73.88861596547969, 40.781922521253044]]}}, {"type": "Feature", "properties": {"segment_id": 1209168, "physicalid": "83617", "street_name": "RIKERS ISLAND BRG", "borough": "queens", "direction": "TW", "total_row_ft": 62.2, "roadbed_ft": 32.2, "median_ft": 0.0, "left_sw_ft": 15.0, "right_sw_ft": 15.0}, "geometry": {"type": "LineString", "coordinates": [[-73.88826250373195, 40.78172425404196], [-73.88864870974328, 40.781873593503114]]}}, {"type": "Feature", "properties": {"segment_id": 1209169, "physicalid": "83617", "street_name": "RIKERS ISLAND BRG", "borough": "queens", "direction": "TW", "total_row_ft": 62.3, "roadbed_ft": 32.3, "median_ft": 0.0, "left_sw_ft": 15.0, "right_sw_ft": 15.0}, "geometry": {"type": "LineString", "coordinates": [[-73.88829524815773, 40.78167532639099], [-73.88868145395875, 40.78182466574345]]}}, {"type": "Feature", "properties": {"segment_id": 1209170, "physicalid": "83617", "street_name": "RIKERS ISLAND BRG", "borough": "queens", "direction": "TW", "total_row_ft": 62.4, "roadbed_ft": 32.4, "median_ft": 0.0, "left_sw_ft": 15.0, "right_sw_ft": 15.0}, "geometry": {"type": "LineString", "coordinates": [[-73.88832799253542, 40.78162639873033], [-73.88871419812608, 40.781775737974165]]}}, {"type": "Feature", "properties": {"segment_id": 1209171, "physicalid": "83617", "street_name": "RIKERS ISLAND BRG", "borough": "queens", "direction": "TW", "total_row_ft": 62.4, "roadbed_ft": 32.4, "median_ft": 0.0, "left_sw_ft": 15.0, "right_sw_ft": 15.0}, "geometry": {"type": "LineString", "coordinates": [[-73.88836073686498, 40.78157747106], [-73.88874694224528, 40.78172681019522]]}}, {"type": "Feature", "properties": {"segment_id": 1209172, "physicalid": "83617", "street_name": "RIKERS ISLAND BRG", "borough": "queens", "direction": "TW", "total_row_ft": 62.4, "roadbed_ft": 32.4, "median_ft": 0.0, "left_sw_ft": 15.0, "right_sw_ft": 15.0}, "geometry": {"type": "LineString", "coordinates": [[-73.88839348114641, 40.78152854337999], [-73.88877968631638, 40.78167788240659]]}}, {"type": "Feature", "properties": {"segment_id": 1209173, "physicalid": "83617", "street_name": "RIKERS ISLAND BRG", "borough": "queens", "direction": "TW", "total_row_ft": 62.4, "roadbed_ft": 32.4, "median_ft": 0.0, "left_sw_ft": 15.0, "right_sw_ft": 15.0}, "geometry": {"type": "LineString", "coordinates": [[-73.88842622537973, 40.78147961569031], [-73.88881243033933, 40.78162895460828]]}}, {"type": "Feature", "properties": {"segment_id": 1209174, "physicalid": "83617", "street_name": "RIKERS ISLAND BRG", "borough": "queens", "direction": "TW", "total_row_ft": 62.3, "roadbed_ft": 32.3, "median_ft": 0.0, "left_sw_ft": 15.0, "right_sw_ft": 15.0}, "geometry": {"type": "LineString", "coordinates": [[-73.88845896956494, 40.78143068799092], [-73.88884517431417, 40.781580026800356]]}}, {"type": "Feature", "properties": {"segment_id": 1209175, "physicalid": "83617", "street_name": "RIKERS ISLAND BRG", "borough": "queens", "direction": "TW", "total_row_ft": 62.3, "roadbed_ft": 32.3, "median_ft": 0.0, "left_sw_ft": 15.0, "right_sw_ft": 15.0}, "geometry": {"type": "LineString", "coordinates": [[-73.88849171370201, 40.78138176028191], [-73.88887791824088, 40.781531098982725]]}}, {"type": "Feature", "properties": {"segment_id": 1209176, "physicalid": "83617", "street_name": "RIKERS ISLAND BRG", "borough": "queens", "direction": "TW", "total_row_ft": 62.3, "roadbed_ft": 32.3, "median_ft": 0.0, "left_sw_ft": 15.0, "right_sw_ft": 15.0}, "geometry": {"type": "LineString", "coordinates": [[-73.88852445779095, 40.78133283256326], [-73.8889106621195, 40.781482171155375]]}}, {"type": "Feature", "properties": {"segment_id": 1209177, "physicalid": "83617", "street_name": "RIKERS ISLAND BRG", "borough": "queens", "direction": "TW", "total_row_ft": 62.3, "roadbed_ft": 32.3, "median_ft": 0.0, "left_sw_ft": 15.0, "right_sw_ft": 15.0}, "geometry": {"type": "LineString", "coordinates": [[-73.88855720183177, 40.78128390483489], [-73.88894340594999, 40.7814332433184]]}}, {"type": "Feature", "properties": {"segment_id": 1209178, "physicalid": "83617", "street_name": "RIKERS ISLAND BRG", "borough": "queens", "direction": "TW", "total_row_ft": 62.6, "roadbed_ft": 32.6, "median_ft": 0.0, "left_sw_ft": 15.0, "right_sw_ft": 15.0}, "geometry": {"type": "LineString", "coordinates": [[-73.88858994582449, 40.78123497709686], [-73.88897614973234, 40.781384315471755]]}}, {"type": "Feature", "properties": {"segment_id": 1209179, "physicalid": "83617", "street_name": "RIKERS ISLAND BRG", "borough": "queens", "direction": "TW", "total_row_ft": 62.8, "roadbed_ft": 32.8, "median_ft": 0.0, "left_sw_ft": 15.0, "right_sw_ft": 15.0}, "geometry": {"type": "LineString", "coordinates": [[-73.88862268976906, 40.78118604934916], [-73.88900889346658, 40.78133538761543]]}}, {"type": "Feature", "properties": {"segment_id": 1209180, "physicalid": "83617", "street_name": "RIKERS ISLAND BRG", "borough": "queens", "direction": "TW", "total_row_ft": 63.1, "roadbed_ft": 33.1, "median_ft": 0.0, "left_sw_ft": 15.0, "right_sw_ft": 15.0}, "geometry": {"type": "LineString", "coordinates": [[-73.88865543366553, 40.78113712159179], [-73.88904163715269, 40.78128645974945]]}}, {"type": "Feature", "properties": {"segment_id": 1209181, "physicalid": "83617", "street_name": "RIKERS ISLAND BRG", "borough": "queens", "direction": "TW", "total_row_ft": 63.3, "roadbed_ft": 33.3, "median_ft": 0.0, "left_sw_ft": 15.0, "right_sw_ft": 15.0}, "geometry": {"type": "LineString", "coordinates": [[-73.8886881775139, 40.781088193824715], [-73.88907438079067, 40.78123753187382]]}}, {"type": "Feature", "properties": {"segment_id": 1209182, "physicalid": "83617", "street_name": "RIKERS ISLAND BRG", "borough": "queens", "direction": "TW", "total_row_ft": 63.5, "roadbed_ft": 33.5, "median_ft": 0.0, "left_sw_ft": 15.0, "right_sw_ft": 15.0}, "geometry": {"type": "LineString", "coordinates": [[-73.88872092131412, 40.781039266048], [-73.88910712438056, 40.7811886039885]]}}, {"type": "Feature", "properties": {"segment_id": 1209183, "physicalid": "83617", "street_name": "RIKERS ISLAND BRG", "borough": "queens", "direction": "TW", "total_row_ft": 63.8, "roadbed_ft": 33.8, "median_ft": 0.0, "left_sw_ft": 15.0, "right_sw_ft": 15.0}, "geometry": {"type": "LineString", "coordinates": [[-73.88875366506622, 40.780990338261624], [-73.88913986792231, 40.7811396760935]]}}, {"type": "Feature", "properties": {"segment_id": 1209184, "physicalid": "83617", "street_name": "RIKERS ISLAND BRG", "borough": "queens", "direction": "TW", "total_row_ft": 64.0, "roadbed_ft": 34.0, "median_ft": 0.0, "left_sw_ft": 15.0, "right_sw_ft": 15.0}, "geometry": {"type": "LineString", "coordinates": [[-73.88878640877019, 40.78094141046561], [-73.88917261141596, 40.78109074818881]]}}, {"type": "Feature", "properties": {"segment_id": 1209185, "physicalid": "83617", "street_name": "RIKERS ISLAND BRG", "borough": "queens", "direction": "TW", "total_row_ft": 64.3, "roadbed_ft": 34.3, "median_ft": 0.0, "left_sw_ft": 15.0, "right_sw_ft": 15.0}, "geometry": {"type": "LineString", "coordinates": [[-73.88881915242604, 40.780892482659894], [-73.88920535486147, 40.78104182027447]]}}, {"type": "Feature", "properties": {"segment_id": 1209186, "physicalid": "83617", "street_name": "RIKERS ISLAND BRG", "borough": "queens", "direction": "TW", "total_row_ft": 64.4, "roadbed_ft": 34.4, "median_ft": 0.0, "left_sw_ft": 15.0, "right_sw_ft": 15.0}, "geometry": {"type": "LineString", "coordinates": [[-73.88885189603378, 40.78084355484448], [-73.88923809825887, 40.78099289235046]]}}, {"type": "Feature", "properties": {"segment_id": 1209187, "physicalid": "83617", "street_name": "RIKERS ISLAND BRG", "borough": "queens", "direction": "TW", "total_row_ft": 64.4, "roadbed_ft": 34.4, "median_ft": 0.0, "left_sw_ft": 15.0, "right_sw_ft": 15.0}, "geometry": {"type": "LineString", "coordinates": [[-73.88888463959341, 40.78079462701944], [-73.88927084160814, 40.78094396441679]]}}, {"type": "Feature", "properties": {"segment_id": 1209188, "physicalid": "83617", "street_name": "RIKERS ISLAND BRG", "borough": "queens", "direction": "TW", "total_row_ft": 64.5, "roadbed_ft": 34.5, "median_ft": 0.0, "left_sw_ft": 15.0, "right_sw_ft": 15.0}, "geometry": {"type": "LineString", "coordinates": [[-73.88891738310491, 40.78074569918472], [-73.88930358490929, 40.78089503647343]]}}, {"type": "Feature", "properties": {"segment_id": 1209189, "physicalid": "83617", "street_name": "RIKERS ISLAND BRG", "borough": "queens", "direction": "TW", "total_row_ft": 64.5, "roadbed_ft": 34.5, "median_ft": 0.0, "left_sw_ft": 15.0, "right_sw_ft": 15.0}, "geometry": {"type": "LineString", "coordinates": [[-73.8889501265683, 40.78069677134028], [-73.88933632816232, 40.78084610852045]]}}, {"type": "Feature", "properties": {"segment_id": 1209190, "physicalid": "83617", "street_name": "RIKERS ISLAND BRG", "borough": "queens", "direction": "TW", "total_row_ft": 64.5, "roadbed_ft": 34.5, "median_ft": 0.0, "left_sw_ft": 15.0, "right_sw_ft": 15.0}, "geometry": {"type": "LineString", "coordinates": [[-73.88898286998358, 40.780647843486214], [-73.88936907136723, 40.78079718055777]]}}, {"type": "Feature", "properties": {"segment_id": 1209191, "physicalid": "83617", "street_name": "RIKERS ISLAND BRG", "borough": "queens", "direction": "TW", "total_row_ft": 64.5, "roadbed_ft": 34.5, "median_ft": 0.0, "left_sw_ft": 15.0, "right_sw_ft": 15.0}, "geometry": {"type": "LineString", "coordinates": [[-73.88901561335072, 40.78059891562248], [-73.88940181452402, 40.78074825258542]]}}, {"type": "Feature", "properties": {"segment_id": 1209192, "physicalid": "83617", "street_name": "RIKERS ISLAND BRG", "borough": "queens", "direction": "TW", "total_row_ft": 64.5, "roadbed_ft": 34.5, "median_ft": 0.0, "left_sw_ft": 15.0, "right_sw_ft": 15.0}, "geometry": {"type": "LineString", "coordinates": [[-73.88904835666972, 40.7805499877491], [-73.88943455763271, 40.780699324603354]]}}, {"type": "Feature", "properties": {"segment_id": 1209193, "physicalid": "83617", "street_name": "RIKERS ISLAND BRG", "borough": "queens", "direction": "TW", "total_row_ft": 64.6, "roadbed_ft": 34.6, "median_ft": 0.0, "left_sw_ft": 15.0, "right_sw_ft": 15.0}, "geometry": {"type": "LineString", "coordinates": [[-73.88908109994063, 40.780501059866026], [-73.88946730069327, 40.780650396611655]]}}, {"type": "Feature", "properties": {"segment_id": 1209194, "physicalid": "83617", "street_name": "RIKERS ISLAND BRG", "borough": "queens", "direction": "TW", "total_row_ft": 64.5, "roadbed_ft": 34.5, "median_ft": 0.0, "left_sw_ft": 15.0, "right_sw_ft": 15.0}, "geometry": {"type": "LineString", "coordinates": [[-73.8891138431634, 40.78045213197329], [-73.8895000437057, 40.78060146861031]]}}, {"type": "Feature", "properties": {"segment_id": 1209195, "physicalid": "83617", "street_name": "RIKERS ISLAND BRG", "borough": "queens", "direction": "TW", "total_row_ft": 64.5, "roadbed_ft": 34.5, "median_ft": 0.0, "left_sw_ft": 15.0, "right_sw_ft": 15.0}, "geometry": {"type": "LineString", "coordinates": [[-73.88914658633806, 40.78040320407088], [-73.88953278667002, 40.78055254059929]]}}, {"type": "Feature", "properties": {"segment_id": 1209196, "physicalid": "83617", "street_name": "RIKERS ISLAND BRG", "borough": "queens", "direction": "TW", "total_row_ft": 64.4, "roadbed_ft": 34.4, "median_ft": 0.0, "left_sw_ft": 15.0, "right_sw_ft": 15.0}, "geometry": {"type": "LineString", "coordinates": [[-73.88918017528876, 40.78035359906671], [-73.88956530115037, 40.78050453001254]]}}, {"type": "Feature", "properties": {"segment_id": 1209197, "physicalid": "83617", "street_name": "RIKERS ISLAND BRG", "borough": "queens", "direction": "TW", "total_row_ft": 64.3, "roadbed_ft": 34.3, "median_ft": 0.0, "left_sw_ft": 15.0, "right_sw_ft": 15.0}, "geometry": {"type": "LineString", "coordinates": [[-73.88921326797586, 40.780304807244136], [-73.88959839363027, 40.78045573808049]]}}, {"type": "Feature", "properties": {"segment_id": 1209198, "physicalid": "83617", "street_name": "RIKERS ISLAND BRG", "borough": "queens", "direction": "TW", "total_row_ft": 64.2, "roadbed_ft": 34.2, "median_ft": 0.0, "left_sw_ft": 15.0, "right_sw_ft": 15.0}, "geometry": {"type": "LineString", "coordinates": [[-73.88924636061448, 40.78025601541166], [-73.88963148606166, 40.780406946138626]]}}, {"type": "Feature", "properties": {"segment_id": 1209199, "physicalid": "83617", "street_name": "RIKERS ISLAND BRG", "borough": "queens", "direction": "TW", "total_row_ft": 64.1, "roadbed_ft": 34.1, "median_ft": 0.0, "left_sw_ft": 15.0, "right_sw_ft": 15.0}, "geometry": {"type": "LineString", "coordinates": [[-73.88927945320458, 40.780207223569384], [-73.88966457844455, 40.780358154186864]]}}, {"type": "Feature", "properties": {"segment_id": 1209200, "physicalid": "83617", "street_name": "RIKERS ISLAND BRG", "borough": "queens", "direction": "TW", "total_row_ft": 64.0, "roadbed_ft": 34.0, "median_ft": 0.0, "left_sw_ft": 15.0, "right_sw_ft": 15.0}, "geometry": {"type": "LineString", "coordinates": [[-73.88931254574618, 40.780158431717226], [-73.88969767077896, 40.78030936222523]]}}, {"type": "Feature", "properties": {"segment_id": 1209201, "physicalid": "83617", "street_name": "RIKERS ISLAND BRG", "borough": "queens", "direction": "TW", "total_row_ft": 64.0, "roadbed_ft": 34.0, "median_ft": 0.0, "left_sw_ft": 15.0, "right_sw_ft": 15.0}, "geometry": {"type": "LineString", "coordinates": [[-73.88934563823925, 40.78010963985522], [-73.8897307630649, 40.780260570253695]]}}, {"type": "Feature", "properties": {"segment_id": 1209202, "physicalid": "83617", "street_name": "RIKERS ISLAND BRG", "borough": "queens", "direction": "TW", "total_row_ft": 63.9, "roadbed_ft": 33.9, "median_ft": 0.0, "left_sw_ft": 15.0, "right_sw_ft": 15.0}, "geometry": {"type": "LineString", "coordinates": [[-73.88937873068386, 40.78006084798331], [-73.8897638553023, 40.78021177827232]]}}, {"type": "Feature", "properties": {"segment_id": 1209203, "physicalid": "83617", "street_name": "RIKERS ISLAND BRG", "borough": "queens", "direction": "TW", "total_row_ft": 63.8, "roadbed_ft": 33.8, "median_ft": 0.0, "left_sw_ft": 15.0, "right_sw_ft": 15.0}, "geometry": {"type": "LineString", "coordinates": [[-73.88941182307997, 40.78001205610157], [-73.88979694749122, 40.7801629862811]]}}, {"type": "Feature", "properties": {"segment_id": 1209204, "physicalid": "83617", "street_name": "RIKERS ISLAND BRG", "borough": "queens", "direction": "TW", "total_row_ft": 63.7, "roadbed_ft": 33.7, "median_ft": 0.0, "left_sw_ft": 15.0, "right_sw_ft": 15.0}, "geometry": {"type": "LineString", "coordinates": [[-73.88944491542757, 40.77996326420992], [-73.88983003963165, 40.78011419427998]]}}]}