{"type": "FeatureCollection", "features": [{"type": "Feature", "properties": {"segment_id": 1705109, "physicalid": "178295", "street_name": "WHITESTONE BRG", "borough": "queens", "direction": "FT", "total_row_ft": 96.4, "roadbed_ft": 62.1, "median_ft": 4.3, "left_sw_ft": 15.0, "right_sw_ft": 15.0}, "geometry": {"type": "LineString", "coordinates": [[-73.82978819435814, 40.802359710751155], [-73.83017725507737, 40.80221453086093]]}}, {"type": "Feature", "properties": {"segment_id": 1705110, "physicalid": "178295", "street_name": "WHITESTONE BRG", "borough": "queens", "direction": "FT", "total_row_ft": 96.7, "roadbed_ft": 62.4, "median_ft": 4.3, "left_sw_ft": 15.0, "right_sw_ft": 15.0}, "geometry": {"type": "LineString", "coordinates": [[-73.8297563522789, 40.802310436659525], [-73.8301454127796, 40.802165256875625]]}}, {"type": "Feature", "properties": {"segment_id": 1705111, "physicalid": "178295", "street_name": "WHITESTONE BRG", "borough": "queens", "direction": "FT", "total_row_ft": 96.9, "roadbed_ft": 62.6, "median_ft": 4.3, "left_sw_ft": 15.0, "right_sw_ft": 15.0}, "geometry": {"type": "LineString", "coordinates": [[-73.82972451024682, 40.80226116255866], [-73.830113570529, 40.80211598288117]]}}, {"type": "Feature", "properties": {"segment_id": 1705112, "physicalid": "178295", "street_name": "WHITESTONE BRG", "borough": "queens", "direction": "FT", "total_row_ft": 97.0, "roadbed_ft": 62.7, "median_ft": 4.3, "left_sw_ft": 15.0, "right_sw_ft": 15.0}, "geometry": {"type": "LineString", "coordinates": [[-73.82969266826191, 40.8022118884487], [-73.83008172832548, 40.80206670887746]]}}, {"type": "Feature", "properties": {"segment_id": 1705113, "physicalid": "178295", "street_name": "WHITESTONE BRG", "borough": "queens", "direction": "FT", "total_row_ft": 96.8, "roadbed_ft": 62.5, "median_ft": 4.3, "left_sw_ft": 15.0, "right_sw_ft": 15.0}, "geometry": {"type": "LineString", "coordinates": [[-73.82966082632412, 40.80216261432952], [-73.83004988616915, 40.80201743486462]]}}, {"type": "Feature", "properties": {"segment_id": 1705114, "physicalid": "178295", "street_name": "WHITESTONE BRG", "borough": "queens", "direction": "FT", "total_row_ft": 96.6, "roadbed_ft": 62.3, "median_ft": 4.3, "left_sw_ft": 15.0, "right_sw_ft": 15.0}, "geometry": {"type": "LineString", "coordinates": [[-73.82962898443344, 40.80211334020111], [-73.83001804405997, 40.80196816084259]]}}, {"type": "Feature", "properties": {"segment_id": 1705115, "physicalid": "178295", "street_name": "WHITESTONE BRG", "borough": "queens", "direction": "FT", "total_row_ft": 96.4, "roadbed_ft": 62.1, "median_ft": 4.3, "left_sw_ft": 15.0, "right_sw_ft": 15.0}, "geometry": {"type": "LineString", "coordinates": [[-73.82959714258993, 40.80206406606358], [-73.8299862019979, 40.80191888681141]]}}, {"type": "Feature", "properties": {"segment_id": 1705116, "physicalid": "178295", "street_name": "WHITESTONE BRG", "borough": "queens", "direction": "FT", "total_row_ft": 96.1, "roadbed_ft": 61.9, "median_ft": 4.3, "left_sw_ft": 15.0, "right_sw_ft": 15.0}, "geometry": {"type": "LineString", "coordinates": [[-73.82956530079359, 40.80201479191687], [-73.82995435998298, 40.80186961277093]]}}, {"type": "Feature", "properties": {"segment_id": 1705117, "physicalid": "178295", "street_name": "WHITESTONE BRG", "borough": "queens", "direction": "FT", "total_row_ft": 95.9, "roadbed_ft": 61.6, "median_ft": 4.3, "left_sw_ft": 15.0, "right_sw_ft": 15.0}, "geometry": {"type": "LineString", "coordinates": [[-73.82953345904434, 40.80196551776094], [-73.82992251801521, 40.801820338721384]]}}, {"type": "Feature", "properties": {"segment_id": 1705118, "physicalid": "178295", "street_name": "WHITESTONE BRG", "borough": "queens", "direction": "FT", "total_row_ft": 95.7, "roadbed_ft": 61.4, "median_ft": 4.3, "left_sw_ft": 15.0, "right_sw_ft": 15.0}, "geometry": {"type": "LineString", "coordinates": [[-73.82950161734226, 40.80191624359583], [-73.82989067609458, 40.80177106466263]]}}, {"type": "Feature", "properties": {"segment_id": 1705119, "physicalid": "178295", "street_name": "WHITESTONE BRG", "borough": "queens", "direction": "FT", "total_row_ft": 95.5, "roadbed_ft": 61.2, "median_ft": 4.3, "left_sw_ft": 15.0, "right_sw_ft": 15.0}, "geometry": {"type": "LineString", "coordinates": [[-73.82946977568734, 40.8018669694216], [-73.82985883422107, 40.80172179059464]]}}, {"type": "Feature", "properties": {"segment_id": 1705120, "physicalid": "178295", "street_name": "WHITESTONE BRG", "borough": "queens", "direction": "FT", "total_row_ft": 95.2, "roadbed_ft": 61.0, "median_ft": 4.3, "left_sw_ft": 15.0, "right_sw_ft": 15.0}, "geometry": {"type": "LineString", "coordinates": [[-73.82943793407951, 40.80181769523809], [-73.82982699239474, 40.80167251651755]]}}, {"type": "Feature", "properties": {"segment_id": 1705121, "physicalid": "178295", "street_name": "WHITESTONE BRG", "borough": "queens", "direction": "FT", "total_row_ft": 95.0, "roadbed_ft": 60.7, "median_ft": 4.3, "left_sw_ft": 15.0, "right_sw_ft": 15.0}, "geometry": {"type": "LineString", "coordinates": [[-73.82940609251885, 40.801768421045466], [-73.82979515061552, 40.80162324243122]]}}, {"type": "Feature", "properties": {"segment_id": 1705122, "physicalid": "178295", "street_name": "WHITESTONE BRG", "borough": "queens", "direction": "FT", "total_row_ft": 94.8, "roadbed_ft": 60.5, "median_ft": 4.3, "left_sw_ft": 15.0, "right_sw_ft": 15.0}, "geometry": {"type": "LineString", "coordinates": [[-73.82937425100535, 40.801719146843666], [-73.82976330888343, 40.80157396833572]]}}, {"type": "Feature", "properties": {"segment_id": 1705123, "physicalid": "178295", "street_name": "WHITESTONE BRG", "borough": "queens", "direction": "FT", "total_row_ft": 94.6, "roadbed_ft": 60.3, "median_ft": 4.3, "left_sw_ft": 15.0, "right_sw_ft": 15.0}, "geometry": {"type": "LineString", "coordinates": [[-73.82934240953895, 40.801669872632615], [-73.82973146719853, 40.80152469423106]]}}, {"type": "Feature", "properties": {"segment_id": 1705124, "physicalid": "178295", "street_name": "WHITESTONE BRG", "borough": "queens", "direction": "FT", "total_row_ft": 94.3, "roadbed_ft": 60.1, "median_ft": 4.3, "left_sw_ft": 15.0, "right_sw_ft": 15.0}, "geometry": {"type": "LineString", "coordinates": [[-73.82931056811972, 40.80162059841245], [-73.82969962556074, 40.8014754201172]]}}, {"type": "Feature", "properties": {"segment_id": 1705125, "physicalid": "178295", "street_name": "WHITESTONE BRG", "borough": "queens", "direction": "FT", "total_row_ft": 94.1, "roadbed_ft": 59.8, "median_ft": 4.3, "left_sw_ft": 15.0, "right_sw_ft": 15.0}, "geometry": {"type": "LineString", "coordinates": [[-73.82927872674765, 40.801571324183094], [-73.82966778397007, 40.80142614599413]]}}, {"type": "Feature", "properties": {"segment_id": 1705126, "physicalid": "178295", "street_name": "WHITESTONE BRG", "borough": "queens", "direction": "FT", "total_row_ft": 93.9, "roadbed_ft": 59.6, "median_ft": 4.3, "left_sw_ft": 15.0, "right_sw_ft": 15.0}, "geometry": {"type": "LineString", "coordinates": [[-73.82924688542265, 40.80152204994451], [-73.82963594242658, 40.80137687186194]]}}, {"type": "Feature", "properties": {"segment_id": 1705127, "physicalid": "178295", "street_name": "WHITESTONE BRG", "borough": "queens", "direction": "FT", "total_row_ft": 93.9, "roadbed_ft": 59.6, "median_ft": 4.3, "left_sw_ft": 15.0, "right_sw_ft": 15.0}, "geometry": {"type": "LineString", "coordinates": [[-73.82921504414485, 40.801472775696766], [-73.82960410093023, 40.80132759772054]]}}, {"type": "Feature", "properties": {"segment_id": 1705128, "physicalid": "178295", "street_name": "WHITESTONE BRG", "borough": "queens", "direction": "FT", "total_row_ft": 93.9, "roadbed_ft": 59.6, "median_ft": 4.3, "left_sw_ft": 15.0, "right_sw_ft": 15.0}, "geometry": {"type": "LineString", "coordinates": [[-73.82918320291418, 40.80142350143991], [-73.82957225948097, 40.8012783235699]]}}, {"type": "Feature", "properties": {"segment_id": 1705129, "physicalid": "178295", "street_name": "WHITESTONE BRG", "borough": "queens", "direction": "FT", "total_row_ft": 93.9, "roadbed_ft": 59.6, "median_ft": 4.3, "left_sw_ft": 15.0, "right_sw_ft": 15.0}, "geometry": {"type": "LineString", "coordinates": [[-73.82915136173064, 40.80137422717378], [-73.8295404180789, 40.801229049410175]]}}, {"type": "Feature", "properties": {"segment_id": 1705130, "physicalid": "178295", "street_name": "WHITESTONE BRG", "borough": "queens", "direction": "FT", "total_row_ft": 93.9, "roadbed_ft": 59.6, "median_ft": 4.3, "left_sw_ft": 15.0, "right_sw_ft": 15.0}, "geometry": {"type": "LineString", "coordinates": [[-73.82911952059423, 40.8013249528985], [-73.82950857672397, 40.801179775241245]]}}, {"type": "Feature", "properties": {"segment_id": 1705131, "physicalid": "178295", "street_name": "WHITESTONE BRG", "borough": "queens", "direction": "FT", "total_row_ft": 93.9, "roadbed_ft": 59.6, "median_ft": 4.3, "left_sw_ft": 15.0, "right_sw_ft": 15.0}, "geometry": {"type": "LineString", "coordinates": [[-73.82908767950501, 40.80127567861408], [-73.82947673541614, 40.801130501063064]]}}, {"type": "Feature", "properties": {"segment_id": 1705132, "physicalid": "178295", "street_name": "WHITESTONE BRG", "borough": "queens", "direction": "FT", "total_row_ft": 93.8, "roadbed_ft": 59.6, "median_ft": 4.3, "left_sw_ft": 15.0, "right_sw_ft": 15.0}, "geometry": {"type": "LineString", "coordinates": [[-73.82905583846288, 40.80122640432043], [-73.82944489415547, 40.80108122687576]]}}, {"type": "Feature", "properties": {"segment_id": 1705133, "physicalid": "178295", "street_name": "WHITESTONE BRG", "borough": "queens", "direction": "FT", "total_row_ft": 93.8, "roadbed_ft": 59.5, "median_ft": 4.3, "left_sw_ft": 15.0, "right_sw_ft": 15.0}, "geometry": {"type": "LineString", "coordinates": [[-73.82902399747866, 40.80117713003999], [-73.8294130529252, 40.801031952659116]]}}, {"type": "Feature", "properties": {"segment_id": 1705134, "physicalid": "178295", "street_name": "WHITESTONE BRG", "borough": "queens", "direction": "FT", "total_row_ft": 93.8, "roadbed_ft": 59.5, "median_ft": 4.3, "left_sw_ft": 15.0, "right_sw_ft": 15.0}, "geometry": {"type": "LineString", "coordinates": [[-73.82899215652148, 40.80112785573149], [-73.82938121174948, 40.80098267845693]]}}, {"type": "Feature", "properties": {"segment_id": 1705135, "physicalid": "178295", "street_name": "WHITESTONE BRG", "borough": "queens", "direction": "FT", "total_row_ft": 93.8, "roadbed_ft": 59.5, "median_ft": 4.3, "left_sw_ft": 15.0, "right_sw_ft": 15.0}, "geometry": {"type": "LineString", "coordinates": [[-73.82896031561147, 40.80107858141382], [-73.82934937062087, 40.800933404245534]]}}, {"type": "Feature", "properties": {"segment_id": 1705136, "physicalid": "178295", "street_name": "WHITESTONE BRG", "borough": "queens", "direction": "FT", "total_row_ft": 93.8, "roadbed_ft": 59.5, "median_ft": 4.3, "left_sw_ft": 15.0, "right_sw_ft": 15.0}, "geometry": {"type": "LineString", "coordinates": [[-73.82892847474855, 40.80102930708691], [-73.82931752953945, 40.80088413002499]]}}, {"type": "Feature", "properties": {"segment_id": 1705137, "physicalid": "178295", "street_name": "WHITESTONE BRG", "borough": "queens", "direction": "FT", "total_row_ft": 93.8, "roadbed_ft": 59.5, "median_ft": 4.3, "left_sw_ft": 15.0, "right_sw_ft": 15.0}, "geometry": {"type": "LineString", "coordinates": [[-73.82889663393277, 40.80098003275085], [-73.82928568850514, 40.80083485579526]]}}, {"type": "Feature", "properties": {"segment_id": 1705138, "physicalid": "178295", "street_name": "WHITESTONE BRG", "borough": "queens", "direction": "FT", "total_row_ft": 93.7, "roadbed_ft": 59.4, "median_ft": 4.3, "left_sw_ft": 15.0, "right_sw_ft": 15.0}, "geometry": {"type": "LineString", "coordinates": [[-73.82886479316419, 40.80093075840562], [-73.82925384751795, 40.800785581556326]]}}, {"type": "Feature", "properties": {"segment_id": 1705139, "physicalid": "178295", "street_name": "WHITESTONE BRG", "borough": "queens", "direction": "FT", "total_row_ft": 93.8, "roadbed_ft": 59.5, "median_ft": 4.3, "left_sw_ft": 15.0, "right_sw_ft": 15.0}, "geometry": {"type": "LineString", "coordinates": [[-73.82883295244268, 40.80088148405118], [-73.82922200657795, 40.80073630730826]]}}, {"type": "Feature", "properties": {"segment_id": 1705140, "physicalid": "178295", "street_name": "WHITESTONE BRG", "borough": "queens", "direction": "FT", "total_row_ft": 93.8, "roadbed_ft": 59.5, "median_ft": 4.3, "left_sw_ft": 15.0, "right_sw_ft": 15.0}, "geometry": {"type": "LineString", "coordinates": [[-73.82880111176834, 40.800832209687556], [-73.82919016568506, 40.800687033050984]]}}, {"type": "Feature", "properties": {"segment_id": 1705141, "physicalid": "178296", "street_name": "WHITESTONE BRG", "borough": "queens", "direction": "FT", "total_row_ft": 93.9, "roadbed_ft": 59.6, "median_ft": 4.3, "left_sw_ft": 15.0, "right_sw_ft": 15.0}, "geometry": {"type": "LineString", "coordinates": [[-73.82874613130224, 40.80074712561252], [-73.82913518488593, 40.800601949228174]]}}, {"type": "Feature", "properties": {"segment_id": 1705142, "physicalid": "178296", "street_name": "WHITESTONE BRG", "borough": "queens", "direction": "FT", "total_row_ft": 93.9, "roadbed_ft": 59.6, "median_ft": 4.3, "left_sw_ft": 15.0, "right_sw_ft": 15.0}, "geometry": {"type": "LineString", "coordinates": [[-73.82871429077147, 40.80069785121823], [-73.82910334413666, 40.80055267494027]]}}, {"type": "Feature", "properties": {"segment_id": 1705143, "physicalid": "178296", "street_name": "WHITESTONE BRG", "borough": "queens", "direction": "FT", "total_row_ft": 93.9, "roadbed_ft": 59.6, "median_ft": 4.3, "left_sw_ft": 15.0, "right_sw_ft": 15.0}, "geometry": {"type": "LineString", "coordinates": [[-73.82868245028787, 40.8006485768148], [-73.8290715034345, 40.80050340064315]]}}, {"type": "Feature", "properties": {"segment_id": 1705144, "physicalid": "178296", "street_name": "WHITESTONE BRG", "borough": "queens", "direction": "FT", "total_row_ft": 93.9, "roadbed_ft": 59.6, "median_ft": 4.3, "left_sw_ft": 15.0, "right_sw_ft": 15.0}, "geometry": {"type": "LineString", "coordinates": [[-73.82865060985141, 40.80059930240218], [-73.8290396627795, 40.80045412633687]]}}, {"type": "Feature", "properties": {"segment_id": 1705145, "physicalid": "178296", "street_name": "WHITESTONE BRG", "borough": "queens", "direction": "FT", "total_row_ft": 93.9, "roadbed_ft": 59.7, "median_ft": 4.3, "left_sw_ft": 15.0, "right_sw_ft": 15.0}, "geometry": {"type": "LineString", "coordinates": [[-73.8286187694621, 40.800550027980414], [-73.82900782217159, 40.80040485202138]]}}, {"type": "Feature", "properties": {"segment_id": 1705146, "physicalid": "178296", "street_name": "WHITESTONE BRG", "borough": "queens", "direction": "FT", "total_row_ft": 93.9, "roadbed_ft": 59.7, "median_ft": 4.3, "left_sw_ft": 15.0, "right_sw_ft": 15.0}, "geometry": {"type": "LineString", "coordinates": [[-73.82858692911991, 40.800500753549436], [-73.82897598161087, 40.80035557769673]]}}, {"type": "Feature", "properties": {"segment_id": 1705147, "physicalid": "178296", "street_name": "WHITESTONE BRG", "borough": "queens", "direction": "FT", "total_row_ft": 93.9, "roadbed_ft": 59.7, "median_ft": 4.3, "left_sw_ft": 15.0, "right_sw_ft": 15.0}, "geometry": {"type": "LineString", "coordinates": [[-73.82855508882487, 40.80045147910928], [-73.82894414109727, 40.80030630336288]]}}, {"type": "Feature", "properties": {"segment_id": 1705148, "physicalid": "178296", "street_name": "WHITESTONE BRG", "borough": "queens", "direction": "FT", "total_row_ft": 93.9, "roadbed_ft": 59.7, "median_ft": 4.3, "left_sw_ft": 15.0, "right_sw_ft": 15.0}, "geometry": {"type": "LineString", "coordinates": [[-73.82852324857696, 40.80040220465993], [-73.8289123006308, 40.80025702901986]]}}, {"type": "Feature", "properties": {"segment_id": 1705149, "physicalid": "178296", "street_name": "WHITESTONE BRG", "borough": "queens", "direction": "FT", "total_row_ft": 94.0, "roadbed_ft": 59.7, "median_ft": 4.3, "left_sw_ft": 15.0, "right_sw_ft": 15.0}, "geometry": {"type": "LineString", "coordinates": [[-73.82849140837618, 40.800352930201406], [-73.8288804602115, 40.80020775466767]]}}, {"type": "Feature", "properties": {"segment_id": 1705150, "physicalid": "178296", "street_name": "WHITESTONE BRG", "borough": "queens", "direction": "FT", "total_row_ft": 94.0, "roadbed_ft": 59.7, "median_ft": 4.3, "left_sw_ft": 15.0, "right_sw_ft": 15.0}, "geometry": {"type": "LineString", "coordinates": [[-73.82845956822251, 40.800303655733686], [-73.82884861983933, 40.80015848030634]]}}, {"type": "Feature", "properties": {"segment_id": 1705151, "physicalid": "178296", "street_name": "WHITESTONE BRG", "borough": "queens", "direction": "FT", "total_row_ft": 94.0, "roadbed_ft": 59.7, "median_ft": 4.3, "left_sw_ft": 15.0, "right_sw_ft": 15.0}, "geometry": {"type": "LineString", "coordinates": [[-73.82842772811603, 40.800254381256806], [-73.82881677951428, 40.80010920593577]]}}, {"type": "Feature", "properties": {"segment_id": 1705152, "physicalid": "178296", "street_name": "WHITESTONE BRG", "borough": "queens", "direction": "FT", "total_row_ft": 94.0, "roadbed_ft": 59.7, "median_ft": 4.3, "left_sw_ft": 15.0, "right_sw_ft": 15.0}, "geometry": {"type": "LineString", "coordinates": [[-73.82839588805666, 40.80020510677073], [-73.82878493923637, 40.80005993155602]]}}, {"type": "Feature", "properties": {"segment_id": 1705153, "physicalid": "178296", "street_name": "WHITESTONE BRG", "borough": "queens", "direction": "FT", "total_row_ft": 94.0, "roadbed_ft": 59.7, "median_ft": 4.3, "left_sw_ft": 15.0, "right_sw_ft": 15.0}, "geometry": {"type": "LineString", "coordinates": [[-73.82836404804443, 40.800155832275486], [-73.82875309900561, 40.80001065716713]]}}, {"type": "Feature", "properties": {"segment_id": 1705154, "physicalid": "178296", "street_name": "WHITESTONE BRG", "borough": "queens", "direction": "FT", "total_row_ft": 94.0, "roadbed_ft": 59.7, "median_ft": 4.3, "left_sw_ft": 15.0, "right_sw_ft": 15.0}, "geometry": {"type": "LineString", "coordinates": [[-73.82833220807937, 40.80010655777111], [-73.82872125882196, 40.79996138276901]]}}, {"type": "Feature", "properties": {"segment_id": 1705214, "physicalid": "178298", "street_name": "WHITESTONE BRG", "borough": "queens", "direction": "TF", "total_row_ft": 95.5, "roadbed_ft": 61.2, "median_ft": 4.3, "left_sw_ft": 15.0, "right_sw_ft": 15.0}, "geometry": {"type": "LineString", "coordinates": [[-73.82977538093084, 40.80259230565625], [-73.83016521998361, 40.80244833431618]]}}, {"type": "Feature", "properties": {"segment_id": 1705215, "physicalid": "178298", "street_name": "WHITESTONE BRG", "borough": "queens", "direction": "TF", "total_row_ft": 95.7, "roadbed_ft": 61.5, "median_ft": 4.3, "left_sw_ft": 15.0, "right_sw_ft": 15.0}, "geometry": {"type": "LineString", "coordinates": [[-73.82974380381134, 40.8025429331649], [-73.83013364264326, 40.802398961930464]]}}, {"type": "Feature", "properties": {"segment_id": 1705216, "physicalid": "178298", "street_name": "WHITESTONE BRG", "borough": "queens", "direction": "TF", "total_row_ft": 96.0, "roadbed_ft": 61.7, "median_ft": 4.3, "left_sw_ft": 15.0, "right_sw_ft": 15.0}, "geometry": {"type": "LineString", "coordinates": [[-73.82971222670432, 40.80249356053752], [-73.83010206545994, 40.80234958963473]]}}, {"type": "Feature", "properties": {"segment_id": 1705217, "physicalid": "178298", "street_name": "WHITESTONE BRG", "borough": "queens", "direction": "TF", "total_row_ft": 96.2, "roadbed_ft": 61.9, "median_ft": 4.3, "left_sw_ft": 15.0, "right_sw_ft": 15.0}, "geometry": {"type": "LineString", "coordinates": [[-73.82968064972808, 40.802444188009794], [-73.83007048826283, 40.80230021721265]]}}, {"type": "Feature", "properties": {"segment_id": 1705218, "physicalid": "178298", "street_name": "WHITESTONE BRG", "borough": "queens", "direction": "TF", "total_row_ft": 96.5, "roadbed_ft": 62.2, "median_ft": 4.3, "left_sw_ft": 15.0, "right_sw_ft": 15.0}, "geometry": {"type": "LineString", "coordinates": [[-73.82964907279867, 40.802394815472994], [-73.83003891111261, 40.802250844781554]]}}, {"type": "Feature", "properties": {"segment_id": 1705219, "physicalid": "178298", "street_name": "WHITESTONE BRG", "borough": "queens", "direction": "TF", "total_row_ft": 96.7, "roadbed_ft": 62.4, "median_ft": 4.3, "left_sw_ft": 15.0, "right_sw_ft": 15.0}, "geometry": {"type": "LineString", "coordinates": [[-73.82961749591614, 40.802345442927205], [-73.83000733400918, 40.80220147234138]]}}, {"type": "Feature", "properties": {"segment_id": 1705220, "physicalid": "178298", "street_name": "WHITESTONE BRG", "borough": "queens", "direction": "TF", "total_row_ft": 97.0, "roadbed_ft": 62.7, "median_ft": 4.3, "left_sw_ft": 15.0, "right_sw_ft": 15.0}, "geometry": {"type": "LineString", "coordinates": [[-73.82958591908042, 40.80229607037232], [-73.82997575695263, 40.80215209989222]]}}, {"type": "Feature", "properties": {"segment_id": 1705221, "physicalid": "178298", "street_name": "WHITESTONE BRG", "borough": "queens", "direction": "TF", "total_row_ft": 97.0, "roadbed_ft": 62.7, "median_ft": 4.3, "left_sw_ft": 15.0, "right_sw_ft": 15.0}, "geometry": {"type": "LineString", "coordinates": [[-73.82955434229157, 40.80224669780847], [-73.82994417994288, 40.80210272743396]]}}, {"type": "Feature", "properties": {"segment_id": 1705222, "physicalid": "178298", "street_name": "WHITESTONE BRG", "borough": "queens", "direction": "TF", "total_row_ft": 96.8, "roadbed_ft": 62.5, "median_ft": 4.3, "left_sw_ft": 15.0, "right_sw_ft": 15.0}, "geometry": {"type": "LineString", "coordinates": [[-73.82952276554951, 40.80219732523551], [-73.82991260298003, 40.8020533549667]]}}, {"type": "Feature", "properties": {"segment_id": 1705223, "physicalid": "178298", "street_name": "WHITESTONE BRG", "borough": "queens", "direction": "TF", "total_row_ft": 96.5, "roadbed_ft": 62.3, "median_ft": 4.3, "left_sw_ft": 15.0, "right_sw_ft": 15.0}, "geometry": {"type": "LineString", "coordinates": [[-73.82949118885436, 40.80214795265356], [-73.82988102606399, 40.80200398249036]]}}, {"type": "Feature", "properties": {"segment_id": 1705224, "physicalid": "178298", "street_name": "WHITESTONE BRG", "borough": "queens", "direction": "TF", "total_row_ft": 96.3, "roadbed_ft": 62.0, "median_ft": 4.3, "left_sw_ft": 15.0, "right_sw_ft": 15.0}, "geometry": {"type": "LineString", "coordinates": [[-73.829459612206, 40.80209858006255], [-73.8298494491948, 40.801954610005055]]}}, {"type": "Feature", "properties": {"segment_id": 1705225, "physicalid": "178298", "street_name": "WHITESTONE BRG", "borough": "queens", "direction": "TF", "total_row_ft": 96.1, "roadbed_ft": 61.8, "median_ft": 4.3, "left_sw_ft": 15.0, "right_sw_ft": 15.0}, "geometry": {"type": "LineString", "coordinates": [[-73.82942803560451, 40.8020492074625], [-73.82981787237244, 40.80190523751067]]}}, {"type": "Feature", "properties": {"segment_id": 1705226, "physicalid": "178298", "street_name": "WHITESTONE BRG", "borough": "queens", "direction": "TF", "total_row_ft": 95.9, "roadbed_ft": 61.6, "median_ft": 4.3, "left_sw_ft": 15.0, "right_sw_ft": 15.0}, "geometry": {"type": "LineString", "coordinates": [[-73.82939645904987, 40.80199983485346], [-73.82978629559693, 40.8018558650072]]}}, {"type": "Feature", "properties": {"segment_id": 1705227, "physicalid": "178298", "street_name": "WHITESTONE BRG", "borough": "queens", "direction": "TF", "total_row_ft": 95.6, "roadbed_ft": 61.4, "median_ft": 4.3, "left_sw_ft": 15.0, "right_sw_ft": 15.0}, "geometry": {"type": "LineString", "coordinates": [[-73.82936488254204, 40.80195046223531], [-73.82975471886827, 40.80180649249478]]}}, {"type": "Feature", "properties": {"segment_id": 1705228, "physicalid": "178298", "street_name": "WHITESTONE BRG", "borough": "queens", "direction": "TF", "total_row_ft": 95.4, "roadbed_ft": 61.1, "median_ft": 4.3, "left_sw_ft": 15.0, "right_sw_ft": 15.0}, "geometry": {"type": "LineString", "coordinates": [[-73.82933330608108, 40.801901089608194], [-73.82972314218642, 40.801757119973246]]}}, {"type": "Feature", "properties": {"segment_id": 1705229, "physicalid": "178298", "street_name": "WHITESTONE BRG", "borough": "queens", "direction": "TF", "total_row_ft": 95.2, "roadbed_ft": 60.9, "median_ft": 4.3, "left_sw_ft": 15.0, "right_sw_ft": 15.0}, "geometry": {"type": "LineString", "coordinates": [[-73.82930172966694, 40.80185171697197], [-73.82969156555147, 40.80170774744274]]}}, {"type": "Feature", "properties": {"segment_id": 1705230, "physicalid": "178298", "street_name": "WHITESTONE BRG", "borough": "queens", "direction": "TF", "total_row_ft": 95.0, "roadbed_ft": 60.7, "median_ft": 4.3, "left_sw_ft": 15.0, "right_sw_ft": 15.0}, "geometry": {"type": "LineString", "coordinates": [[-73.82927015329967, 40.801802344326774], [-73.82965998896331, 40.80165837490315]]}}, {"type": "Feature", "properties": {"segment_id": 1705231, "physicalid": "178298", "street_name": "WHITESTONE BRG", "borough": "queens", "direction": "TF", "total_row_ft": 94.7, "roadbed_ft": 60.5, "median_ft": 4.3, "left_sw_ft": 15.0, "right_sw_ft": 15.0}, "geometry": {"type": "LineString", "coordinates": [[-73.82923857697921, 40.80175297167249], [-73.82962841242204, 40.801609002354574]]}}, {"type": "Feature", "properties": {"segment_id": 1705232, "physicalid": "178298", "street_name": "WHITESTONE BRG", "borough": "queens", "direction": "TF", "total_row_ft": 94.5, "roadbed_ft": 60.2, "median_ft": 4.3, "left_sw_ft": 15.0, "right_sw_ft": 15.0}, "geometry": {"type": "LineString", "coordinates": [[-73.82920700070561, 40.80170359900919], [-73.82959683592757, 40.8015596297969]]}}, {"type": "Feature", "properties": {"segment_id": 1705233, "physicalid": "178298", "street_name": "WHITESTONE BRG", "borough": "queens", "direction": "TF", "total_row_ft": 94.3, "roadbed_ft": 60.0, "median_ft": 4.3, "left_sw_ft": 15.0, "right_sw_ft": 15.0}, "geometry": {"type": "LineString", "coordinates": [[-73.82917542447886, 40.80165422633688], [-73.82956525947993, 40.801510257230184]]}}, {"type": "Feature", "properties": {"segment_id": 1705234, "physicalid": "178298", "street_name": "WHITESTONE BRG", "borough": "queens", "direction": "TF", "total_row_ft": 94.1, "roadbed_ft": 59.8, "median_ft": 4.3, "left_sw_ft": 15.0, "right_sw_ft": 15.0}, "geometry": {"type": "LineString", "coordinates": [[-73.82914384829893, 40.80160485365546], [-73.82953368307919, 40.80146088465449]]}}, {"type": "Feature", "properties": {"segment_id": 1705235, "physicalid": "178298", "street_name": "WHITESTONE BRG", "borough": "queens", "direction": "TF", "total_row_ft": 93.9, "roadbed_ft": 59.6, "median_ft": 4.3, "left_sw_ft": 15.0, "right_sw_ft": 15.0}, "geometry": {"type": "LineString", "coordinates": [[-73.82911227216587, 40.801555480965064], [-73.82950210672523, 40.801411512069684]]}}, {"type": "Feature", "properties": {"segment_id": 1705236, "physicalid": "178298", "street_name": "WHITESTONE BRG", "borough": "queens", "direction": "TF", "total_row_ft": 93.9, "roadbed_ft": 59.6, "median_ft": 4.3, "left_sw_ft": 15.0, "right_sw_ft": 15.0}, "geometry": {"type": "LineString", "coordinates": [[-73.82908069607961, 40.80150610826559], [-73.82947053041816, 40.80136213947594]]}}, {"type": "Feature", "properties": {"segment_id": 1705237, "physicalid": "178298", "street_name": "WHITESTONE BRG", "borough": "queens", "direction": "TF", "total_row_ft": 93.9, "roadbed_ft": 59.6, "median_ft": 4.3, "left_sw_ft": 15.0, "right_sw_ft": 15.0}, "geometry": {"type": "LineString", "coordinates": [[-73.82904912004024, 40.80145673555713], [-73.82943895415788, 40.80131276687307]]}}, {"type": "Feature", "properties": {"segment_id": 1705238, "physicalid": "178298", "street_name": "WHITESTONE BRG", "borough": "queens", "direction": "TF", "total_row_ft": 93.9, "roadbed_ft": 59.6, "median_ft": 4.3, "left_sw_ft": 15.0, "right_sw_ft": 15.0}, "geometry": {"type": "LineString", "coordinates": [[-73.82901754404764, 40.80140736283957], [-73.8294073779445, 40.80126339426123]]}}, {"type": "Feature", "properties": {"segment_id": 1705239, "physicalid": "178298", "street_name": "WHITESTONE BRG", "borough": "queens", "direction": "TF", "total_row_ft": 93.9, "roadbed_ft": 59.6, "median_ft": 4.3, "left_sw_ft": 15.0, "right_sw_ft": 15.0}, "geometry": {"type": "LineString", "coordinates": [[-73.82898596810196, 40.80135799011306], [-73.82937580177791, 40.80121402164027]]}}, {"type": "Feature", "properties": {"segment_id": 1705240, "physicalid": "178298", "street_name": "WHITESTONE BRG", "borough": "queens", "direction": "TF", "total_row_ft": 93.9, "roadbed_ft": 59.6, "median_ft": 4.3, "left_sw_ft": 15.0, "right_sw_ft": 15.0}, "geometry": {"type": "LineString", "coordinates": [[-73.82895439220309, 40.80130861737742], [-73.82934422565819, 40.801164649010346]]}}, {"type": "Feature", "properties": {"segment_id": 1705241, "physicalid": "178298", "street_name": "WHITESTONE BRG", "borough": "queens", "direction": "TF", "total_row_ft": 93.8, "roadbed_ft": 59.5, "median_ft": 4.3, "left_sw_ft": 15.0, "right_sw_ft": 15.0}, "geometry": {"type": "LineString", "coordinates": [[-73.82892281635104, 40.80125924463276], [-73.82931264958532, 40.80111527637136]]}}, {"type": "Feature", "properties": {"segment_id": 1705242, "physicalid": "178298", "street_name": "WHITESTONE BRG", "borough": "queens", "direction": "TF", "total_row_ft": 93.8, "roadbed_ft": 59.5, "median_ft": 4.3, "left_sw_ft": 15.0, "right_sw_ft": 15.0}, "geometry": {"type": "LineString", "coordinates": [[-73.82889124060056, 40.80120987199574], [-73.82928107347237, 40.80106590361857]]}}, {"type": "Feature", "properties": {"segment_id": 1705243, "physicalid": "178298", "street_name": "WHITESTONE BRG", "borough": "queens", "direction": "TF", "total_row_ft": 93.8, "roadbed_ft": 59.5, "median_ft": 4.3, "left_sw_ft": 15.0, "right_sw_ft": 15.0}, "geometry": {"type": "LineString", "coordinates": [[-73.82885966479364, 40.801160499250976], [-73.82924949744461, 40.80101653097944]]}}, {"type": "Feature", "properties": {"segment_id": 1705244, "physicalid": "178298", "street_name": "WHITESTONE BRG", "borough": "queens", "direction": "TF", "total_row_ft": 93.8, "roadbed_ft": 59.5, "median_ft": 4.3, "left_sw_ft": 15.0, "right_sw_ft": 15.0}, "geometry": {"type": "LineString", "coordinates": [[-73.82882808903356, 40.80111112649716], [-73.82921792146368, 40.80096715833127]]}}, {"type": "Feature", "properties": {"segment_id": 1705245, "physicalid": "178298", "street_name": "WHITESTONE BRG", "borough": "queens", "direction": "TF", "total_row_ft": 93.8, "roadbed_ft": 59.5, "median_ft": 4.3, "left_sw_ft": 15.0, "right_sw_ft": 15.0}, "geometry": {"type": "LineString", "coordinates": [[-73.82879651332034, 40.8010617537343], [-73.82918634552959, 40.80091778567408]]}}, {"type": "Feature", "properties": {"segment_id": 1705246, "physicalid": "178298", "street_name": "WHITESTONE BRG", "borough": "queens", "direction": "TF", "total_row_ft": 93.8, "roadbed_ft": 59.5, "median_ft": 4.3, "left_sw_ft": 15.0, "right_sw_ft": 15.0}, "geometry": {"type": "LineString", "coordinates": [[-73.82876493765394, 40.801012380962405], [-73.82915476964236, 40.80086841300786]]}}, {"type": "Feature", "properties": {"segment_id": 1705247, "physicalid": "178298", "street_name": "WHITESTONE BRG", "borough": "queens", "direction": "TF", "total_row_ft": 93.7, "roadbed_ft": 59.4, "median_ft": 4.3, "left_sw_ft": 15.0, "right_sw_ft": 15.0}, "geometry": {"type": "LineString", "coordinates": [[-73.8287333620344, 40.8009630081815], [-73.82912319380195, 40.80081904033258]]}}, {"type": "Feature", "properties": {"segment_id": 1705248, "physicalid": "178298", "street_name": "WHITESTONE BRG", "borough": "queens", "direction": "TF", "total_row_ft": 93.8, "roadbed_ft": 59.5, "median_ft": 4.3, "left_sw_ft": 15.0, "right_sw_ft": 15.0}, "geometry": {"type": "LineString", "coordinates": [[-73.82870178646169, 40.80091363539153], [-73.82909161800838, 40.80076966764826]]}}, {"type": "Feature", "properties": {"segment_id": 1705249, "physicalid": "178298", "street_name": "WHITESTONE BRG", "borough": "queens", "direction": "TF", "total_row_ft": 93.9, "roadbed_ft": 59.5, "median_ft": 4.3, "left_sw_ft": 15.0, "right_sw_ft": 15.0}, "geometry": {"type": "LineString", "coordinates": [[-73.82867021093581, 40.80086426259254], [-73.82906004226166, 40.800720294954914]]}}, {"type": "Feature", "properties": {"segment_id": 1705250, "physicalid": "178299", "street_name": "WHITESTONE BRG", "borough": "queens", "direction": "TF", "total_row_ft": 93.9, "roadbed_ft": 59.6, "median_ft": 4.3, "left_sw_ft": 15.0, "right_sw_ft": 15.0}, "geometry": {"type": "LineString", "coordinates": [[-73.82860849719788, 40.80076776413955], [-73.82899832821441, 40.80062379689971]]}}, {"type": "Feature", "properties": {"segment_id": 1705251, "physicalid": "178299", "street_name": "WHITESTONE BRG", "borough": "queens", "direction": "TF", "total_row_ft": 93.9, "roadbed_ft": 59.6, "median_ft": 4.3, "left_sw_ft": 15.0, "right_sw_ft": 15.0}, "geometry": {"type": "LineString", "coordinates": [[-73.82857692185235, 40.80071839129834], [-73.82896675264801, 40.800574424164154]]}}, {"type": "Feature", "properties": {"segment_id": 1705252, "physicalid": "178299", "street_name": "WHITESTONE BRG", "borough": "queens", "direction": "TF", "total_row_ft": 93.9, "roadbed_ft": 59.6, "median_ft": 4.3, "left_sw_ft": 15.0, "right_sw_ft": 15.0}, "geometry": {"type": "LineString", "coordinates": [[-73.82854534655365, 40.80066901844816], [-73.82893517712844, 40.80052505141956]]}}, {"type": "Feature", "properties": {"segment_id": 1705253, "physicalid": "178299", "street_name": "WHITESTONE BRG", "borough": "queens", "direction": "TF", "total_row_ft": 93.9, "roadbed_ft": 59.6, "median_ft": 4.3, "left_sw_ft": 15.0, "right_sw_ft": 15.0}, "geometry": {"type": "LineString", "coordinates": [[-73.8285137713018, 40.800619645588895], [-73.82890360165574, 40.800475678665954]]}}, {"type": "Feature", "properties": {"segment_id": 1705254, "physicalid": "178299", "street_name": "WHITESTONE BRG", "borough": "queens", "direction": "TF", "total_row_ft": 93.9, "roadbed_ft": 59.7, "median_ft": 4.3, "left_sw_ft": 15.0, "right_sw_ft": 15.0}, "geometry": {"type": "LineString", "coordinates": [[-73.82848219609674, 40.80057027272058], [-73.82887202622987, 40.80042630590333]]}}, {"type": "Feature", "properties": {"segment_id": 1705255, "physicalid": "178299", "street_name": "WHITESTONE BRG", "borough": "queens", "direction": "TF", "total_row_ft": 93.9, "roadbed_ft": 59.7, "median_ft": 4.3, "left_sw_ft": 15.0, "right_sw_ft": 15.0}, "geometry": {"type": "LineString", "coordinates": [[-73.82845062093857, 40.800520899843235], [-73.82884045085083, 40.800376933131666]]}}, {"type": "Feature", "properties": {"segment_id": 1705256, "physicalid": "178299", "street_name": "WHITESTONE BRG", "borough": "queens", "direction": "TF", "total_row_ft": 93.9, "roadbed_ft": 59.7, "median_ft": 4.3, "left_sw_ft": 15.0, "right_sw_ft": 15.0}, "geometry": {"type": "LineString", "coordinates": [[-73.82841904582725, 40.800471526956905], [-73.82880887551862, 40.8003275603509]]}}, {"type": "Feature", "properties": {"segment_id": 1705257, "physicalid": "178299", "street_name": "WHITESTONE BRG", "borough": "queens", "direction": "TF", "total_row_ft": 94.0, "roadbed_ft": 59.7, "median_ft": 4.3, "left_sw_ft": 15.0, "right_sw_ft": 15.0}, "geometry": {"type": "LineString", "coordinates": [[-73.82838747076273, 40.8004221540615], [-73.82877730023327, 40.80027818756116]]}}, {"type": "Feature", "properties": {"segment_id": 1705258, "physicalid": "178299", "street_name": "WHITESTONE BRG", "borough": "queens", "direction": "TF", "total_row_ft": 94.0, "roadbed_ft": 59.7, "median_ft": 4.3, "left_sw_ft": 15.0, "right_sw_ft": 15.0}, "geometry": {"type": "LineString", "coordinates": [[-73.82835589574505, 40.80037278115704], [-73.82874572499477, 40.80022881476239]]}}, {"type": "Feature", "properties": {"segment_id": 1705259, "physicalid": "178299", "street_name": "WHITESTONE BRG", "borough": "queens", "direction": "TF", "total_row_ft": 94.0, "roadbed_ft": 59.7, "median_ft": 4.3, "left_sw_ft": 15.0, "right_sw_ft": 15.0}, "geometry": {"type": "LineString", "coordinates": [[-73.82832432077424, 40.80032340824358], [-73.82871414980308, 40.800179441954555]]}}, {"type": "Feature", "properties": {"segment_id": 1705260, "physicalid": "178299", "street_name": "WHITESTONE BRG", "borough": "queens", "direction": "TF", "total_row_ft": 94.0, "roadbed_ft": 59.7, "median_ft": 4.3, "left_sw_ft": 15.0, "right_sw_ft": 15.0}, "geometry": {"type": "LineString", "coordinates": [[-73.82829274585025, 40.80027403532107], [-73.82868257465823, 40.80013006913768]]}}, {"type": "Feature", "properties": {"segment_id": 1705261, "physicalid": "178299", "street_name": "WHITESTONE BRG", "borough": "queens", "direction": "TF", "total_row_ft": 94.0, "roadbed_ft": 59.7, "median_ft": 4.3, "left_sw_ft": 15.0, "right_sw_ft": 15.0}, "geometry": {"type": "LineString", "coordinates": [[-73.82826117097311, 40.800224662389525], [-73.82865099956022, 40.80008069631181]]}}, {"type": "Feature", "properties": {"segment_id": 1705262, "physicalid": "178299", "street_name": "WHITESTONE BRG", "borough": "queens", "direction": "TF", "total_row_ft": 94.0, "roadbed_ft": 59.7, "median_ft": 4.3, "left_sw_ft": 15.0, "right_sw_ft": 15.0}, "geometry": {"type": "LineString", "coordinates": [[-73.82822959614278, 40.800175289448916], [-73.82861942450909, 40.800031323476894]]}}, {"type": "Feature", "properties": {"segment_id": 1705263, "physicalid": "178299", "street_name": "WHITESTONE BRG", "borough": "queens", "direction": "TF", "total_row_ft": 94.0, "roadbed_ft": 59.7, "median_ft": 4.3, "left_sw_ft": 15.0, "right_sw_ft": 15.0}, "geometry": {"type": "LineString", "coordinates": [[-73.82819802135931, 40.800125916499304], [-73.82858784950474, 40.79998195063289]]}}, {"type": "Feature", "properties": {"segment_id": 1705264, "physicalid": "178299", "street_name": "WHITESTONE BRG", "borough": "queens", "direction": "TF", "total_row_ft": 94.0, "roadbed_ft": 59.7, "median_ft": 4.3, "left_sw_ft": 15.0, "right_sw_ft": 15.0}, "geometry": {"type": "LineString", "coordinates": [[-73.82816644662267, 40.80007654354066], [-73.82855627454727, 40.79993257777989]]}}]}