{"type": "FeatureCollection", "features": [{"type": "Feature", "properties": {"segment_id": 207796, "physicalid": "16147", "street_name": "RANGE RD", "borough": "queens", "direction": "TW", "total_row_ft": 95.2, "roadbed_ft": 65.2, "median_ft": 0.0, "left_sw_ft": 15.0, "right_sw_ft": 15.0}, "geometry": {"type": "LineString", "coordinates": [[-73.90146983132169, 40.5595981563631], [-73.90138786737187, 40.55927476605292]]}}, {"type": "Feature", "properties": {"segment_id": 207797, "physicalid": "16147", "street_name": "RANGE RD", "borough": "queens", "direction": "TW", "total_row_ft": 56.9, "roadbed_ft": 26.9, "median_ft": 0.0, "left_sw_ft": 15.0, "right_sw_ft": 15.0}, "geometry": {"type": "LineString", "coordinates": [[-73.90139916208841, 40.559608575175545], [-73.90131719846786, 40.559285184815195]]}}, {"type": "Feature", "properties": {"segment_id": 207798, "physicalid": "16147", "street_name": "RANGE RD", "borough": "queens", "direction": "TW", "total_row_ft": 54.6, "roadbed_ft": 24.6, "median_ft": 0.0, "left_sw_ft": 15.0, "right_sw_ft": 15.0}, "geometry": {"type": "LineString", "coordinates": [[-73.90132849283307, 40.55961899394449], [-73.90124652954182, 40.559295603534]]}}, {"type": "Feature", "properties": {"segment_id": 207799, "physicalid": "16147", "street_name": "RANGE RD", "borough": "queens", "direction": "TW", "total_row_ft": 54.0, "roadbed_ft": 24.0, "median_ft": 0.0, "left_sw_ft": 15.0, "right_sw_ft": 15.0}, "geometry": {"type": "LineString", "coordinates": [[-73.9012578235557, 40.55962941266993], [-73.90117586059375, 40.559306022209306]]}}, {"type": "Feature", "properties": {"segment_id": 207800, "physicalid": "16147", "street_name": "RANGE RD", "borough": "queens", "direction": "TW", "total_row_ft": 53.4, "roadbed_ft": 23.4, "median_ft": 0.0, "left_sw_ft": 15.0, "right_sw_ft": 15.0}, "geometry": {"type": "LineString", "coordinates": [[-73.90118715425628, 40.559639831351895], [-73.90110519162363, 40.55931644084113]]}}, {"type": "Feature", "properties": {"segment_id": 207801, "physicalid": "16147", "street_name": "RANGE RD", "borough": "queens", "direction": "TW", "total_row_ft": 52.9, "roadbed_ft": 22.9, "median_ft": 0.0, "left_sw_ft": 15.0, "right_sw_ft": 15.0}, "geometry": {"type": "LineString", "coordinates": [[-73.90111648493483, 40.55965024999034], [-73.90103452263146, 40.55932685942945]]}}, {"type": "Feature", "properties": {"segment_id": 207802, "physicalid": "16147", "street_name": "RANGE RD", "borough": "queens", "direction": "TW", "total_row_ft": 52.4, "roadbed_ft": 22.4, "median_ft": 0.0, "left_sw_ft": 15.0, "right_sw_ft": 15.0}, "geometry": {"type": "LineString", "coordinates": [[-73.90104581559133, 40.55966066858534], [-73.90096385361726, 40.55933727797427]]}}, {"type": "Feature", "properties": {"segment_id": 207803, "physicalid": "16147", "street_name": "RANGE RD", "borough": "queens", "direction": "TW", "total_row_ft": 52.0, "roadbed_ft": 22.0, "median_ft": 0.0, "left_sw_ft": 15.0, "right_sw_ft": 15.0}, "geometry": {"type": "LineString", "coordinates": [[-73.90097514622579, 40.55967108713681], [-73.900893184581, 40.559347696475605]]}}, {"type": "Feature", "properties": {"segment_id": 207804, "physicalid": "16147", "street_name": "RANGE RD", "borough": "queens", "direction": "TW", "total_row_ft": 51.5, "roadbed_ft": 21.5, "median_ft": 0.0, "left_sw_ft": 15.0, "right_sw_ft": 15.0}, "geometry": {"type": "LineString", "coordinates": [[-73.9009044768382, 40.55968150564479], [-73.90082251552272, 40.559358114933445]]}}, {"type": "Feature", "properties": {"segment_id": 207805, "physicalid": "16147", "street_name": "RANGE RD", "borough": "queens", "direction": "TW", "total_row_ft": 51.1, "roadbed_ft": 21.1, "median_ft": 0.0, "left_sw_ft": 15.0, "right_sw_ft": 15.0}, "geometry": {"type": "LineString", "coordinates": [[-73.90083380742858, 40.5596919241093], [-73.9007518464424, 40.55936853334781]]}}, {"type": "Feature", "properties": {"segment_id": 207806, "physicalid": "16147", "street_name": "RANGE RD", "borough": "queens", "direction": "TW", "total_row_ft": 50.7, "roadbed_ft": 20.7, "median_ft": 0.0, "left_sw_ft": 15.0, "right_sw_ft": 15.0}, "geometry": {"type": "LineString", "coordinates": [[-73.90076313799692, 40.55970234253029], [-73.90068117734003, 40.55937895171868]]}}, {"type": "Feature", "properties": {"segment_id": 207807, "physicalid": "16147", "street_name": "RANGE RD", "borough": "queens", "direction": "TW", "total_row_ft": 50.2, "roadbed_ft": 20.2, "median_ft": 0.0, "left_sw_ft": 15.0, "right_sw_ft": 15.0}, "geometry": {"type": "LineString", "coordinates": [[-73.90069246854323, 40.5597127609078], [-73.90061050821562, 40.55938937004603]]}}, {"type": "Feature", "properties": {"segment_id": 207808, "physicalid": "16147", "street_name": "RANGE RD", "borough": "queens", "direction": "TW", "total_row_ft": 50.8, "roadbed_ft": 20.8, "median_ft": 0.0, "left_sw_ft": 15.0, "right_sw_ft": 15.0}, "geometry": {"type": "LineString", "coordinates": [[-73.90062179906748, 40.55972317924182], [-73.90053983906917, 40.559399788329934]]}}, {"type": "Feature", "properties": {"segment_id": 207809, "physicalid": "16147", "street_name": "RANGE RD", "borough": "queens", "direction": "TW", "total_row_ft": 51.5, "roadbed_ft": 21.5, "median_ft": 0.0, "left_sw_ft": 15.0, "right_sw_ft": 15.0}, "geometry": {"type": "LineString", "coordinates": [[-73.9005511295697, 40.55973359753235], [-73.90046916990069, 40.559410206570305]]}}, {"type": "Feature", "properties": {"segment_id": 207810, "physicalid": "16147", "street_name": "RANGE RD", "borough": "queens", "direction": "TW", "total_row_ft": 52.2, "roadbed_ft": 22.2, "median_ft": 0.0, "left_sw_ft": 15.0, "right_sw_ft": 15.0}, "geometry": {"type": "LineString", "coordinates": [[-73.90048046004986, 40.559744015779394], [-73.90039850071015, 40.5594206247672]]}}, {"type": "Feature", "properties": {"segment_id": 207811, "physicalid": "16147", "street_name": "RANGE RD", "borough": "queens", "direction": "TW", "total_row_ft": 53.0, "roadbed_ft": 23.0, "median_ft": 0.0, "left_sw_ft": 15.0, "right_sw_ft": 15.0}, "geometry": {"type": "LineString", "coordinates": [[-73.90040979050801, 40.55975443398293], [-73.90032783149758, 40.5594310429206]]}}, {"type": "Feature", "properties": {"segment_id": 207812, "physicalid": "16147", "street_name": "RANGE RD", "borough": "queens", "direction": "TW", "total_row_ft": 52.3, "roadbed_ft": 22.3, "median_ft": 0.0, "left_sw_ft": 15.0, "right_sw_ft": 15.0}, "geometry": {"type": "LineString", "coordinates": [[-73.9003391209441, 40.55976485214298], [-73.90025716226297, 40.55944146103052]]}}, {"type": "Feature", "properties": {"segment_id": 207813, "physicalid": "16147", "street_name": "RANGE RD", "borough": "queens", "direction": "TW", "total_row_ft": 51.8, "roadbed_ft": 21.8, "median_ft": 0.0, "left_sw_ft": 15.0, "right_sw_ft": 15.0}, "geometry": {"type": "LineString", "coordinates": [[-73.90026845135814, 40.55977527025954], [-73.90018649300633, 40.55945187909694]]}}, {"type": "Feature", "properties": {"segment_id": 207814, "physicalid": "16147", "street_name": "RANGE RD", "borough": "queens", "direction": "TW", "total_row_ft": 51.5, "roadbed_ft": 21.5, "median_ft": 0.0, "left_sw_ft": 15.0, "right_sw_ft": 15.0}, "geometry": {"type": "LineString", "coordinates": [[-73.9002014987743, 40.55978560901602], [-73.9001123580722, 40.559463324961094]]}}, {"type": "Feature", "properties": {"segment_id": 207815, "physicalid": "16147", "street_name": "RANGE RD", "borough": "queens", "direction": "TW", "total_row_ft": 51.7, "roadbed_ft": 21.7, "median_ft": 0.0, "left_sw_ft": 15.0, "right_sw_ft": 15.0}, "geometry": {"type": "LineString", "coordinates": [[-73.90013107108818, 40.55979694006813], [-73.90004193071071, 40.559474655958844]]}}, {"type": "Feature", "properties": {"segment_id": 207816, "physicalid": "16147", "street_name": "RANGE RD", "borough": "queens", "direction": "TW", "total_row_ft": 53.6, "roadbed_ft": 23.6, "median_ft": 0.0, "left_sw_ft": 15.0, "right_sw_ft": 15.0}, "geometry": {"type": "LineString", "coordinates": [[-73.90002793663884, 40.55980693558721], [-73.90000259293598, 40.559478126332955]]}}, {"type": "Feature", "properties": {"segment_id": 1112843, "physicalid": "77106", "street_name": "BCH 193 ST", "borough": "queens", "direction": "FT", "total_row_ft": 103.2, "roadbed_ft": 36.9, "median_ft": 36.3, "left_sw_ft": 15.0, "right_sw_ft": 15.0}, "geometry": {"type": "LineString", "coordinates": [[-73.90133510348119, 40.558059448902426], [-73.90091200571894, 40.55812544376834]]}}, {"type": "Feature", "properties": {"segment_id": 1112844, "physicalid": "77106", "street_name": "BCH 193 ST", "borough": "queens", "direction": "FT", "total_row_ft": 103.2, "roadbed_ft": 73.2, "median_ft": 0.0, "left_sw_ft": 15.0, "right_sw_ft": 15.0}, "geometry": {"type": "LineString", "coordinates": [[-73.90134952493106, 40.558113231837055], [-73.90092642684246, 40.55817922675578]]}}, {"type": "Feature", "properties": {"segment_id": 1112845, "physicalid": "77106", "street_name": "BCH 193 ST", "borough": "queens", "direction": "FT", "total_row_ft": 103.2, "roadbed_ft": 73.2, "median_ft": 0.0, "left_sw_ft": 15.0, "right_sw_ft": 15.0}, "geometry": {"type": "LineString", "coordinates": [[-73.90136394640416, 40.55816701476963], [-73.9009408479892, 40.55823300974117]]}}, {"type": "Feature", "properties": {"segment_id": 1112846, "physicalid": "77106", "street_name": "BCH 193 ST", "borough": "queens", "direction": "FT", "total_row_ft": 103.2, "roadbed_ft": 63.1, "median_ft": 10.2, "left_sw_ft": 15.0, "right_sw_ft": 15.0}, "geometry": {"type": "LineString", "coordinates": [[-73.90137836785028, 40.55822079746126], [-73.90095526923595, 40.558286792959215]]}}, {"type": "Feature", "properties": {"segment_id": 1112847, "physicalid": "77106", "street_name": "BCH 193 ST", "borough": "queens", "direction": "FT", "total_row_ft": 103.2, "roadbed_ft": 60.6, "median_ft": 12.6, "left_sw_ft": 15.0, "right_sw_ft": 15.0}, "geometry": {"type": "LineString", "coordinates": [[-73.90139278947329, 40.55827458037358], [-73.90096969053263, 40.55834057592437]]}}, {"type": "Feature", "properties": {"segment_id": 1112848, "physicalid": "77106", "street_name": "BCH 193 ST", "borough": "queens", "direction": "FT", "total_row_ft": 103.2, "roadbed_ft": 60.6, "median_ft": 12.6, "left_sw_ft": 15.0, "right_sw_ft": 15.0}, "geometry": {"type": "LineString", "coordinates": [[-73.90140721111953, 40.55832836328382], [-73.90098411185251, 40.558394358887455]]}}, {"type": "Feature", "properties": {"segment_id": 1112849, "physicalid": "77106", "street_name": "BCH 193 ST", "borough": "queens", "direction": "FT", "total_row_ft": 103.2, "roadbed_ft": 60.5, "median_ft": 12.7, "left_sw_ft": 15.0, "right_sw_ft": 15.0}, "geometry": {"type": "LineString", "coordinates": [[-73.901421632789, 40.558382146192024], [-73.90099853319562, 40.55844814184846]]}}, {"type": "Feature", "properties": {"segment_id": 1112850, "physicalid": "77106", "street_name": "BCH 193 ST", "borough": "queens", "direction": "FT", "total_row_ft": 103.2, "roadbed_ft": 60.5, "median_ft": 12.8, "left_sw_ft": 15.0, "right_sw_ft": 15.0}, "geometry": {"type": "LineString", "coordinates": [[-73.90143605448166, 40.55843592909816], [-73.90101295456193, 40.55850192480744]]}}, {"type": "Feature", "properties": {"segment_id": 1112851, "physicalid": "77106", "street_name": "BCH 193 ST", "borough": "queens", "direction": "FT", "total_row_ft": 103.2, "roadbed_ft": 60.4, "median_ft": 12.8, "left_sw_ft": 15.0, "right_sw_ft": 15.0}, "geometry": {"type": "LineString", "coordinates": [[-73.90145047619758, 40.558489712002235], [-73.90102737595149, 40.55855570776433]]}}, {"type": "Feature", "properties": {"segment_id": 1112852, "physicalid": "77106", "street_name": "BCH 193 ST", "borough": "queens", "direction": "FT", "total_row_ft": 103.2, "roadbed_ft": 60.4, "median_ft": 12.9, "left_sw_ft": 15.0, "right_sw_ft": 15.0}, "geometry": {"type": "LineString", "coordinates": [[-73.90146489793669, 40.558543494904264], [-73.90104179736424, 40.55860949071917]]}}, {"type": "Feature", "properties": {"segment_id": 1112853, "physicalid": "77106", "street_name": "BCH 193 ST", "borough": "queens", "direction": "FT", "total_row_ft": 103.2, "roadbed_ft": 60.4, "median_ft": 12.8, "left_sw_ft": 15.0, "right_sw_ft": 15.0}, "geometry": {"type": "LineString", "coordinates": [[-73.90147931969902, 40.55859727780424], [-73.90105621880022, 40.55866327367198]]}}, {"type": "Feature", "properties": {"segment_id": 1112854, "physicalid": "77106", "street_name": "BCH 193 ST", "borough": "queens", "direction": "FT", "total_row_ft": 103.2, "roadbed_ft": 60.4, "median_ft": 12.8, "left_sw_ft": 15.0, "right_sw_ft": 15.0}, "geometry": {"type": "LineString", "coordinates": [[-73.90149374148459, 40.55865106070214], [-73.90107064025942, 40.5587170566227]]}}, {"type": "Feature", "properties": {"segment_id": 1112855, "physicalid": "77106", "street_name": "BCH 193 ST", "borough": "queens", "direction": "FT", "total_row_ft": 103.2, "roadbed_ft": 60.4, "median_ft": 12.8, "left_sw_ft": 15.0, "right_sw_ft": 15.0}, "geometry": {"type": "LineString", "coordinates": [[-73.90150816329334, 40.558704843597994], [-73.90108506174184, 40.558770839571395]]}}, {"type": "Feature", "properties": {"segment_id": 1112856, "physicalid": "77106", "street_name": "BCH 193 ST", "borough": "queens", "direction": "FT", "total_row_ft": 103.2, "roadbed_ft": 60.4, "median_ft": 12.8, "left_sw_ft": 15.0, "right_sw_ft": 15.0}, "geometry": {"type": "LineString", "coordinates": [[-73.90152258512535, 40.55875862649178], [-73.90109948324748, 40.558824622518]]}}, {"type": "Feature", "properties": {"segment_id": 1112857, "physicalid": "77106", "street_name": "BCH 193 ST", "borough": "queens", "direction": "FT", "total_row_ft": 103.2, "roadbed_ft": 60.4, "median_ft": 12.8, "left_sw_ft": 15.0, "right_sw_ft": 15.0}, "geometry": {"type": "LineString", "coordinates": [[-73.90153700698056, 40.558812409383506], [-73.90111390477632, 40.55887840546255]]}}, {"type": "Feature", "properties": {"segment_id": 1112858, "physicalid": "77106", "street_name": "BCH 193 ST", "borough": "queens", "direction": "FT", "total_row_ft": 103.1, "roadbed_ft": 60.2, "median_ft": 12.9, "left_sw_ft": 15.0, "right_sw_ft": 15.0}, "geometry": {"type": "LineString", "coordinates": [[-73.901551428859, 40.55886619227319], [-73.90112832632842, 40.558932188405045]]}}, {"type": "Feature", "properties": {"segment_id": 1112859, "physicalid": "77106", "street_name": "BCH 193 ST", "borough": "queens", "direction": "FT", "total_row_ft": 86.5, "roadbed_ft": 43.3, "median_ft": 13.1, "left_sw_ft": 15.0, "right_sw_ft": 15.0}, "geometry": {"type": "LineString", "coordinates": [[-73.90156585076065, 40.55891997516082], [-73.9011427479037, 40.55898597134548]]}}, {"type": "Feature", "properties": {"segment_id": 1112860, "physicalid": "77106", "street_name": "BCH 193 ST", "borough": "queens", "direction": "FT", "total_row_ft": 103.0, "roadbed_ft": 59.6, "median_ft": 13.3, "left_sw_ft": 15.0, "right_sw_ft": 15.0}, "geometry": {"type": "LineString", "coordinates": [[-73.90158027268552, 40.55897375804639], [-73.90115716950221, 40.55903975428382]]}}, {"type": "Feature", "properties": {"segment_id": 1112861, "physicalid": "77106", "street_name": "BCH 193 ST", "borough": "queens", "direction": "FT", "total_row_ft": 102.9, "roadbed_ft": 59.4, "median_ft": 13.5, "left_sw_ft": 15.0, "right_sw_ft": 15.0}, "geometry": {"type": "LineString", "coordinates": [[-73.90159469463362, 40.559027540929904], [-73.90117159112394, 40.559093537220164]]}}, {"type": "Feature", "properties": {"segment_id": 1112862, "physicalid": "77106", "street_name": "BCH 193 ST", "borough": "queens", "direction": "FT", "total_row_ft": 102.9, "roadbed_ft": 59.1, "median_ft": 13.7, "left_sw_ft": 15.0, "right_sw_ft": 15.0}, "geometry": {"type": "LineString", "coordinates": [[-73.90160911660493, 40.559081323811355], [-73.90118601276889, 40.55914732015444]]}}, {"type": "Feature", "properties": {"segment_id": 1112863, "physicalid": "77106", "street_name": "BCH 193 ST", "borough": "queens", "direction": "FT", "total_row_ft": 102.8, "roadbed_ft": 58.8, "median_ft": 13.9, "left_sw_ft": 15.0, "right_sw_ft": 15.0}, "geometry": {"type": "LineString", "coordinates": [[-73.90162353859945, 40.55913510669073], [-73.90120043443706, 40.55920110308665]]}}, {"type": "Feature", "properties": {"segment_id": 1112864, "physicalid": "77106", "street_name": "BCH 193 ST", "borough": "queens", "direction": "FT", "total_row_ft": 102.7, "roadbed_ft": 59.1, "median_ft": 13.6, "left_sw_ft": 15.0, "right_sw_ft": 15.0}, "geometry": {"type": "LineString", "coordinates": [[-73.90163796061721, 40.55918888956805], [-73.90121485612845, 40.55925488601678]]}}, {"type": "Feature", "properties": {"segment_id": 1112865, "physicalid": "77106", "street_name": "BCH 193 ST", "borough": "queens", "direction": "FT", "total_row_ft": 103.1, "roadbed_ft": 60.4, "median_ft": 12.7, "left_sw_ft": 15.0, "right_sw_ft": 15.0}, "geometry": {"type": "LineString", "coordinates": [[-73.90165238265817, 40.55924267244328], [-73.90122927784307, 40.55930866894493]]}}, {"type": "Feature", "properties": {"segment_id": 1112866, "physicalid": "77106", "street_name": "BCH 193 ST", "borough": "queens", "direction": "FT", "total_row_ft": 103.4, "roadbed_ft": 61.7, "median_ft": 11.7, "left_sw_ft": 15.0, "right_sw_ft": 15.0}, "geometry": {"type": "LineString", "coordinates": [[-73.90166680472237, 40.5592964553165], [-73.9012436995809, 40.55936245187095]]}}, {"type": "Feature", "properties": {"segment_id": 1112867, "physicalid": "77106", "street_name": "BCH 193 ST", "borough": "queens", "direction": "FT", "total_row_ft": 113.8, "roadbed_ft": 83.8, "median_ft": 0.0, "left_sw_ft": 15.0, "right_sw_ft": 15.0}, "geometry": {"type": "LineString", "coordinates": [[-73.90168122680977, 40.55935023818763], [-73.90125812134195, 40.559416234794945]]}}, {"type": "Feature", "properties": {"segment_id": 1112868, "physicalid": "77107", "street_name": "BCH 193 ST", "borough": "queens", "direction": "TF", "total_row_ft": 106.5, "roadbed_ft": 28.7, "median_ft": 47.8, "left_sw_ft": 15.0, "right_sw_ft": 15.0}, "geometry": {"type": "LineString", "coordinates": [[-73.90160368013112, 40.5581056510934], [-73.9011947064785, 40.557999860353256]]}}, {"type": "Feature", "properties": {"segment_id": 1112869, "physicalid": "77107", "street_name": "BCH 193 ST", "borough": "queens", "direction": "TF", "total_row_ft": 101.9, "roadbed_ft": 34.0, "median_ft": 37.8, "left_sw_ft": 15.0, "right_sw_ft": 15.0}, "geometry": {"type": "LineString", "coordinates": [[-73.90158056275182, 40.558157638709076], [-73.90117158881753, 40.558051847887135]]}}, {"type": "Feature", "properties": {"segment_id": 1112870, "physicalid": "77107", "street_name": "BCH 193 ST", "borough": "queens", "direction": "TF", "total_row_ft": 98.2, "roadbed_ft": 68.2, "median_ft": 0.0, "left_sw_ft": 15.0, "right_sw_ft": 15.0}, "geometry": {"type": "LineString", "coordinates": [[-73.90155744533652, 40.55820962631995], [-73.90114847112062, 40.558103835416084]]}}, {"type": "Feature", "properties": {"segment_id": 1112871, "physicalid": "77107", "street_name": "BCH 193 ST", "borough": "queens", "direction": "TF", "total_row_ft": 100.4, "roadbed_ft": 70.4, "median_ft": 0.0, "left_sw_ft": 15.0, "right_sw_ft": 15.0}, "geometry": {"type": "LineString", "coordinates": [[-73.90155668847775, 40.558178365918025], [-73.90113261626267, 40.55824061916702]]}}, {"type": "Feature", "properties": {"segment_id": 1112872, "physicalid": "77107", "street_name": "BCH 193 ST", "borough": "queens", "direction": "TF", "total_row_ft": 100.8, "roadbed_ft": 58.2, "median_ft": 12.6, "left_sw_ft": 15.0, "right_sw_ft": 15.0}, "geometry": {"type": "LineString", "coordinates": [[-73.90157029233004, 40.558232272628814], [-73.90114621978546, 40.558294525927785]]}}, {"type": "Feature", "properties": {"segment_id": 1112873, "physicalid": "77107", "street_name": "BCH 193 ST", "borough": "queens", "direction": "TF", "total_row_ft": 101.0, "roadbed_ft": 58.4, "median_ft": 12.6, "left_sw_ft": 15.0, "right_sw_ft": 15.0}, "geometry": {"type": "LineString", "coordinates": [[-73.90158389620427, 40.55828617933777], [-73.9011598233302, 40.55834843268669]]}}, {"type": "Feature", "properties": {"segment_id": 1112874, "physicalid": "77107", "street_name": "BCH 193 ST", "borough": "queens", "direction": "TF", "total_row_ft": 101.2, "roadbed_ft": 58.5, "median_ft": 12.7, "left_sw_ft": 15.0, "right_sw_ft": 15.0}, "geometry": {"type": "LineString", "coordinates": [[-73.90159750010048, 40.55834008604491], [-73.9011734268969, 40.558402339443674]]}}, {"type": "Feature", "properties": {"segment_id": 1112875, "physicalid": "77107", "street_name": "BCH 193 ST", "borough": "queens", "direction": "TF", "total_row_ft": 101.4, "roadbed_ft": 58.7, "median_ft": 12.7, "left_sw_ft": 15.0, "right_sw_ft": 15.0}, "geometry": {"type": "LineString", "coordinates": [[-73.90161110401863, 40.55839399275013], [-73.90118703048554, 40.55845624619885]]}}, {"type": "Feature", "properties": {"segment_id": 1112876, "physicalid": "77107", "street_name": "BCH 193 ST", "borough": "queens", "direction": "TF", "total_row_ft": 101.6, "roadbed_ft": 58.8, "median_ft": 12.8, "left_sw_ft": 15.0, "right_sw_ft": 15.0}, "geometry": {"type": "LineString", "coordinates": [[-73.90162470795872, 40.558447899453505], [-73.90120063409616, 40.55851015295217]]}}, {"type": "Feature", "properties": {"segment_id": 1112877, "physicalid": "77107", "street_name": "BCH 193 ST", "borough": "queens", "direction": "TF", "total_row_ft": 101.8, "roadbed_ft": 59.0, "median_ft": 12.8, "left_sw_ft": 15.0, "right_sw_ft": 15.0}, "geometry": {"type": "LineString", "coordinates": [[-73.90163831192078, 40.55850180615503], [-73.90121423772871, 40.55856405970362]]}}, {"type": "Feature", "properties": {"segment_id": 1112878, "physicalid": "77107", "street_name": "BCH 193 ST", "borough": "queens", "direction": "TF", "total_row_ft": 102.1, "roadbed_ft": 59.2, "median_ft": 12.8, "left_sw_ft": 15.0, "right_sw_ft": 15.0}, "geometry": {"type": "LineString", "coordinates": [[-73.90165191590478, 40.55855571285465], [-73.90122784138323, 40.55861796645326]]}}, {"type": "Feature", "properties": {"segment_id": 1112879, "physicalid": "77107", "street_name": "BCH 193 ST", "borough": "queens", "direction": "TF", "total_row_ft": 102.3, "roadbed_ft": 59.5, "median_ft": 12.8, "left_sw_ft": 15.0, "right_sw_ft": 15.0}, "geometry": {"type": "LineString", "coordinates": [[-73.90166551991074, 40.55860961955244], [-73.9012414450597, 40.558671873201]]}}, {"type": "Feature", "properties": {"segment_id": 1112880, "physicalid": "77107", "street_name": "BCH 193 ST", "borough": "queens", "direction": "TF", "total_row_ft": 102.5, "roadbed_ft": 59.8, "median_ft": 12.8, "left_sw_ft": 15.0, "right_sw_ft": 15.0}, "geometry": {"type": "LineString", "coordinates": [[-73.90167912393864, 40.558663526248374], [-73.90125504875812, 40.55872577994688]]}}, {"type": "Feature", "properties": {"segment_id": 1112881, "physicalid": "77107", "street_name": "BCH 193 ST", "borough": "queens", "direction": "TF", "total_row_ft": 102.8, "roadbed_ft": 60.0, "median_ft": 12.8, "left_sw_ft": 15.0, "right_sw_ft": 15.0}, "geometry": {"type": "LineString", "coordinates": [[-73.9016927279885, 40.55871743294246], [-73.90126865247848, 40.558779686690904]]}}, {"type": "Feature", "properties": {"segment_id": 1112882, "physicalid": "77107", "street_name": "BCH 193 ST", "borough": "queens", "direction": "TF", "total_row_ft": 103.0, "roadbed_ft": 60.2, "median_ft": 12.8, "left_sw_ft": 15.0, "right_sw_ft": 15.0}, "geometry": {"type": "LineString", "coordinates": [[-73.90170633206033, 40.558771339634674], [-73.90128225622081, 40.55883359343306]]}}, {"type": "Feature", "properties": {"segment_id": 1112883, "physicalid": "77107", "street_name": "BCH 193 ST", "borough": "queens", "direction": "TF", "total_row_ft": 103.1, "roadbed_ft": 60.2, "median_ft": 12.9, "left_sw_ft": 15.0, "right_sw_ft": 15.0}, "geometry": {"type": "LineString", "coordinates": [[-73.9017199361541, 40.55882524632505], [-73.90129585998507, 40.55888750017333]]}}, {"type": "Feature", "properties": {"segment_id": 1112884, "physicalid": "77107", "street_name": "BCH 193 ST", "borough": "queens", "direction": "TF", "total_row_ft": 86.5, "roadbed_ft": 43.4, "median_ft": 13.1, "left_sw_ft": 15.0, "right_sw_ft": 15.0}, "geometry": {"type": "LineString", "coordinates": [[-73.90173354026982, 40.55887915301358], [-73.90130946377128, 40.55894140691178]]}}, {"type": "Feature", "properties": {"segment_id": 1112885, "physicalid": "77107", "street_name": "BCH 193 ST", "borough": "queens", "direction": "TF", "total_row_ft": 103.1, "roadbed_ft": 59.8, "median_ft": 13.3, "left_sw_ft": 15.0, "right_sw_ft": 15.0}, "geometry": {"type": "LineString", "coordinates": [[-73.90174714440751, 40.55893305970018], [-73.90132306757947, 40.55899531364835]]}}, {"type": "Feature", "properties": {"segment_id": 1112886, "physicalid": "77107", "street_name": "BCH 193 ST", "borough": "queens", "direction": "TF", "total_row_ft": 103.2, "roadbed_ft": 59.7, "median_ft": 13.5, "left_sw_ft": 15.0, "right_sw_ft": 15.0}, "geometry": {"type": "LineString", "coordinates": [[-73.90176074856714, 40.55898696638498], [-73.90133667140961, 40.55904922038308]]}}, {"type": "Feature", "properties": {"segment_id": 1112887, "physicalid": "77107", "street_name": "BCH 193 ST", "borough": "queens", "direction": "TF", "total_row_ft": 103.2, "roadbed_ft": 59.5, "median_ft": 13.7, "left_sw_ft": 15.0, "right_sw_ft": 15.0}, "geometry": {"type": "LineString", "coordinates": [[-73.9017743527487, 40.55904087306785], [-73.9013502752617, 40.55910312711597]]}}, {"type": "Feature", "properties": {"segment_id": 1112888, "physicalid": "77107", "street_name": "BCH 193 ST", "borough": "queens", "direction": "TF", "total_row_ft": 103.2, "roadbed_ft": 59.3, "median_ft": 13.9, "left_sw_ft": 15.0, "right_sw_ft": 15.0}, "geometry": {"type": "LineString", "coordinates": [[-73.90178795695225, 40.559094779748925], [-73.90136387913574, 40.55915703384697]]}}, {"type": "Feature", "properties": {"segment_id": 1112889, "physicalid": "77107", "street_name": "BCH 193 ST", "borough": "queens", "direction": "TF", "total_row_ft": 103.3, "roadbed_ft": 59.3, "median_ft": 13.9, "left_sw_ft": 15.0, "right_sw_ft": 15.0}, "geometry": {"type": "LineString", "coordinates": [[-73.90180156117773, 40.5591486864281], [-73.90137748303174, 40.55921094057611]]}}, {"type": "Feature", "properties": {"segment_id": 1112890, "physicalid": "77107", "street_name": "BCH 193 ST", "borough": "queens", "direction": "TF", "total_row_ft": 103.3, "roadbed_ft": 60.3, "median_ft": 13.0, "left_sw_ft": 15.0, "right_sw_ft": 15.0}, "geometry": {"type": "LineString", "coordinates": [[-73.90181516542519, 40.55920259310546], [-73.90139108694967, 40.5592648473034]]}}, {"type": "Feature", "properties": {"segment_id": 1112891, "physicalid": "77107", "street_name": "BCH 193 ST", "borough": "queens", "direction": "TF", "total_row_ft": 103.5, "roadbed_ft": 61.5, "median_ft": 12.0, "left_sw_ft": 15.0, "right_sw_ft": 15.0}, "geometry": {"type": "LineString", "coordinates": [[-73.90182876969459, 40.559256499780915], [-73.90140469088958, 40.55931875402881]]}}, {"type": "Feature", "properties": {"segment_id": 1112892, "physicalid": "77107", "street_name": "BCH 193 ST", "borough": "queens", "direction": "TF", "total_row_ft": 103.8, "roadbed_ft": 62.8, "median_ft": 11.0, "left_sw_ft": 15.0, "right_sw_ft": 15.0}, "geometry": {"type": "LineString", "coordinates": [[-73.90184237398594, 40.55931040645458], [-73.90141829485142, 40.55937266075234]]}}, {"type": "Feature", "properties": {"segment_id": 1112893, "physicalid": "77108", "street_name": "BCH 193 ST", "borough": "queens", "direction": "TF", "total_row_ft": 104.4, "roadbed_ft": 74.4, "median_ft": 0.0, "left_sw_ft": 15.0, "right_sw_ft": 15.0}, "geometry": {"type": "LineString", "coordinates": [[-73.90186953469448, 40.55941687830949], [-73.90144589711548, 40.55948086009557]]}}, {"type": "Feature", "properties": {"segment_id": 1112894, "physicalid": "77108", "street_name": "BCH 193 ST", "borough": "queens", "direction": "TF", "total_row_ft": 104.7, "roadbed_ft": 63.1, "median_ft": 11.6, "left_sw_ft": 15.0, "right_sw_ft": 15.0}, "geometry": {"type": "LineString", "coordinates": [[-73.90188351652982, 40.55947072876532], [-73.90145987862275, 40.559534710602684]]}}, {"type": "Feature", "properties": {"segment_id": 1112895, "physicalid": "77108", "street_name": "BCH 193 ST", "borough": "queens", "direction": "TF", "total_row_ft": 104.6, "roadbed_ft": 62.3, "median_ft": 12.3, "left_sw_ft": 15.0, "right_sw_ft": 15.0}, "geometry": {"type": "LineString", "coordinates": [[-73.9018974983877, 40.55952457921919], [-73.90147386015255, 40.559588561107844]]}}, {"type": "Feature", "properties": {"segment_id": 1112896, "physicalid": "77108", "street_name": "BCH 193 ST", "borough": "queens", "direction": "TF", "total_row_ft": 104.0, "roadbed_ft": 61.0, "median_ft": 13.0, "left_sw_ft": 15.0, "right_sw_ft": 15.0}, "geometry": {"type": "LineString", "coordinates": [[-73.9019114802681, 40.55957842967111], [-73.90148784170488, 40.559642411611044]]}}, {"type": "Feature", "properties": {"segment_id": 1112897, "physicalid": "77108", "street_name": "BCH 193 ST", "borough": "queens", "direction": "TF", "total_row_ft": 104.1, "roadbed_ft": 60.9, "median_ft": 13.2, "left_sw_ft": 15.0, "right_sw_ft": 15.0}, "geometry": {"type": "LineString", "coordinates": [[-73.90192546217105, 40.559632280121114], [-73.90150182327976, 40.559696262112304]]}}, {"type": "Feature", "properties": {"segment_id": 1112898, "physicalid": "77108", "street_name": "BCH 193 ST", "borough": "queens", "direction": "TF", "total_row_ft": 104.2, "roadbed_ft": 60.9, "median_ft": 13.4, "left_sw_ft": 15.0, "right_sw_ft": 15.0}, "geometry": {"type": "LineString", "coordinates": [[-73.90193944409656, 40.55968613056913], [-73.90151580487718, 40.55975011261162]]}}, {"type": "Feature", "properties": {"segment_id": 1112899, "physicalid": "77108", "street_name": "BCH 193 ST", "borough": "queens", "direction": "TF", "total_row_ft": 104.4, "roadbed_ft": 60.8, "median_ft": 13.5, "left_sw_ft": 15.0, "right_sw_ft": 15.0}, "geometry": {"type": "LineString", "coordinates": [[-73.90195342604459, 40.55973998101521], [-73.90152978649712, 40.559803963108955]]}}, {"type": "Feature", "properties": {"segment_id": 1112900, "physicalid": "77108", "street_name": "BCH 193 ST", "borough": "queens", "direction": "TF", "total_row_ft": 104.5, "roadbed_ft": 61.3, "median_ft": 13.2, "left_sw_ft": 15.0, "right_sw_ft": 15.0}, "geometry": {"type": "LineString", "coordinates": [[-73.90196740801515, 40.55979383145935], [-73.90154376813962, 40.559857813604346]]}}, {"type": "Feature", "properties": {"segment_id": 1112901, "physicalid": "77108", "street_name": "BCH 193 ST", "borough": "queens", "direction": "TF", "total_row_ft": 104.6, "roadbed_ft": 61.5, "median_ft": 13.1, "left_sw_ft": 15.0, "right_sw_ft": 15.0}, "geometry": {"type": "LineString", "coordinates": [[-73.90198139000827, 40.559847681901495], [-73.90155774980465, 40.55991166409782]]}}, {"type": "Feature", "properties": {"segment_id": 1112902, "physicalid": "77108", "street_name": "BCH 193 ST", "borough": "queens", "direction": "TF", "total_row_ft": 104.8, "roadbed_ft": 61.7, "median_ft": 13.1, "left_sw_ft": 15.0, "right_sw_ft": 15.0}, "geometry": {"type": "LineString", "coordinates": [[-73.90199537202392, 40.55990153234175], [-73.90157173149224, 40.55996551458931]]}}, {"type": "Feature", "properties": {"segment_id": 1112903, "physicalid": "77108", "street_name": "BCH 193 ST", "borough": "queens", "direction": "TF", "total_row_ft": 104.9, "roadbed_ft": 61.8, "median_ft": 13.0, "left_sw_ft": 15.0, "right_sw_ft": 15.0}, "geometry": {"type": "LineString", "coordinates": [[-73.90200935406212, 40.55995538278001], [-73.90158571320234, 40.560019365078865]]}}, {"type": "Feature", "properties": {"segment_id": 1112965, "physicalid": "77114", "street_name": "BCH 193 ST", "borough": "queens", "direction": "FT", "total_row_ft": 148.4, "roadbed_ft": 118.4, "median_ft": 0.0, "left_sw_ft": 15.0, "right_sw_ft": 15.0}, "geometry": {"type": "LineString", "coordinates": [[-73.90170423135876, 40.55943578989794], [-73.90128122556563, 40.55950215914393]]}}, {"type": "Feature", "properties": {"segment_id": 1112966, "physicalid": "77114", "street_name": "BCH 193 ST", "borough": "queens", "direction": "FT", "total_row_ft": 105.6, "roadbed_ft": 64.0, "median_ft": 11.5, "left_sw_ft": 15.0, "right_sw_ft": 15.0}, "geometry": {"type": "LineString", "coordinates": [[-73.90171873491903, 40.55948956002734], [-73.90129572879987, 40.55955592932649]]}}, {"type": "Feature", "properties": {"segment_id": 1112967, "physicalid": "77114", "street_name": "BCH 193 ST", "borough": "queens", "direction": "FT", "total_row_ft": 103.7, "roadbed_ft": 61.5, "median_ft": 12.2, "left_sw_ft": 15.0, "right_sw_ft": 15.0}, "geometry": {"type": "LineString", "coordinates": [[-73.90173323850269, 40.55954333015472], [-73.90131023205745, 40.55960969950692]]}}, {"type": "Feature", "properties": {"segment_id": 1112968, "physicalid": "77114", "street_name": "BCH 193 ST", "borough": "queens", "direction": "FT", "total_row_ft": 102.9, "roadbed_ft": 59.9, "median_ft": 13.0, "left_sw_ft": 15.0, "right_sw_ft": 15.0}, "geometry": {"type": "LineString", "coordinates": [[-73.90174774210966, 40.55959710028], [-73.90132473533839, 40.559663469685304]]}}, {"type": "Feature", "properties": {"segment_id": 1112969, "physicalid": "77114", "street_name": "BCH 193 ST", "borough": "queens", "direction": "FT", "total_row_ft": 102.9, "roadbed_ft": 59.7, "median_ft": 13.2, "left_sw_ft": 15.0, "right_sw_ft": 15.0}, "geometry": {"type": "LineString", "coordinates": [[-73.90176224573997, 40.559650870403146], [-73.90133923864269, 40.55971723986164]]}}, {"type": "Feature", "properties": {"segment_id": 1112970, "physicalid": "77114", "street_name": "BCH 193 ST", "borough": "queens", "direction": "FT", "total_row_ft": 103.0, "roadbed_ft": 59.6, "median_ft": 13.4, "left_sw_ft": 15.0, "right_sw_ft": 15.0}, "geometry": {"type": "LineString", "coordinates": [[-73.90177674939366, 40.559704640524295], [-73.90135374197031, 40.559771010035824]]}}, {"type": "Feature", "properties": {"segment_id": 1112971, "physicalid": "77114", "street_name": "BCH 193 ST", "borough": "queens", "direction": "FT", "total_row_ft": 103.0, "roadbed_ft": 59.5, "median_ft": 13.5, "left_sw_ft": 15.0, "right_sw_ft": 15.0}, "geometry": {"type": "LineString", "coordinates": [[-73.90179125307067, 40.5597584106433], [-73.9013682453213, 40.55982478020799]]}}, {"type": "Feature", "properties": {"segment_id": 1112972, "physicalid": "77114", "street_name": "BCH 193 ST", "borough": "queens", "direction": "FT", "total_row_ft": 103.1, "roadbed_ft": 59.9, "median_ft": 13.2, "left_sw_ft": 15.0, "right_sw_ft": 15.0}, "geometry": {"type": "LineString", "coordinates": [[-73.90180575677104, 40.55981218076026], [-73.9013827486956, 40.55987855037804]]}}, {"type": "Feature", "properties": {"segment_id": 1112973, "physicalid": "77114", "street_name": "BCH 193 ST", "borough": "queens", "direction": "FT", "total_row_ft": 103.1, "roadbed_ft": 60.1, "median_ft": 13.1, "left_sw_ft": 15.0, "right_sw_ft": 15.0}, "geometry": {"type": "LineString", "coordinates": [[-73.90182026049474, 40.55986595087513], [-73.90139725209328, 40.55993232054604]]}}, {"type": "Feature", "properties": {"segment_id": 1112974, "physicalid": "77114", "street_name": "BCH 193 ST", "borough": "queens", "direction": "FT", "total_row_ft": 103.2, "roadbed_ft": 60.1, "median_ft": 13.1, "left_sw_ft": 15.0, "right_sw_ft": 15.0}, "geometry": {"type": "LineString", "coordinates": [[-73.9018347642418, 40.559919720987935], [-73.90141175551427, 40.55998609071192]]}}, {"type": "Feature", "properties": {"segment_id": 1166953, "physicalid": "81077", "street_name": "UNNAMED ST", "borough": "queens", "direction": "TW", "total_row_ft": 30.0, "roadbed_ft": 0.0, "median_ft": 0.0, "left_sw_ft": 15.0, "right_sw_ft": 15.0}, "geometry": {"type": "LineString", "coordinates": [[-73.9001699945357, 40.55807756309002], [-73.89992367380961, 40.55834810766124]]}}, {"type": "Feature", "properties": {"segment_id": 1166954, "physicalid": "81077", "street_name": "UNNAMED ST", "borough": "queens", "direction": "TW", "total_row_ft": 30.0, "roadbed_ft": 0.0, "median_ft": 0.0, "left_sw_ft": 15.0, "right_sw_ft": 15.0}, "geometry": {"type": "LineString", "coordinates": [[-73.90022612320516, 40.55810727156535], [-73.89998584251457, 40.55838095770559]]}}, {"type": "Feature", "properties": {"segment_id": 1166955, "physicalid": "81077", "street_name": "UNNAMED ST", "borough": "queens", "direction": "TW", "total_row_ft": 30.0, "roadbed_ft": 0.0, "median_ft": 0.0, "left_sw_ft": 15.0, "right_sw_ft": 15.0}, "geometry": {"type": "LineString", "coordinates": [[-73.9002235860653, 40.558106250704256], [-73.90011886801591, 40.55842579755625]]}}, {"type": "Feature", "properties": {"segment_id": 1166956, "physicalid": "81077", "street_name": "UNNAMED ST", "borough": "queens", "direction": "TW", "total_row_ft": 30.0, "roadbed_ft": 0.0, "median_ft": 0.0, "left_sw_ft": 15.0, "right_sw_ft": 15.0}, "geometry": {"type": "LineString", "coordinates": [[-73.90018408999279, 40.55810336235475], [-73.90030042072284, 40.558420564108324]]}}, {"type": "Feature", "properties": {"segment_id": 1166957, "physicalid": "81077", "street_name": "UNNAMED ST", "borough": "queens", "direction": "TW", "total_row_ft": 30.0, "roadbed_ft": 0.0, "median_ft": 0.0, "left_sw_ft": 15.0, "right_sw_ft": 15.0}, "geometry": {"type": "LineString", "coordinates": [[-73.90011702400238, 40.55814461209869], [-73.90048336557015, 40.55831902463743]]}}, {"type": "Feature", "properties": {"segment_id": 1166958, "physicalid": "81077", "street_name": "UNNAMED ST", "borough": "queens", "direction": "TW", "total_row_ft": 30.0, "roadbed_ft": 0.0, "median_ft": 0.0, "left_sw_ft": 15.0, "right_sw_ft": 15.0}, "geometry": {"type": "LineString", "coordinates": [[-73.90010399007609, 40.55818787775998], [-73.90053530702549, 40.558171432265155]]}}, {"type": "Feature", "properties": {"segment_id": 1166959, "physicalid": "81077", "street_name": "UNNAMED ST", "borough": "queens", "direction": "TW", "total_row_ft": 30.0, "roadbed_ft": 0.0, "median_ft": 0.0, "left_sw_ft": 15.0, "right_sw_ft": 15.0}, "geometry": {"type": "LineString", "coordinates": [[-73.90011321212415, 40.55820691107243], [-73.90049096500974, 40.55804728622183]]}}, {"type": "Feature", "properties": {"segment_id": 1166960, "physicalid": "81077", "street_name": "UNNAMED ST", "borough": "queens", "direction": "TW", "total_row_ft": 30.0, "roadbed_ft": 0.0, "median_ft": 0.0, "left_sw_ft": 15.0, "right_sw_ft": 15.0}, "geometry": {"type": "LineString", "coordinates": [[-73.90013370646236, 40.55822554089538], [-73.90037180561296, 40.55795074819268]]}}, {"type": "Feature", "properties": {"segment_id": 1166961, "physicalid": "81077", "street_name": "UNNAMED ST", "borough": "queens", "direction": "TW", "total_row_ft": 30.0, "roadbed_ft": 0.0, "median_ft": 0.0, "left_sw_ft": 15.0, "right_sw_ft": 15.0}, "geometry": {"type": "LineString", "coordinates": [[-73.9000736584019, 40.558195274341415], [-73.90031175769161, 40.55792048176248]]}}, {"type": "Feature", "properties": {"segment_id": 1166962, "physicalid": "81077", "street_name": "UNNAMED ST", "borough": "queens", "direction": "TW", "total_row_ft": 30.0, "roadbed_ft": 0.0, "median_ft": 0.0, "left_sw_ft": 15.0, "right_sw_ft": 15.0}, "geometry": {"type": "LineString", "coordinates": [[-73.90002614313728, 40.558174672969], [-73.90023466698658, 40.557886237758694]]}}, {"type": "Feature", "properties": {"segment_id": 1166963, "physicalid": "81077", "street_name": "UNNAMED ST", "borough": "queens", "direction": "TW", "total_row_ft": 30.0, "roadbed_ft": 0.0, "median_ft": 0.0, "left_sw_ft": 15.0, "right_sw_ft": 15.0}, "geometry": {"type": "LineString", "coordinates": [[-73.89997793742377, 40.55815502727643], [-73.90015555012693, 40.55785479706645]]}}, {"type": "Feature", "properties": {"segment_id": 1166964, "physicalid": "81077", "street_name": "UNNAMED ST", "borough": "queens", "direction": "TW", "total_row_ft": 30.0, "roadbed_ft": 0.0, "median_ft": 0.0, "left_sw_ft": 15.0, "right_sw_ft": 15.0}, "geometry": {"type": "LineString", "coordinates": [[-73.89991233075925, 40.55813244956511], [-73.90008994369715, 40.55783221945599]]}}, {"type": "Feature", "properties": {"segment_id": 1420209, "physicalid": "96242", "street_name": "BCH 201 ST", "borough": "queens", "direction": "TF", "total_row_ft": 65.2, "roadbed_ft": 35.2, "median_ft": 0.0, "left_sw_ft": 15.0, "right_sw_ft": 15.0}, "geometry": {"type": "LineString", "coordinates": [[-73.90975850990343, 40.55995306472272], [-73.91019018289059, 40.55996293838261]]}}, {"type": "Feature", "properties": {"segment_id": 1420210, "physicalid": "96242", "street_name": "BCH 201 ST", "borough": "queens", "direction": "TF", "total_row_ft": 65.3, "roadbed_ft": 35.3, "median_ft": 0.0, "left_sw_ft": 15.0, "right_sw_ft": 15.0}, "geometry": {"type": "LineString", "coordinates": [[-73.90976066774306, 40.559898193247726], [-73.910192340376, 40.55990806689964]]}}, {"type": "Feature", "properties": {"segment_id": 1420211, "physicalid": "96242", "street_name": "BCH 201 ST", "borough": "queens", "direction": "TF", "total_row_ft": 65.3, "roadbed_ft": 35.3, "median_ft": 0.0, "left_sw_ft": 15.0, "right_sw_ft": 15.0}, "geometry": {"type": "LineString", "coordinates": [[-73.90976282557914, 40.559843321772455], [-73.91019449785784, 40.55985319541629]]}}, {"type": "Feature", "properties": {"segment_id": 1420212, "physicalid": "96242", "street_name": "BCH 201 ST", "borough": "queens", "direction": "TF", "total_row_ft": 65.4, "roadbed_ft": 35.4, "median_ft": 0.0, "left_sw_ft": 15.0, "right_sw_ft": 15.0}, "geometry": {"type": "LineString", "coordinates": [[-73.90976498341168, 40.55978845029689], [-73.91019665533616, 40.55979832393267]]}}, {"type": "Feature", "properties": {"segment_id": 1420213, "physicalid": "96242", "street_name": "BCH 201 ST", "borough": "queens", "direction": "TF", "total_row_ft": 65.5, "roadbed_ft": 35.5, "median_ft": 0.0, "left_sw_ft": 15.0, "right_sw_ft": 15.0}, "geometry": {"type": "LineString", "coordinates": [[-73.90976714124066, 40.55973357882107], [-73.91019881281093, 40.559743452448714]]}}, {"type": "Feature", "properties": {"segment_id": 1420214, "physicalid": "96242", "street_name": "BCH 201 ST", "borough": "queens", "direction": "TF", "total_row_ft": 65.5, "roadbed_ft": 35.5, "median_ft": 0.0, "left_sw_ft": 15.0, "right_sw_ft": 15.0}, "geometry": {"type": "LineString", "coordinates": [[-73.9097692990661, 40.55967870734491], [-73.91020097028216, 40.55968858096449]]}}, {"type": "Feature", "properties": {"segment_id": 1420215, "physicalid": "96242", "street_name": "BCH 201 ST", "borough": "queens", "direction": "TF", "total_row_ft": 65.1, "roadbed_ft": 35.1, "median_ft": 0.0, "left_sw_ft": 15.0, "right_sw_ft": 15.0}, "geometry": {"type": "LineString", "coordinates": [[-73.90977145688801, 40.55962383586843], [-73.91020312774984, 40.559633709480025]]}}, {"type": "Feature", "properties": {"segment_id": 1420216, "physicalid": "96242", "street_name": "BCH 201 ST", "borough": "queens", "direction": "TF", "total_row_ft": 64.5, "roadbed_ft": 34.5, "median_ft": 0.0, "left_sw_ft": 15.0, "right_sw_ft": 15.0}, "geometry": {"type": "LineString", "coordinates": [[-73.90977361470637, 40.559568964391666], [-73.91020528521398, 40.559578837995204]]}}, {"type": "Feature", "properties": {"segment_id": 1420217, "physicalid": "96242", "street_name": "BCH 201 ST", "borough": "queens", "direction": "TF", "total_row_ft": 63.8, "roadbed_ft": 33.8, "median_ft": 0.0, "left_sw_ft": 15.0, "right_sw_ft": 15.0}, "geometry": {"type": "LineString", "coordinates": [[-73.90977577252119, 40.55951409291462], [-73.91020744267458, 40.559523966510085]]}}, {"type": "Feature", "properties": {"segment_id": 1420218, "physicalid": "96242", "street_name": "BCH 201 ST", "borough": "queens", "direction": "TF", "total_row_ft": 63.1, "roadbed_ft": 33.1, "median_ft": 0.0, "left_sw_ft": 15.0, "right_sw_ft": 15.0}, "geometry": {"type": "LineString", "coordinates": [[-73.90977793033245, 40.5594592214373], [-73.91020960013162, 40.55946909502463]]}}, {"type": "Feature", "properties": {"segment_id": 1420219, "physicalid": "96242", "street_name": "BCH 201 ST", "borough": "queens", "direction": "TF", "total_row_ft": 62.4, "roadbed_ft": 32.4, "median_ft": 0.0, "left_sw_ft": 15.0, "right_sw_ft": 15.0}, "geometry": {"type": "LineString", "coordinates": [[-73.90978008814017, 40.5594043499596], [-73.91021175758513, 40.55941422353896]]}}, {"type": "Feature", "properties": {"segment_id": 1420220, "physicalid": "96242", "street_name": "BCH 201 ST", "borough": "queens", "direction": "TF", "total_row_ft": 61.7, "roadbed_ft": 31.7, "median_ft": 0.0, "left_sw_ft": 15.0, "right_sw_ft": 15.0}, "geometry": {"type": "LineString", "coordinates": [[-73.90978224594436, 40.55934947848164], [-73.91021391503509, 40.559359352052944]]}}, {"type": "Feature", "properties": {"segment_id": 1420258, "physicalid": "96243", "street_name": "BCH 201 ST", "borough": "queens", "direction": "NV", "total_row_ft": 47.4, "roadbed_ft": 17.4, "median_ft": 0.0, "left_sw_ft": 15.0, "right_sw_ft": 15.0}, "geometry": {"type": "LineString", "coordinates": [[-73.90981346805908, 40.55734048981591], [-73.91016726253116, 40.55715161492407]]}}, {"type": "Feature", "properties": {"segment_id": 1420259, "physicalid": "96243", "street_name": "BCH 201 ST", "borough": "queens", "direction": "NV", "total_row_ft": 45.6, "roadbed_ft": 15.6, "median_ft": 0.0, "left_sw_ft": 15.0, "right_sw_ft": 15.0}, "geometry": {"type": "LineString", "coordinates": [[-73.90977219551169, 40.557295515843606], [-73.91012598986235, 40.55710664107825]]}}, {"type": "Feature", "properties": {"segment_id": 1420260, "physicalid": "96243", "street_name": "BCH 201 ST", "borough": "queens", "direction": "NV", "total_row_ft": 44.5, "roadbed_ft": 14.5, "median_ft": 0.0, "left_sw_ft": 15.0, "right_sw_ft": 15.0}, "geometry": {"type": "LineString", "coordinates": [[-73.90972011983669, 40.55721572383163], [-73.91011768991486, 40.55708711774966]]}}, {"type": "Feature", "properties": {"segment_id": 1420261, "physicalid": "96243", "street_name": "BCH 201 ST", "borough": "queens", "direction": "NV", "total_row_ft": 44.3, "roadbed_ft": 14.3, "median_ft": 0.0, "left_sw_ft": 15.0, "right_sw_ft": 15.0}, "geometry": {"type": "LineString", "coordinates": [[-73.90968344048787, 40.55713077531786], [-73.91010757707126, 40.5570688057188]]}}, {"type": "Feature", "properties": {"segment_id": 1420262, "physicalid": "96243", "street_name": "BCH 201 ST", "borough": "queens", "direction": "NV", "total_row_ft": 44.3, "roadbed_ft": 14.3, "median_ft": 0.0, "left_sw_ft": 15.0, "right_sw_ft": 15.0}, "geometry": {"type": "LineString", "coordinates": [[-73.90966989919691, 40.55707685947247], [-73.9100940354506, 40.55701488992313]]}}, {"type": "Feature", "properties": {"segment_id": 1420263, "physicalid": "96243", "street_name": "BCH 201 ST", "borough": "queens", "direction": "NV", "total_row_ft": 44.4, "roadbed_ft": 14.4, "median_ft": 0.0, "left_sw_ft": 15.0, "right_sw_ft": 15.0}, "geometry": {"type": "LineString", "coordinates": [[-73.90966461558601, 40.55698784392641], [-73.91009637491646, 40.55699451422696]]}}, {"type": "Feature", "properties": {"segment_id": 1420264, "physicalid": "96243", "street_name": "BCH 201 ST", "borough": "queens", "direction": "NV", "total_row_ft": 38.0, "roadbed_ft": 15.4, "median_ft": 0.0, "left_sw_ft": 15.0, "right_sw_ft": 7.6}, "geometry": {"type": "LineString", "coordinates": [[-73.90967599731066, 40.55690029910142], [-73.90997237629163, 40.5569515675223]]}}, {"type": "Feature", "properties": {"segment_id": 1638831, "physicalid": "160603", "street_name": "BCH 193 ST", "borough": "queens", "direction": "TF", "total_row_ft": 105.6, "roadbed_ft": 31.7, "median_ft": 43.9, "left_sw_ft": 15.0, "right_sw_ft": 15.0}, "geometry": {"type": "LineString", "coordinates": [[-73.9013656488307, 40.557753100231736], [-73.9012420982171, 40.55806870978262]]}}, {"type": "Feature", "properties": {"segment_id": 1638832, "physicalid": "160603", "street_name": "BCH 193 ST", "borough": "queens", "direction": "TF", "total_row_ft": 104.1, "roadbed_ft": 30.9, "median_ft": 43.2, "left_sw_ft": 15.0, "right_sw_ft": 15.0}, "geometry": {"type": "LineString", "coordinates": [[-73.9015030636913, 40.55780609852569], [-73.90123200123979, 40.558062511335365]]}}, {"type": "Feature", "properties": {"segment_id": 1638833, "physicalid": "160604", "street_name": "BCH 193 ST", "borough": "queens", "direction": "FT", "total_row_ft": 108.5, "roadbed_ft": 32.6, "median_ft": 45.9, "left_sw_ft": 15.0, "right_sw_ft": 15.0}, "geometry": {"type": "LineString", "coordinates": [[-73.90132472022775, 40.55806000559524], [-73.90107500891703, 40.55779127578849]]}}, {"type": "Feature", "properties": {"segment_id": 1638834, "physicalid": "160604", "street_name": "BCH 193 ST", "borough": "queens", "direction": "FT", "total_row_ft": 108.3, "roadbed_ft": 32.3, "median_ft": 46.0, "left_sw_ft": 15.0, "right_sw_ft": 15.0}, "geometry": {"type": "LineString", "coordinates": [[-73.90131982710193, 40.55806039970582], [-73.90097384958385, 40.55786327709047]]}}, {"type": "Feature", "properties": {"segment_id": 1638835, "physicalid": "160604", "street_name": "BCH 193 ST", "borough": "queens", "direction": "FT", "total_row_ft": 106.1, "roadbed_ft": 32.6, "median_ft": 43.5, "left_sw_ft": 15.0, "right_sw_ft": 15.0}, "geometry": {"type": "LineString", "coordinates": [[-73.9013206103419, 40.558064005021194], [-73.9009118800497, 40.557957669145594]]}}]}