{"type": "FeatureCollection", "features": [{"type": "Feature", "properties": {"segment_id": 207817, "physicalid": "16147", "street_name": "RANGE RD", "borough": "queens", "direction": "TW", "total_row_ft": 55.8, "roadbed_ft": 25.8, "median_ft": 0.0, "left_sw_ft": 15.0, "right_sw_ft": 15.0}, "geometry": {"type": "LineString", "coordinates": [[-73.8999560830007, 40.55981015711556], [-73.89993073965026, 40.559481347845534]]}}, {"type": "Feature", "properties": {"segment_id": 207818, "physicalid": "16147", "street_name": "RANGE RD", "borough": "queens", "direction": "TW", "total_row_ft": 56.0, "roadbed_ft": 26.0, "median_ft": 0.0, "left_sw_ft": 15.0, "right_sw_ft": 15.0}, "geometry": {"type": "LineString", "coordinates": [[-73.8998519849649, 40.559808103246056], [-73.89989133852323, 40.55948009671563]]}}, {"type": "Feature", "properties": {"segment_id": 207819, "physicalid": "16147", "street_name": "RANGE RD", "borough": "queens", "direction": "TW", "total_row_ft": 55.9, "roadbed_ft": 25.9, "median_ft": 0.0, "left_sw_ft": 15.0, "right_sw_ft": 15.0}, "geometry": {"type": "LineString", "coordinates": [[-73.89978030675186, 40.55980310081795], [-73.89981966065918, 40.55947509431196]]}}, {"type": "Feature", "properties": {"segment_id": 207820, "physicalid": "16147", "street_name": "RANGE RD", "borough": "queens", "direction": "TW", "total_row_ft": 55.8, "roadbed_ft": 25.8, "median_ft": 0.0, "left_sw_ft": 15.0, "right_sw_ft": 15.0}, "geometry": {"type": "LineString", "coordinates": [[-73.89967798049612, 40.55978905497131], [-73.89978082141639, 40.559469153327676]]}}, {"type": "Feature", "properties": {"segment_id": 207821, "physicalid": "16147", "street_name": "RANGE RD", "borough": "queens", "direction": "TW", "total_row_ft": 56.4, "roadbed_ft": 26.4, "median_ft": 0.0, "left_sw_ft": 15.0, "right_sw_ft": 15.0}, "geometry": {"type": "LineString", "coordinates": [[-73.89960807345506, 40.559775982381396], [-73.89971091468993, 40.55945608079999]]}}, {"type": "Feature", "properties": {"segment_id": 207822, "physicalid": "16147", "street_name": "RANGE RD", "borough": "queens", "direction": "TW", "total_row_ft": 56.5, "roadbed_ft": 26.5, "median_ft": 0.0, "left_sw_ft": 15.0, "right_sw_ft": 15.0}, "geometry": {"type": "LineString", "coordinates": [[-73.89942911929604, 40.55967106114302], [-73.89979077004436, 40.55949103536986]]}}, {"type": "Feature", "properties": {"segment_id": 207823, "physicalid": "16147", "street_name": "RANGE RD", "borough": "queens", "direction": "TW", "total_row_ft": 55.1, "roadbed_ft": 25.1, "median_ft": 0.0, "left_sw_ft": 15.0, "right_sw_ft": 15.0}, "geometry": {"type": "LineString", "coordinates": [[-73.89938977907103, 40.55962509010914], [-73.89975142967647, 40.55944506445911]]}}, {"type": "Feature", "properties": {"segment_id": 207824, "physicalid": "16147", "street_name": "RANGE RD", "borough": "queens", "direction": "TW", "total_row_ft": 54.5, "roadbed_ft": 24.5, "median_ft": 0.0, "left_sw_ft": 15.0, "right_sw_ft": 15.0}, "geometry": {"type": "LineString", "coordinates": [[-73.89934205703598, 40.559561117900685], [-73.89972824562867, 40.55941369054073]]}}, {"type": "Feature", "properties": {"segment_id": 207825, "physicalid": "16147", "street_name": "RANGE RD", "borough": "queens", "direction": "TW", "total_row_ft": 54.1, "roadbed_ft": 24.1, "median_ft": 0.0, "left_sw_ft": 15.0, "right_sw_ft": 15.0}, "geometry": {"type": "LineString", "coordinates": [[-73.89930984049082, 40.55951202769775], [-73.89969602887078, 40.55936460044543]]}}, {"type": "Feature", "properties": {"segment_id": 207826, "physicalid": "16147", "street_name": "RANGE RD", "borough": "queens", "direction": "TW", "total_row_ft": 53.8, "roadbed_ft": 23.8, "median_ft": 0.0, "left_sw_ft": 15.0, "right_sw_ft": 15.0}, "geometry": {"type": "LineString", "coordinates": [[-73.89927089122767, 40.559444574743424], [-73.89967667985152, 40.559331857911836]]}}, {"type": "Feature", "properties": {"segment_id": 207827, "physicalid": "16147", "street_name": "RANGE RD", "borough": "queens", "direction": "TW", "total_row_ft": 54.0, "roadbed_ft": 24.0, "median_ft": 0.0, "left_sw_ft": 15.0, "right_sw_ft": 15.0}, "geometry": {"type": "LineString", "coordinates": [[-73.89924625988857, 40.55939299302896], [-73.89965204824071, 40.55928027628397]]}}, {"type": "Feature", "properties": {"segment_id": 207828, "physicalid": "16147", "street_name": "RANGE RD", "borough": "queens", "direction": "TW", "total_row_ft": 57.1, "roadbed_ft": 27.1, "median_ft": 0.0, "left_sw_ft": 15.0, "right_sw_ft": 15.0}, "geometry": {"type": "LineString", "coordinates": [[-73.89921652332524, 40.559322846621676], [-73.89963657177026, 40.559246331356725]]}}, {"type": "Feature", "properties": {"segment_id": 207829, "physicalid": "16147", "street_name": "RANGE RD", "borough": "queens", "direction": "TW", "total_row_ft": 66.9, "roadbed_ft": 36.9, "median_ft": 0.0, "left_sw_ft": 15.0, "right_sw_ft": 15.0}, "geometry": {"type": "LineString", "coordinates": [[-73.89919980299186, 40.55926945220643], [-73.89961985112033, 40.55919293700229]]}}, {"type": "Feature", "properties": {"segment_id": 207830, "physicalid": "16147", "street_name": "RANGE RD", "borough": "queens", "direction": "TW", "total_row_ft": 72.9, "roadbed_ft": 42.9, "median_ft": 0.0, "left_sw_ft": 15.0, "right_sw_ft": 15.0}, "geometry": {"type": "LineString", "coordinates": [[-73.89917966286869, 40.55919743935237], [-73.89960840320353, 40.55915790775289]]}}, {"type": "Feature", "properties": {"segment_id": 207831, "physicalid": "16147", "street_name": "RANGE RD", "borough": "queens", "direction": "TW", "total_row_ft": 102.9, "roadbed_ft": 72.9, "median_ft": 0.0, "left_sw_ft": 15.0, "right_sw_ft": 15.0}, "geometry": {"type": "LineString", "coordinates": [[-73.89917102441568, 40.55914293999664], [-73.8995997644059, 40.55910340842926]]}}, {"type": "Feature", "properties": {"segment_id": 207832, "physicalid": "16148", "street_name": "RANGE RD", "borough": "queens", "direction": "TW", "total_row_ft": 62.5, "roadbed_ft": 32.5, "median_ft": 0.0, "left_sw_ft": 15.0, "right_sw_ft": 15.0}, "geometry": {"type": "LineString", "coordinates": [[-73.89915470309751, 40.55905620278524], [-73.89958009839687, 40.55899942032495]]}}, {"type": "Feature", "properties": {"segment_id": 207833, "physicalid": "16148", "street_name": "RANGE RD", "borough": "queens", "direction": "TW", "total_row_ft": 53.5, "roadbed_ft": 23.5, "median_ft": 0.0, "left_sw_ft": 15.0, "right_sw_ft": 15.0}, "geometry": {"type": "LineString", "coordinates": [[-73.89914229493027, 40.559002128504645], [-73.89956768989586, 40.55894534609006]]}}, {"type": "Feature", "properties": {"segment_id": 207834, "physicalid": "16148", "street_name": "RANGE RD", "borough": "queens", "direction": "TW", "total_row_ft": 53.6, "roadbed_ft": 23.6, "median_ft": 0.0, "left_sw_ft": 15.0, "right_sw_ft": 15.0}, "geometry": {"type": "LineString", "coordinates": [[-73.8991298867831, 40.55894805422246], [-73.89955528141493, 40.55889127185359]]}}, {"type": "Feature", "properties": {"segment_id": 207835, "physicalid": "16148", "street_name": "RANGE RD", "borough": "queens", "direction": "TW", "total_row_ft": 53.6, "roadbed_ft": 23.6, "median_ft": 0.0, "left_sw_ft": 15.0, "right_sw_ft": 15.0}, "geometry": {"type": "LineString", "coordinates": [[-73.89911747865601, 40.5588939799387], [-73.8995428729541, 40.5588371976155]]}}, {"type": "Feature", "properties": {"segment_id": 207836, "physicalid": "16148", "street_name": "RANGE RD", "borough": "queens", "direction": "TW", "total_row_ft": 53.7, "roadbed_ft": 23.7, "median_ft": 0.0, "left_sw_ft": 15.0, "right_sw_ft": 15.0}, "geometry": {"type": "LineString", "coordinates": [[-73.89910507054901, 40.558839905653294], [-73.89953046451335, 40.558783123375896]]}}, {"type": "Feature", "properties": {"segment_id": 207837, "physicalid": "16148", "street_name": "RANGE RD", "borough": "queens", "direction": "TW", "total_row_ft": 53.6, "roadbed_ft": 23.6, "median_ft": 0.0, "left_sw_ft": 15.0, "right_sw_ft": 15.0}, "geometry": {"type": "LineString", "coordinates": [[-73.89909266246212, 40.55878583136637], [-73.89951805609267, 40.55872904913459]]}}, {"type": "Feature", "properties": {"segment_id": 207838, "physicalid": "16148", "street_name": "RANGE RD", "borough": "queens", "direction": "TW", "total_row_ft": 53.6, "roadbed_ft": 23.6, "median_ft": 0.0, "left_sw_ft": 15.0, "right_sw_ft": 15.0}, "geometry": {"type": "LineString", "coordinates": [[-73.89908025439529, 40.55873175707785], [-73.8995056476921, 40.558674974891744]]}}, {"type": "Feature", "properties": {"segment_id": 207839, "physicalid": "16148", "street_name": "RANGE RD", "borough": "queens", "direction": "TW", "total_row_ft": 53.6, "roadbed_ft": 23.6, "median_ft": 0.0, "left_sw_ft": 15.0, "right_sw_ft": 15.0}, "geometry": {"type": "LineString", "coordinates": [[-73.89906784634856, 40.558677682787696], [-73.89949323931161, 40.558620900647306]]}}, {"type": "Feature", "properties": {"segment_id": 207840, "physicalid": "16148", "street_name": "RANGE RD", "borough": "queens", "direction": "TW", "total_row_ft": 53.5, "roadbed_ft": 23.5, "median_ft": 0.0, "left_sw_ft": 15.0, "right_sw_ft": 15.0}, "geometry": {"type": "LineString", "coordinates": [[-73.89905543832191, 40.55862360849598], [-73.8994808309512, 40.558566826401275]]}}, {"type": "Feature", "properties": {"segment_id": 207841, "physicalid": "16148", "street_name": "RANGE RD", "borough": "queens", "direction": "TW", "total_row_ft": 53.5, "roadbed_ft": 23.5, "median_ft": 0.0, "left_sw_ft": 15.0, "right_sw_ft": 15.0}, "geometry": {"type": "LineString", "coordinates": [[-73.89904303031533, 40.55856953420268], [-73.89946842261088, 40.558512752153646]]}}, {"type": "Feature", "properties": {"segment_id": 207842, "physicalid": "16148", "street_name": "RANGE RD", "borough": "queens", "direction": "TW", "total_row_ft": 53.5, "roadbed_ft": 23.5, "median_ft": 0.0, "left_sw_ft": 15.0, "right_sw_ft": 15.0}, "geometry": {"type": "LineString", "coordinates": [[-73.89903062232885, 40.55851545990777], [-73.89945601429065, 40.55845867790445]]}}, {"type": "Feature", "properties": {"segment_id": 207843, "physicalid": "16148", "street_name": "RANGE RD", "borough": "queens", "direction": "TW", "total_row_ft": 53.4, "roadbed_ft": 23.4, "median_ft": 0.0, "left_sw_ft": 15.0, "right_sw_ft": 15.0}, "geometry": {"type": "LineString", "coordinates": [[-73.89901821436246, 40.55846138561124], [-73.8994436059905, 40.5584046036537]]}}, {"type": "Feature", "properties": {"segment_id": 207844, "physicalid": "16148", "street_name": "RANGE RD", "borough": "queens", "direction": "TW", "total_row_ft": 53.4, "roadbed_ft": 23.4, "median_ft": 0.0, "left_sw_ft": 15.0, "right_sw_ft": 15.0}, "geometry": {"type": "LineString", "coordinates": [[-73.89900580641614, 40.55840731131318], [-73.89943119771043, 40.55835052940126]]}}, {"type": "Feature", "properties": {"segment_id": 207845, "physicalid": "16148", "street_name": "RANGE RD", "borough": "queens", "direction": "TW", "total_row_ft": 53.4, "roadbed_ft": 23.4, "median_ft": 0.0, "left_sw_ft": 15.0, "right_sw_ft": 15.0}, "geometry": {"type": "LineString", "coordinates": [[-73.89899339848992, 40.55835323701351], [-73.89941878945045, 40.55829645514728]]}}, {"type": "Feature", "properties": {"segment_id": 207846, "physicalid": "16148", "street_name": "RANGE RD", "borough": "queens", "direction": "TW", "total_row_ft": 53.3, "roadbed_ft": 23.3, "median_ft": 0.0, "left_sw_ft": 15.0, "right_sw_ft": 15.0}, "geometry": {"type": "LineString", "coordinates": [[-73.8989809905838, 40.55829916271224], [-73.89940638121055, 40.55824238089172]]}}, {"type": "Feature", "properties": {"segment_id": 207847, "physicalid": "16148", "street_name": "RANGE RD", "borough": "queens", "direction": "TW", "total_row_ft": 53.3, "roadbed_ft": 23.3, "median_ft": 0.0, "left_sw_ft": 15.0, "right_sw_ft": 15.0}, "geometry": {"type": "LineString", "coordinates": [[-73.89896858269773, 40.5582450884094], [-73.89939397299077, 40.55818830663456]]}}, {"type": "Feature", "properties": {"segment_id": 207848, "physicalid": "16149", "street_name": "RANGE RD", "borough": "queens", "direction": "TW", "total_row_ft": 110.8, "roadbed_ft": 80.8, "median_ft": 0.0, "left_sw_ft": 15.0, "right_sw_ft": 15.0}, "geometry": {"type": "LineString", "coordinates": [[-73.8994234213875, 40.55923434346339], [-73.89923308012378, 40.558938684267154]]}}, {"type": "Feature", "properties": {"segment_id": 207849, "physicalid": "16150", "street_name": "RANGE RD", "borough": "queens", "direction": "TW", "total_row_ft": 71.6, "roadbed_ft": 41.6, "median_ft": 0.0, "left_sw_ft": 15.0, "right_sw_ft": 15.0}, "geometry": {"type": "LineString", "coordinates": [[-73.8993223205876, 40.559272625737215], [-73.89912836042612, 40.55897833779939]]}}, {"type": "Feature", "properties": {"segment_id": 207850, "physicalid": "16150", "street_name": "RANGE RD", "borough": "queens", "direction": "TW", "total_row_ft": 65.8, "roadbed_ft": 35.8, "median_ft": 0.0, "left_sw_ft": 15.0, "right_sw_ft": 15.0}, "geometry": {"type": "LineString", "coordinates": [[-73.89925801131447, 40.55929728104373], [-73.89906405136469, 40.55900299299788]]}}, {"type": "Feature", "properties": {"segment_id": 207851, "physicalid": "16150", "street_name": "RANGE RD", "borough": "queens", "direction": "TW", "total_row_ft": 45.4, "roadbed_ft": 15.4, "median_ft": 0.0, "left_sw_ft": 15.0, "right_sw_ft": 15.0}, "geometry": {"type": "LineString", "coordinates": [[-73.89919370199387, 40.559321936314156], [-73.8989997422558, 40.55902764816035]]}}, {"type": "Feature", "properties": {"segment_id": 207852, "physicalid": "16150", "street_name": "RANGE RD", "borough": "queens", "direction": "TW", "total_row_ft": 40.3, "roadbed_ft": 10.3, "median_ft": 0.0, "left_sw_ft": 15.0, "right_sw_ft": 15.0}, "geometry": {"type": "LineString", "coordinates": [[-73.89912939262581, 40.559346591548525], [-73.89893543309945, 40.559052303286734]]}}, {"type": "Feature", "properties": {"segment_id": 207853, "physicalid": "16150", "street_name": "RANGE RD", "borough": "queens", "direction": "TW", "total_row_ft": 40.7, "roadbed_ft": 10.7, "median_ft": 0.0, "left_sw_ft": 15.0, "right_sw_ft": 15.0}, "geometry": {"type": "LineString", "coordinates": [[-73.8990650832103, 40.55937124674683], [-73.8988711238956, 40.55907695837705]]}}, {"type": "Feature", "properties": {"segment_id": 207854, "physicalid": "16150", "street_name": "RANGE RD", "borough": "queens", "direction": "TW", "total_row_ft": 40.0, "roadbed_ft": 10.0, "median_ft": 0.0, "left_sw_ft": 15.0, "right_sw_ft": 15.0}, "geometry": {"type": "LineString", "coordinates": [[-73.89900077374733, 40.55939590190907], [-73.89880681464429, 40.55910161343133]]}}, {"type": "Feature", "properties": {"segment_id": 207855, "physicalid": "16150", "street_name": "RANGE RD", "borough": "queens", "direction": "TW", "total_row_ft": 40.5, "roadbed_ft": 10.5, "median_ft": 0.0, "left_sw_ft": 15.0, "right_sw_ft": 15.0}, "geometry": {"type": "LineString", "coordinates": [[-73.89893646423685, 40.55942055703527], [-73.89874250534557, 40.559126268449546]]}}, {"type": "Feature", "properties": {"segment_id": 207856, "physicalid": "16150", "street_name": "RANGE RD", "borough": "queens", "direction": "TW", "total_row_ft": 41.0, "roadbed_ft": 11.0, "median_ft": 0.0, "left_sw_ft": 15.0, "right_sw_ft": 15.0}, "geometry": {"type": "LineString", "coordinates": [[-73.89887215467894, 40.5594452121254], [-73.89867819599934, 40.55915092343167]]}}, {"type": "Feature", "properties": {"segment_id": 207857, "physicalid": "16150", "street_name": "RANGE RD", "borough": "queens", "direction": "TW", "total_row_ft": 41.3, "roadbed_ft": 11.3, "median_ft": 0.0, "left_sw_ft": 15.0, "right_sw_ft": 15.0}, "geometry": {"type": "LineString", "coordinates": [[-73.89880784507358, 40.55946986717945], [-73.89861388660565, 40.559175578377776]]}}, {"type": "Feature", "properties": {"segment_id": 207858, "physicalid": "16150", "street_name": "RANGE RD", "borough": "queens", "direction": "TW", "total_row_ft": 41.7, "roadbed_ft": 11.7, "median_ft": 0.0, "left_sw_ft": 15.0, "right_sw_ft": 15.0}, "geometry": {"type": "LineString", "coordinates": [[-73.8987435354207, 40.55949452219747], [-73.89854957716452, 40.559200233287804]]}}, {"type": "Feature", "properties": {"segment_id": 207859, "physicalid": "16150", "street_name": "RANGE RD", "borough": "queens", "direction": "TW", "total_row_ft": 41.4, "roadbed_ft": 11.4, "median_ft": 0.0, "left_sw_ft": 15.0, "right_sw_ft": 15.0}, "geometry": {"type": "LineString", "coordinates": [[-73.89867922572039, 40.559519177179425], [-73.8984852676759, 40.55922488816176]]}}, {"type": "Feature", "properties": {"segment_id": 207860, "physicalid": "16150", "street_name": "RANGE RD", "borough": "queens", "direction": "TW", "total_row_ft": 41.2, "roadbed_ft": 11.2, "median_ft": 0.0, "left_sw_ft": 15.0, "right_sw_ft": 15.0}, "geometry": {"type": "LineString", "coordinates": [[-73.89861491597263, 40.559543832125314], [-73.89842095813981, 40.55924954299967]]}}, {"type": "Feature", "properties": {"segment_id": 207861, "physicalid": "16150", "street_name": "RANGE RD", "borough": "queens", "direction": "TW", "total_row_ft": 41.1, "roadbed_ft": 11.1, "median_ft": 0.0, "left_sw_ft": 15.0, "right_sw_ft": 15.0}, "geometry": {"type": "LineString", "coordinates": [[-73.89855060617738, 40.55956848703512], [-73.89835664855627, 40.55927419780151]]}}, {"type": "Feature", "properties": {"segment_id": 207862, "physicalid": "16150", "street_name": "RANGE RD", "borough": "queens", "direction": "TW", "total_row_ft": 41.0, "roadbed_ft": 11.0, "median_ft": 0.0, "left_sw_ft": 15.0, "right_sw_ft": 15.0}, "geometry": {"type": "LineString", "coordinates": [[-73.89848629633467, 40.5595931419089], [-73.89829233892527, 40.559298852567295]]}}, {"type": "Feature", "properties": {"segment_id": 207863, "physicalid": "16150", "street_name": "RANGE RD", "borough": "queens", "direction": "TW", "total_row_ft": 40.9, "roadbed_ft": 10.9, "median_ft": 0.0, "left_sw_ft": 15.0, "right_sw_ft": 15.0}, "geometry": {"type": "LineString", "coordinates": [[-73.89842198644449, 40.5596177967466], [-73.89822802924681, 40.559323507297016]]}}, {"type": "Feature", "properties": {"segment_id": 207864, "physicalid": "16150", "street_name": "RANGE RD", "borough": "queens", "direction": "TW", "total_row_ft": 40.9, "roadbed_ft": 10.9, "median_ft": 0.0, "left_sw_ft": 15.0, "right_sw_ft": 15.0}, "geometry": {"type": "LineString", "coordinates": [[-73.89835767650686, 40.55964245154824], [-73.89816371952087, 40.559348161990656]]}}, {"type": "Feature", "properties": {"segment_id": 207865, "physicalid": "16150", "street_name": "RANGE RD", "borough": "queens", "direction": "TW", "total_row_ft": 40.7, "roadbed_ft": 10.7, "median_ft": 0.0, "left_sw_ft": 15.0, "right_sw_ft": 15.0}, "geometry": {"type": "LineString", "coordinates": [[-73.89829336652174, 40.55966710631381], [-73.89809940974747, 40.55937281664827]]}}, {"type": "Feature", "properties": {"segment_id": 207866, "physicalid": "16150", "street_name": "RANGE RD", "borough": "queens", "direction": "TW", "total_row_ft": 40.3, "roadbed_ft": 10.3, "median_ft": 0.0, "left_sw_ft": 15.0, "right_sw_ft": 15.0}, "geometry": {"type": "LineString", "coordinates": [[-73.89822905648917, 40.55969176104332], [-73.8980350999266, 40.559397471269804]]}}, {"type": "Feature", "properties": {"segment_id": 207867, "physicalid": "16150", "street_name": "RANGE RD", "borough": "queens", "direction": "TW", "total_row_ft": 40.3, "roadbed_ft": 10.3, "median_ft": 0.0, "left_sw_ft": 15.0, "right_sw_ft": 15.0}, "geometry": {"type": "LineString", "coordinates": [[-73.89816474640914, 40.55971641573679], [-73.89797079005828, 40.55942212585528]]}}, {"type": "Feature", "properties": {"segment_id": 207868, "physicalid": "16150", "street_name": "RANGE RD", "borough": "queens", "direction": "TW", "total_row_ft": 40.5, "roadbed_ft": 10.5, "median_ft": 0.0, "left_sw_ft": 15.0, "right_sw_ft": 15.0}, "geometry": {"type": "LineString", "coordinates": [[-73.89810043628164, 40.559741070394196], [-73.89790648014248, 40.5594467804047]]}}, {"type": "Feature", "properties": {"segment_id": 207869, "physicalid": "16150", "street_name": "RANGE RD", "borough": "queens", "direction": "TW", "total_row_ft": 40.8, "roadbed_ft": 10.8, "median_ft": 0.0, "left_sw_ft": 15.0, "right_sw_ft": 15.0}, "geometry": {"type": "LineString", "coordinates": [[-73.89803612610667, 40.559765725015524], [-73.89784217017923, 40.55947143491806]]}}, {"type": "Feature", "properties": {"segment_id": 207870, "physicalid": "16150", "street_name": "RANGE RD", "borough": "queens", "direction": "TW", "total_row_ft": 41.0, "roadbed_ft": 11.0, "median_ft": 0.0, "left_sw_ft": 15.0, "right_sw_ft": 15.0}, "geometry": {"type": "LineString", "coordinates": [[-73.89797181588426, 40.55979037960081], [-73.8977778601685, 40.559496089395346]]}}, {"type": "Feature", "properties": {"segment_id": 207871, "physicalid": "16150", "street_name": "RANGE RD", "borough": "queens", "direction": "TW", "total_row_ft": 41.2, "roadbed_ft": 11.2, "median_ft": 0.0, "left_sw_ft": 15.0, "right_sw_ft": 15.0}, "geometry": {"type": "LineString", "coordinates": [[-73.89790750561436, 40.55981503415002], [-73.89771355011031, 40.559520743836586]]}}, {"type": "Feature", "properties": {"segment_id": 207872, "physicalid": "16150", "street_name": "RANGE RD", "borough": "queens", "direction": "TW", "total_row_ft": 41.4, "roadbed_ft": 11.4, "median_ft": 0.0, "left_sw_ft": 15.0, "right_sw_ft": 15.0}, "geometry": {"type": "LineString", "coordinates": [[-73.897843195297, 40.55983968866316], [-73.89764924000467, 40.55954539824175]]}}, {"type": "Feature", "properties": {"segment_id": 207873, "physicalid": "16150", "street_name": "RANGE RD", "borough": "queens", "direction": "TW", "total_row_ft": 41.7, "roadbed_ft": 11.7, "median_ft": 0.0, "left_sw_ft": 15.0, "right_sw_ft": 15.0}, "geometry": {"type": "LineString", "coordinates": [[-73.89777888493218, 40.55986434314026], [-73.89758492985155, 40.55957005261086]]}}, {"type": "Feature", "properties": {"segment_id": 207874, "physicalid": "16150", "street_name": "RANGE RD", "borough": "queens", "direction": "TW", "total_row_ft": 41.6, "roadbed_ft": 11.6, "median_ft": 0.0, "left_sw_ft": 15.0, "right_sw_ft": 15.0}, "geometry": {"type": "LineString", "coordinates": [[-73.8977145745199, 40.55988899758128], [-73.89752061965096, 40.55959470694393]]}}, {"type": "Feature", "properties": {"segment_id": 207875, "physicalid": "16150", "street_name": "RANGE RD", "borough": "queens", "direction": "TW", "total_row_ft": 41.5, "roadbed_ft": 11.5, "median_ft": 0.0, "left_sw_ft": 15.0, "right_sw_ft": 15.0}, "geometry": {"type": "LineString", "coordinates": [[-73.89765026406013, 40.55991365198624], [-73.89745630940293, 40.55961936124091]]}}, {"type": "Feature", "properties": {"segment_id": 207876, "physicalid": "16150", "street_name": "RANGE RD", "borough": "queens", "direction": "TW", "total_row_ft": 41.3, "roadbed_ft": 11.3, "median_ft": 0.0, "left_sw_ft": 15.0, "right_sw_ft": 15.0}, "geometry": {"type": "LineString", "coordinates": [[-73.8975859535529, 40.559938306355164], [-73.89739199910743, 40.559644015501824]]}}, {"type": "Feature", "properties": {"segment_id": 207877, "physicalid": "16150", "street_name": "RANGE RD", "borough": "queens", "direction": "TW", "total_row_ft": 41.2, "roadbed_ft": 11.2, "median_ft": 0.0, "left_sw_ft": 15.0, "right_sw_ft": 15.0}, "geometry": {"type": "LineString", "coordinates": [[-73.89752164299823, 40.559962960688004], [-73.89732768876445, 40.55966866972669]]}}, {"type": "Feature", "properties": {"segment_id": 207878, "physicalid": "16150", "street_name": "RANGE RD", "borough": "queens", "direction": "TW", "total_row_ft": 41.0, "roadbed_ft": 11.0, "median_ft": 0.0, "left_sw_ft": 15.0, "right_sw_ft": 15.0}, "geometry": {"type": "LineString", "coordinates": [[-73.89745733239609, 40.559987614984784], [-73.89726337837402, 40.55969332391549]]}}, {"type": "Feature", "properties": {"segment_id": 207879, "physicalid": "16150", "street_name": "RANGE RD", "borough": "queens", "direction": "TW", "total_row_ft": 40.9, "roadbed_ft": 10.9, "median_ft": 0.0, "left_sw_ft": 15.0, "right_sw_ft": 15.0}, "geometry": {"type": "LineString", "coordinates": [[-73.89739302174648, 40.5600122692455], [-73.89719906793611, 40.55971797806825]]}}, {"type": "Feature", "properties": {"segment_id": 207880, "physicalid": "16150", "street_name": "RANGE RD", "borough": "queens", "direction": "TW", "total_row_ft": 40.7, "roadbed_ft": 10.7, "median_ft": 0.0, "left_sw_ft": 15.0, "right_sw_ft": 15.0}, "geometry": {"type": "LineString", "coordinates": [[-73.8973287110494, 40.560036923470165], [-73.89713475745076, 40.55974263218492]]}}, {"type": "Feature", "properties": {"segment_id": 207881, "physicalid": "16150", "street_name": "RANGE RD", "borough": "queens", "direction": "TW", "total_row_ft": 40.1, "roadbed_ft": 10.1, "median_ft": 0.0, "left_sw_ft": 15.0, "right_sw_ft": 15.0}, "geometry": {"type": "LineString", "coordinates": [[-73.89726440030486, 40.56006157765875], [-73.89707044691792, 40.55976728626554]]}}, {"type": "Feature", "properties": {"segment_id": 207882, "physicalid": "16150", "street_name": "RANGE RD", "borough": "queens", "direction": "TW", "total_row_ft": 39.7, "roadbed_ft": 9.7, "median_ft": 0.0, "left_sw_ft": 15.0, "right_sw_ft": 15.0}, "geometry": {"type": "LineString", "coordinates": [[-73.89720008951285, 40.56008623181129], [-73.89700613633762, 40.55979194031008]]}}, {"type": "Feature", "properties": {"segment_id": 207883, "physicalid": "16150", "street_name": "RANGE RD", "borough": "queens", "direction": "TW", "total_row_ft": 39.7, "roadbed_ft": 9.7, "median_ft": 0.0, "left_sw_ft": 15.0, "right_sw_ft": 15.0}, "geometry": {"type": "LineString", "coordinates": [[-73.89713577867337, 40.560110885927784], [-73.89694182570987, 40.55981659431859]]}}, {"type": "Feature", "properties": {"segment_id": 207884, "physicalid": "16150", "street_name": "RANGE RD", "borough": "queens", "direction": "TW", "total_row_ft": 39.7, "roadbed_ft": 9.7, "median_ft": 0.0, "left_sw_ft": 15.0, "right_sw_ft": 15.0}, "geometry": {"type": "LineString", "coordinates": [[-73.89707146778643, 40.56013554000816], [-73.89687751503463, 40.559841248291015]]}}, {"type": "Feature", "properties": {"segment_id": 208016, "physicalid": "16154", "street_name": "RANGE RD", "borough": "queens", "direction": "TW", "total_row_ft": 53.2, "roadbed_ft": 23.2, "median_ft": 0.0, "left_sw_ft": 15.0, "right_sw_ft": 15.0}, "geometry": {"type": "LineString", "coordinates": [[-73.89893897932247, 40.55812033688936], [-73.89936291606318, 40.558057552185325]]}}, {"type": "Feature", "properties": {"segment_id": 208017, "physicalid": "16154", "street_name": "RANGE RD", "borough": "queens", "direction": "TW", "total_row_ft": 53.2, "roadbed_ft": 23.2, "median_ft": 0.0, "left_sw_ft": 15.0, "right_sw_ft": 15.0}, "geometry": {"type": "LineString", "coordinates": [[-73.898925259712, 40.55806644724983], [-73.89934919612367, 40.558003662596136]]}}, {"type": "Feature", "properties": {"segment_id": 208018, "physicalid": "16155", "street_name": "RANGE RD", "borough": "queens", "direction": "TW", "total_row_ft": 53.5, "roadbed_ft": 23.5, "median_ft": 0.0, "left_sw_ft": 15.0, "right_sw_ft": 15.0}, "geometry": {"type": "LineString", "coordinates": [[-73.89889289856394, 40.55793933816238], [-73.8993168328586, 40.557876548360994]]}}, {"type": "Feature", "properties": {"segment_id": 208019, "physicalid": "16155", "street_name": "RANGE RD", "borough": "queens", "direction": "TW", "total_row_ft": 53.6, "roadbed_ft": 23.6, "median_ft": 0.0, "left_sw_ft": 15.0, "right_sw_ft": 15.0}, "geometry": {"type": "LineString", "coordinates": [[-73.89887917787699, 40.557885448686946], [-73.8993031118426, 40.55782265893591]]}}, {"type": "Feature", "properties": {"segment_id": 208020, "physicalid": "16155", "street_name": "RANGE RD", "borough": "queens", "direction": "TW", "total_row_ft": 51.2, "roadbed_ft": 21.2, "median_ft": 0.0, "left_sw_ft": 15.0, "right_sw_ft": 15.0}, "geometry": {"type": "LineString", "coordinates": [[-73.89886545721217, 40.55783155920963], [-73.89928939084874, 40.55776876950895]]}}, {"type": "Feature", "properties": {"segment_id": 208021, "physicalid": "16155", "street_name": "RANGE RD", "borough": "queens", "direction": "TW", "total_row_ft": 49.7, "roadbed_ft": 19.7, "median_ft": 0.0, "left_sw_ft": 15.0, "right_sw_ft": 15.0}, "geometry": {"type": "LineString", "coordinates": [[-73.89885173656947, 40.55777766973043], [-73.899275669877, 40.5577148800801]]}}, {"type": "Feature", "properties": {"segment_id": 208022, "physicalid": "16155", "street_name": "RANGE RD", "borough": "queens", "direction": "TW", "total_row_ft": 49.5, "roadbed_ft": 19.5, "median_ft": 0.0, "left_sw_ft": 15.0, "right_sw_ft": 15.0}, "geometry": {"type": "LineString", "coordinates": [[-73.89883801594893, 40.55772378024933], [-73.89926194892739, 40.55766099064937]]}}, {"type": "Feature", "properties": {"segment_id": 208023, "physicalid": "16155", "street_name": "RANGE RD", "borough": "queens", "direction": "TW", "total_row_ft": 47.3, "roadbed_ft": 17.3, "median_ft": 0.0, "left_sw_ft": 15.0, "right_sw_ft": 15.0}, "geometry": {"type": "LineString", "coordinates": [[-73.8988242953505, 40.557669890766306], [-73.89924822799995, 40.55760710121678]]}}, {"type": "Feature", "properties": {"segment_id": 208024, "physicalid": "16155", "street_name": "RANGE RD", "borough": "queens", "direction": "TW", "total_row_ft": 47.0, "roadbed_ft": 17.0, "median_ft": 0.0, "left_sw_ft": 15.0, "right_sw_ft": 15.0}, "geometry": {"type": "LineString", "coordinates": [[-73.89881057477423, 40.557616001281495], [-73.89923450709459, 40.55755321178223]]}}, {"type": "Feature", "properties": {"segment_id": 1166941, "physicalid": "81077", "street_name": "UNNAMED ST", "borough": "queens", "direction": "TW", "total_row_ft": 30.0, "roadbed_ft": 0.0, "median_ft": 0.0, "left_sw_ft": 15.0, "right_sw_ft": 15.0}, "geometry": {"type": "LineString", "coordinates": [[-73.89918731890639, 40.55796077447262], [-73.89924224357095, 40.558287476637126]]}}, {"type": "Feature", "properties": {"segment_id": 1166942, "physicalid": "81077", "street_name": "UNNAMED ST", "borough": "queens", "direction": "TW", "total_row_ft": 30.0, "roadbed_ft": 0.0, "median_ft": 0.0, "left_sw_ft": 15.0, "right_sw_ft": 15.0}, "geometry": {"type": "LineString", "coordinates": [[-73.89925871009942, 40.55795379260647], [-73.89931363510736, 40.55828049473701]]}}, {"type": "Feature", "properties": {"segment_id": 1166943, "physicalid": "81077", "street_name": "UNNAMED ST", "borough": "queens", "direction": "TW", "total_row_ft": 30.0, "roadbed_ft": 0.0, "median_ft": 0.0, "left_sw_ft": 15.0, "right_sw_ft": 15.0}, "geometry": {"type": "LineString", "coordinates": [[-73.89933010127753, 40.55794681069591], [-73.89938502662886, 40.55827351279252]]}}, {"type": "Feature", "properties": {"segment_id": 1166944, "physicalid": "81077", "street_name": "UNNAMED ST", "borough": "queens", "direction": "TW", "total_row_ft": 30.0, "roadbed_ft": 0.0, "median_ft": 0.0, "left_sw_ft": 15.0, "right_sw_ft": 15.0}, "geometry": {"type": "LineString", "coordinates": [[-73.89940149244075, 40.55793982874098], [-73.8994564181354, 40.55826653080366]]}}, {"type": "Feature", "properties": {"segment_id": 1166945, "physicalid": "81077", "street_name": "UNNAMED ST", "borough": "queens", "direction": "TW", "total_row_ft": 30.0, "roadbed_ft": 0.0, "median_ft": 0.0, "left_sw_ft": 15.0, "right_sw_ft": 15.0}, "geometry": {"type": "LineString", "coordinates": [[-73.89949185142564, 40.55793430835163], [-73.89950943043979, 40.55826341230466]]}}, {"type": "Feature", "properties": {"segment_id": 1166946, "physicalid": "81077", "street_name": "UNNAMED ST", "borough": "queens", "direction": "TW", "total_row_ft": 30.0, "roadbed_ft": 0.0, "median_ft": 0.0, "left_sw_ft": 15.0, "right_sw_ft": 15.0}, "geometry": {"type": "LineString", "coordinates": [[-73.89958372540649, 40.55793404190715], [-73.899561361336, 40.55826297689878]]}}, {"type": "Feature", "properties": {"segment_id": 1166947, "physicalid": "81077", "street_name": "UNNAMED ST", "borough": "queens", "direction": "TW", "total_row_ft": 30.0, "roadbed_ft": 0.0, "median_ft": 0.0, "left_sw_ft": 15.0, "right_sw_ft": 15.0}, "geometry": {"type": "LineString", "coordinates": [[-73.89967536243529, 40.557939291540464], [-73.8996132466008, 40.55826524352816]]}}, {"type": "Feature", "properties": {"segment_id": 1166948, "physicalid": "81077", "street_name": "UNNAMED ST", "borough": "queens", "direction": "TW", "total_row_ft": 30.0, "roadbed_ft": 0.0, "median_ft": 0.0, "left_sw_ft": 15.0, "right_sw_ft": 15.0}, "geometry": {"type": "LineString", "coordinates": [[-73.89975940247196, 40.55794890993389], [-73.89967166135904, 40.55827141704985]]}}, {"type": "Feature", "properties": {"segment_id": 1166949, "physicalid": "81077", "street_name": "UNNAMED ST", "borough": "queens", "direction": "TW", "total_row_ft": 30.0, "roadbed_ft": 0.0, "median_ft": 0.0, "left_sw_ft": 15.0, "right_sw_ft": 15.0}, "geometry": {"type": "LineString", "coordinates": [[-73.89983617708477, 40.55796291129365], [-73.89973484119072, 40.55828309181546]]}}, {"type": "Feature", "properties": {"segment_id": 1166950, "physicalid": "81077", "street_name": "UNNAMED ST", "borough": "queens", "direction": "TW", "total_row_ft": 30.0, "roadbed_ft": 0.0, "median_ft": 0.0, "left_sw_ft": 15.0, "right_sw_ft": 15.0}, "geometry": {"type": "LineString", "coordinates": [[-73.89992382931901, 40.55798395525791], [-73.89978414052274, 40.558295625280365]]}}, {"type": "Feature", "properties": {"segment_id": 1166951, "physicalid": "81077", "street_name": "UNNAMED ST", "borough": "queens", "direction": "TW", "total_row_ft": 30.0, "roadbed_ft": 0.0, "median_ft": 0.0, "left_sw_ft": 15.0, "right_sw_ft": 15.0}, "geometry": {"type": "LineString", "coordinates": [[-73.90000902139154, 40.55801018928416], [-73.89983217408196, 40.55831068234879]]}}, {"type": "Feature", "properties": {"segment_id": 1166952, "physicalid": "81077", "street_name": "UNNAMED ST", "borough": "queens", "direction": "TW", "total_row_ft": 30.0, "roadbed_ft": 0.0, "median_ft": 0.0, "left_sw_ft": 15.0, "right_sw_ft": 15.0}, "geometry": {"type": "LineString", "coordinates": [[-73.9000912414515, 40.558041454256106], [-73.89987874851654, 40.558328199633785]]}}, {"type": "Feature", "properties": {"segment_id": 1166965, "physicalid": "81077", "street_name": "UNNAMED ST", "borough": "queens", "direction": "TW", "total_row_ft": 30.0, "roadbed_ft": 0.0, "median_ft": 0.0, "left_sw_ft": 15.0, "right_sw_ft": 15.0}, "geometry": {"type": "LineString", "coordinates": [[-73.89986116500314, 40.55811779864153], [-73.90000672913567, 40.55780769670325]]}}, {"type": "Feature", "properties": {"segment_id": 1166966, "physicalid": "81077", "street_name": "UNNAMED ST", "borough": "queens", "direction": "TW", "total_row_ft": 30.0, "roadbed_ft": 0.0, "median_ft": 0.0, "left_sw_ft": 15.0, "right_sw_ft": 15.0}, "geometry": {"type": "LineString", "coordinates": [[-73.89980950769247, 40.55810417248141], [-73.89992209066563, 40.557786185144366]]}}, {"type": "Feature", "properties": {"segment_id": 1166967, "physicalid": "81077", "street_name": "UNNAMED ST", "borough": "queens", "direction": "TW", "total_row_ft": 30.0, "roadbed_ft": 0.0, "median_ft": 0.0, "left_sw_ft": 15.0, "right_sw_ft": 15.0}, "geometry": {"type": "LineString", "coordinates": [[-73.89974002074422, 40.558089861173364], [-73.89985260402395, 40.55777187390402]]}}, {"type": "Feature", "properties": {"segment_id": 1166968, "physicalid": "81077", "street_name": "UNNAMED ST", "borough": "queens", "direction": "TW", "total_row_ft": 30.0, "roadbed_ft": 0.0, "median_ft": 0.0, "left_sw_ft": 15.0, "right_sw_ft": 15.0}, "geometry": {"type": "LineString", "coordinates": [[-73.89968647542814, 40.5580815237873], [-73.89976535636967, 40.55775768801346]]}}, {"type": "Feature", "properties": {"segment_id": 1166969, "physicalid": "81077", "street_name": "UNNAMED ST", "borough": "queens", "direction": "TW", "total_row_ft": 30.0, "roadbed_ft": 0.0, "median_ft": 0.0, "left_sw_ft": 15.0, "right_sw_ft": 15.0}, "geometry": {"type": "LineString", "coordinates": [[-73.89963264897614, 40.55807425640028], [-73.89967732230804, 40.55774664651244]]}}, {"type": "Feature", "properties": {"segment_id": 1166970, "physicalid": "81077", "street_name": "UNNAMED ST", "borough": "queens", "direction": "TW", "total_row_ft": 30.0, "roadbed_ft": 0.0, "median_ft": 0.0, "left_sw_ft": 15.0, "right_sw_ft": 15.0}, "geometry": {"type": "LineString", "coordinates": [[-73.89956105930983, 40.558068577604026], [-73.89960573298896, 40.55774096774386]]}}, {"type": "Feature", "properties": {"segment_id": 1166971, "physicalid": "81077", "street_name": "UNNAMED ST", "borough": "queens", "direction": "TW", "total_row_ft": 30.0, "roadbed_ft": 0.0, "median_ft": 0.0, "left_sw_ft": 15.0, "right_sw_ft": 15.0}, "geometry": {"type": "LineString", "coordinates": [[-73.8995064642672, 40.55806676011229], [-73.89951664419291, 40.557737474682696]]}}, {"type": "Feature", "properties": {"segment_id": 1166972, "physicalid": "81077", "street_name": "UNNAMED ST", "borough": "queens", "direction": "TW", "total_row_ft": 30.0, "roadbed_ft": 0.0, "median_ft": 0.0, "left_sw_ft": 15.0, "right_sw_ft": 15.0}, "geometry": {"type": "LineString", "coordinates": [[-73.89947886059737, 40.5580647979747], [-73.89940075323103, 40.55774085314586]]}}, {"type": "Feature", "properties": {"segment_id": 1166973, "physicalid": "81077", "street_name": "UNNAMED ST", "borough": "queens", "direction": "TW", "total_row_ft": 30.0, "roadbed_ft": 0.0, "median_ft": 0.0, "left_sw_ft": 15.0, "right_sw_ft": 15.0}, "geometry": {"type": "LineString", "coordinates": [[-73.89940807182114, 40.55807472678731], [-73.89932996478646, 40.557750781910606]]}}, {"type": "Feature", "properties": {"segment_id": 1166974, "physicalid": "81077", "street_name": "UNNAMED ST", "borough": "queens", "direction": "TW", "total_row_ft": 30.0, "roadbed_ft": 0.0, "median_ft": 0.0, "left_sw_ft": 15.0, "right_sw_ft": 15.0}, "geometry": {"type": "LineString", "coordinates": [[-73.8993372830239, 40.55808465555631], [-73.89925917632081, 40.55776071063173]]}}, {"type": "Feature", "properties": {"segment_id": 1166975, "physicalid": "81077", "street_name": "UNNAMED ST", "borough": "queens", "direction": "TW", "total_row_ft": 30.0, "roadbed_ft": 0.0, "median_ft": 0.0, "left_sw_ft": 15.0, "right_sw_ft": 15.0}, "geometry": {"type": "LineString", "coordinates": [[-73.8992664942056, 40.558094584281655], [-73.89918838783416, 40.557770639309226]]}}, {"type": "Feature", "properties": {"segment_id": 1317128, "physicalid": "89895", "street_name": "SHORE RD", "borough": "queens", "direction": "TW", "total_row_ft": 50.6, "roadbed_ft": 20.6, "median_ft": 0.0, "left_sw_ft": 15.0, "right_sw_ft": 15.0}, "geometry": {"type": "LineString", "coordinates": [[-73.88994630240343, 40.559448306604914], [-73.89010729118917, 40.559753942482935]]}}, {"type": "Feature", "properties": {"segment_id": 1317129, "physicalid": "89895", "street_name": "SHORE RD", "borough": "queens", "direction": "TW", "total_row_ft": 50.6, "roadbed_ft": 20.6, "median_ft": 0.0, "left_sw_ft": 15.0, "right_sw_ft": 15.0}, "geometry": {"type": "LineString", "coordinates": [[-73.89001309168032, 40.5594278426686], [-73.89017408072228, 40.55973347845355]]}}, {"type": "Feature", "properties": {"segment_id": 1317130, "physicalid": "89895", "street_name": "SHORE RD", "borough": "queens", "direction": "TW", "total_row_ft": 50.5, "roadbed_ft": 20.5, "median_ft": 0.0, "left_sw_ft": 15.0, "right_sw_ft": 15.0}, "geometry": {"type": "LineString", "coordinates": [[-73.89007988091626, 40.55940737869345], [-73.89024087021448, 40.5597130143853]]}}, {"type": "Feature", "properties": {"segment_id": 1317131, "physicalid": "89895", "street_name": "SHORE RD", "borough": "queens", "direction": "TW", "total_row_ft": 50.5, "roadbed_ft": 20.5, "median_ft": 0.0, "left_sw_ft": 15.0, "right_sw_ft": 15.0}, "geometry": {"type": "LineString", "coordinates": [[-73.89014667011129, 40.5593869146794], [-73.89030765966578, 40.55969255027817]]}}, {"type": "Feature", "properties": {"segment_id": 1317132, "physicalid": "89895", "street_name": "SHORE RD", "borough": "queens", "direction": "TW", "total_row_ft": 50.4, "roadbed_ft": 20.4, "median_ft": 0.0, "left_sw_ft": 15.0, "right_sw_ft": 15.0}, "geometry": {"type": "LineString", "coordinates": [[-73.89021345925674, 40.559366450628445], [-73.8903744490842, 40.55967208612901]]}}, {"type": "Feature", "properties": {"segment_id": 1317133, "physicalid": "89895", "street_name": "SHORE RD", "borough": "queens", "direction": "TW", "total_row_ft": 50.4, "roadbed_ft": 20.4, "median_ft": 0.0, "left_sw_ft": 15.0, "right_sw_ft": 15.0}, "geometry": {"type": "LineString", "coordinates": [[-73.89028024836884, 40.559345986534524], [-73.89044123845252, 40.559651621942]]}}, {"type": "Feature", "properties": {"segment_id": 1317134, "physicalid": "89895", "street_name": "SHORE RD", "borough": "queens", "direction": "TW", "total_row_ft": 50.3, "roadbed_ft": 20.3, "median_ft": 0.0, "left_sw_ft": 15.0, "right_sw_ft": 15.0}, "geometry": {"type": "LineString", "coordinates": [[-73.89034703744002, 40.559325522401714], [-73.89050802777994, 40.559631157716105]]}}, {"type": "Feature", "properties": {"segment_id": 1317135, "physicalid": "89895", "street_name": "SHORE RD", "borough": "queens", "direction": "TW", "total_row_ft": 49.9, "roadbed_ft": 19.9, "median_ft": 0.0, "left_sw_ft": 15.0, "right_sw_ft": 15.0}, "geometry": {"type": "LineString", "coordinates": [[-73.89041382647028, 40.559305058230045], [-73.89057481706644, 40.55961069345135]]}}, {"type": "Feature", "properties": {"segment_id": 1317136, "physicalid": "89895", "street_name": "SHORE RD", "borough": "queens", "direction": "TW", "total_row_ft": 49.5, "roadbed_ft": 19.5, "median_ft": 0.0, "left_sw_ft": 15.0, "right_sw_ft": 15.0}, "geometry": {"type": "LineString", "coordinates": [[-73.89048061545965, 40.55928459401948], [-73.890641606312, 40.55959022914773]]}}, {"type": "Feature", "properties": {"segment_id": 1317137, "physicalid": "89895", "street_name": "SHORE RD", "borough": "queens", "direction": "TW", "total_row_ft": 48.9, "roadbed_ft": 18.9, "median_ft": 0.0, "left_sw_ft": 15.0, "right_sw_ft": 15.0}, "geometry": {"type": "LineString", "coordinates": [[-73.89054740440805, 40.559264129770064], [-73.89070839551668, 40.55956976480522]]}}, {"type": "Feature", "properties": {"segment_id": 1317138, "physicalid": "89895", "street_name": "SHORE RD", "borough": "queens", "direction": "TW", "total_row_ft": 48.4, "roadbed_ft": 18.4, "median_ft": 0.0, "left_sw_ft": 15.0, "right_sw_ft": 15.0}, "geometry": {"type": "LineString", "coordinates": [[-73.89061419331557, 40.55924366548177], [-73.89077518468042, 40.55954930042382]]}}, {"type": "Feature", "properties": {"segment_id": 1317139, "physicalid": "89895", "street_name": "SHORE RD", "borough": "queens", "direction": "TW", "total_row_ft": 47.8, "roadbed_ft": 17.8, "median_ft": 0.0, "left_sw_ft": 15.0, "right_sw_ft": 15.0}, "geometry": {"type": "LineString", "coordinates": [[-73.89068098218218, 40.559223201154595], [-73.89084197380323, 40.55952883600357]]}}, {"type": "Feature", "properties": {"segment_id": 1317140, "physicalid": "89895", "street_name": "SHORE RD", "borough": "queens", "direction": "TW", "total_row_ft": 47.9, "roadbed_ft": 17.9, "median_ft": 0.0, "left_sw_ft": 15.0, "right_sw_ft": 15.0}, "geometry": {"type": "LineString", "coordinates": [[-73.89074777100785, 40.55920273678854], [-73.89090876288516, 40.559508371544425]]}}, {"type": "Feature", "properties": {"segment_id": 1317141, "physicalid": "89895", "street_name": "SHORE RD", "borough": "queens", "direction": "TW", "total_row_ft": 48.3, "roadbed_ft": 18.3, "median_ft": 0.0, "left_sw_ft": 15.0, "right_sw_ft": 15.0}, "geometry": {"type": "LineString", "coordinates": [[-73.89081455979262, 40.55918227238362], [-73.89097555192616, 40.55948790704641]]}}, {"type": "Feature", "properties": {"segment_id": 1317142, "physicalid": "89895", "street_name": "SHORE RD", "borough": "queens", "direction": "TW", "total_row_ft": 48.6, "roadbed_ft": 18.6, "median_ft": 0.0, "left_sw_ft": 15.0, "right_sw_ft": 15.0}, "geometry": {"type": "LineString", "coordinates": [[-73.89088134853648, 40.55916180793982], [-73.8910423409262, 40.559467442509536]]}}, {"type": "Feature", "properties": {"segment_id": 1317143, "physicalid": "89895", "street_name": "SHORE RD", "borough": "queens", "direction": "TW", "total_row_ft": 49.0, "roadbed_ft": 19.0, "median_ft": 0.0, "left_sw_ft": 15.0, "right_sw_ft": 15.0}, "geometry": {"type": "LineString", "coordinates": [[-73.8909481372394, 40.55914134345715], [-73.89110912988538, 40.55944697793379]]}}, {"type": "Feature", "properties": {"segment_id": 1317144, "physicalid": "89895", "street_name": "SHORE RD", "borough": "queens", "direction": "TW", "total_row_ft": 49.4, "roadbed_ft": 19.4, "median_ft": 0.0, "left_sw_ft": 15.0, "right_sw_ft": 15.0}, "geometry": {"type": "LineString", "coordinates": [[-73.89101492590143, 40.55912087893562], [-73.89117591880364, 40.55942651331915]]}}, {"type": "Feature", "properties": {"segment_id": 1317145, "physicalid": "89895", "street_name": "SHORE RD", "borough": "queens", "direction": "TW", "total_row_ft": 49.8, "roadbed_ft": 19.8, "median_ft": 0.0, "left_sw_ft": 15.0, "right_sw_ft": 15.0}, "geometry": {"type": "LineString", "coordinates": [[-73.89108171452253, 40.55910041437517], [-73.89124270768096, 40.55940604866564]]}}, {"type": "Feature", "properties": {"segment_id": 1317146, "physicalid": "89895", "street_name": "SHORE RD", "borough": "queens", "direction": "TW", "total_row_ft": 50.1, "roadbed_ft": 20.1, "median_ft": 0.0, "left_sw_ft": 15.0, "right_sw_ft": 15.0}, "geometry": {"type": "LineString", "coordinates": [[-73.89114850310271, 40.55907994977589], [-73.89130949651737, 40.55938558397326]]}}, {"type": "Feature", "properties": {"segment_id": 1317147, "physicalid": "89895", "street_name": "SHORE RD", "borough": "queens", "direction": "TW", "total_row_ft": 50.3, "roadbed_ft": 20.3, "median_ft": 0.0, "left_sw_ft": 15.0, "right_sw_ft": 15.0}, "geometry": {"type": "LineString", "coordinates": [[-73.89121529164198, 40.559059485137716], [-73.89137628531286, 40.55936511924201]]}}, {"type": "Feature", "properties": {"segment_id": 1317148, "physicalid": "89895", "street_name": "SHORE RD", "borough": "queens", "direction": "TW", "total_row_ft": 49.5, "roadbed_ft": 19.5, "median_ft": 0.0, "left_sw_ft": 15.0, "right_sw_ft": 15.0}, "geometry": {"type": "LineString", "coordinates": [[-73.89128275810918, 40.559038966903266], [-73.89144253468477, 40.5593449722882]]}}, {"type": "Feature", "properties": {"segment_id": 1317149, "physicalid": "89895", "street_name": "SHORE RD", "borough": "queens", "direction": "TW", "total_row_ft": 48.7, "roadbed_ft": 18.7, "median_ft": 0.0, "left_sw_ft": 15.0, "right_sw_ft": 15.0}, "geometry": {"type": "LineString", "coordinates": [[-73.89134962772049, 40.55901865693068], [-73.89150940455382, 40.55932466222314]]}}, {"type": "Feature", "properties": {"segment_id": 1317150, "physicalid": "89895", "street_name": "SHORE RD", "borough": "queens", "direction": "TW", "total_row_ft": 48.1, "roadbed_ft": 18.1, "median_ft": 0.0, "left_sw_ft": 15.0, "right_sw_ft": 15.0}, "geometry": {"type": "LineString", "coordinates": [[-73.89141649729115, 40.558998346919125], [-73.8915762743822, 40.55930435211908]]}}, {"type": "Feature", "properties": {"segment_id": 1317151, "physicalid": "89895", "street_name": "SHORE RD", "borough": "queens", "direction": "TW", "total_row_ft": 47.5, "roadbed_ft": 17.5, "median_ft": 0.0, "left_sw_ft": 15.0, "right_sw_ft": 15.0}, "geometry": {"type": "LineString", "coordinates": [[-73.89148336682115, 40.5589780368686], [-73.8916431441699, 40.559284041976056]]}}, {"type": "Feature", "properties": {"segment_id": 1317152, "physicalid": "89895", "street_name": "SHORE RD", "borough": "queens", "direction": "TW", "total_row_ft": 46.8, "roadbed_ft": 16.8, "median_ft": 0.0, "left_sw_ft": 15.0, "right_sw_ft": 15.0}, "geometry": {"type": "LineString", "coordinates": [[-73.8915502363105, 40.55895772677911], [-73.89171001391696, 40.55926373179407]]}}, {"type": "Feature", "properties": {"segment_id": 1317153, "physicalid": "89895", "street_name": "SHORE RD", "borough": "queens", "direction": "TW", "total_row_ft": 46.3, "roadbed_ft": 16.3, "median_ft": 0.0, "left_sw_ft": 15.0, "right_sw_ft": 15.0}, "geometry": {"type": "LineString", "coordinates": [[-73.89161710575921, 40.55893741665063], [-73.89177688362335, 40.55924342157312]]}}, {"type": "Feature", "properties": {"segment_id": 1317154, "physicalid": "89895", "street_name": "SHORE RD", "borough": "queens", "direction": "TW", "total_row_ft": 46.4, "roadbed_ft": 16.4, "median_ft": 0.0, "left_sw_ft": 15.0, "right_sw_ft": 15.0}, "geometry": {"type": "LineString", "coordinates": [[-73.89168397516724, 40.558917106483214], [-73.89184375328911, 40.5592231113132]]}}, {"type": "Feature", "properties": {"segment_id": 1317155, "physicalid": "89895", "street_name": "SHORE RD", "borough": "queens", "direction": "TW", "total_row_ft": 46.6, "roadbed_ft": 16.6, "median_ft": 0.0, "left_sw_ft": 15.0, "right_sw_ft": 15.0}, "geometry": {"type": "LineString", "coordinates": [[-73.89175084453463, 40.55889679627681], [-73.89191062291418, 40.559202801014315]]}}, {"type": "Feature", "properties": {"segment_id": 1317156, "physicalid": "89895", "street_name": "SHORE RD", "borough": "queens", "direction": "TW", "total_row_ft": 46.6, "roadbed_ft": 16.6, "median_ft": 0.0, "left_sw_ft": 15.0, "right_sw_ft": 15.0}, "geometry": {"type": "LineString", "coordinates": [[-73.89181771386133, 40.558876486031465], [-73.89197749249863, 40.55918249067643]]}}, {"type": "Feature", "properties": {"segment_id": 1317157, "physicalid": "89895", "street_name": "SHORE RD", "borough": "queens", "direction": "TW", "total_row_ft": 46.6, "roadbed_ft": 16.6, "median_ft": 0.0, "left_sw_ft": 15.0, "right_sw_ft": 15.0}, "geometry": {"type": "LineString", "coordinates": [[-73.8918845831474, 40.55885617574714], [-73.8920443620424, 40.55916218029962]]}}, {"type": "Feature", "properties": {"segment_id": 1317158, "physicalid": "89895", "street_name": "SHORE RD", "borough": "queens", "direction": "TW", "total_row_ft": 46.7, "roadbed_ft": 16.7, "median_ft": 0.0, "left_sw_ft": 15.0, "right_sw_ft": 15.0}, "geometry": {"type": "LineString", "coordinates": [[-73.89195145239283, 40.55883586542384], [-73.8921112315455, 40.55914186988384]]}}, {"type": "Feature", "properties": {"segment_id": 1317159, "physicalid": "89895", "street_name": "SHORE RD", "borough": "queens", "direction": "TW", "total_row_ft": 46.7, "roadbed_ft": 16.7, "median_ft": 0.0, "left_sw_ft": 15.0, "right_sw_ft": 15.0}, "geometry": {"type": "LineString", "coordinates": [[-73.89201832159759, 40.55881555506156], [-73.89217810100794, 40.55912155942907]]}}, {"type": "Feature", "properties": {"segment_id": 1317160, "physicalid": "89895", "street_name": "SHORE RD", "borough": "queens", "direction": "TW", "total_row_ft": 47.0, "roadbed_ft": 17.0, "median_ft": 0.0, "left_sw_ft": 15.0, "right_sw_ft": 15.0}, "geometry": {"type": "LineString", "coordinates": [[-73.89208519076168, 40.558795244660324], [-73.89224497042976, 40.55910124893535]]}}, {"type": "Feature", "properties": {"segment_id": 1317161, "physicalid": "89895", "street_name": "SHORE RD", "borough": "queens", "direction": "TW", "total_row_ft": 47.3, "roadbed_ft": 17.3, "median_ft": 0.0, "left_sw_ft": 15.0, "right_sw_ft": 15.0}, "geometry": {"type": "LineString", "coordinates": [[-73.8921520598851, 40.558774934220125], [-73.89231183981092, 40.55908093840263]]}}, {"type": "Feature", "properties": {"segment_id": 1317162, "physicalid": "89895", "street_name": "SHORE RD", "borough": "queens", "direction": "TW", "total_row_ft": 47.6, "roadbed_ft": 17.6, "median_ft": 0.0, "left_sw_ft": 15.0, "right_sw_ft": 15.0}, "geometry": {"type": "LineString", "coordinates": [[-73.89221892896789, 40.55875462374096], [-73.8923787091514, 40.55906062783096]]}}, {"type": "Feature", "properties": {"segment_id": 1317163, "physicalid": "89895", "street_name": "SHORE RD", "borough": "queens", "direction": "TW", "total_row_ft": 47.9, "roadbed_ft": 17.9, "median_ft": 0.0, "left_sw_ft": 15.0, "right_sw_ft": 15.0}, "geometry": {"type": "LineString", "coordinates": [[-73.89228579801004, 40.55873431322281], [-73.89244557845122, 40.55904031722034]]}}, {"type": "Feature", "properties": {"segment_id": 1317164, "physicalid": "89895", "street_name": "SHORE RD", "borough": "queens", "direction": "TW", "total_row_ft": 48.1, "roadbed_ft": 18.1, "median_ft": 0.0, "left_sw_ft": 15.0, "right_sw_ft": 15.0}, "geometry": {"type": "LineString", "coordinates": [[-73.8923526670115, 40.5587140026657], [-73.89251244771037, 40.55902000657073]]}}, {"type": "Feature", "properties": {"segment_id": 1317165, "physicalid": "89895", "street_name": "SHORE RD", "borough": "queens", "direction": "TW", "total_row_ft": 48.4, "roadbed_ft": 18.4, "median_ft": 0.0, "left_sw_ft": 15.0, "right_sw_ft": 15.0}, "geometry": {"type": "LineString", "coordinates": [[-73.89241953597231, 40.558693692069625], [-73.89257931692889, 40.558999695882186]]}}, {"type": "Feature", "properties": {"segment_id": 1317166, "physicalid": "89895", "street_name": "SHORE RD", "borough": "queens", "direction": "TW", "total_row_ft": 48.7, "roadbed_ft": 18.7, "median_ft": 0.0, "left_sw_ft": 15.0, "right_sw_ft": 15.0}, "geometry": {"type": "LineString", "coordinates": [[-73.89248640489245, 40.55867338143459], [-73.89264618610677, 40.558979385154636]]}}, {"type": "Feature", "properties": {"segment_id": 1317167, "physicalid": "89895", "street_name": "SHORE RD", "borough": "queens", "direction": "TW", "total_row_ft": 48.9, "roadbed_ft": 18.9, "median_ft": 0.0, "left_sw_ft": 15.0, "right_sw_ft": 15.0}, "geometry": {"type": "LineString", "coordinates": [[-73.89255327377195, 40.558653070760585], [-73.89271305524397, 40.55895907438813]]}}, {"type": "Feature", "properties": {"segment_id": 1317168, "physicalid": "89895", "street_name": "SHORE RD", "borough": "queens", "direction": "TW", "total_row_ft": 49.0, "roadbed_ft": 19.0, "median_ft": 0.0, "left_sw_ft": 15.0, "right_sw_ft": 15.0}, "geometry": {"type": "LineString", "coordinates": [[-73.8926201426108, 40.5586327600476], [-73.8927799243405, 40.55893876358264]]}}, {"type": "Feature", "properties": {"segment_id": 1317169, "physicalid": "89895", "street_name": "SHORE RD", "borough": "queens", "direction": "TW", "total_row_ft": 49.0, "roadbed_ft": 19.0, "median_ft": 0.0, "left_sw_ft": 15.0, "right_sw_ft": 15.0}, "geometry": {"type": "LineString", "coordinates": [[-73.89268897929628, 40.55861228597609], [-73.8928452065317, 40.5589193552754]]}}, {"type": "Feature", "properties": {"segment_id": 1317170, "physicalid": "89895", "street_name": "SHORE RD", "borough": "queens", "direction": "TW", "total_row_ft": 49.1, "roadbed_ft": 19.1, "median_ft": 0.0, "left_sw_ft": 15.0, "right_sw_ft": 15.0}, "geometry": {"type": "LineString", "coordinates": [[-73.89275608096705, 40.55859242704951], [-73.89291230846445, 40.55889949625803]]}}, {"type": "Feature", "properties": {"segment_id": 1317171, "physicalid": "89895", "street_name": "SHORE RD", "borough": "queens", "direction": "TW", "total_row_ft": 49.1, "roadbed_ft": 19.1, "median_ft": 0.0, "left_sw_ft": 15.0, "right_sw_ft": 15.0}, "geometry": {"type": "LineString", "coordinates": [[-73.89282318259792, 40.55857256808363], [-73.89297941035728, 40.55887963720142]]}}, {"type": "Feature", "properties": {"segment_id": 1317172, "physicalid": "89895", "street_name": "SHORE RD", "borough": "queens", "direction": "TW", "total_row_ft": 49.2, "roadbed_ft": 19.2, "median_ft": 0.0, "left_sw_ft": 15.0, "right_sw_ft": 15.0}, "geometry": {"type": "LineString", "coordinates": [[-73.8928902841889, 40.55855270907856], [-73.89304651221025, 40.5588597781056]]}}, {"type": "Feature", "properties": {"segment_id": 1317173, "physicalid": "89895", "street_name": "SHORE RD", "borough": "queens", "direction": "TW", "total_row_ft": 49.3, "roadbed_ft": 19.3, "median_ft": 0.0, "left_sw_ft": 15.0, "right_sw_ft": 15.0}, "geometry": {"type": "LineString", "coordinates": [[-73.89295738573999, 40.55853285003424], [-73.8931136140233, 40.5588399189705]]}}, {"type": "Feature", "properties": {"segment_id": 1317174, "physicalid": "89895", "street_name": "SHORE RD", "borough": "queens", "direction": "TW", "total_row_ft": 48.8, "roadbed_ft": 18.8, "median_ft": 0.0, "left_sw_ft": 15.0, "right_sw_ft": 15.0}, "geometry": {"type": "LineString", "coordinates": [[-73.8930244872512, 40.55851299095068], [-73.89318071579646, 40.55882005979621]]}}, {"type": "Feature", "properties": {"segment_id": 1317175, "physicalid": "89895", "street_name": "SHORE RD", "borough": "queens", "direction": "TW", "total_row_ft": 48.4, "roadbed_ft": 18.4, "median_ft": 0.0, "left_sw_ft": 15.0, "right_sw_ft": 15.0}, "geometry": {"type": "LineString", "coordinates": [[-73.8930915887225, 40.558493131827895], [-73.89324781752975, 40.55880020058265]]}}, {"type": "Feature", "properties": {"segment_id": 1317176, "physicalid": "89895", "street_name": "SHORE RD", "borough": "queens", "direction": "TW", "total_row_ft": 48.8, "roadbed_ft": 18.8, "median_ft": 0.0, "left_sw_ft": 15.0, "right_sw_ft": 15.0}, "geometry": {"type": "LineString", "coordinates": [[-73.8931688443255, 40.558471920387454], [-73.89330597602647, 40.55878425054126]]}}, {"type": "Feature", "properties": {"segment_id": 1317177, "physicalid": "89895", "street_name": "SHORE RD", "borough": "queens", "direction": "TW", "total_row_ft": 49.1, "roadbed_ft": 19.1, "median_ft": 0.0, "left_sw_ft": 15.0, "right_sw_ft": 15.0}, "geometry": {"type": "LineString", "coordinates": [[-73.89323709546593, 40.5584544887636], [-73.89337422745022, 40.558766818836354]]}}, {"type": "Feature", "properties": {"segment_id": 1317178, "physicalid": "89895", "street_name": "SHORE RD", "borough": "queens", "direction": "TW", "total_row_ft": 49.3, "roadbed_ft": 19.3, "median_ft": 0.0, "left_sw_ft": 15.0, "right_sw_ft": 15.0}, "geometry": {"type": "LineString", "coordinates": [[-73.89330534657078, 40.558437057099155], [-73.89344247883834, 40.5587493870909]]}}, {"type": "Feature", "properties": {"segment_id": 1317179, "physicalid": "89895", "street_name": "SHORE RD", "borough": "queens", "direction": "TW", "total_row_ft": 49.1, "roadbed_ft": 19.1, "median_ft": 0.0, "left_sw_ft": 15.0, "right_sw_ft": 15.0}, "geometry": {"type": "LineString", "coordinates": [[-73.89337359764001, 40.558419625394116], [-73.89351073019085, 40.558731955304836]]}}, {"type": "Feature", "properties": {"segment_id": 1317180, "physicalid": "89895", "street_name": "SHORE RD", "borough": "queens", "direction": "TW", "total_row_ft": 48.9, "roadbed_ft": 18.9, "median_ft": 0.0, "left_sw_ft": 15.0, "right_sw_ft": 15.0}, "geometry": {"type": "LineString", "coordinates": [[-73.8934418486736, 40.55840219364851], [-73.89357898150774, 40.55871452347818]]}}, {"type": "Feature", "properties": {"segment_id": 1317181, "physicalid": "89895", "street_name": "SHORE RD", "borough": "queens", "direction": "TW", "total_row_ft": 48.7, "roadbed_ft": 18.7, "median_ft": 0.0, "left_sw_ft": 15.0, "right_sw_ft": 15.0}, "geometry": {"type": "LineString", "coordinates": [[-73.8935100996716, 40.55838476186231], [-73.89364723278901, 40.558697091610966]]}}, {"type": "Feature", "properties": {"segment_id": 1317182, "physicalid": "89895", "street_name": "SHORE RD", "borough": "queens", "direction": "TW", "total_row_ft": 48.5, "roadbed_ft": 18.5, "median_ft": 0.0, "left_sw_ft": 15.0, "right_sw_ft": 15.0}, "geometry": {"type": "LineString", "coordinates": [[-73.89357835063397, 40.558367330035516], [-73.89371548403467, 40.55867965970313]]}}, {"type": "Feature", "properties": {"segment_id": 1317183, "physicalid": "89895", "street_name": "SHORE RD", "borough": "queens", "direction": "TW", "total_row_ft": 48.4, "roadbed_ft": 18.4, "median_ft": 0.0, "left_sw_ft": 15.0, "right_sw_ft": 15.0}, "geometry": {"type": "LineString", "coordinates": [[-73.89364660156075, 40.55834989816814], [-73.8937837352447, 40.55866222775476]]}}, {"type": "Feature", "properties": {"segment_id": 1317184, "physicalid": "89895", "street_name": "SHORE RD", "borough": "queens", "direction": "TW", "total_row_ft": 48.2, "roadbed_ft": 18.2, "median_ft": 0.0, "left_sw_ft": 15.0, "right_sw_ft": 15.0}, "geometry": {"type": "LineString", "coordinates": [[-73.89371485245188, 40.5583324662602], [-73.89385198641915, 40.558644795765765]]}}, {"type": "Feature", "properties": {"segment_id": 1317185, "physicalid": "89895", "street_name": "SHORE RD", "borough": "queens", "direction": "TW", "total_row_ft": 48.2, "roadbed_ft": 18.2, "median_ft": 0.0, "left_sw_ft": 15.0, "right_sw_ft": 15.0}, "geometry": {"type": "LineString", "coordinates": [[-73.8937831033074, 40.55831503431166], [-73.89392023755796, 40.55862736373621]]}}, {"type": "Feature", "properties": {"segment_id": 1317186, "physicalid": "89895", "street_name": "SHORE RD", "borough": "queens", "direction": "TW", "total_row_ft": 48.2, "roadbed_ft": 18.2, "median_ft": 0.0, "left_sw_ft": 15.0, "right_sw_ft": 15.0}, "geometry": {"type": "LineString", "coordinates": [[-73.89385135412732, 40.55829760232253], [-73.89398848866115, 40.558609931666076]]}}, {"type": "Feature", "properties": {"segment_id": 1317187, "physicalid": "89895", "street_name": "SHORE RD", "borough": "queens", "direction": "TW", "total_row_ft": 48.2, "roadbed_ft": 18.2, "median_ft": 0.0, "left_sw_ft": 15.0, "right_sw_ft": 15.0}, "geometry": {"type": "LineString", "coordinates": [[-73.89391960491163, 40.558280170292825], [-73.89405673972873, 40.55859249955532]]}}, {"type": "Feature", "properties": {"segment_id": 1317188, "physicalid": "89895", "street_name": "SHORE RD", "borough": "queens", "direction": "TW", "total_row_ft": 48.2, "roadbed_ft": 18.2, "median_ft": 0.0, "left_sw_ft": 15.0, "right_sw_ft": 15.0}, "geometry": {"type": "LineString", "coordinates": [[-73.89398697487435, 40.55826281636928], [-73.89412575381564, 40.55857472289064]]}}, {"type": "Feature", "properties": {"segment_id": 1317189, "physicalid": "89895", "street_name": "SHORE RD", "borough": "queens", "direction": "TW", "total_row_ft": 48.2, "roadbed_ft": 18.2, "median_ft": 0.0, "left_sw_ft": 15.0, "right_sw_ft": 15.0}, "geometry": {"type": "LineString", "coordinates": [[-73.8940551332273, 40.5582451752996], [-73.89419391245019, 40.558557081739046]]}}, {"type": "Feature", "properties": {"segment_id": 1317190, "physicalid": "89895", "street_name": "SHORE RD", "borough": "queens", "direction": "TW", "total_row_ft": 48.2, "roadbed_ft": 18.2, "median_ft": 0.0, "left_sw_ft": 15.0, "right_sw_ft": 15.0}, "geometry": {"type": "LineString", "coordinates": [[-73.89412329154429, 40.55822753418942], [-73.89426207104871, 40.558539440546994]]}}, {"type": "Feature", "properties": {"segment_id": 1317191, "physicalid": "89895", "street_name": "SHORE RD", "borough": "queens", "direction": "TW", "total_row_ft": 48.1, "roadbed_ft": 18.1, "median_ft": 0.0, "left_sw_ft": 15.0, "right_sw_ft": 15.0}, "geometry": {"type": "LineString", "coordinates": [[-73.89419144982526, 40.55820989303878], [-73.89433022961126, 40.55852179931446]]}}, {"type": "Feature", "properties": {"segment_id": 1317192, "physicalid": "89895", "street_name": "SHORE RD", "borough": "queens", "direction": "TW", "total_row_ft": 47.9, "roadbed_ft": 17.9, "median_ft": 0.0, "left_sw_ft": 15.0, "right_sw_ft": 15.0}, "geometry": {"type": "LineString", "coordinates": [[-73.89425960807024, 40.55819225184765], [-73.89439838813779, 40.558504158041444]]}}, {"type": "Feature", "properties": {"segment_id": 1317193, "physicalid": "89895", "street_name": "SHORE RD", "borough": "queens", "direction": "TW", "total_row_ft": 47.6, "roadbed_ft": 17.6, "median_ft": 0.0, "left_sw_ft": 15.0, "right_sw_ft": 15.0}, "geometry": {"type": "LineString", "coordinates": [[-73.89432776627925, 40.558174610616064], [-73.89446654662834, 40.55848651672796]]}}, {"type": "Feature", "properties": {"segment_id": 1317194, "physicalid": "89895", "street_name": "SHORE RD", "borough": "queens", "direction": "TW", "total_row_ft": 47.3, "roadbed_ft": 17.3, "median_ft": 0.0, "left_sw_ft": 15.0, "right_sw_ft": 15.0}, "geometry": {"type": "LineString", "coordinates": [[-73.89439592445224, 40.55815696934398], [-73.89453470508286, 40.55846887537401]]}}, {"type": "Feature", "properties": {"segment_id": 1317195, "physicalid": "89895", "street_name": "SHORE RD", "borough": "queens", "direction": "TW", "total_row_ft": 47.0, "roadbed_ft": 17.0, "median_ft": 0.0, "left_sw_ft": 15.0, "right_sw_ft": 15.0}, "geometry": {"type": "LineString", "coordinates": [[-73.89446408258924, 40.55813932803145], [-73.89460286350143, 40.55845123397958]]}}, {"type": "Feature", "properties": {"segment_id": 1317196, "physicalid": "89895", "street_name": "SHORE RD", "borough": "queens", "direction": "TW", "total_row_ft": 46.8, "roadbed_ft": 16.8, "median_ft": 0.0, "left_sw_ft": 15.0, "right_sw_ft": 15.0}, "geometry": {"type": "LineString", "coordinates": [[-73.89453224069025, 40.55812168667845], [-73.89467102188401, 40.55843359254467]]}}, {"type": "Feature", "properties": {"segment_id": 1317197, "physicalid": "89895", "street_name": "SHORE RD", "borough": "queens", "direction": "TW", "total_row_ft": 46.5, "roadbed_ft": 16.5, "median_ft": 0.0, "left_sw_ft": 15.0, "right_sw_ft": 15.0}, "geometry": {"type": "LineString", "coordinates": [[-73.89460039875527, 40.55810404528492], [-73.89473918023056, 40.558415951069286]]}}, {"type": "Feature", "properties": {"segment_id": 1317198, "physicalid": "89895", "street_name": "SHORE RD", "borough": "queens", "direction": "TW", "total_row_ft": 46.6, "roadbed_ft": 16.6, "median_ft": 0.0, "left_sw_ft": 15.0, "right_sw_ft": 15.0}, "geometry": {"type": "LineString", "coordinates": [[-73.89466855678428, 40.55808640385098], [-73.89480733854114, 40.55839830955344]]}}, {"type": "Feature", "properties": {"segment_id": 1317199, "physicalid": "89895", "street_name": "SHORE RD", "borough": "queens", "direction": "TW", "total_row_ft": 46.8, "roadbed_ft": 16.8, "median_ft": 0.0, "left_sw_ft": 15.0, "right_sw_ft": 15.0}, "geometry": {"type": "LineString", "coordinates": [[-73.89473671477732, 40.558068762376514], [-73.8948754968157, 40.55838066799708]]}}, {"type": "Feature", "properties": {"segment_id": 1317200, "physicalid": "89895", "street_name": "SHORE RD", "borough": "queens", "direction": "TW", "total_row_ft": 47.0, "roadbed_ft": 17.0, "median_ft": 0.0, "left_sw_ft": 15.0, "right_sw_ft": 15.0}, "geometry": {"type": "LineString", "coordinates": [[-73.89480487273433, 40.55805112086161], [-73.89494365505432, 40.55836302640027]]}}, {"type": "Feature", "properties": {"segment_id": 1317201, "physicalid": "89895", "street_name": "SHORE RD", "borough": "queens", "direction": "TW", "total_row_ft": 47.2, "roadbed_ft": 17.2, "median_ft": 0.0, "left_sw_ft": 15.0, "right_sw_ft": 15.0}, "geometry": {"type": "LineString", "coordinates": [[-73.89487303065539, 40.55803347930622], [-73.89501181325689, 40.558345384763]]}}, {"type": "Feature", "properties": {"segment_id": 1317202, "physicalid": "89895", "street_name": "SHORE RD", "borough": "queens", "direction": "TW", "total_row_ft": 47.4, "roadbed_ft": 17.4, "median_ft": 0.0, "left_sw_ft": 15.0, "right_sw_ft": 15.0}, "geometry": {"type": "LineString", "coordinates": [[-73.89494118854043, 40.55801583771034], [-73.89507997142348, 40.55832774308524]]}}, {"type": "Feature", "properties": {"segment_id": 1317203, "physicalid": "89895", "street_name": "SHORE RD", "borough": "queens", "direction": "TW", "total_row_ft": 47.5, "roadbed_ft": 17.5, "median_ft": 0.0, "left_sw_ft": 15.0, "right_sw_ft": 15.0}, "geometry": {"type": "LineString", "coordinates": [[-73.89501101262037, 40.557997789004325], [-73.89514647790428, 40.55831054166588]]}}, {"type": "Feature", "properties": {"segment_id": 1317204, "physicalid": "89895", "street_name": "SHORE RD", "borough": "queens", "direction": "TW", "total_row_ft": 47.7, "roadbed_ft": 17.7, "median_ft": 0.0, "left_sw_ft": 15.0, "right_sw_ft": 15.0}, "geometry": {"type": "LineString", "coordinates": [[-73.89507935560023, 40.557980569085515], [-73.89521482116916, 40.55829332166692]]}}, {"type": "Feature", "properties": {"segment_id": 1317205, "physicalid": "89895", "street_name": "SHORE RD", "borough": "queens", "direction": "TW", "total_row_ft": 48.0, "roadbed_ft": 18.0, "median_ft": 0.0, "left_sw_ft": 15.0, "right_sw_ft": 15.0}, "geometry": {"type": "LineString", "coordinates": [[-73.89514769854486, 40.55796334912602], [-73.89528316439879, 40.558276101627285]]}}, {"type": "Feature", "properties": {"segment_id": 1317206, "physicalid": "89895", "street_name": "SHORE RD", "borough": "queens", "direction": "TW", "total_row_ft": 48.4, "roadbed_ft": 18.4, "median_ft": 0.0, "left_sw_ft": 15.0, "right_sw_ft": 15.0}, "geometry": {"type": "LineString", "coordinates": [[-73.89521604145425, 40.55794612912583], [-73.8953515075932, 40.558258881546934]]}}, {"type": "Feature", "properties": {"segment_id": 1317207, "physicalid": "89895", "street_name": "SHORE RD", "borough": "queens", "direction": "TW", "total_row_ft": 48.7, "roadbed_ft": 18.7, "median_ft": 0.0, "left_sw_ft": 15.0, "right_sw_ft": 15.0}, "geometry": {"type": "LineString", "coordinates": [[-73.89528438432843, 40.55792890908496], [-73.89541985075239, 40.55824166142592]]}}, {"type": "Feature", "properties": {"segment_id": 1317208, "physicalid": "89895", "street_name": "SHORE RD", "borough": "queens", "direction": "TW", "total_row_ft": 49.0, "roadbed_ft": 19.0, "median_ft": 0.0, "left_sw_ft": 15.0, "right_sw_ft": 15.0}, "geometry": {"type": "LineString", "coordinates": [[-73.89535272716736, 40.55791168900338], [-73.89548819387633, 40.55822444126417]]}}, {"type": "Feature", "properties": {"segment_id": 1317209, "physicalid": "89895", "street_name": "SHORE RD", "borough": "queens", "direction": "TW", "total_row_ft": 49.4, "roadbed_ft": 19.4, "median_ft": 0.0, "left_sw_ft": 15.0, "right_sw_ft": 15.0}, "geometry": {"type": "LineString", "coordinates": [[-73.89542106997108, 40.55789446888111], [-73.89555653696505, 40.55820722106177]]}}, {"type": "Feature", "properties": {"segment_id": 1317210, "physicalid": "89895", "street_name": "SHORE RD", "borough": "queens", "direction": "TW", "total_row_ft": 49.7, "roadbed_ft": 19.7, "median_ft": 0.0, "left_sw_ft": 15.0, "right_sw_ft": 15.0}, "geometry": {"type": "LineString", "coordinates": [[-73.89548941273956, 40.557877248718164], [-73.89562488001854, 40.55819000081867]]}}, {"type": "Feature", "properties": {"segment_id": 1317211, "physicalid": "89895", "street_name": "SHORE RD", "borough": "queens", "direction": "TW", "total_row_ft": 49.4, "roadbed_ft": 19.4, "median_ft": 0.0, "left_sw_ft": 15.0, "right_sw_ft": 15.0}, "geometry": {"type": "LineString", "coordinates": [[-73.8955577554728, 40.55786002851451], [-73.8956932230368, 40.55817278053486]]}}, {"type": "Feature", "properties": {"segment_id": 1317212, "physicalid": "89895", "street_name": "SHORE RD", "borough": "queens", "direction": "TW", "total_row_ft": 48.5, "roadbed_ft": 18.5, "median_ft": 0.0, "left_sw_ft": 15.0, "right_sw_ft": 15.0}, "geometry": {"type": "LineString", "coordinates": [[-73.89562609817082, 40.55784280827015], [-73.89576156601983, 40.55815556021035]]}}, {"type": "Feature", "properties": {"segment_id": 1317213, "physicalid": "89895", "street_name": "SHORE RD", "borough": "queens", "direction": "TW", "total_row_ft": 47.7, "roadbed_ft": 17.7, "median_ft": 0.0, "left_sw_ft": 15.0, "right_sw_ft": 15.0}, "geometry": {"type": "LineString", "coordinates": [[-73.89569444083361, 40.5578255879851], [-73.89582990896763, 40.558138339845165]]}}, {"type": "Feature", "properties": {"segment_id": 1317214, "physicalid": "89895", "street_name": "SHORE RD", "borough": "queens", "direction": "TW", "total_row_ft": 46.9, "roadbed_ft": 16.9, "median_ft": 0.0, "left_sw_ft": 15.0, "right_sw_ft": 15.0}, "geometry": {"type": "LineString", "coordinates": [[-73.89576278346117, 40.55780836765938], [-73.89589825188018, 40.558121119439264]]}}, {"type": "Feature", "properties": {"segment_id": 1317215, "physicalid": "89895", "street_name": "SHORE RD", "borough": "queens", "direction": "TW", "total_row_ft": 46.1, "roadbed_ft": 16.1, "median_ft": 0.0, "left_sw_ft": 15.0, "right_sw_ft": 15.0}, "geometry": {"type": "LineString", "coordinates": [[-73.8958311260535, 40.55779114729296], [-73.89596659475752, 40.5581038989927]]}}, {"type": "Feature", "properties": {"segment_id": 1317216, "physicalid": "89895", "street_name": "SHORE RD", "borough": "queens", "direction": "TW", "total_row_ft": 46.1, "roadbed_ft": 16.1, "median_ft": 0.0, "left_sw_ft": 15.0, "right_sw_ft": 15.0}, "geometry": {"type": "LineString", "coordinates": [[-73.8958994686106, 40.557773926885844], [-73.89603493759964, 40.55808667850543]]}}, {"type": "Feature", "properties": {"segment_id": 1317217, "physicalid": "89895", "street_name": "SHORE RD", "borough": "queens", "direction": "TW", "total_row_ft": 46.7, "roadbed_ft": 16.7, "median_ft": 0.0, "left_sw_ft": 15.0, "right_sw_ft": 15.0}, "geometry": {"type": "LineString", "coordinates": [[-73.8959692554543, 40.557756401100306], [-73.89610187814002, 40.55806986156411]]}}, {"type": "Feature", "properties": {"segment_id": 1317218, "physicalid": "89895", "street_name": "SHORE RD", "borough": "queens", "direction": "TW", "total_row_ft": 46.9, "roadbed_ft": 16.9, "median_ft": 0.0, "left_sw_ft": 15.0, "right_sw_ft": 15.0}, "geometry": {"type": "LineString", "coordinates": [[-73.89603775285443, 40.557739542462], [-73.89617037582806, 40.55805300284717]]}}, {"type": "Feature", "properties": {"segment_id": 1317219, "physicalid": "89895", "street_name": "SHORE RD", "borough": "queens", "direction": "TW", "total_row_ft": 46.6, "roadbed_ft": 16.6, "median_ft": 0.0, "left_sw_ft": 15.0, "right_sw_ft": 15.0}, "geometry": {"type": "LineString", "coordinates": [[-73.89610625021999, 40.55772268378283], [-73.89623887348152, 40.55803614408932]]}}, {"type": "Feature", "properties": {"segment_id": 1317220, "physicalid": "89895", "street_name": "SHORE RD", "borough": "queens", "direction": "TW", "total_row_ft": 46.3, "roadbed_ft": 16.3, "median_ft": 0.0, "left_sw_ft": 15.0, "right_sw_ft": 15.0}, "geometry": {"type": "LineString", "coordinates": [[-73.89617474755096, 40.55770582506277], [-73.89630737110043, 40.55801928529062]]}}, {"type": "Feature", "properties": {"segment_id": 1317221, "physicalid": "89895", "street_name": "SHORE RD", "borough": "queens", "direction": "TW", "total_row_ft": 46.0, "roadbed_ft": 16.0, "median_ft": 0.0, "left_sw_ft": 15.0, "right_sw_ft": 15.0}, "geometry": {"type": "LineString", "coordinates": [[-73.89624324484741, 40.55768896630185], [-73.89637586868474, 40.55800242645105]]}}, {"type": "Feature", "properties": {"segment_id": 1317222, "physicalid": "89895", "street_name": "SHORE RD", "borough": "queens", "direction": "TW", "total_row_ft": 45.8, "roadbed_ft": 15.8, "median_ft": 0.0, "left_sw_ft": 15.0, "right_sw_ft": 15.0}, "geometry": {"type": "LineString", "coordinates": [[-73.89631174210926, 40.55767210750004], [-73.89644436623452, 40.55798556757062]]}}, {"type": "Feature", "properties": {"segment_id": 1317223, "physicalid": "89895", "street_name": "SHORE RD", "borough": "queens", "direction": "TW", "total_row_ft": 45.5, "roadbed_ft": 15.5, "median_ft": 0.0, "left_sw_ft": 15.0, "right_sw_ft": 15.0}, "geometry": {"type": "LineString", "coordinates": [[-73.89638023933654, 40.55765524865736], [-73.8965128637497, 40.5579687086493]]}}, {"type": "Feature", "properties": {"segment_id": 1317224, "physicalid": "89895", "street_name": "SHORE RD", "borough": "queens", "direction": "TW", "total_row_ft": 45.2, "roadbed_ft": 15.2, "median_ft": 0.0, "left_sw_ft": 15.0, "right_sw_ft": 15.0}, "geometry": {"type": "LineString", "coordinates": [[-73.89644873652927, 40.55763838977381], [-73.89658136123033, 40.55795184968709]]}}, {"type": "Feature", "properties": {"segment_id": 1317225, "physicalid": "89895", "street_name": "SHORE RD", "borough": "queens", "direction": "TW", "total_row_ft": 45.2, "roadbed_ft": 15.2, "median_ft": 0.0, "left_sw_ft": 15.0, "right_sw_ft": 15.0}, "geometry": {"type": "LineString", "coordinates": [[-73.89654332394853, 40.55761793767763], [-73.89662471839092, 40.557941411398666]]}}, {"type": "Feature", "properties": {"segment_id": 1317226, "physicalid": "89895", "street_name": "SHORE RD", "borough": "queens", "direction": "TW", "total_row_ft": 45.4, "roadbed_ft": 15.4, "median_ft": 0.0, "left_sw_ft": 15.0, "right_sw_ft": 15.0}, "geometry": {"type": "LineString", "coordinates": [[-73.89661400929488, 40.5576075910063], [-73.8966954040669, 40.557931064677526]]}}, {"type": "Feature", "properties": {"segment_id": 1317227, "physicalid": "89895", "street_name": "SHORE RD", "borough": "queens", "direction": "TW", "total_row_ft": 45.2, "roadbed_ft": 15.2, "median_ft": 0.0, "left_sw_ft": 15.0, "right_sw_ft": 15.0}, "geometry": {"type": "LineString", "coordinates": [[-73.89668469461935, 40.55759724429144], [-73.896766089721, 40.55792071791287]]}}, {"type": "Feature", "properties": {"segment_id": 1317228, "physicalid": "89895", "street_name": "SHORE RD", "borough": "queens", "direction": "TW", "total_row_ft": 44.9, "roadbed_ft": 14.9, "median_ft": 0.0, "left_sw_ft": 15.0, "right_sw_ft": 15.0}, "geometry": {"type": "LineString", "coordinates": [[-73.89675537992191, 40.557586897533106], [-73.8968367753532, 40.5579103711047]]}}, {"type": "Feature", "properties": {"segment_id": 1317229, "physicalid": "89895", "street_name": "SHORE RD", "borough": "queens", "direction": "TW", "total_row_ft": 44.7, "roadbed_ft": 14.7, "median_ft": 0.0, "left_sw_ft": 15.0, "right_sw_ft": 15.0}, "geometry": {"type": "LineString", "coordinates": [[-73.89682606520259, 40.55757655073122], [-73.89690746096349, 40.55790002425302]]}}, {"type": "Feature", "properties": {"segment_id": 1317230, "physicalid": "89895", "street_name": "SHORE RD", "borough": "queens", "direction": "TW", "total_row_ft": 44.5, "roadbed_ft": 14.5, "median_ft": 0.0, "left_sw_ft": 15.0, "right_sw_ft": 15.0}, "geometry": {"type": "LineString", "coordinates": [[-73.89689675046137, 40.557566203885855], [-73.8969781465519, 40.55788967735785]]}}, {"type": "Feature", "properties": {"segment_id": 1317231, "physicalid": "89895", "street_name": "SHORE RD", "borough": "queens", "direction": "TW", "total_row_ft": 44.3, "roadbed_ft": 14.3, "median_ft": 0.0, "left_sw_ft": 15.0, "right_sw_ft": 15.0}, "geometry": {"type": "LineString", "coordinates": [[-73.89696743569826, 40.55755585699694], [-73.89704883211841, 40.55787933041913]]}}, {"type": "Feature", "properties": {"segment_id": 1317232, "physicalid": "89895", "street_name": "SHORE RD", "borough": "queens", "direction": "TW", "total_row_ft": 44.0, "roadbed_ft": 14.0, "median_ft": 0.0, "left_sw_ft": 15.0, "right_sw_ft": 15.0}, "geometry": {"type": "LineString", "coordinates": [[-73.89703812091325, 40.55754551006455], [-73.89711951766304, 40.55786898343692]]}}, {"type": "Feature", "properties": {"segment_id": 1317233, "physicalid": "89895", "street_name": "SHORE RD", "borough": "queens", "direction": "TW", "total_row_ft": 43.8, "roadbed_ft": 13.8, "median_ft": 0.0, "left_sw_ft": 15.0, "right_sw_ft": 15.0}, "geometry": {"type": "LineString", "coordinates": [[-73.89710880610635, 40.55753516308864], [-73.89719020318577, 40.5578586364112]]}}, {"type": "Feature", "properties": {"segment_id": 1317234, "physicalid": "89895", "street_name": "SHORE RD", "borough": "queens", "direction": "TW", "total_row_ft": 43.5, "roadbed_ft": 13.5, "median_ft": 0.0, "left_sw_ft": 15.0, "right_sw_ft": 15.0}, "geometry": {"type": "LineString", "coordinates": [[-73.89717949127756, 40.557524816069204], [-73.89726088868659, 40.55784828934194]]}}, {"type": "Feature", "properties": {"segment_id": 1317235, "physicalid": "89895", "street_name": "SHORE RD", "borough": "queens", "direction": "TW", "total_row_ft": 43.5, "roadbed_ft": 13.5, "median_ft": 0.0, "left_sw_ft": 15.0, "right_sw_ft": 15.0}, "geometry": {"type": "LineString", "coordinates": [[-73.89725017642687, 40.557514469006264], [-73.89733157416552, 40.55783794222917]]}}, {"type": "Feature", "properties": {"segment_id": 1317236, "physicalid": "89895", "street_name": "SHORE RD", "borough": "queens", "direction": "TW", "total_row_ft": 43.5, "roadbed_ft": 13.5, "median_ft": 0.0, "left_sw_ft": 15.0, "right_sw_ft": 15.0}, "geometry": {"type": "LineString", "coordinates": [[-73.89732086155429, 40.557504121899804], [-73.89740225962257, 40.55782759507291]]}}, {"type": "Feature", "properties": {"segment_id": 1317237, "physicalid": "89895", "street_name": "SHORE RD", "borough": "queens", "direction": "TW", "total_row_ft": 43.5, "roadbed_ft": 13.5, "median_ft": 0.0, "left_sw_ft": 15.0, "right_sw_ft": 15.0}, "geometry": {"type": "LineString", "coordinates": [[-73.89739154665979, 40.557493774749815], [-73.89747294505773, 40.55781724787313]]}}, {"type": "Feature", "properties": {"segment_id": 1317238, "physicalid": "89895", "street_name": "SHORE RD", "borough": "queens", "direction": "TW", "total_row_ft": 43.5, "roadbed_ft": 13.5, "median_ft": 0.0, "left_sw_ft": 15.0, "right_sw_ft": 15.0}, "geometry": {"type": "LineString", "coordinates": [[-73.89746223174343, 40.55748342755635], [-73.89754363047096, 40.55780690062982]]}}, {"type": "Feature", "properties": {"segment_id": 1317239, "physicalid": "89895", "street_name": "SHORE RD", "borough": "queens", "direction": "TW", "total_row_ft": 43.5, "roadbed_ft": 13.5, "median_ft": 0.0, "left_sw_ft": 15.0, "right_sw_ft": 15.0}, "geometry": {"type": "LineString", "coordinates": [[-73.89753291680518, 40.557473080319355], [-73.89761431586233, 40.55779655334302]]}}, {"type": "Feature", "properties": {"segment_id": 1317240, "physicalid": "89895", "street_name": "SHORE RD", "borough": "queens", "direction": "TW", "total_row_ft": 43.5, "roadbed_ft": 13.5, "median_ft": 0.0, "left_sw_ft": 15.0, "right_sw_ft": 15.0}, "geometry": {"type": "LineString", "coordinates": [[-73.897603601845, 40.55746273303885], [-73.89768500123179, 40.557786206012715]]}}, {"type": "Feature", "properties": {"segment_id": 1317241, "physicalid": "89895", "street_name": "SHORE RD", "borough": "queens", "direction": "TW", "total_row_ft": 43.4, "roadbed_ft": 13.4, "median_ft": 0.0, "left_sw_ft": 15.0, "right_sw_ft": 15.0}, "geometry": {"type": "LineString", "coordinates": [[-73.89767428686295, 40.55745238571483], [-73.89775568657937, 40.55777585863887]]}}, {"type": "Feature", "properties": {"segment_id": 1317242, "physicalid": "89895", "street_name": "SHORE RD", "borough": "queens", "direction": "TW", "total_row_ft": 43.4, "roadbed_ft": 13.4, "median_ft": 0.0, "left_sw_ft": 15.0, "right_sw_ft": 15.0}, "geometry": {"type": "LineString", "coordinates": [[-73.89774497185901, 40.557442038347276], [-73.89782637190503, 40.55776551122154]]}}, {"type": "Feature", "properties": {"segment_id": 1317243, "physicalid": "89895", "street_name": "SHORE RD", "borough": "queens", "direction": "TW", "total_row_ft": 43.4, "roadbed_ft": 13.4, "median_ft": 0.0, "left_sw_ft": 15.0, "right_sw_ft": 15.0}, "geometry": {"type": "LineString", "coordinates": [[-73.89781565683316, 40.55743169093624], [-73.89789705720881, 40.55775516376067]]}}, {"type": "Feature", "properties": {"segment_id": 1317244, "physicalid": "89895", "street_name": "SHORE RD", "borough": "queens", "direction": "TW", "total_row_ft": 43.4, "roadbed_ft": 13.4, "median_ft": 0.0, "left_sw_ft": 15.0, "right_sw_ft": 15.0}, "geometry": {"type": "LineString", "coordinates": [[-73.89788634178542, 40.55742134348167], [-73.89796774249069, 40.557744816256296]]}}, {"type": "Feature", "properties": {"segment_id": 1317245, "physicalid": "89895", "street_name": "SHORE RD", "borough": "queens", "direction": "TW", "total_row_ft": 43.4, "roadbed_ft": 13.4, "median_ft": 0.0, "left_sw_ft": 15.0, "right_sw_ft": 15.0}, "geometry": {"type": "LineString", "coordinates": [[-73.89795702671577, 40.557410995983616], [-73.89803842775069, 40.557734468708425]]}}, {"type": "Feature", "properties": {"segment_id": 1317246, "physicalid": "89895", "street_name": "SHORE RD", "borough": "queens", "direction": "TW", "total_row_ft": 43.9, "roadbed_ft": 13.9, "median_ft": 0.0, "left_sw_ft": 15.0, "right_sw_ft": 15.0}, "geometry": {"type": "LineString", "coordinates": [[-73.89802771162427, 40.55740064844202], [-73.89810911298878, 40.55772412111701]]}}, {"type": "Feature", "properties": {"segment_id": 1317247, "physicalid": "89895", "street_name": "SHORE RD", "borough": "queens", "direction": "TW", "total_row_ft": 44.7, "roadbed_ft": 14.7, "median_ft": 0.0, "left_sw_ft": 15.0, "right_sw_ft": 15.0}, "geometry": {"type": "LineString", "coordinates": [[-73.89809839651085, 40.55739030085692], [-73.89817979820498, 40.55771377348212]]}}, {"type": "Feature", "properties": {"segment_id": 1317248, "physicalid": "89895", "street_name": "SHORE RD", "borough": "queens", "direction": "TW", "total_row_ft": 45.6, "roadbed_ft": 15.6, "median_ft": 0.0, "left_sw_ft": 15.0, "right_sw_ft": 15.0}, "geometry": {"type": "LineString", "coordinates": [[-73.89816908137553, 40.55737995322832], [-73.89825048339927, 40.55770342580369]]}}, {"type": "Feature", "properties": {"segment_id": 1317249, "physicalid": "89895", "street_name": "SHORE RD", "borough": "queens", "direction": "TW", "total_row_ft": 46.5, "roadbed_ft": 16.5, "median_ft": 0.0, "left_sw_ft": 15.0, "right_sw_ft": 15.0}, "geometry": {"type": "LineString", "coordinates": [[-73.89823976621831, 40.557369605556204], [-73.89832116857168, 40.557693078081755]]}}, {"type": "Feature", "properties": {"segment_id": 1317250, "physicalid": "89895", "street_name": "SHORE RD", "borough": "queens", "direction": "TW", "total_row_ft": 47.5, "roadbed_ft": 17.5, "median_ft": 0.0, "left_sw_ft": 15.0, "right_sw_ft": 15.0}, "geometry": {"type": "LineString", "coordinates": [[-73.8983104510392, 40.55735925784056], [-73.8983918537222, 40.5576827303163]]}}, {"type": "Feature", "properties": {"segment_id": 1317251, "physicalid": "89895", "street_name": "SHORE RD", "borough": "queens", "direction": "TW", "total_row_ft": 48.2, "roadbed_ft": 18.2, "median_ft": 0.0, "left_sw_ft": 15.0, "right_sw_ft": 15.0}, "geometry": {"type": "LineString", "coordinates": [[-73.8983811358382, 40.557348910081416], [-73.89846253885081, 40.55767238250735]]}}, {"type": "Feature", "properties": {"segment_id": 1317252, "physicalid": "89895", "street_name": "SHORE RD", "borough": "queens", "direction": "TW", "total_row_ft": 48.3, "roadbed_ft": 18.3, "median_ft": 0.0, "left_sw_ft": 15.0, "right_sw_ft": 15.0}, "geometry": {"type": "LineString", "coordinates": [[-73.89845182061529, 40.55733856227876], [-73.89853322395753, 40.55766203465488]]}}, {"type": "Feature", "properties": {"segment_id": 1317253, "physicalid": "89895", "street_name": "SHORE RD", "borough": "queens", "direction": "TW", "total_row_ft": 48.0, "roadbed_ft": 18.0, "median_ft": 0.0, "left_sw_ft": 15.0, "right_sw_ft": 15.0}, "geometry": {"type": "LineString", "coordinates": [[-73.8985225053705, 40.55732821443261], [-73.89860390904235, 40.557651686758874]]}}, {"type": "Feature", "properties": {"segment_id": 1317254, "physicalid": "89895", "street_name": "SHORE RD", "borough": "queens", "direction": "TW", "total_row_ft": 46.2, "roadbed_ft": 16.2, "median_ft": 0.0, "left_sw_ft": 15.0, "right_sw_ft": 15.0}, "geometry": {"type": "LineString", "coordinates": [[-73.89859319010381, 40.55731786654291], [-73.89867459410529, 40.55764133881937]]}}, {"type": "Feature", "properties": {"segment_id": 1317255, "physicalid": "89895", "street_name": "SHORE RD", "borough": "queens", "direction": "TW", "total_row_ft": 46.3, "roadbed_ft": 16.3, "median_ft": 0.0, "left_sw_ft": 15.0, "right_sw_ft": 15.0}, "geometry": {"type": "LineString", "coordinates": [[-73.89866387481523, 40.55730751860973], [-73.89874527914631, 40.55763099083638]]}}, {"type": "Feature", "properties": {"segment_id": 1317256, "physicalid": "89895", "street_name": "SHORE RD", "borough": "queens", "direction": "TW", "total_row_ft": 48.0, "roadbed_ft": 18.0, "median_ft": 0.0, "left_sw_ft": 15.0, "right_sw_ft": 15.0}, "geometry": {"type": "LineString", "coordinates": [[-73.89873455950475, 40.557297170633014], [-73.89881596416545, 40.55762064280985]]}}, {"type": "Feature", "properties": {"segment_id": 1317257, "physicalid": "89895", "street_name": "SHORE RD", "borough": "queens", "direction": "TW", "total_row_ft": 46.1, "roadbed_ft": 16.1, "median_ft": 0.0, "left_sw_ft": 15.0, "right_sw_ft": 15.0}, "geometry": {"type": "LineString", "coordinates": [[-73.89888065477282, 40.557295858627654], [-73.89881256951759, 40.55762111627067]]}}, {"type": "Feature", "properties": {"segment_id": 1317258, "physicalid": "89895", "street_name": "SHORE RD", "borough": "queens", "direction": "TW", "total_row_ft": 45.4, "roadbed_ft": 15.4, "median_ft": 0.0, "left_sw_ft": 15.0, "right_sw_ft": 15.0}, "geometry": {"type": "LineString", "coordinates": [[-73.8990068681383, 40.557325823071395], [-73.89882325592825, 40.55762394585783]]}}, {"type": "Feature", "properties": {"segment_id": 1326818, "physicalid": "90500", "street_name": "WEST RD", "borough": "queens", "direction": "TW", "total_row_ft": 38.8, "roadbed_ft": 8.8, "median_ft": 0.0, "left_sw_ft": 15.0, "right_sw_ft": 15.0}, "geometry": {"type": "LineString", "coordinates": [[-73.89878796532923, 40.55994238331792], [-73.89920785223224, 40.56001942648715]]}}, {"type": "Feature", "properties": {"segment_id": 1326819, "physicalid": "90500", "street_name": "WEST RD", "borough": "queens", "direction": "TW", "total_row_ft": 38.4, "roadbed_ft": 8.4, "median_ft": 0.0, "left_sw_ft": 15.0, "right_sw_ft": 15.0}, "geometry": {"type": "LineString", "coordinates": [[-73.89880480151561, 40.55988901005758], [-73.89922468810259, 40.55996605316551]]}}, {"type": "Feature", "properties": {"segment_id": 1326820, "physicalid": "90500", "street_name": "WEST RD", "borough": "queens", "direction": "TW", "total_row_ft": 38.7, "roadbed_ft": 8.7, "median_ft": 0.0, "left_sw_ft": 15.0, "right_sw_ft": 15.0}, "geometry": {"type": "LineString", "coordinates": [[-73.89882163767507, 40.55983563679447], [-73.89924152394605, 40.559912679841204]]}}, {"type": "Feature", "properties": {"segment_id": 1326821, "physicalid": "90500", "street_name": "WEST RD", "borough": "queens", "direction": "TW", "total_row_ft": 39.1, "roadbed_ft": 9.1, "median_ft": 0.0, "left_sw_ft": 15.0, "right_sw_ft": 15.0}, "geometry": {"type": "LineString", "coordinates": [[-73.89883847380766, 40.55978226352864], [-73.8992583597626, 40.5598593065142]]}}, {"type": "Feature", "properties": {"segment_id": 1326822, "physicalid": "90500", "street_name": "WEST RD", "borough": "queens", "direction": "TW", "total_row_ft": 39.5, "roadbed_ft": 9.5, "median_ft": 0.0, "left_sw_ft": 15.0, "right_sw_ft": 15.0}, "geometry": {"type": "LineString", "coordinates": [[-73.89885530991334, 40.559728890260075], [-73.89927519555222, 40.5598059331845]]}}, {"type": "Feature", "properties": {"segment_id": 1326823, "physicalid": "90500", "street_name": "WEST RD", "borough": "queens", "direction": "TW", "total_row_ft": 39.9, "roadbed_ft": 9.9, "median_ft": 0.0, "left_sw_ft": 15.0, "right_sw_ft": 15.0}, "geometry": {"type": "LineString", "coordinates": [[-73.8988721459921, 40.559675516988875], [-73.89929203131499, 40.55975255985202]]}}, {"type": "Feature", "properties": {"segment_id": 1326824, "physicalid": "90500", "street_name": "WEST RD", "borough": "queens", "direction": "TW", "total_row_ft": 40.3, "roadbed_ft": 10.3, "median_ft": 0.0, "left_sw_ft": 15.0, "right_sw_ft": 15.0}, "geometry": {"type": "LineString", "coordinates": [[-73.89888898204399, 40.55962214371491], [-73.89930886705083, 40.559699186516866]]}}, {"type": "Feature", "properties": {"segment_id": 1326825, "physicalid": "90500", "street_name": "WEST RD", "borough": "queens", "direction": "TW", "total_row_ft": 40.6, "roadbed_ft": 10.6, "median_ft": 0.0, "left_sw_ft": 15.0, "right_sw_ft": 15.0}, "geometry": {"type": "LineString", "coordinates": [[-73.89890581806895, 40.55956877043823], [-73.89932570275978, 40.559645813178996]]}}, {"type": "Feature", "properties": {"segment_id": 1326826, "physicalid": "90500", "street_name": "WEST RD", "borough": "queens", "direction": "TW", "total_row_ft": 40.6, "roadbed_ft": 10.6, "median_ft": 0.0, "left_sw_ft": 15.0, "right_sw_ft": 15.0}, "geometry": {"type": "LineString", "coordinates": [[-73.89892265406704, 40.559515397158854], [-73.89934253844183, 40.559592439838426]]}}, {"type": "Feature", "properties": {"segment_id": 1326827, "physicalid": "90500", "street_name": "WEST RD", "borough": "queens", "direction": "TW", "total_row_ft": 40.0, "roadbed_ft": 10.0, "median_ft": 0.0, "left_sw_ft": 15.0, "right_sw_ft": 15.0}, "geometry": {"type": "LineString", "coordinates": [[-73.89893949003823, 40.55946202387673], [-73.89935937409696, 40.559539066495184]]}}, {"type": "Feature", "properties": {"segment_id": 1326828, "physicalid": "90500", "street_name": "WEST RD", "borough": "queens", "direction": "TW", "total_row_ft": 39.9, "roadbed_ft": 9.9, "median_ft": 0.0, "left_sw_ft": 15.0, "right_sw_ft": 15.0}, "geometry": {"type": "LineString", "coordinates": [[-73.89895632598248, 40.55940865059197], [-73.89937620972522, 40.559485693149135]]}}, {"type": "Feature", "properties": {"segment_id": 1326829, "physicalid": "90500", "street_name": "WEST RD", "borough": "queens", "direction": "TW", "total_row_ft": 40.4, "roadbed_ft": 10.4, "median_ft": 0.0, "left_sw_ft": 15.0, "right_sw_ft": 15.0}, "geometry": {"type": "LineString", "coordinates": [[-73.89897316189986, 40.559355277304455], [-73.89939304532656, 40.55943231980043]]}}, {"type": "Feature", "properties": {"segment_id": 1326830, "physicalid": "90500", "street_name": "WEST RD", "borough": "queens", "direction": "TW", "total_row_ft": 41.8, "roadbed_ft": 11.8, "median_ft": 0.0, "left_sw_ft": 15.0, "right_sw_ft": 15.0}, "geometry": {"type": "LineString", "coordinates": [[-73.89898999779034, 40.55930190401423], [-73.89940988090102, 40.559378946449]]}}, {"type": "Feature", "properties": {"segment_id": 1326831, "physicalid": "90500", "street_name": "WEST RD", "borough": "queens", "direction": "TW", "total_row_ft": 51.0, "roadbed_ft": 21.0, "median_ft": 0.0, "left_sw_ft": 15.0, "right_sw_ft": 15.0}, "geometry": {"type": "LineString", "coordinates": [[-73.89900683365391, 40.55924853072127], [-73.89942671644857, 40.55932557309488]]}}, {"type": "Feature", "properties": {"segment_id": 1326832, "physicalid": "90500", "street_name": "WEST RD", "borough": "queens", "direction": "TW", "total_row_ft": 66.2, "roadbed_ft": 36.2, "median_ft": 0.0, "left_sw_ft": 15.0, "right_sw_ft": 15.0}, "geometry": {"type": "LineString", "coordinates": [[-73.89902366949059, 40.55919515742559], [-73.8994435519692, 40.559272199738054]]}}, {"type": "Feature", "properties": {"segment_id": 1326833, "physicalid": "90500", "street_name": "WEST RD", "borough": "queens", "direction": "TW", "total_row_ft": 112.4, "roadbed_ft": 82.4, "median_ft": 0.0, "left_sw_ft": 15.0, "right_sw_ft": 15.0}, "geometry": {"type": "LineString", "coordinates": [[-73.89904050530036, 40.55914178412728], [-73.89946038746297, 40.559218826378455]]}}]}