{"type": "FeatureCollection", "features": [{"type": "Feature", "properties": {"segment_id": 1731146, "physicalid": "184567", "street_name": "56 AVE", "borough": "queens", "direction": "TF", "total_row_ft": 87.0, "roadbed_ft": 36.4, "median_ft": 0.0, "left_sw_ft": 47.5, "right_sw_ft": 3.1}, "geometry": {"type": "LineString", "coordinates": [[-73.96117614410754, 40.739809768828835], [-73.96135871661065, 40.739615438173615]]}}, {"type": "Feature", "properties": {"segment_id": 1731147, "physicalid": "184567", "street_name": "56 AVE", "borough": "queens", "direction": "TF", "total_row_ft": 59.8, "roadbed_ft": 32.2, "median_ft": 0.0, "left_sw_ft": 14.1, "right_sw_ft": 13.5}, "geometry": {"type": "LineString", "coordinates": [[-73.96112121952451, 40.739773812462694], [-73.96124676140782, 40.739640185607776]]}}, {"type": "Feature", "properties": {"segment_id": 1731148, "physicalid": "184567", "street_name": "56 AVE", "borough": "queens", "direction": "TF", "total_row_ft": 60.0, "roadbed_ft": 33.2, "median_ft": 0.0, "left_sw_ft": 13.3, "right_sw_ft": 13.5}, "geometry": {"type": "LineString", "coordinates": [[-73.96106238116198, 40.7397420219484], [-73.9611883047221, 40.73960798896125]]}}, {"type": "Feature", "properties": {"segment_id": 1731149, "physicalid": "184567", "street_name": "56 AVE", "borough": "queens", "direction": "TF", "total_row_ft": 60.2, "roadbed_ft": 33.2, "median_ft": 0.0, "left_sw_ft": 13.5, "right_sw_ft": 13.5}, "geometry": {"type": "LineString", "coordinates": [[-73.9610035428556, 40.739710231403926], [-73.96112984809284, 40.739575792284896]]}}, {"type": "Feature", "properties": {"segment_id": 1731150, "physicalid": "184567", "street_name": "56 AVE", "borough": "queens", "direction": "TF", "total_row_ft": 60.4, "roadbed_ft": 33.1, "median_ft": 0.0, "left_sw_ft": 13.7, "right_sw_ft": 13.5}, "geometry": {"type": "LineString", "coordinates": [[-73.96094470460537, 40.739678440829245], [-73.96107139152006, 40.73954359557872]]}}, {"type": "Feature", "properties": {"segment_id": 1731151, "physicalid": "184567", "street_name": "56 AVE", "borough": "queens", "direction": "TF", "total_row_ft": 60.6, "roadbed_ft": 33.1, "median_ft": 0.0, "left_sw_ft": 13.9, "right_sw_ft": 13.5}, "geometry": {"type": "LineString", "coordinates": [[-73.96088586641127, 40.739646650224344], [-73.96101293500382, 40.73951139884275]]}}, {"type": "Feature", "properties": {"segment_id": 1731152, "physicalid": "184567", "street_name": "56 AVE", "borough": "queens", "direction": "TF", "total_row_ft": 60.7, "roadbed_ft": 33.1, "median_ft": 0.0, "left_sw_ft": 14.1, "right_sw_ft": 13.5}, "geometry": {"type": "LineString", "coordinates": [[-73.96082702827337, 40.73961485958926], [-73.96095447854404, 40.73947920207695]]}}, {"type": "Feature", "properties": {"segment_id": 1731153, "physicalid": "184567", "street_name": "56 AVE", "borough": "queens", "direction": "TF", "total_row_ft": 60.9, "roadbed_ft": 33.1, "median_ft": 0.0, "left_sw_ft": 14.3, "right_sw_ft": 13.5}, "geometry": {"type": "LineString", "coordinates": [[-73.96076819019157, 40.73958306892394], [-73.96089602214079, 40.739447005281335]]}}, {"type": "Feature", "properties": {"segment_id": 1731154, "physicalid": "184567", "street_name": "56 AVE", "borough": "queens", "direction": "TF", "total_row_ft": 61.1, "roadbed_ft": 33.1, "median_ft": 0.0, "left_sw_ft": 14.5, "right_sw_ft": 13.5}, "geometry": {"type": "LineString", "coordinates": [[-73.96070933215887, 40.7395512995238], [-73.96083756579401, 40.73941480845592]]}}, {"type": "Feature", "properties": {"segment_id": 1731155, "physicalid": "184567", "street_name": "56 AVE", "borough": "queens", "direction": "TF", "total_row_ft": 61.3, "roadbed_ft": 33.1, "median_ft": 0.0, "left_sw_ft": 14.7, "right_sw_ft": 13.5}, "geometry": {"type": "LineString", "coordinates": [[-73.96065047172137, 40.739519532712826], [-73.96077910950372, 40.73938261160066]]}}, {"type": "Feature", "properties": {"segment_id": 1731156, "physicalid": "184567", "street_name": "56 AVE", "borough": "queens", "direction": "TF", "total_row_ft": 61.5, "roadbed_ft": 33.1, "median_ft": 0.0, "left_sw_ft": 14.9, "right_sw_ft": 13.5}, "geometry": {"type": "LineString", "coordinates": [[-73.96059161133996, 40.739487765871615], [-73.96072065326995, 40.739350414715595]]}}, {"type": "Feature", "properties": {"segment_id": 1731157, "physicalid": "184567", "street_name": "56 AVE", "borough": "queens", "direction": "TF", "total_row_ft": 61.4, "roadbed_ft": 33.1, "median_ft": 0.0, "left_sw_ft": 14.8, "right_sw_ft": 13.5}, "geometry": {"type": "LineString", "coordinates": [[-73.96053275101471, 40.7394559990002], [-73.96066157420529, 40.739318880797924]]}}, {"type": "Feature", "properties": {"segment_id": 1731158, "physicalid": "184567", "street_name": "56 AVE", "borough": "queens", "direction": "TF", "total_row_ft": 61.0, "roadbed_ft": 33.2, "median_ft": 0.0, "left_sw_ft": 14.3, "right_sw_ft": 13.5}, "geometry": {"type": "LineString", "coordinates": [[-73.96047389074556, 40.73942423209855], [-73.96060193957089, 40.73928793825359]]}}, {"type": "Feature", "properties": {"segment_id": 1731159, "physicalid": "184567", "street_name": "56 AVE", "borough": "queens", "direction": "TF", "total_row_ft": 60.7, "roadbed_ft": 33.2, "median_ft": 0.0, "left_sw_ft": 13.9, "right_sw_ft": 13.5}, "geometry": {"type": "LineString", "coordinates": [[-73.96041503053254, 40.73939246516667], [-73.96054230499189, 40.73925699567823]]}}, {"type": "Feature", "properties": {"segment_id": 1731160, "physicalid": "184567", "street_name": "56 AVE", "borough": "queens", "direction": "TF", "total_row_ft": 60.3, "roadbed_ft": 33.3, "median_ft": 0.0, "left_sw_ft": 13.5, "right_sw_ft": 13.5}, "geometry": {"type": "LineString", "coordinates": [[-73.96035616833584, 40.739360700375734], [-73.96048267046824, 40.73922605307185]]}}, {"type": "Feature", "properties": {"segment_id": 1731161, "physicalid": "184567", "street_name": "56 AVE", "borough": "queens", "direction": "TF", "total_row_ft": 59.9, "roadbed_ft": 33.4, "median_ft": 0.0, "left_sw_ft": 13.0, "right_sw_ft": 13.5}, "geometry": {"type": "LineString", "coordinates": [[-73.9602972888374, 40.73932895402997], [-73.96042303600004, 40.73919511043445]]}}, {"type": "Feature", "properties": {"segment_id": 1731162, "physicalid": "184567", "street_name": "56 AVE", "borough": "queens", "direction": "TF", "total_row_ft": 59.6, "roadbed_ft": 33.5, "median_ft": 0.0, "left_sw_ft": 12.6, "right_sw_ft": 13.5}, "geometry": {"type": "LineString", "coordinates": [[-73.96023840939512, 40.73929720765396], [-73.96036340158717, 40.73916416776605]]}}, {"type": "Feature", "properties": {"segment_id": 1731163, "physicalid": "184567", "street_name": "56 AVE", "borough": "queens", "direction": "TF", "total_row_ft": 59.2, "roadbed_ft": 33.6, "median_ft": 0.0, "left_sw_ft": 12.1, "right_sw_ft": 13.5}, "geometry": {"type": "LineString", "coordinates": [[-73.96017953000892, 40.739265461247705], [-73.9603037672297, 40.73913322506663]]}}, {"type": "Feature", "properties": {"segment_id": 1731164, "physicalid": "184567", "street_name": "56 AVE", "borough": "queens", "direction": "TF", "total_row_ft": 62.7, "roadbed_ft": 33.7, "median_ft": 0.0, "left_sw_ft": 15.5, "right_sw_ft": 13.5}, "geometry": {"type": "LineString", "coordinates": [[-73.96012065067882, 40.739233714811185], [-73.96030176127826, 40.739040943443925]]}}, {"type": "Feature", "properties": {"segment_id": 1731165, "physicalid": "184567", "street_name": "56 AVE", "borough": "queens", "direction": "TF", "total_row_ft": 83.4, "roadbed_ft": 26.1, "median_ft": 0.0, "left_sw_ft": 39.8, "right_sw_ft": 17.5}, "geometry": {"type": "LineString", "coordinates": [[-73.95999127328874, 40.73927700501638], [-73.96022826209943, 40.739024758400205]]}}, {"type": "Feature", "properties": {"segment_id": 1731166, "physicalid": "184567", "street_name": "56 AVE", "borough": "queens", "direction": "TF", "total_row_ft": 104.2, "roadbed_ft": 81.5, "median_ft": 0.0, "left_sw_ft": 7.7, "right_sw_ft": 15.0}, "geometry": {"type": "LineString", "coordinates": [[-73.95993255402315, 40.73924508819947], [-73.9601197400654, 40.73904585113766]]}}, {"type": "Feature", "properties": {"segment_id": 1731174, "physicalid": "184568", "street_name": "CENTER BLVD", "borough": "queens", "direction": "TF", "total_row_ft": 89.3, "roadbed_ft": 46.5, "median_ft": 5.2, "left_sw_ft": 23.4, "right_sw_ft": 14.2}, "geometry": {"type": "LineString", "coordinates": [[-73.9610267311627, 40.739899390585535], [-73.96129954631083, 40.74003005044509]]}}, {"type": "Feature", "properties": {"segment_id": 1731175, "physicalid": "184568", "street_name": "CENTER BLVD", "borough": "queens", "direction": "TF", "total_row_ft": 88.6, "roadbed_ft": 46.4, "median_ft": 5.1, "left_sw_ft": 22.7, "right_sw_ft": 14.4}, "geometry": {"type": "LineString", "coordinates": [[-73.96107088404617, 40.739850467419174], [-73.96133153604247, 40.73999142368013]]}}, {"type": "Feature", "properties": {"segment_id": 1731176, "physicalid": "184568", "street_name": "CENTER BLVD", "borough": "queens", "direction": "TF", "total_row_ft": 88.9, "roadbed_ft": 46.2, "median_ft": 5.3, "left_sw_ft": 22.3, "right_sw_ft": 15.1}, "geometry": {"type": "LineString", "coordinates": [[-73.96111184790276, 40.73980526446536], [-73.96137335659215, 40.73994668396653]]}}, {"type": "Feature", "properties": {"segment_id": 1731177, "physicalid": "184568", "street_name": "CENTER BLVD", "borough": "queens", "direction": "TF", "total_row_ft": 120.0, "roadbed_ft": 51.7, "median_ft": 5.6, "left_sw_ft": 21.3, "right_sw_ft": 41.3}, "geometry": {"type": "LineString", "coordinates": [[-73.96107164651997, 40.73970490416132], [-73.96140994204036, 40.7399105138687]]}}, {"type": "Feature", "properties": {"segment_id": 1731178, "physicalid": "184570", "street_name": "57 AVE", "borough": "queens", "direction": "TF", "total_row_ft": 100.2, "roadbed_ft": 48.0, "median_ft": 5.6, "left_sw_ft": 5.0, "right_sw_ft": 41.6}, "geometry": {"type": "LineString", "coordinates": [[-73.96158869890839, 40.739415489130515], [-73.96192107532595, 40.739307392856766]]}}, {"type": "Feature", "properties": {"segment_id": 1731179, "physicalid": "184570", "street_name": "57 AVE", "borough": "queens", "direction": "TF", "total_row_ft": 74.3, "roadbed_ft": 47.1, "median_ft": 5.8, "left_sw_ft": 5.0, "right_sw_ft": 16.4}, "geometry": {"type": "LineString", "coordinates": [[-73.96164446314387, 40.73933765094055], [-73.9618908565911, 40.73925751814949]]}}, {"type": "Feature", "properties": {"segment_id": 1731180, "physicalid": "184570", "street_name": "57 AVE", "borough": "queens", "direction": "TF", "total_row_ft": 73.5, "roadbed_ft": 46.5, "median_ft": 5.8, "left_sw_ft": 4.9, "right_sw_ft": 16.3}, "geometry": {"type": "LineString", "coordinates": [[-73.96161719282362, 40.73928681733628], [-73.9618610252309, 40.739207517464955]]}}, {"type": "Feature", "properties": {"segment_id": 1731181, "physicalid": "184570", "street_name": "57 AVE", "borough": "queens", "direction": "TF", "total_row_ft": 72.9, "roadbed_ft": 46.1, "median_ft": 5.8, "left_sw_ft": 4.8, "right_sw_ft": 16.1}, "geometry": {"type": "LineString", "coordinates": [[-73.96158992254499, 40.73923598372518], [-73.96183176991089, 40.739157329444716]]}}, {"type": "Feature", "properties": {"segment_id": 1731182, "physicalid": "184570", "street_name": "57 AVE", "borough": "queens", "direction": "TF", "total_row_ft": 72.3, "roadbed_ft": 45.8, "median_ft": 5.8, "left_sw_ft": 4.8, "right_sw_ft": 15.9}, "geometry": {"type": "LineString", "coordinates": [[-73.96156265230796, 40.73918515010726], [-73.96180262722433, 40.7391071047999]]}}, {"type": "Feature", "properties": {"segment_id": 1731183, "physicalid": "184570", "street_name": "57 AVE", "borough": "queens", "direction": "TF", "total_row_ft": 71.8, "roadbed_ft": 45.4, "median_ft": 5.9, "left_sw_ft": 4.8, "right_sw_ft": 15.8}, "geometry": {"type": "LineString", "coordinates": [[-73.96153538211256, 40.73913431648254], [-73.96177365538406, 40.739056824598265]]}}, {"type": "Feature", "properties": {"segment_id": 1731184, "physicalid": "184570", "street_name": "57 AVE", "borough": "queens", "direction": "TF", "total_row_ft": 71.3, "roadbed_ft": 45.0, "median_ft": 5.9, "left_sw_ft": 4.8, "right_sw_ft": 15.6}, "geometry": {"type": "LineString", "coordinates": [[-73.96150811195875, 40.73908348285098], [-73.9617445881501, 40.73900657542757]]}}, {"type": "Feature", "properties": {"segment_id": 1731185, "physicalid": "184570", "street_name": "57 AVE", "borough": "queens", "direction": "TF", "total_row_ft": 71.1, "roadbed_ft": 44.6, "median_ft": 5.9, "left_sw_ft": 4.8, "right_sw_ft": 15.8}, "geometry": {"type": "LineString", "coordinates": [[-73.96147963584141, 40.739033041431114], [-73.96171539452156, 40.73895636736997]]}}, {"type": "Feature", "properties": {"segment_id": 1731186, "physicalid": "184570", "street_name": "57 AVE", "borough": "queens", "direction": "TF", "total_row_ft": 71.7, "roadbed_ft": 44.4, "median_ft": 5.9, "left_sw_ft": 4.8, "right_sw_ft": 16.6}, "geometry": {"type": "LineString", "coordinates": [[-73.96144814753559, 40.73898357964533], [-73.96168599905336, 40.73890622496205]]}}, {"type": "Feature", "properties": {"segment_id": 1731187, "physicalid": "184570", "street_name": "57 AVE", "borough": "queens", "direction": "TF", "total_row_ft": 71.7, "roadbed_ft": 44.2, "median_ft": 5.9, "left_sw_ft": 4.8, "right_sw_ft": 16.7}, "geometry": {"type": "LineString", "coordinates": [[-73.96141879762189, 40.73893342241563], [-73.96165658772672, 40.7388560877182]]}}, {"type": "Feature", "properties": {"segment_id": 1731188, "physicalid": "184570", "street_name": "57 AVE", "borough": "queens", "direction": "TF", "total_row_ft": 71.7, "roadbed_ft": 44.1, "median_ft": 6.0, "left_sw_ft": 4.8, "right_sw_ft": 16.9}, "geometry": {"type": "LineString", "coordinates": [[-73.9613894477226, 40.738883265187724], [-73.96162738110657, 40.73880588390544]]}}, {"type": "Feature", "properties": {"segment_id": 1731189, "physicalid": "184570", "street_name": "57 AVE", "borough": "queens", "direction": "TF", "total_row_ft": 71.9, "roadbed_ft": 44.2, "median_ft": 5.8, "left_sw_ft": 4.8, "right_sw_ft": 17.0}, "geometry": {"type": "LineString", "coordinates": [[-73.9613600976617, 40.738833108018966], [-73.96159858029122, 40.738755548121866]]}}, {"type": "Feature", "properties": {"segment_id": 1731190, "physicalid": "184570", "street_name": "57 AVE", "borough": "queens", "direction": "TF", "total_row_ft": 72.3, "roadbed_ft": 44.7, "median_ft": 5.7, "left_sw_ft": 4.8, "right_sw_ft": 17.2}, "geometry": {"type": "LineString", "coordinates": [[-73.96133074764498, 40.73878295084236], [-73.96157077127489, 40.73870488978822]]}}, {"type": "Feature", "properties": {"segment_id": 1731191, "physicalid": "184570", "street_name": "57 AVE", "borough": "queens", "direction": "TF", "total_row_ft": 73.0, "roadbed_ft": 45.4, "median_ft": 5.5, "left_sw_ft": 4.8, "right_sw_ft": 17.2}, "geometry": {"type": "LineString", "coordinates": [[-73.96130139767244, 40.73873279365791], [-73.96154362791941, 40.738654014972546]]}}, {"type": "Feature", "properties": {"segment_id": 1732479, "physicalid": "185085", "street_name": "CENTER BLVD", "borough": "queens", "direction": "TF", "total_row_ft": 120.0, "roadbed_ft": 46.0, "median_ft": 0.0, "left_sw_ft": 21.2, "right_sw_ft": 52.8}, "geometry": {"type": "LineString", "coordinates": [[-73.96116769882761, 40.739625309565575], [-73.96146480686006, 40.73986492554358]]}}, {"type": "Feature", "properties": {"segment_id": 1732480, "physicalid": "185085", "street_name": "CENTER BLVD", "borough": "queens", "direction": "TF", "total_row_ft": 89.9, "roadbed_ft": 36.9, "median_ft": 5.6, "left_sw_ft": 22.4, "right_sw_ft": 25.0}, "geometry": {"type": "LineString", "coordinates": [[-73.96129899376007, 40.7396457496621], [-73.96151067571252, 40.73983289005617]]}}, {"type": "Feature", "properties": {"segment_id": 1732481, "physicalid": "185085", "street_name": "CENTER BLVD", "borough": "queens", "direction": "TF", "total_row_ft": 91.9, "roadbed_ft": 35.3, "median_ft": 5.7, "left_sw_ft": 23.7, "right_sw_ft": 27.3}, "geometry": {"type": "LineString", "coordinates": [[-73.96134912832422, 40.73960590237872], [-73.96156538575144, 40.7397970876635]]}}, {"type": "Feature", "properties": {"segment_id": 1732482, "physicalid": "185085", "street_name": "CENTER BLVD", "borough": "queens", "direction": "TF", "total_row_ft": 94.8, "roadbed_ft": 44.8, "median_ft": 5.3, "left_sw_ft": 24.1, "right_sw_ft": 20.6}, "geometry": {"type": "LineString", "coordinates": [[-73.96140320112552, 40.73956292488025], [-73.9616143220715, 40.73976778262407]]}}, {"type": "Feature", "properties": {"segment_id": 1732483, "physicalid": "185085", "street_name": "CENTER BLVD", "borough": "queens", "direction": "TF", "total_row_ft": 98.4, "roadbed_ft": 45.8, "median_ft": 5.3, "left_sw_ft": 24.0, "right_sw_ft": 23.4}, "geometry": {"type": "LineString", "coordinates": [[-73.96145800619664, 40.73951936528509], [-73.96166411877968, 40.73973934488632]]}}, {"type": "Feature", "properties": {"segment_id": 1732484, "physicalid": "185085", "street_name": "CENTER BLVD", "borough": "queens", "direction": "TF", "total_row_ft": 102.7, "roadbed_ft": 45.5, "median_ft": 5.1, "left_sw_ft": 23.7, "right_sw_ft": 28.4}, "geometry": {"type": "LineString", "coordinates": [[-73.96151374634238, 40.73947506239822], [-73.9617147750967, 40.73971177512082]]}}, {"type": "Feature", "properties": {"segment_id": 1732485, "physicalid": "185085", "street_name": "CENTER BLVD", "borough": "queens", "direction": "TF", "total_row_ft": 107.4, "roadbed_ft": 47.2, "median_ft": 4.2, "left_sw_ft": 23.1, "right_sw_ft": 33.0}, "geometry": {"type": "LineString", "coordinates": [[-73.96156504170374, 40.7394342921992], [-73.96177539904268, 40.7396819891787]]}}, {"type": "Feature", "properties": {"segment_id": 1732486, "physicalid": "185085", "street_name": "CENTER BLVD", "borough": "queens", "direction": "TF", "total_row_ft": 113.4, "roadbed_ft": 48.9, "median_ft": 3.9, "left_sw_ft": 22.4, "right_sw_ft": 38.2}, "geometry": {"type": "LineString", "coordinates": [[-73.96162255288435, 40.739388581502], [-73.96182864039172, 40.739657424936645]]}}, {"type": "Feature", "properties": {"segment_id": 1732487, "physicalid": "185085", "street_name": "CENTER BLVD", "borough": "queens", "direction": "TF", "total_row_ft": 106.4, "roadbed_ft": 48.4, "median_ft": 5.0, "left_sw_ft": 9.7, "right_sw_ft": 43.3}, "geometry": {"type": "LineString", "coordinates": [[-73.96165357126519, 40.73935462903684], [-73.96190945635026, 40.73961934202389]]}}, {"type": "Feature", "properties": {"segment_id": 1732488, "physicalid": "185085", "street_name": "CENTER BLVD", "borough": "queens", "direction": "TF", "total_row_ft": 101.5, "roadbed_ft": 48.3, "median_ft": 4.8, "left_sw_ft": 5.0, "right_sw_ft": 43.4}, "geometry": {"type": "LineString", "coordinates": [[-73.96160251365266, 40.73941353553554], [-73.96196414501375, 40.739458548359096]]}}, {"type": "Feature", "properties": {"segment_id": 1732489, "physicalid": "185086", "street_name": "2 ST", "borough": "queens", "direction": "FT", "total_row_ft": 112.7, "roadbed_ft": 84.6, "median_ft": 8.6, "left_sw_ft": 16.5, "right_sw_ft": 3.0}, "geometry": {"type": "LineString", "coordinates": [[-73.95995210420888, 40.73893231255913], [-73.96013186916122, 40.739198856303105]]}}, {"type": "Feature", "properties": {"segment_id": 1732490, "physicalid": "185086", "street_name": "2 ST", "borough": "queens", "direction": "FT", "total_row_ft": 93.4, "roadbed_ft": 38.4, "median_ft": 8.7, "left_sw_ft": 15.7, "right_sw_ft": 30.6}, "geometry": {"type": "LineString", "coordinates": [[-73.96001497167656, 40.73890525881515], [-73.9601627745499, 40.73912441115315]]}}, {"type": "Feature", "properties": {"segment_id": 1732491, "physicalid": "185086", "street_name": "2 ST", "borough": "queens", "direction": "FT", "total_row_ft": 119.6, "roadbed_ft": 38.3, "median_ft": 9.2, "left_sw_ft": 25.5, "right_sw_ft": 46.6}, "geometry": {"type": "LineString", "coordinates": [[-73.96006265079941, 40.738855684775665], [-73.96026029928127, 40.73914874434764]]}}, {"type": "Feature", "properties": {"segment_id": 1732492, "physicalid": "185086", "street_name": "2 ST", "borough": "queens", "direction": "FT", "total_row_ft": 85.8, "roadbed_ft": 44.7, "median_ft": 9.4, "left_sw_ft": 15.6, "right_sw_ft": 16.2}, "geometry": {"type": "LineString", "coordinates": [[-73.96014353511771, 40.73885534537655], [-73.96027843173876, 40.739055360669816]]}}, {"type": "Feature", "properties": {"segment_id": 1732493, "physicalid": "185086", "street_name": "2 ST", "borough": "queens", "direction": "FT", "total_row_ft": 85.7, "roadbed_ft": 44.7, "median_ft": 9.4, "left_sw_ft": 15.6, "right_sw_ft": 16.1}, "geometry": {"type": "LineString", "coordinates": [[-73.9602081703197, 40.73883091282899], [-73.96034284336517, 40.73903059633228]]}}, {"type": "Feature", "properties": {"segment_id": 1732494, "physicalid": "185086", "street_name": "2 ST", "borough": "queens", "direction": "FT", "total_row_ft": 85.5, "roadbed_ft": 44.7, "median_ft": 9.4, "left_sw_ft": 15.5, "right_sw_ft": 15.9}, "geometry": {"type": "LineString", "coordinates": [[-73.96027280547428, 40.73880648024509], [-73.96040725494369, 40.73900583195859]]}}, {"type": "Feature", "properties": {"segment_id": 1732495, "physicalid": "185086", "street_name": "2 ST", "borough": "queens", "direction": "FT", "total_row_ft": 85.4, "roadbed_ft": 44.7, "median_ft": 9.4, "left_sw_ft": 15.5, "right_sw_ft": 15.8}, "geometry": {"type": "LineString", "coordinates": [[-73.96033744058143, 40.73878204762483], [-73.96047166647436, 40.7389810675488]]}}, {"type": "Feature", "properties": {"segment_id": 1732496, "physicalid": "185086", "street_name": "2 ST", "borough": "queens", "direction": "FT", "total_row_ft": 85.3, "roadbed_ft": 44.7, "median_ft": 9.4, "left_sw_ft": 15.5, "right_sw_ft": 15.7}, "geometry": {"type": "LineString", "coordinates": [[-73.96040207564121, 40.7387576149682], [-73.96053607795714, 40.7389563031029]]}}, {"type": "Feature", "properties": {"segment_id": 1732497, "physicalid": "185086", "street_name": "2 ST", "borough": "queens", "direction": "FT", "total_row_ft": 85.1, "roadbed_ft": 44.7, "median_ft": 9.4, "left_sw_ft": 15.5, "right_sw_ft": 15.6}, "geometry": {"type": "LineString", "coordinates": [[-73.96046671063954, 40.73873318225439], [-73.96060044771177, 40.73893147682098]]}}, {"type": "Feature", "properties": {"segment_id": 1732498, "physicalid": "185086", "street_name": "2 ST", "borough": "queens", "direction": "FT", "total_row_ft": 84.9, "roadbed_ft": 44.7, "median_ft": 9.4, "left_sw_ft": 15.5, "right_sw_ft": 15.4}, "geometry": {"type": "LineString", "coordinates": [[-73.96053134538687, 40.738708749202345], [-73.96066478335091, 40.738906599990656]]}}, {"type": "Feature", "properties": {"segment_id": 1732499, "physicalid": "185086", "street_name": "2 ST", "borough": "queens", "direction": "FT", "total_row_ft": 84.7, "roadbed_ft": 44.7, "median_ft": 9.4, "left_sw_ft": 15.4, "right_sw_ft": 15.2}, "geometry": {"type": "LineString", "coordinates": [[-73.96059598021208, 40.73868431629967], [-73.96072911894198, 40.73888172312429]]}}, {"type": "Feature", "properties": {"segment_id": 1732500, "physicalid": "185086", "street_name": "2 ST", "borough": "queens", "direction": "FT", "total_row_ft": 84.5, "roadbed_ft": 44.7, "median_ft": 9.3, "left_sw_ft": 15.4, "right_sw_ft": 15.0}, "geometry": {"type": "LineString", "coordinates": [[-73.96066061510044, 40.73865988352461], [-73.96079345448506, 40.738856846221886]]}}, {"type": "Feature", "properties": {"segment_id": 1732501, "physicalid": "185086", "street_name": "2 ST", "borough": "queens", "direction": "FT", "total_row_ft": 84.3, "roadbed_ft": 44.7, "median_ft": 9.3, "left_sw_ft": 15.4, "right_sw_ft": 14.8}, "geometry": {"type": "LineString", "coordinates": [[-73.96072524999671, 40.73863545079518], [-73.96085778998007, 40.73883196928348]]}}, {"type": "Feature", "properties": {"segment_id": 1732502, "physicalid": "185086", "street_name": "2 ST", "borough": "queens", "direction": "FT", "total_row_ft": 84.0, "roadbed_ft": 44.8, "median_ft": 9.2, "left_sw_ft": 15.4, "right_sw_ft": 14.7}, "geometry": {"type": "LineString", "coordinates": [[-73.96078988484557, 40.73861101802941], [-73.96092212542246, 40.73880709230223]]}}, {"type": "Feature", "properties": {"segment_id": 1732503, "physicalid": "185086", "street_name": "2 ST", "borough": "queens", "direction": "FT", "total_row_ft": 83.8, "roadbed_ft": 44.7, "median_ft": 9.1, "left_sw_ft": 15.4, "right_sw_ft": 14.6}, "geometry": {"type": "LineString", "coordinates": [[-73.96085451964704, 40.738586585227274], [-73.9609864608085, 40.738782215272686]]}}, {"type": "Feature", "properties": {"segment_id": 1732504, "physicalid": "185086", "street_name": "2 ST", "borough": "queens", "direction": "FT", "total_row_ft": 83.5, "roadbed_ft": 44.5, "median_ft": 9.0, "left_sw_ft": 15.5, "right_sw_ft": 14.6}, "geometry": {"type": "LineString", "coordinates": [[-73.96091896867408, 40.73856187700957], [-73.96105079614655, 40.73875733820711]]}}, {"type": "Feature", "properties": {"segment_id": 1732505, "physicalid": "185086", "street_name": "2 ST", "borough": "queens", "direction": "FT", "total_row_ft": 83.5, "roadbed_ft": 44.3, "median_ft": 8.8, "left_sw_ft": 15.8, "right_sw_ft": 14.6}, "geometry": {"type": "LineString", "coordinates": [[-73.96098311940347, 40.73853672653841], [-73.96111513143651, 40.73873246110551]]}}, {"type": "Feature", "properties": {"segment_id": 1732506, "physicalid": "185086", "street_name": "2 ST", "borough": "queens", "direction": "FT", "total_row_ft": 83.5, "roadbed_ft": 44.2, "median_ft": 8.7, "left_sw_ft": 16.1, "right_sw_ft": 14.6}, "geometry": {"type": "LineString", "coordinates": [[-73.96104726988128, 40.738511575730264], [-73.96117946667844, 40.73870758396789]]}}, {"type": "Feature", "properties": {"segment_id": 1732507, "physicalid": "185086", "street_name": "2 ST", "borough": "queens", "direction": "FT", "total_row_ft": 83.2, "roadbed_ft": 44.0, "median_ft": 8.6, "left_sw_ft": 16.0, "right_sw_ft": 14.6}, "geometry": {"type": "LineString", "coordinates": [[-73.96111192666572, 40.73848717566052], [-73.96124380187234, 40.73868270679422]]}}, {"type": "Feature", "properties": {"segment_id": 1732508, "physicalid": "185086", "street_name": "2 ST", "borough": "queens", "direction": "FT", "total_row_ft": 81.3, "roadbed_ft": 45.2, "median_ft": 5.3, "left_sw_ft": 12.9, "right_sw_ft": 18.0}, "geometry": {"type": "LineString", "coordinates": [[-73.96123602594133, 40.73844976812399], [-73.9612703181132, 40.73867968063195]]}}, {"type": "Feature", "properties": {"segment_id": 1732509, "physicalid": "185086", "street_name": "2 ST", "borough": "queens", "direction": "FT", "total_row_ft": 75.3, "roadbed_ft": 45.8, "median_ft": 5.3, "left_sw_ft": 4.8, "right_sw_ft": 19.5}, "geometry": {"type": "LineString", "coordinates": [[-73.9613983091158, 40.73849791781208], [-73.9612607559702, 40.73867615096381]]}}]}