{"type": "FeatureCollection", "features": [{"type": "Feature", "properties": {"segment_id": 332324, "physicalid": "24626", "street_name": "LAUREL HILL BLVD", "borough": "queens", "direction": "TW", "total_row_ft": 89.7, "roadbed_ft": 54.5, "median_ft": 0.0, "left_sw_ft": 20.3, "right_sw_ft": 15.0}, "geometry": {"type": "LineString", "coordinates": [[-73.93128764929062, 40.72910190336624], [-73.93098351007741, 40.728883057902415]]}}, {"type": "Feature", "properties": {"segment_id": 332325, "physicalid": "24626", "street_name": "LAUREL HILL BLVD", "borough": "queens", "direction": "TW", "total_row_ft": 114.4, "roadbed_ft": 84.4, "median_ft": 0.0, "left_sw_ft": 15.0, "right_sw_ft": 15.0}, "geometry": {"type": "LineString", "coordinates": [[-73.9312484694786, 40.72914927270397], [-73.9309339235662, 40.72892293894799]]}}, {"type": "Feature", "properties": {"segment_id": 332326, "physicalid": "24627", "street_name": "LAUREL HILL BLVD", "borough": "queens", "direction": "TW", "total_row_ft": 60.0, "roadbed_ft": 30.0, "median_ft": 0.0, "left_sw_ft": 15.0, "right_sw_ft": 15.0}, "geometry": {"type": "LineString", "coordinates": [[-73.93143118737994, 40.72899811314387], [-73.93110873024925, 40.72877831719226]]}}, {"type": "Feature", "properties": {"segment_id": 332327, "physicalid": "24627", "street_name": "LAUREL HILL BLVD", "borough": "queens", "direction": "TW", "total_row_ft": 63.1, "roadbed_ft": 33.1, "median_ft": 0.0, "left_sw_ft": 15.0, "right_sw_ft": 15.0}, "geometry": {"type": "LineString", "coordinates": [[-73.93138303328745, 40.729038997452946], [-73.93106057611773, 40.728819201367706]]}}, {"type": "Feature", "properties": {"segment_id": 332328, "physicalid": "24628", "street_name": "LAUREL HILL BLVD", "borough": "queens", "direction": "TW", "total_row_ft": 62.1, "roadbed_ft": 48.2, "median_ft": 0.0, "left_sw_ft": 6.9, "right_sw_ft": 6.9}, "geometry": {"type": "LineString", "coordinates": [[-73.93104693648158, 40.72918080750809], [-73.93091912252645, 40.72904093294173]]}}, {"type": "Feature", "properties": {"segment_id": 332329, "physicalid": "24628", "street_name": "LAUREL HILL BLVD", "borough": "queens", "direction": "TW", "total_row_ft": 59.6, "roadbed_ft": 46.6, "median_ft": 0.0, "left_sw_ft": 6.6, "right_sw_ft": 6.3}, "geometry": {"type": "LineString", "coordinates": [[-73.93099067236682, 40.72921540961809], [-73.9308679266539, 40.729081081436945]]}}, {"type": "Feature", "properties": {"segment_id": 332330, "physicalid": "24628", "street_name": "LAUREL HILL BLVD", "borough": "queens", "direction": "TW", "total_row_ft": 59.2, "roadbed_ft": 47.4, "median_ft": 0.0, "left_sw_ft": 5.7, "right_sw_ft": 6.1}, "geometry": {"type": "LineString", "coordinates": [[-73.93092582411698, 40.72925874153412], [-73.93082310654361, 40.72911622991463]]}}, {"type": "Feature", "properties": {"segment_id": 332331, "physicalid": "24628", "street_name": "LAUREL HILL BLVD", "borough": "queens", "direction": "TW", "total_row_ft": 57.6, "roadbed_ft": 47.4, "median_ft": 0.0, "left_sw_ft": 4.4, "right_sw_ft": 5.8}, "geometry": {"type": "LineString", "coordinates": [[-73.93086930273965, 40.72929450197215], [-73.93076940554676, 40.72915590325537]]}}, {"type": "Feature", "properties": {"segment_id": 332332, "physicalid": "24628", "street_name": "LAUREL HILL BLVD", "borough": "queens", "direction": "TW", "total_row_ft": 59.4, "roadbed_ft": 47.3, "median_ft": 0.0, "left_sw_ft": 5.0, "right_sw_ft": 7.0}, "geometry": {"type": "LineString", "coordinates": [[-73.9308123027983, 40.729329598501124], [-73.93070933813907, 40.72918674378497]]}}, {"type": "Feature", "properties": {"segment_id": 332333, "physicalid": "24628", "street_name": "LAUREL HILL BLVD", "borough": "queens", "direction": "TW", "total_row_ft": 61.6, "roadbed_ft": 46.5, "median_ft": 0.0, "left_sw_ft": 6.1, "right_sw_ft": 9.0}, "geometry": {"type": "LineString", "coordinates": [[-73.93073697502795, 40.729367801955476], [-73.93065166775953, 40.72921175695456]]}}, {"type": "Feature", "properties": {"segment_id": 332334, "physicalid": "24628", "street_name": "LAUREL HILL BLVD", "borough": "queens", "direction": "TW", "total_row_ft": 67.8, "roadbed_ft": 45.4, "median_ft": 0.0, "left_sw_ft": 7.4, "right_sw_ft": 15.0}, "geometry": {"type": "LineString", "coordinates": [[-73.93067310665121, 40.72939393050604], [-73.93052157944467, 40.72911675425024]]}}, {"type": "Feature", "properties": {"segment_id": 332335, "physicalid": "24628", "street_name": "LAUREL HILL BLVD", "borough": "queens", "direction": "TW", "total_row_ft": 94.5, "roadbed_ft": 64.5, "median_ft": 0.0, "left_sw_ft": 15.0, "right_sw_ft": 15.0}, "geometry": {"type": "LineString", "coordinates": [[-73.93059876475046, 40.729447169420254], [-73.93047671427878, 40.729131156273695]]}}, {"type": "Feature", "properties": {"segment_id": 332336, "physicalid": "24628", "street_name": "LAUREL HILL BLVD", "borough": "queens", "direction": "TW", "total_row_ft": 87.6, "roadbed_ft": 65.4, "median_ft": 0.0, "left_sw_ft": 15.0, "right_sw_ft": 7.2}, "geometry": {"type": "LineString", "coordinates": [[-73.9305295302996, 40.72946264408814], [-73.93045573518481, 40.72927157359926]]}}, {"type": "Feature", "properties": {"segment_id": 332337, "physicalid": "24628", "street_name": "LAUREL HILL BLVD", "borough": "queens", "direction": "TW", "total_row_ft": 62.9, "roadbed_ft": 47.9, "median_ft": 0.0, "left_sw_ft": 6.9, "right_sw_ft": 8.1}, "geometry": {"type": "LineString", "coordinates": [[-73.93044676489471, 40.72944308441073], [-73.93038281188007, 40.72927749655002]]}}, {"type": "Feature", "properties": {"segment_id": 332338, "physicalid": "24628", "street_name": "LAUREL HILL BLVD", "borough": "queens", "direction": "TW", "total_row_ft": 62.4, "roadbed_ft": 47.8, "median_ft": 0.0, "left_sw_ft": 5.1, "right_sw_ft": 9.5}, "geometry": {"type": "LineString", "coordinates": [[-73.93035563373347, 40.72944538508395], [-73.93031599124316, 40.729276880576386]]}}, {"type": "Feature", "properties": {"segment_id": 332339, "physicalid": "24628", "street_name": "LAUREL HILL BLVD", "borough": "queens", "direction": "TW", "total_row_ft": 61.6, "roadbed_ft": 48.6, "median_ft": 0.0, "left_sw_ft": 4.0, "right_sw_ft": 9.1}, "geometry": {"type": "LineString", "coordinates": [[-73.93028169566831, 40.729442704686036], [-73.93024252471272, 40.7292762036736]]}}, {"type": "Feature", "properties": {"segment_id": 332340, "physicalid": "24628", "street_name": "LAUREL HILL BLVD", "borough": "queens", "direction": "TW", "total_row_ft": 59.9, "roadbed_ft": 48.4, "median_ft": 0.0, "left_sw_ft": 4.4, "right_sw_ft": 7.1}, "geometry": {"type": "LineString", "coordinates": [[-73.93020775958851, 40.72944003265456], [-73.93016968355033, 40.729278184941705]]}}, {"type": "Feature", "properties": {"segment_id": 332341, "physicalid": "24628", "street_name": "LAUREL HILL BLVD", "borough": "queens", "direction": "TW", "total_row_ft": 58.3, "roadbed_ft": 46.9, "median_ft": 0.0, "left_sw_ft": 4.6, "right_sw_ft": 6.8}, "geometry": {"type": "LineString", "coordinates": [[-73.93012226412796, 40.72943550749367], [-73.93010782042184, 40.72927588874615]]}}, {"type": "Feature", "properties": {"segment_id": 332342, "physicalid": "24628", "street_name": "LAUREL HILL BLVD", "borough": "queens", "direction": "TW", "total_row_ft": 58.6, "roadbed_ft": 46.6, "median_ft": 0.0, "left_sw_ft": 4.6, "right_sw_ft": 7.4}, "geometry": {"type": "LineString", "coordinates": [[-73.93004956508163, 40.72943144754287], [-73.93003503723311, 40.72927089697273]]}}, {"type": "Feature", "properties": {"segment_id": 1101778, "physicalid": "76200", "street_name": "RAILROAD AVE", "borough": "queens", "direction": "TW", "total_row_ft": 30.0, "roadbed_ft": 0.0, "median_ft": 0.0, "left_sw_ft": 15.0, "right_sw_ft": 15.0}, "geometry": {"type": "LineString", "coordinates": [[-73.93548720699107, 40.730127758902015], [-73.93572095790091, 40.72985051360326]]}}, {"type": "Feature", "properties": {"segment_id": 1101779, "physicalid": "76200", "street_name": "RAILROAD AVE", "borough": "queens", "direction": "TW", "total_row_ft": 30.0, "roadbed_ft": 0.0, "median_ft": 0.0, "left_sw_ft": 15.0, "right_sw_ft": 15.0}, "geometry": {"type": "LineString", "coordinates": [[-73.9354336523414, 40.73010187222047], [-73.93565256495498, 40.72981770335806]]}}, {"type": "Feature", "properties": {"segment_id": 1101780, "physicalid": "76200", "street_name": "RAILROAD AVE", "borough": "queens", "direction": "TW", "total_row_ft": 30.0, "roadbed_ft": 0.0, "median_ft": 0.0, "left_sw_ft": 15.0, "right_sw_ft": 15.0}, "geometry": {"type": "LineString", "coordinates": [[-73.93537139402295, 40.730074116724246], [-73.93559030681085, 40.7297899479791]]}}, {"type": "Feature", "properties": {"segment_id": 1649286, "physicalid": "164099", "street_name": "RAILROAD AVE", "borough": "queens", "direction": "TW", "total_row_ft": 30.0, "roadbed_ft": 0.0, "median_ft": 0.0, "left_sw_ft": 15.0, "right_sw_ft": 15.0}, "geometry": {"type": "LineString", "coordinates": [[-73.93552881172944, 40.73004131402934], [-73.93521149317962, 40.72981722779422]]}}, {"type": "Feature", "properties": {"segment_id": 1649287, "physicalid": "164100", "street_name": "RAILROAD AVE", "borough": "queens", "direction": "TW", "total_row_ft": 30.0, "roadbed_ft": 0.0, "median_ft": 0.0, "left_sw_ft": 15.0, "right_sw_ft": 15.0}, "geometry": {"type": "LineString", "coordinates": [[-73.93518669013821, 40.7299262055556], [-73.93558457076679, 40.7297963183369]]}}, {"type": "Feature", "properties": {"segment_id": 1649288, "physicalid": "164100", "street_name": "RAILROAD AVE", "borough": "queens", "direction": "TW", "total_row_ft": 30.0, "roadbed_ft": 0.0, "median_ft": 0.0, "left_sw_ft": 15.0, "right_sw_ft": 15.0}, "geometry": {"type": "LineString", "coordinates": [[-73.93515823347093, 40.72987575906921], [-73.93555611385378, 40.72974587194793]]}}, {"type": "Feature", "properties": {"segment_id": 1649289, "physicalid": "164100", "street_name": "RAILROAD AVE", "borough": "queens", "direction": "TW", "total_row_ft": 30.0, "roadbed_ft": 0.0, "median_ft": 0.0, "left_sw_ft": 15.0, "right_sw_ft": 15.0}, "geometry": {"type": "LineString", "coordinates": [[-73.93512977684672, 40.72982531257542], [-73.93552765698384, 40.72969542555157]]}}, {"type": "Feature", "properties": {"segment_id": 1649290, "physicalid": "164100", "street_name": "RAILROAD AVE", "borough": "queens", "direction": "TW", "total_row_ft": 30.0, "roadbed_ft": 0.0, "median_ft": 0.0, "left_sw_ft": 15.0, "right_sw_ft": 15.0}, "geometry": {"type": "LineString", "coordinates": [[-73.93521655728784, 40.7298695535221], [-73.93536983898643, 40.72956151437464]]}}, {"type": "Feature", "properties": {"segment_id": 1649291, "physicalid": "164100", "street_name": "RAILROAD AVE", "borough": "queens", "direction": "TW", "total_row_ft": 30.0, "roadbed_ft": 0.0, "median_ft": 0.0, "left_sw_ft": 15.0, "right_sw_ft": 15.0}, "geometry": {"type": "LineString", "coordinates": [[-73.93514906945067, 40.72985011915615], [-73.93530235141651, 40.72954208009769]]}}, {"type": "Feature", "properties": {"segment_id": 1649292, "physicalid": "164100", "street_name": "RAILROAD AVE", "borough": "queens", "direction": "TW", "total_row_ft": 30.0, "roadbed_ft": 0.0, "median_ft": 0.0, "left_sw_ft": 15.0, "right_sw_ft": 15.0}, "geometry": {"type": "LineString", "coordinates": [[-73.93508158165284, 40.729830684750546], [-73.935234863886, 40.72952264578114]]}}, {"type": "Feature", "properties": {"segment_id": 1649293, "physicalid": "164100", "street_name": "RAILROAD AVE", "borough": "queens", "direction": "TW", "total_row_ft": 30.0, "roadbed_ft": 0.0, "median_ft": 0.0, "left_sw_ft": 15.0, "right_sw_ft": 15.0}, "geometry": {"type": "LineString", "coordinates": [[-73.93501409389438, 40.72981125030538], [-73.93516737639482, 40.729503211424976]]}}, {"type": "Feature", "properties": {"segment_id": 1649294, "physicalid": "164100", "street_name": "RAILROAD AVE", "borough": "queens", "direction": "TW", "total_row_ft": 30.0, "roadbed_ft": 0.0, "median_ft": 0.0, "left_sw_ft": 15.0, "right_sw_ft": 15.0}, "geometry": {"type": "LineString", "coordinates": [[-73.93495045287324, 40.72979326044752], [-73.93509572765718, 40.72948298395494]]}}, {"type": "Feature", "properties": {"segment_id": 1649295, "physicalid": "164100", "street_name": "RAILROAD AVE", "borough": "queens", "direction": "TW", "total_row_ft": 30.0, "roadbed_ft": 0.0, "median_ft": 0.0, "left_sw_ft": 15.0, "right_sw_ft": 15.0}, "geometry": {"type": "LineString", "coordinates": [[-73.93488247493454, 40.72977484124351], [-73.93502774999486, 40.72946456483592]]}}, {"type": "Feature", "properties": {"segment_id": 1649296, "physicalid": "164100", "street_name": "RAILROAD AVE", "borough": "queens", "direction": "TW", "total_row_ft": 30.0, "roadbed_ft": 0.0, "median_ft": 0.0, "left_sw_ft": 15.0, "right_sw_ft": 15.0}, "geometry": {"type": "LineString", "coordinates": [[-73.9348144970334, 40.729756421999326], [-73.9349597723701, 40.72944614567673]]}}, {"type": "Feature", "properties": {"segment_id": 1649297, "physicalid": "164100", "street_name": "RAILROAD AVE", "borough": "queens", "direction": "TW", "total_row_ft": 30.0, "roadbed_ft": 0.0, "median_ft": 0.0, "left_sw_ft": 15.0, "right_sw_ft": 15.0}, "geometry": {"type": "LineString", "coordinates": [[-73.93474651916986, 40.729738002714974], [-73.93489179478293, 40.729427726477354]]}}, {"type": "Feature", "properties": {"segment_id": 1649298, "physicalid": "164100", "street_name": "RAILROAD AVE", "borough": "queens", "direction": "TW", "total_row_ft": 30.0, "roadbed_ft": 0.0, "median_ft": 0.0, "left_sw_ft": 15.0, "right_sw_ft": 15.0}, "geometry": {"type": "LineString", "coordinates": [[-73.9346823597955, 40.72972111315658], [-73.93481957131718, 40.72940871974689]]}}, {"type": "Feature", "properties": {"segment_id": 1649299, "physicalid": "164100", "street_name": "RAILROAD AVE", "borough": "queens", "direction": "TW", "total_row_ft": 30.0, "roadbed_ft": 0.0, "median_ft": 0.0, "left_sw_ft": 15.0, "right_sw_ft": 15.0}, "geometry": {"type": "LineString", "coordinates": [[-73.93461391813652, 40.729703716262335], [-73.93475112994322, 40.729391322933466]]}}, {"type": "Feature", "properties": {"segment_id": 1649300, "physicalid": "164100", "street_name": "RAILROAD AVE", "borough": "queens", "direction": "TW", "total_row_ft": 30.0, "roadbed_ft": 0.0, "median_ft": 0.0, "left_sw_ft": 15.0, "right_sw_ft": 15.0}, "geometry": {"type": "LineString", "coordinates": [[-73.93454547651328, 40.72968631932738], [-73.93468268860504, 40.729373926079305]]}}, {"type": "Feature", "properties": {"segment_id": 1649301, "physicalid": "164100", "street_name": "RAILROAD AVE", "borough": "queens", "direction": "TW", "total_row_ft": 30.0, "roadbed_ft": 0.0, "median_ft": 0.0, "left_sw_ft": 15.0, "right_sw_ft": 15.0}, "geometry": {"type": "LineString", "coordinates": [[-73.93447703492579, 40.7296689223517], [-73.93461424730256, 40.72935652918444]]}}, {"type": "Feature", "properties": {"segment_id": 1649302, "physicalid": "164100", "street_name": "RAILROAD AVE", "borough": "queens", "direction": "TW", "total_row_ft": 30.0, "roadbed_ft": 0.0, "median_ft": 0.0, "left_sw_ft": 15.0, "right_sw_ft": 15.0}, "geometry": {"type": "LineString", "coordinates": [[-73.93441238950724, 40.72965314159237], [-73.93454148454687, 40.72933875251459]]}}, {"type": "Feature", "properties": {"segment_id": 1649303, "physicalid": "164100", "street_name": "RAILROAD AVE", "borough": "queens", "direction": "TW", "total_row_ft": 30.0, "roadbed_ft": 0.0, "median_ft": 0.0, "left_sw_ft": 15.0, "right_sw_ft": 15.0}, "geometry": {"type": "LineString", "coordinates": [[-73.93434351068895, 40.72963677375896], [-73.93447260602181, 40.72932238475769]]}}, {"type": "Feature", "properties": {"segment_id": 1649304, "physicalid": "164100", "street_name": "RAILROAD AVE", "borough": "queens", "direction": "TW", "total_row_ft": 30.0, "roadbed_ft": 0.0, "median_ft": 0.0, "left_sw_ft": 15.0, "right_sw_ft": 15.0}, "geometry": {"type": "LineString", "coordinates": [[-73.93427463190449, 40.7296204058843], [-73.9344037275306, 40.72930601695954]]}}, {"type": "Feature", "properties": {"segment_id": 1649305, "physicalid": "164100", "street_name": "RAILROAD AVE", "borough": "queens", "direction": "TW", "total_row_ft": 30.0, "roadbed_ft": 0.0, "median_ft": 0.0, "left_sw_ft": 15.0, "right_sw_ft": 15.0}, "geometry": {"type": "LineString", "coordinates": [[-73.93420575315385, 40.72960403796841], [-73.93433484907321, 40.72928964912015]]}}, {"type": "Feature", "properties": {"segment_id": 1649306, "physicalid": "164100", "street_name": "RAILROAD AVE", "borough": "queens", "direction": "TW", "total_row_ft": 30.0, "roadbed_ft": 0.0, "median_ft": 0.0, "left_sw_ft": 15.0, "right_sw_ft": 15.0}, "geometry": {"type": "LineString", "coordinates": [[-73.93414065411592, 40.72958937391246], [-73.93426158286402, 40.729273111247586]]}}, {"type": "Feature", "properties": {"segment_id": 1649307, "physicalid": "164100", "street_name": "RAILROAD AVE", "borough": "queens", "direction": "TW", "total_row_ft": 30.0, "roadbed_ft": 0.0, "median_ft": 0.0, "left_sw_ft": 15.0, "right_sw_ft": 15.0}, "geometry": {"type": "LineString", "coordinates": [[-73.9340713648813, 40.72957404145834], [-73.93419229393044, 40.72925777886558]]}}, {"type": "Feature", "properties": {"segment_id": 1649308, "physicalid": "164100", "street_name": "RAILROAD AVE", "borough": "queens", "direction": "TW", "total_row_ft": 30.0, "roadbed_ft": 0.0, "median_ft": 0.0, "left_sw_ft": 15.0, "right_sw_ft": 15.0}, "geometry": {"type": "LineString", "coordinates": [[-73.93400207567859, 40.72955870896249], [-73.93412300502872, 40.72924244644184]]}}, {"type": "Feature", "properties": {"segment_id": 1649309, "physicalid": "164100", "street_name": "RAILROAD AVE", "borough": "queens", "direction": "TW", "total_row_ft": 30.0, "roadbed_ft": 0.0, "median_ft": 0.0, "left_sw_ft": 15.0, "right_sw_ft": 15.0}, "geometry": {"type": "LineString", "coordinates": [[-73.93393278650775, 40.72954337642493], [-73.93405371615891, 40.72922711397634]]}}, {"type": "Feature", "properties": {"segment_id": 1649310, "physicalid": "164100", "street_name": "RAILROAD AVE", "borough": "queens", "direction": "TW", "total_row_ft": 30.0, "roadbed_ft": 0.0, "median_ft": 0.0, "left_sw_ft": 15.0, "right_sw_ft": 15.0}, "geometry": {"type": "LineString", "coordinates": [[-73.93386726687173, 40.729529836560964], [-73.93397998216594, 40.72921182299727]]}}, {"type": "Feature", "properties": {"segment_id": 1649311, "physicalid": "164100", "street_name": "RAILROAD AVE", "borough": "queens", "direction": "TW", "total_row_ft": 30.0, "roadbed_ft": 0.0, "median_ft": 0.0, "left_sw_ft": 15.0, "right_sw_ft": 15.0}, "geometry": {"type": "LineString", "coordinates": [[-73.9337975940967, 40.729515545468836], [-73.93391030969923, 40.72919753197272]]}}, {"type": "Feature", "properties": {"segment_id": 1649312, "physicalid": "164100", "street_name": "RAILROAD AVE", "borough": "queens", "direction": "TW", "total_row_ft": 30.0, "roadbed_ft": 0.0, "median_ft": 0.0, "left_sw_ft": 15.0, "right_sw_ft": 15.0}, "geometry": {"type": "LineString", "coordinates": [[-73.93372792135156, 40.729501254334544], [-73.93384063726239, 40.729183240905996]]}}, {"type": "Feature", "properties": {"segment_id": 1649313, "physicalid": "164100", "street_name": "RAILROAD AVE", "borough": "queens", "direction": "TW", "total_row_ft": 30.0, "roadbed_ft": 0.0, "median_ft": 0.0, "left_sw_ft": 15.0, "right_sw_ft": 15.0}, "geometry": {"type": "LineString", "coordinates": [[-73.93366237054894, 40.7294877984689], [-73.93376682835634, 40.72916815737224]]}}, {"type": "Feature", "properties": {"segment_id": 1649314, "physicalid": "164100", "street_name": "RAILROAD AVE", "borough": "queens", "direction": "TW", "total_row_ft": 30.0, "roadbed_ft": 0.0, "median_ft": 0.0, "left_sw_ft": 15.0, "right_sw_ft": 15.0}, "geometry": {"type": "LineString", "coordinates": [[-73.93359234124361, 40.72947455432715], [-73.93369679936616, 40.72915491329343]]}}, {"type": "Feature", "properties": {"segment_id": 1649315, "physicalid": "164100", "street_name": "RAILROAD AVE", "borough": "queens", "direction": "TW", "total_row_ft": 30.0, "roadbed_ft": 0.0, "median_ft": 0.0, "left_sw_ft": 15.0, "right_sw_ft": 15.0}, "geometry": {"type": "LineString", "coordinates": [[-73.93352231196612, 40.72946131014279], [-73.9336267704038, 40.72914166917202]]}}, {"type": "Feature", "properties": {"segment_id": 1649316, "physicalid": "164100", "street_name": "RAILROAD AVE", "borough": "queens", "direction": "TW", "total_row_ft": 30.0, "roadbed_ft": 0.0, "median_ft": 0.0, "left_sw_ft": 15.0, "right_sw_ft": 15.0}, "geometry": {"type": "LineString", "coordinates": [[-73.93345228271647, 40.72944806591582], [-73.9335567414693, 40.729128425008]]}}, {"type": "Feature", "properties": {"segment_id": 1649317, "physicalid": "164100", "street_name": "RAILROAD AVE", "borough": "queens", "direction": "TW", "total_row_ft": 30.0, "roadbed_ft": 0.0, "median_ft": 0.0, "left_sw_ft": 15.0, "right_sw_ft": 15.0}, "geometry": {"type": "LineString", "coordinates": [[-73.93338635013966, 40.729435742253386], [-73.93348251025402, 40.729114597751455]]}}, {"type": "Feature", "properties": {"segment_id": 1649318, "physicalid": "164100", "street_name": "RAILROAD AVE", "borough": "queens", "direction": "TW", "total_row_ft": 30.0, "roadbed_ft": 0.0, "median_ft": 0.0, "left_sw_ft": 15.0, "right_sw_ft": 15.0}, "geometry": {"type": "LineString", "coordinates": [[-73.93331599151006, 40.72942355015932], [-73.9334121519459, 40.7291024057156]]}}, {"type": "Feature", "properties": {"segment_id": 1649319, "physicalid": "164100", "street_name": "RAILROAD AVE", "borough": "queens", "direction": "TW", "total_row_ft": 30.0, "roadbed_ft": 0.0, "median_ft": 0.0, "left_sw_ft": 15.0, "right_sw_ft": 15.0}, "geometry": {"type": "LineString", "coordinates": [[-73.9332456329062, 40.729411358022205], [-73.93334179366353, 40.729090213636724]]}}, {"type": "Feature", "properties": {"segment_id": 1649352, "physicalid": "164103", "street_name": "REVIEW AVE", "borough": "queens", "direction": "TW", "total_row_ft": 68.1, "roadbed_ft": 51.7, "median_ft": 0.0, "left_sw_ft": 9.0, "right_sw_ft": 7.4}, "geometry": {"type": "LineString", "coordinates": [[-73.93267953091978, 40.73005187738885], [-73.93284302077306, 40.72991227355167]]}}, {"type": "Feature", "properties": {"segment_id": 1649353, "physicalid": "164103", "street_name": "REVIEW AVE", "borough": "queens", "direction": "TW", "total_row_ft": 67.8, "roadbed_ft": 51.5, "median_ft": 0.0, "left_sw_ft": 9.0, "right_sw_ft": 7.3}, "geometry": {"type": "LineString", "coordinates": [[-73.9326258522747, 40.730015188783824], [-73.93278863866817, 40.72987618572632]]}}, {"type": "Feature", "properties": {"segment_id": 1649354, "physicalid": "164103", "street_name": "REVIEW AVE", "borough": "queens", "direction": "TW", "total_row_ft": 67.6, "roadbed_ft": 51.3, "median_ft": 0.0, "left_sw_ft": 9.0, "right_sw_ft": 7.3}, "geometry": {"type": "LineString", "coordinates": [[-73.9325719841271, 40.729978370483266], [-73.93273466808313, 40.72984004191985]]}}, {"type": "Feature", "properties": {"segment_id": 1649355, "physicalid": "164103", "street_name": "REVIEW AVE", "borough": "queens", "direction": "TW", "total_row_ft": 67.8, "roadbed_ft": 51.1, "median_ft": 0.0, "left_sw_ft": 8.9, "right_sw_ft": 7.7}, "geometry": {"type": "LineString", "coordinates": [[-73.93251830608773, 40.72994168196029], [-73.93268132116972, 40.72980307193678]]}}, {"type": "Feature", "properties": {"segment_id": 1649356, "physicalid": "164103", "street_name": "REVIEW AVE", "borough": "queens", "direction": "TW", "total_row_ft": 67.9, "roadbed_ft": 50.9, "median_ft": 0.0, "left_sw_ft": 8.9, "right_sw_ft": 8.1}, "geometry": {"type": "LineString", "coordinates": [[-73.93246462810745, 40.729904993412106], [-73.93262797431555, 40.729766101928824]]}}, {"type": "Feature", "properties": {"segment_id": 1649357, "physicalid": "164103", "street_name": "REVIEW AVE", "borough": "queens", "direction": "TW", "total_row_ft": 68.0, "roadbed_ft": 50.8, "median_ft": 0.0, "left_sw_ft": 8.9, "right_sw_ft": 8.4}, "geometry": {"type": "LineString", "coordinates": [[-73.93241095023369, 40.72986830479841], [-73.93257462752055, 40.72972913189598]]}}, {"type": "Feature", "properties": {"segment_id": 1649358, "physicalid": "164103", "street_name": "REVIEW AVE", "borough": "queens", "direction": "TW", "total_row_ft": 68.1, "roadbed_ft": 50.8, "median_ft": 0.0, "left_sw_ft": 8.8, "right_sw_ft": 8.6}, "geometry": {"type": "LineString", "coordinates": [[-73.93235735203314, 40.729831548464794], [-73.93252128078477, 40.7296921618382]]}}, {"type": "Feature", "properties": {"segment_id": 1649359, "physicalid": "164103", "street_name": "REVIEW AVE", "borough": "queens", "direction": "TW", "total_row_ft": 68.2, "roadbed_ft": 50.8, "median_ft": 0.0, "left_sw_ft": 8.5, "right_sw_ft": 8.8}, "geometry": {"type": "LineString", "coordinates": [[-73.93230396424873, 40.729794613242674], [-73.93246793408152, 40.72965519177818]]}}, {"type": "Feature", "properties": {"segment_id": 1649360, "physicalid": "164103", "street_name": "REVIEW AVE", "borough": "queens", "direction": "TW", "total_row_ft": 68.2, "roadbed_ft": 51.0, "median_ft": 0.0, "left_sw_ft": 8.2, "right_sw_ft": 9.0}, "geometry": {"type": "LineString", "coordinates": [[-73.93225057652351, 40.72975767799564], [-73.93241458729473, 40.72961822181462]]}}, {"type": "Feature", "properties": {"segment_id": 1649361, "physicalid": "164103", "street_name": "REVIEW AVE", "borough": "queens", "direction": "TW", "total_row_ft": 68.1, "roadbed_ft": 51.2, "median_ft": 0.0, "left_sw_ft": 7.8, "right_sw_ft": 9.1}, "geometry": {"type": "LineString", "coordinates": [[-73.93219718872557, 40.729720742835774], [-73.93236104673488, 40.72958141663955]]}}, {"type": "Feature", "properties": {"segment_id": 1649362, "physicalid": "164103", "street_name": "REVIEW AVE", "borough": "queens", "direction": "TW", "total_row_ft": 68.0, "roadbed_ft": 51.4, "median_ft": 0.0, "left_sw_ft": 7.4, "right_sw_ft": 9.1}, "geometry": {"type": "LineString", "coordinates": [[-73.93214380086434, 40.72968380775514], [-73.93230733739904, 40.729544754997875]]}}, {"type": "Feature", "properties": {"segment_id": 1649363, "physicalid": "164103", "street_name": "REVIEW AVE", "borough": "queens", "direction": "TW", "total_row_ft": 67.8, "roadbed_ft": 51.6, "median_ft": 0.0, "left_sw_ft": 7.1, "right_sw_ft": 9.2}, "geometry": {"type": "LineString", "coordinates": [[-73.93209041306227, 40.729646872649525], [-73.9322536281223, 40.729508093330956]]}}, {"type": "Feature", "properties": {"segment_id": 1649364, "physicalid": "164103", "street_name": "REVIEW AVE", "borough": "queens", "direction": "TW", "total_row_ft": 67.8, "roadbed_ft": 51.8, "median_ft": 0.0, "left_sw_ft": 6.8, "right_sw_ft": 9.2}, "geometry": {"type": "LineString", "coordinates": [[-73.93203685704962, 40.72961008059577], [-73.93219991890791, 40.729471431636064]]}}, {"type": "Feature", "properties": {"segment_id": 1649365, "physicalid": "164103", "street_name": "REVIEW AVE", "borough": "queens", "direction": "TW", "total_row_ft": 67.8, "roadbed_ft": 52.0, "median_ft": 0.0, "left_sw_ft": 6.5, "right_sw_ft": 9.3}, "geometry": {"type": "LineString", "coordinates": [[-73.93198320168652, 40.729573373043046], [-73.93214620975543, 40.729434769913496]]}}, {"type": "Feature", "properties": {"segment_id": 1649366, "physicalid": "164103", "street_name": "REVIEW AVE", "borough": "queens", "direction": "TW", "total_row_ft": 67.7, "roadbed_ft": 52.2, "median_ft": 0.0, "left_sw_ft": 6.3, "right_sw_ft": 9.3}, "geometry": {"type": "LineString", "coordinates": [[-73.93192954645458, 40.72953666540385], [-73.93209250066208, 40.7293981081657]]}}, {"type": "Feature", "properties": {"segment_id": 1649367, "physicalid": "164103", "street_name": "REVIEW AVE", "borough": "queens", "direction": "TW", "total_row_ft": 67.7, "roadbed_ft": 52.3, "median_ft": 0.0, "left_sw_ft": 6.0, "right_sw_ft": 9.3}, "geometry": {"type": "LineString", "coordinates": [[-73.93187589146257, 40.729499957585716], [-73.93203879162782, 40.72936144639267]]}}, {"type": "Feature", "properties": {"segment_id": 1649368, "physicalid": "164103", "street_name": "REVIEW AVE", "borough": "queens", "direction": "TW", "total_row_ft": 68.0, "roadbed_ft": 52.5, "median_ft": 0.0, "left_sw_ft": 5.8, "right_sw_ft": 9.7}, "geometry": {"type": "LineString", "coordinates": [[-73.93182223652968, 40.72946324974241], [-73.9319859307392, 40.72932406347947]]}}, {"type": "Feature", "properties": {"segment_id": 1649369, "physicalid": "164103", "street_name": "REVIEW AVE", "borough": "queens", "direction": "TW", "total_row_ft": 69.4, "roadbed_ft": 52.7, "median_ft": 0.0, "left_sw_ft": 5.6, "right_sw_ft": 11.1}, "geometry": {"type": "LineString", "coordinates": [[-73.93176847948223, 40.72942662875004], [-73.93193541968327, 40.7292846825668]]}}, {"type": "Feature", "properties": {"segment_id": 1649370, "physicalid": "164103", "street_name": "REVIEW AVE", "borough": "queens", "direction": "TW", "total_row_ft": 69.1, "roadbed_ft": 52.9, "median_ft": 0.0, "left_sw_ft": 5.5, "right_sw_ft": 10.7}, "geometry": {"type": "LineString", "coordinates": [[-73.9317143247505, 40.72939034592503], [-73.93188064860246, 40.72924892391186]]}}, {"type": "Feature", "properties": {"segment_id": 1649371, "physicalid": "164103", "street_name": "REVIEW AVE", "borough": "queens", "direction": "TW", "total_row_ft": 68.9, "roadbed_ft": 53.1, "median_ft": 0.0, "left_sw_ft": 5.5, "right_sw_ft": 10.3}, "geometry": {"type": "LineString", "coordinates": [[-73.9316601700777, 40.729354063074354], [-73.93182587758044, 40.729213165230696]]}}, {"type": "Feature", "properties": {"segment_id": 1649372, "physicalid": "164103", "street_name": "REVIEW AVE", "borough": "queens", "direction": "TW", "total_row_ft": 66.3, "roadbed_ft": 53.0, "median_ft": 0.0, "left_sw_ft": 6.1, "right_sw_ft": 7.2}, "geometry": {"type": "LineString", "coordinates": [[-73.93160441555541, 40.729319140563895], [-73.93176394308031, 40.729183497551354]]}}, {"type": "Feature", "properties": {"segment_id": 1649373, "physicalid": "164103", "street_name": "REVIEW AVE", "borough": "queens", "direction": "TW", "total_row_ft": 62.8, "roadbed_ft": 46.6, "median_ft": 0.0, "left_sw_ft": 7.1, "right_sw_ft": 9.2}, "geometry": {"type": "LineString", "coordinates": [[-73.93159192834415, 40.72931195164642], [-73.93165502252506, 40.729146271524776]]}}, {"type": "Feature", "properties": {"segment_id": 1649374, "physicalid": "164103", "street_name": "REVIEW AVE", "borough": "queens", "direction": "TW", "total_row_ft": 55.4, "roadbed_ft": 38.9, "median_ft": 0.0, "left_sw_ft": 6.4, "right_sw_ft": 10.1}, "geometry": {"type": "LineString", "coordinates": [[-73.93153030983274, 40.72927647724656], [-73.93158592291758, 40.7291304422179]]}}, {"type": "Feature", "properties": {"segment_id": 1649375, "physicalid": "164103", "street_name": "REVIEW AVE", "borough": "queens", "direction": "TW", "total_row_ft": 53.3, "roadbed_ft": 37.6, "median_ft": 0.0, "left_sw_ft": 4.6, "right_sw_ft": 11.0}, "geometry": {"type": "LineString", "coordinates": [[-73.93146329210603, 40.72925518078097], [-73.9315168233787, 40.72911461277559]]}}, {"type": "Feature", "properties": {"segment_id": 1649376, "physicalid": "164103", "street_name": "REVIEW AVE", "borough": "queens", "direction": "TW", "total_row_ft": 53.4, "roadbed_ft": 36.7, "median_ft": 0.0, "left_sw_ft": 5.1, "right_sw_ft": 11.6}, "geometry": {"type": "LineString", "coordinates": [[-73.93139379398617, 40.72924039763255], [-73.93144738007953, 40.729099686059136]]}}, {"type": "Feature", "properties": {"segment_id": 1649377, "physicalid": "164103", "street_name": "REVIEW AVE", "borough": "queens", "direction": "TW", "total_row_ft": 52.3, "roadbed_ft": 36.0, "median_ft": 0.0, "left_sw_ft": 5.2, "right_sw_ft": 11.0}, "geometry": {"type": "LineString", "coordinates": [[-73.93132429588219, 40.72922561448141], [-73.9313767984697, 40.729087748467535]]}}, {"type": "Feature", "properties": {"segment_id": 1649378, "physicalid": "164103", "street_name": "REVIEW AVE", "borough": "queens", "direction": "TW", "total_row_ft": 51.4, "roadbed_ft": 36.0, "median_ft": 0.0, "left_sw_ft": 4.9, "right_sw_ft": 10.5}, "geometry": {"type": "LineString", "coordinates": [[-73.93125460766298, 40.72921133058851], [-73.93130621688518, 40.729075810832654]]}}, {"type": "Feature", "properties": {"segment_id": 1649379, "physicalid": "164103", "street_name": "REVIEW AVE", "borough": "queens", "direction": "TW", "total_row_ft": 50.5, "roadbed_ft": 36.0, "median_ft": 0.0, "left_sw_ft": 4.6, "right_sw_ft": 9.9}, "geometry": {"type": "LineString", "coordinates": [[-73.93118491036026, 40.729197070583936], [-73.93123563532593, 40.72906387315449]]}}, {"type": "Feature", "properties": {"segment_id": 1649380, "physicalid": "164103", "street_name": "REVIEW AVE", "borough": "queens", "direction": "TW", "total_row_ft": 101.6, "roadbed_ft": 82.3, "median_ft": 0.0, "left_sw_ft": 4.3, "right_sw_ft": 15.0}, "geometry": {"type": "LineString", "coordinates": [[-73.93111521308737, 40.72918281053715], [-73.931202191443, 40.728954416519144]]}}]}