{"type": "FeatureCollection", "features": [{"type": "Feature", "properties": {"segment_id": 1084176, "physicalid": "75000", "street_name": "PULASKI BRG", "borough": "queens", "direction": "TF", "total_row_ft": 93.4, "roadbed_ft": 69.3, "median_ft": 2.5, "left_sw_ft": 6.5, "right_sw_ft": 15.0}, "geometry": {"type": "LineString", "coordinates": [[-73.95223728856381, 40.7394631193479], [-73.95265672818597, 40.73954499113639]]}}, {"type": "Feature", "properties": {"segment_id": 1084177, "physicalid": "75000", "street_name": "PULASKI BRG", "borough": "queens", "direction": "TF", "total_row_ft": 93.4, "roadbed_ft": 69.3, "median_ft": 2.6, "left_sw_ft": 6.5, "right_sw_ft": 15.0}, "geometry": {"type": "LineString", "coordinates": [[-73.95225522850312, 40.739409947292536], [-73.95267466781256, 40.73949181901636]]}}, {"type": "Feature", "properties": {"segment_id": 1084178, "physicalid": "75000", "street_name": "PULASKI BRG", "borough": "queens", "direction": "TF", "total_row_ft": 93.4, "roadbed_ft": 69.2, "median_ft": 2.8, "left_sw_ft": 6.5, "right_sw_ft": 15.0}, "geometry": {"type": "LineString", "coordinates": [[-73.95227316841377, 40.739356775234015], [-73.95269260741055, 40.739438646893056]]}}, {"type": "Feature", "properties": {"segment_id": 1084179, "physicalid": "75000", "street_name": "PULASKI BRG", "borough": "queens", "direction": "TF", "total_row_ft": 93.5, "roadbed_ft": 69.0, "median_ft": 3.0, "left_sw_ft": 6.5, "right_sw_ft": 15.0}, "geometry": {"type": "LineString", "coordinates": [[-73.9522911082958, 40.73930360317228], [-73.9527105469799, 40.73938547476659]]}}, {"type": "Feature", "properties": {"segment_id": 1084180, "physicalid": "75000", "street_name": "PULASKI BRG", "borough": "queens", "direction": "TF", "total_row_ft": 93.5, "roadbed_ft": 69.0, "median_ft": 3.0, "left_sw_ft": 6.5, "right_sw_ft": 15.0}, "geometry": {"type": "LineString", "coordinates": [[-73.95230904814919, 40.73925043110735], [-73.9527284865206, 40.73933230263696]]}}, {"type": "Feature", "properties": {"segment_id": 1114584, "physicalid": "77282", "street_name": "PULASKI BRG", "borough": "queens", "direction": "FT", "total_row_ft": 96.9, "roadbed_ft": 69.3, "median_ft": 2.5, "left_sw_ft": 15.0, "right_sw_ft": 10.0}, "geometry": {"type": "LineString", "coordinates": [[-73.95236964516029, 40.73949577540135], [-73.95266702088198, 40.73955251191086]]}}, {"type": "Feature", "properties": {"segment_id": 1114585, "physicalid": "77282", "street_name": "PULASKI BRG", "borough": "queens", "direction": "FT", "total_row_ft": 120.8, "roadbed_ft": 69.3, "median_ft": 2.6, "left_sw_ft": 15.0, "right_sw_ft": 34.0}, "geometry": {"type": "LineString", "coordinates": [[-73.95238720464293, 40.73944252991941], [-73.95276898657178, 40.73951537018397]]}}, {"type": "Feature", "properties": {"segment_id": 1114586, "physicalid": "77282", "street_name": "PULASKI BRG", "borough": "queens", "direction": "FT", "total_row_ft": 96.8, "roadbed_ft": 69.2, "median_ft": 2.8, "left_sw_ft": 15.0, "right_sw_ft": 9.9}, "geometry": {"type": "LineString", "coordinates": [[-73.95240476409752, 40.73938928443438], [-73.95270293668413, 40.739446172972244]]}}, {"type": "Feature", "properties": {"segment_id": 1114587, "physicalid": "77282", "street_name": "PULASKI BRG", "borough": "queens", "direction": "FT", "total_row_ft": 97.0, "roadbed_ft": 69.0, "median_ft": 3.0, "left_sw_ft": 15.0, "right_sw_ft": 9.9}, "geometry": {"type": "LineString", "coordinates": [[-73.95242232352405, 40.73933603894628], [-73.95272087054997, 40.73939299892067]]}}, {"type": "Feature", "properties": {"segment_id": 1114588, "physicalid": "77282", "street_name": "PULASKI BRG", "borough": "queens", "direction": "FT", "total_row_ft": 96.9, "roadbed_ft": 69.0, "median_ft": 3.0, "left_sw_ft": 15.0, "right_sw_ft": 9.9}, "geometry": {"type": "LineString", "coordinates": [[-73.9524398829225, 40.739282793455125], [-73.95273880438717, 40.73933982486593]]}}, {"type": "Feature", "properties": {"segment_id": 1136015, "physicalid": "78938", "street_name": "53 AVE", "borough": "queens", "direction": "TW", "total_row_ft": 46.3, "roadbed_ft": 16.3, "median_ft": 0.0, "left_sw_ft": 15.0, "right_sw_ft": 15.0}, "geometry": {"type": "LineString", "coordinates": [[-73.95088261839697, 40.740120166242384], [-73.95113256346592, 40.73985120046952]]}}, {"type": "Feature", "properties": {"segment_id": 1136016, "physicalid": "78938", "street_name": "53 AVE", "borough": "queens", "direction": "TW", "total_row_ft": 46.4, "roadbed_ft": 16.4, "median_ft": 0.0, "left_sw_ft": 15.0, "right_sw_ft": 15.0}, "geometry": {"type": "LineString", "coordinates": [[-73.95082368198787, 40.74008848102243], [-73.95107362717582, 40.73981951537624]]}}, {"type": "Feature", "properties": {"segment_id": 1136017, "physicalid": "78938", "street_name": "53 AVE", "borough": "queens", "direction": "TW", "total_row_ft": 46.1, "roadbed_ft": 16.1, "median_ft": 0.0, "left_sw_ft": 15.0, "right_sw_ft": 15.0}, "geometry": {"type": "LineString", "coordinates": [[-73.95076474563477, 40.74005679577214], [-73.95101469094182, 40.73978783025269]]}}, {"type": "Feature", "properties": {"segment_id": 1136018, "physicalid": "78938", "street_name": "53 AVE", "borough": "queens", "direction": "TW", "total_row_ft": 45.4, "roadbed_ft": 15.4, "median_ft": 0.0, "left_sw_ft": 15.0, "right_sw_ft": 15.0}, "geometry": {"type": "LineString", "coordinates": [[-73.95070580933775, 40.74002511049157], [-73.95095575476385, 40.739756145098845]]}}, {"type": "Feature", "properties": {"segment_id": 1136019, "physicalid": "78938", "street_name": "53 AVE", "borough": "queens", "direction": "TW", "total_row_ft": 44.6, "roadbed_ft": 14.6, "median_ft": 0.0, "left_sw_ft": 15.0, "right_sw_ft": 15.0}, "geometry": {"type": "LineString", "coordinates": [[-73.9506468730968, 40.739993425180714], [-73.95089681864195, 40.73972445991467]]}}, {"type": "Feature", "properties": {"segment_id": 1136020, "physicalid": "78938", "street_name": "53 AVE", "borough": "queens", "direction": "TW", "total_row_ft": 43.9, "roadbed_ft": 13.9, "median_ft": 0.0, "left_sw_ft": 15.0, "right_sw_ft": 15.0}, "geometry": {"type": "LineString", "coordinates": [[-73.95058793691189, 40.739961739839536], [-73.95083788257611, 40.73969277470022]]}}, {"type": "Feature", "properties": {"segment_id": 1430563, "physicalid": "97036", "street_name": "VERNON BLVD", "borough": "queens", "direction": "TW", "total_row_ft": 26.5, "roadbed_ft": 11.1, "median_ft": 0.0, "left_sw_ft": 6.8, "right_sw_ft": 8.6}, "geometry": {"type": "LineString", "coordinates": [[-73.95474269011697, 40.739930233811776], [-73.95512209474282, 40.74001272666525]]}}, {"type": "Feature", "properties": {"segment_id": 1430564, "physicalid": "97036", "street_name": "VERNON BLVD", "borough": "queens", "direction": "TW", "total_row_ft": 14.3, "roadbed_ft": 0.0, "median_ft": 0.0, "left_sw_ft": 6.1, "right_sw_ft": 8.2}, "geometry": {"type": "LineString", "coordinates": [[-73.95476252675756, 40.73987745296737], [-73.95514018370581, 40.739959565826965]]}}, {"type": "Feature", "properties": {"segment_id": 1430565, "physicalid": "97036", "street_name": "VERNON BLVD", "borough": "queens", "direction": "TW", "total_row_ft": 22.7, "roadbed_ft": 0.0, "median_ft": 0.0, "left_sw_ft": 15.0, "right_sw_ft": 7.7}, "geometry": {"type": "LineString", "coordinates": [[-73.9547823633667, 40.73982467211912], [-73.95515827263992, 40.739906404985426]]}}, {"type": "Feature", "properties": {"segment_id": 1588314, "physicalid": "128004", "street_name": "PULASKI BRIDGE PEDESTRIAN PATH", "borough": "queens", "direction": "NV", "total_row_ft": 10.0, "roadbed_ft": 0.0, "median_ft": 0.0, "left_sw_ft": 4.5, "right_sw_ft": 5.5}, "geometry": {"type": "LineString", "coordinates": [[-73.9527503941682, 40.73930546097137], [-73.95271563943606, 40.73929845861677]]}}, {"type": "Feature", "properties": {"segment_id": 1588315, "physicalid": "128004", "street_name": "PULASKI BRIDGE PEDESTRIAN PATH", "borough": "queens", "direction": "NV", "total_row_ft": 9.9, "roadbed_ft": 0.0, "median_ft": 0.0, "left_sw_ft": 4.7, "right_sw_ft": 5.3}, "geometry": {"type": "LineString", "coordinates": [[-73.95273246005718, 40.739358635894874], [-73.95269780278299, 40.7393516531759]]}}, {"type": "Feature", "properties": {"segment_id": 1588316, "physicalid": "128004", "street_name": "PULASKI BRIDGE PEDESTRIAN PATH", "borough": "queens", "direction": "NV", "total_row_ft": 9.9, "roadbed_ft": 0.0, "median_ft": 0.0, "left_sw_ft": 4.8, "right_sw_ft": 5.1}, "geometry": {"type": "LineString", "coordinates": [[-73.95271452591754, 40.73941181081519], [-73.95267996610144, 40.739404847731876]]}}, {"type": "Feature", "properties": {"segment_id": 1588317, "physicalid": "128004", "street_name": "PULASKI BRIDGE PEDESTRIAN PATH", "borough": "queens", "direction": "NV", "total_row_ft": 33.6, "roadbed_ft": 0.0, "median_ft": 0.0, "left_sw_ft": 28.6, "right_sw_ft": 4.9}, "geometry": {"type": "LineString", "coordinates": [[-73.95277901336259, 40.7394815919238], [-73.95266195289517, 40.739458006724334]]}}, {"type": "Feature", "properties": {"segment_id": 1588318, "physicalid": "128004", "street_name": "PULASKI BRIDGE PEDESTRIAN PATH", "borough": "queens", "direction": "NV", "total_row_ft": 32.2, "roadbed_ft": 0.0, "median_ft": 0.0, "left_sw_ft": 27.4, "right_sw_ft": 4.8}, "geometry": {"type": "LineString", "coordinates": [[-73.95275615564614, 40.73953377485613], [-73.95264384983518, 40.73951114761572]]}}, {"type": "Feature", "properties": {"segment_id": 1614849, "physicalid": "145404", "street_name": "11 ST", "borough": "queens", "direction": "TW", "total_row_ft": 98.3, "roadbed_ft": 65.3, "median_ft": 3.0, "left_sw_ft": 15.0, "right_sw_ft": 15.0}, "geometry": {"type": "LineString", "coordinates": [[-73.9519368268964, 40.73994189053276], [-73.9523563495966, 40.74002352464441]]}}, {"type": "Feature", "properties": {"segment_id": 1614850, "physicalid": "145404", "street_name": "11 ST", "borough": "queens", "direction": "TW", "total_row_ft": 98.3, "roadbed_ft": 65.3, "median_ft": 3.0, "left_sw_ft": 15.0, "right_sw_ft": 15.0}, "geometry": {"type": "LineString", "coordinates": [[-73.95195471488567, 40.73988870833123], [-73.95237423727293, 40.73997034237831]]}}, {"type": "Feature", "properties": {"segment_id": 1614851, "physicalid": "145404", "street_name": "11 ST", "borough": "queens", "direction": "TW", "total_row_ft": 98.4, "roadbed_ft": 65.4, "median_ft": 3.0, "left_sw_ft": 15.0, "right_sw_ft": 15.0}, "geometry": {"type": "LineString", "coordinates": [[-73.9519726028464, 40.73983552612652], [-73.9523921249207, 40.73991716010903]]}}, {"type": "Feature", "properties": {"segment_id": 1614852, "physicalid": "145404", "street_name": "11 ST", "borough": "queens", "direction": "TW", "total_row_ft": 98.4, "roadbed_ft": 65.5, "median_ft": 2.9, "left_sw_ft": 15.0, "right_sw_ft": 15.0}, "geometry": {"type": "LineString", "coordinates": [[-73.95199049077856, 40.73978234391862], [-73.95241001253993, 40.739863977836606]]}}, {"type": "Feature", "properties": {"segment_id": 1614853, "physicalid": "145404", "street_name": "11 ST", "borough": "queens", "direction": "TW", "total_row_ft": 98.4, "roadbed_ft": 65.6, "median_ft": 2.8, "left_sw_ft": 15.0, "right_sw_ft": 15.0}, "geometry": {"type": "LineString", "coordinates": [[-73.95200837868217, 40.73972916170755], [-73.9524279001306, 40.73981079556097]]}}, {"type": "Feature", "properties": {"segment_id": 1614854, "physicalid": "145404", "street_name": "11 ST", "borough": "queens", "direction": "TW", "total_row_ft": 98.4, "roadbed_ft": 65.7, "median_ft": 2.7, "left_sw_ft": 15.0, "right_sw_ft": 15.0}, "geometry": {"type": "LineString", "coordinates": [[-73.95202626655723, 40.739675979493306], [-73.95244578769271, 40.73975761328217]]}}, {"type": "Feature", "properties": {"segment_id": 1614855, "physicalid": "145404", "street_name": "11 ST", "borough": "queens", "direction": "TW", "total_row_ft": 98.5, "roadbed_ft": 65.9, "median_ft": 2.6, "left_sw_ft": 15.0, "right_sw_ft": 15.0}, "geometry": {"type": "LineString", "coordinates": [[-73.95204415440371, 40.73962279727589], [-73.95246367522626, 40.739704431000206]]}}, {"type": "Feature", "properties": {"segment_id": 1614856, "physicalid": "145404", "street_name": "11 ST", "borough": "queens", "direction": "TW", "total_row_ft": 115.4, "roadbed_ft": 85.4, "median_ft": 0.0, "left_sw_ft": 15.0, "right_sw_ft": 15.0}, "geometry": {"type": "LineString", "coordinates": [[-73.95232993786587, 40.739460364199445], [-73.95222979628032, 40.73978080606823]]}}, {"type": "Feature", "properties": {"segment_id": 1614864, "physicalid": "145405", "street_name": "PULASKI BRG", "borough": "queens", "direction": "TF", "total_row_ft": 117.8, "roadbed_ft": 96.3, "median_ft": 3.0, "left_sw_ft": 3.5, "right_sw_ft": 15.0}, "geometry": {"type": "LineString", "coordinates": [[-73.95207626911892, 40.739908898575145], [-73.95249365002249, 40.739996654126266]]}}, {"type": "Feature", "properties": {"segment_id": 1614865, "physicalid": "145405", "street_name": "PULASKI BRG", "borough": "queens", "direction": "TF", "total_row_ft": 118.2, "roadbed_ft": 96.2, "median_ft": 3.0, "left_sw_ft": 4.1, "right_sw_ft": 15.0}, "geometry": {"type": "LineString", "coordinates": [[-73.95209549843842, 40.73985598786381], [-73.9525128790359, 40.73994374334591]]}}, {"type": "Feature", "properties": {"segment_id": 1614866, "physicalid": "145405", "street_name": "PULASKI BRG", "borough": "queens", "direction": "TF", "total_row_ft": 118.6, "roadbed_ft": 96.0, "median_ft": 2.9, "left_sw_ft": 4.7, "right_sw_ft": 15.0}, "geometry": {"type": "LineString", "coordinates": [[-73.95211472772742, 40.73980307714886], [-73.95253210801872, 40.73989083256196]]}}, {"type": "Feature", "properties": {"segment_id": 1614867, "physicalid": "145405", "street_name": "PULASKI BRG", "borough": "queens", "direction": "TF", "total_row_ft": 119.0, "roadbed_ft": 96.0, "median_ft": 2.8, "left_sw_ft": 5.2, "right_sw_ft": 15.0}, "geometry": {"type": "LineString", "coordinates": [[-73.95213395698583, 40.739750166430355], [-73.95255133697104, 40.73983792177438]]}}, {"type": "Feature", "properties": {"segment_id": 1614868, "physicalid": "145405", "street_name": "PULASKI BRG", "borough": "queens", "direction": "TF", "total_row_ft": 119.4, "roadbed_ft": 96.1, "median_ft": 2.7, "left_sw_ft": 5.6, "right_sw_ft": 15.0}, "geometry": {"type": "LineString", "coordinates": [[-73.95215318621372, 40.739697255708236], [-73.9525705658928, 40.73978501098321]]}}, {"type": "Feature", "properties": {"segment_id": 1614869, "physicalid": "145405", "street_name": "PULASKI BRG", "borough": "queens", "direction": "TF", "total_row_ft": 119.9, "roadbed_ft": 96.4, "median_ft": 2.6, "left_sw_ft": 5.8, "right_sw_ft": 15.0}, "geometry": {"type": "LineString", "coordinates": [[-73.95217241541108, 40.73964434498246], [-73.95258979478402, 40.73973210018846]]}}, {"type": "Feature", "properties": {"segment_id": 1614877, "physicalid": "145406", "street_name": "PULASKI BRG", "borough": "queens", "direction": "FT", "total_row_ft": 132.1, "roadbed_ft": 96.2, "median_ft": 3.0, "left_sw_ft": 15.0, "right_sw_ft": 17.9}, "geometry": {"type": "LineString", "coordinates": [[-73.9522247583019, 40.73993137787756], [-73.95264454455528, 40.740012224169156]]}}, {"type": "Feature", "properties": {"segment_id": 1614878, "physicalid": "145406", "street_name": "PULASKI BRG", "borough": "queens", "direction": "FT", "total_row_ft": 132.3, "roadbed_ft": 96.1, "median_ft": 3.0, "left_sw_ft": 15.0, "right_sw_ft": 18.2}, "geometry": {"type": "LineString", "coordinates": [[-73.95224247365992, 40.73987816225674], [-73.95266225959953, 40.73995900848436]]}}, {"type": "Feature", "properties": {"segment_id": 1614879, "physicalid": "145406", "street_name": "PULASKI BRG", "borough": "queens", "direction": "FT", "total_row_ft": 132.5, "roadbed_ft": 96.0, "median_ft": 2.9, "left_sw_ft": 15.0, "right_sw_ft": 18.6}, "geometry": {"type": "LineString", "coordinates": [[-73.95226018898965, 40.73982494663279], [-73.95267997461546, 40.73990579279646]]}}, {"type": "Feature", "properties": {"segment_id": 1614880, "physicalid": "145406", "street_name": "PULASKI BRG", "borough": "queens", "direction": "FT", "total_row_ft": 128.8, "roadbed_ft": 95.9, "median_ft": 2.8, "left_sw_ft": 15.0, "right_sw_ft": 15.1}, "geometry": {"type": "LineString", "coordinates": [[-73.95227790429107, 40.739771731005725], [-73.95268432935924, 40.73985000409393]]}}, {"type": "Feature", "properties": {"segment_id": 1614881, "physicalid": "145406", "street_name": "PULASKI BRG", "borough": "queens", "direction": "FT", "total_row_ft": 129.4, "roadbed_ft": 96.2, "median_ft": 2.7, "left_sw_ft": 15.0, "right_sw_ft": 15.5}, "geometry": {"type": "LineString", "coordinates": [[-73.9522956195642, 40.739718515375536], [-73.95270181724864, 40.73979674466908]]}}, {"type": "Feature", "properties": {"segment_id": 1614882, "physicalid": "145407", "street_name": "PULASKI BRIDGE PEDESTRIAN PATH", "borough": "queens", "direction": "NV", "total_row_ft": 20.2, "roadbed_ft": 10.1, "median_ft": 0.0, "left_sw_ft": 5.3, "right_sw_ft": 4.8}, "geometry": {"type": "LineString", "coordinates": [[-73.95263944256143, 40.739634765754126], [-73.95260400561723, 40.73962801831953]]}}, {"type": "Feature", "properties": {"segment_id": 1614891, "physicalid": "145408", "street_name": "11 ST", "borough": "queens", "direction": "TW", "total_row_ft": 46.3, "roadbed_ft": 27.6, "median_ft": 0.0, "left_sw_ft": 10.1, "right_sw_ft": 8.6}, "geometry": {"type": "LineString", "coordinates": [[-73.95249948439604, 40.73993827758785], [-73.95266097084202, 40.73996855412454]]}}, {"type": "Feature", "properties": {"segment_id": 1614892, "physicalid": "145408", "street_name": "11 ST", "borough": "queens", "direction": "TW", "total_row_ft": 46.4, "roadbed_ft": 27.6, "median_ft": 0.0, "left_sw_ft": 10.4, "right_sw_ft": 8.3}, "geometry": {"type": "LineString", "coordinates": [[-73.9525166965111, 40.73988496648737], [-73.95267759484322, 40.73991513275993]]}}, {"type": "Feature", "properties": {"segment_id": 1614893, "physicalid": "145408", "street_name": "11 ST", "borough": "queens", "direction": "TW", "total_row_ft": 42.7, "roadbed_ft": 27.7, "median_ft": 0.0, "left_sw_ft": 10.7, "right_sw_ft": 4.4}, "geometry": {"type": "LineString", "coordinates": [[-73.95253390859861, 40.73983165538394], [-73.9526812816613, 40.73985928585908]]}}, {"type": "Feature", "properties": {"segment_id": 1614894, "physicalid": "145408", "street_name": "11 ST", "borough": "queens", "direction": "TW", "total_row_ft": 43.1, "roadbed_ft": 27.7, "median_ft": 0.0, "left_sw_ft": 10.6, "right_sw_ft": 4.8}, "geometry": {"type": "LineString", "coordinates": [[-73.95255197774749, 40.7397785049708], [-73.9526987695457, 40.7398060264648]]}}, {"type": "Feature", "properties": {"segment_id": 1614895, "physicalid": "145408", "street_name": "11 ST", "borough": "queens", "direction": "TW", "total_row_ft": 43.5, "roadbed_ft": 27.7, "median_ft": 0.0, "left_sw_ft": 10.4, "right_sw_ft": 5.4}, "geometry": {"type": "LineString", "coordinates": [[-73.95257040180593, 40.73972542110089], [-73.95271625740214, 40.73975276706745]]}}, {"type": "Feature", "properties": {"segment_id": 1614896, "physicalid": "145408", "street_name": "11 ST", "borough": "queens", "direction": "TW", "total_row_ft": 110.1, "roadbed_ft": 80.1, "median_ft": 0.0, "left_sw_ft": 15.0, "right_sw_ft": 15.0}, "geometry": {"type": "LineString", "coordinates": [[-73.95261878050961, 40.73984988565779], [-73.95271735042284, 40.73952916197182]]}}, {"type": "Feature", "properties": {"segment_id": 1614897, "physicalid": "145412", "street_name": "11 ST", "borough": "queens", "direction": "TW", "total_row_ft": 150.0, "roadbed_ft": 120.0, "median_ft": 0.0, "left_sw_ft": 15.0, "right_sw_ft": 15.0}, "geometry": {"type": "LineString", "coordinates": [[-73.95250207472527, 40.73949179304228], [-73.952398924113, 40.739811682241324]]}}, {"type": "Feature", "properties": {"segment_id": 1614898, "physicalid": "145413", "street_name": "PULASKI BRG", "borough": "queens", "direction": "TF", "total_row_ft": 137.1, "roadbed_ft": 113.4, "median_ft": 2.5, "left_sw_ft": 6.2, "right_sw_ft": 15.0}, "geometry": {"type": "LineString", "coordinates": [[-73.95220366965759, 40.739558358141124], [-73.95262103958267, 40.739646137859445]]}}, {"type": "Feature", "properties": {"segment_id": 1614899, "physicalid": "145414", "street_name": "PULASKI BRG", "borough": "queens", "direction": "FT", "total_row_ft": 112.6, "roadbed_ft": 84.9, "median_ft": 2.5, "left_sw_ft": 15.0, "right_sw_ft": 10.1}, "geometry": {"type": "LineString", "coordinates": [[-73.95233973449005, 40.73958599674989], [-73.95263664034854, 40.739643178312406]]}}, {"type": "Feature", "properties": {"segment_id": 1614900, "physicalid": "145416", "street_name": "PULASKI BRIDGE PEDESTRIAN PATH", "borough": "queens", "direction": "NV", "total_row_ft": 43.6, "roadbed_ft": 27.7, "median_ft": 0.0, "left_sw_ft": 10.8, "right_sw_ft": 5.2}, "geometry": {"type": "LineString", "coordinates": [[-73.95271960584272, 40.73974256935663], [-73.95257406886411, 40.73971485836189]]}}, {"type": "Feature", "properties": {"segment_id": 1614901, "physicalid": "145416", "street_name": "PULASKI BRIDGE PEDESTRIAN PATH", "borough": "queens", "direction": "NV", "total_row_ft": 43.2, "roadbed_ft": 27.7, "median_ft": 0.0, "left_sw_ft": 10.1, "right_sw_ft": 5.4}, "geometry": {"type": "LineString", "coordinates": [[-73.95270211807126, 40.73979582851201], [-73.95255564326767, 40.73976793894873]]}}, {"type": "Feature", "properties": {"segment_id": 1614902, "physicalid": "145416", "street_name": "PULASKI BRIDGE PEDESTRIAN PATH", "borough": "queens", "direction": "NV", "total_row_ft": 42.8, "roadbed_ft": 27.7, "median_ft": 0.0, "left_sw_ft": 9.5, "right_sw_ft": 5.7}, "geometry": {"type": "LineString", "coordinates": [[-73.95268463027185, 40.739849087664325], [-73.95253733526815, 40.739821041928955]]}}, {"type": "Feature", "properties": {"segment_id": 1614903, "physicalid": "145416", "street_name": "PULASKI BRIDGE PEDESTRIAN PATH", "borough": "queens", "direction": "NV", "total_row_ft": 46.4, "roadbed_ft": 27.6, "median_ft": 0.0, "left_sw_ft": 13.2, "right_sw_ft": 5.6}, "geometry": {"type": "LineString", "coordinates": [[-73.95268076643353, 40.73990494088141], [-73.95252012301955, 40.73987435354892]]}}, {"type": "Feature", "properties": {"segment_id": 1614904, "physicalid": "145416", "street_name": "PULASKI BRIDGE PEDESTRIAN PATH", "borough": "queens", "direction": "NV", "total_row_ft": 46.3, "roadbed_ft": 27.6, "median_ft": 0.0, "left_sw_ft": 13.2, "right_sw_ft": 5.5}, "geometry": {"type": "LineString", "coordinates": [[-73.95266414174685, 40.73995836437879], [-73.9525029107434, 40.7399276651659]]}}, {"type": "Feature", "properties": {"segment_id": 1614905, "physicalid": "145416", "street_name": "PULASKI BRIDGE PEDESTRIAN PATH", "borough": "queens", "direction": "NV", "total_row_ft": 46.2, "roadbed_ft": 27.6, "median_ft": 0.0, "left_sw_ft": 13.2, "right_sw_ft": 5.4}, "geometry": {"type": "LineString", "coordinates": [[-73.95264719831216, 40.74001172718746], [-73.95248569843972, 40.73998097677991]]}}, {"type": "Feature", "properties": {"segment_id": 1732462, "physicalid": "185084", "street_name": "2 ST", "borough": "queens", "direction": "FT", "total_row_ft": 77.9, "roadbed_ft": 45.2, "median_ft": 8.8, "left_sw_ft": 14.3, "right_sw_ft": 9.6}, "geometry": {"type": "LineString", "coordinates": [[-73.95949407776556, 40.73996480780007], [-73.95974922300223, 40.74001639179573]]}}, {"type": "Feature", "properties": {"segment_id": 1732463, "physicalid": "185084", "street_name": "2 ST", "borough": "queens", "direction": "FT", "total_row_ft": 78.0, "roadbed_ft": 45.3, "median_ft": 8.7, "left_sw_ft": 14.4, "right_sw_ft": 9.6}, "geometry": {"type": "LineString", "coordinates": [[-73.95951153727405, 40.73991153649204], [-73.9597673025153, 40.73996324583659]]}}, {"type": "Feature", "properties": {"segment_id": 1732464, "physicalid": "185084", "street_name": "2 ST", "borough": "queens", "direction": "FT", "total_row_ft": 78.1, "roadbed_ft": 45.4, "median_ft": 8.6, "left_sw_ft": 14.5, "right_sw_ft": 9.6}, "geometry": {"type": "LineString", "coordinates": [[-73.95952899675461, 40.73985826518098], [-73.95978538272578, 40.739910100021035]]}}, {"type": "Feature", "properties": {"segment_id": 1732465, "physicalid": "185084", "street_name": "2 ST", "borough": "queens", "direction": "FT", "total_row_ft": 73.7, "roadbed_ft": 49.5, "median_ft": 0.0, "left_sw_ft": 14.6, "right_sw_ft": 9.6}, "geometry": {"type": "LineString", "coordinates": [[-73.95954645621067, 40.73980499386755], [-73.95980343227984, 40.73985694801016]]}}, {"type": "Feature", "properties": {"segment_id": 1732466, "physicalid": "185084", "street_name": "2 ST", "borough": "queens", "direction": "FT", "total_row_ft": 73.9, "roadbed_ft": 49.6, "median_ft": 0.0, "left_sw_ft": 14.6, "right_sw_ft": 9.6}, "geometry": {"type": "LineString", "coordinates": [[-73.95956391567948, 40.73975172255931], [-73.95982147714639, 40.73980379505417]]}}, {"type": "Feature", "properties": {"segment_id": 1732467, "physicalid": "185084", "street_name": "2 ST", "borough": "queens", "direction": "FT", "total_row_ft": 78.5, "roadbed_ft": 45.0, "median_ft": 9.2, "left_sw_ft": 14.7, "right_sw_ft": 9.6}, "geometry": {"type": "LineString", "coordinates": [[-73.95958137512038, 40.73969845124802], [-73.95983947074811, 40.7397506317364]]}}, {"type": "Feature", "properties": {"segment_id": 1732468, "physicalid": "185084", "street_name": "2 ST", "borough": "queens", "direction": "FT", "total_row_ft": 78.7, "roadbed_ft": 45.1, "median_ft": 9.2, "left_sw_ft": 14.8, "right_sw_ft": 9.6}, "geometry": {"type": "LineString", "coordinates": [[-73.95959883453335, 40.73964517993368], [-73.9598574221801, 40.739697459895595]]}}, {"type": "Feature", "properties": {"segment_id": 1732469, "physicalid": "185084", "street_name": "2 ST", "borough": "queens", "direction": "FT", "total_row_ft": 78.8, "roadbed_ft": 45.1, "median_ft": 9.2, "left_sw_ft": 14.9, "right_sw_ft": 9.6}, "geometry": {"type": "LineString", "coordinates": [[-73.95961629391842, 40.73959190861629], [-73.95987530346198, 40.7396442738749]]}}, {"type": "Feature", "properties": {"segment_id": 1732470, "physicalid": "185084", "street_name": "2 ST", "borough": "queens", "direction": "FT", "total_row_ft": 78.8, "roadbed_ft": 45.1, "median_ft": 9.1, "left_sw_ft": 15.0, "right_sw_ft": 9.6}, "geometry": {"type": "LineString", "coordinates": [[-73.95963375327555, 40.73953863729587], [-73.95989305018074, 40.73959106065167]]}}, {"type": "Feature", "properties": {"segment_id": 1732471, "physicalid": "185084", "street_name": "2 ST", "borough": "queens", "direction": "FT", "total_row_ft": 78.9, "roadbed_ft": 45.1, "median_ft": 9.1, "left_sw_ft": 15.1, "right_sw_ft": 9.6}, "geometry": {"type": "LineString", "coordinates": [[-73.95965121260477, 40.7394853659724], [-73.95991068460089, 40.73953782472719]]}}, {"type": "Feature", "properties": {"segment_id": 1732472, "physicalid": "185084", "street_name": "2 ST", "borough": "queens", "direction": "FT", "total_row_ft": 78.9, "roadbed_ft": 45.0, "median_ft": 9.1, "left_sw_ft": 15.2, "right_sw_ft": 9.6}, "geometry": {"type": "LineString", "coordinates": [[-73.95966867190607, 40.73943209464588], [-73.95992818240371, 40.739484561184895]]}}, {"type": "Feature", "properties": {"segment_id": 1732473, "physicalid": "185084", "street_name": "2 ST", "borough": "queens", "direction": "FT", "total_row_ft": 78.8, "roadbed_ft": 44.8, "median_ft": 9.1, "left_sw_ft": 15.3, "right_sw_ft": 9.6}, "geometry": {"type": "LineString", "coordinates": [[-73.95968613117945, 40.73937882331632], [-73.95994550663093, 40.739431262552756]]}}, {"type": "Feature", "properties": {"segment_id": 1732474, "physicalid": "185084", "street_name": "2 ST", "borough": "queens", "direction": "FT", "total_row_ft": 74.2, "roadbed_ft": 49.2, "median_ft": 0.0, "left_sw_ft": 15.4, "right_sw_ft": 9.6}, "geometry": {"type": "LineString", "coordinates": [[-73.95970359042492, 40.739325551983704], [-73.95996250115745, 40.739377897266415]]}}, {"type": "Feature", "properties": {"segment_id": 1732475, "physicalid": "185084", "street_name": "2 ST", "borough": "queens", "direction": "FT", "total_row_ft": 74.1, "roadbed_ft": 48.9, "median_ft": 0.0, "left_sw_ft": 15.6, "right_sw_ft": 9.6}, "geometry": {"type": "LineString", "coordinates": [[-73.95972105046671, 40.7392722808147], [-73.95997938118371, 40.73932450883371]]}}, {"type": "Feature", "properties": {"segment_id": 1732476, "physicalid": "185084", "street_name": "2 ST", "borough": "queens", "direction": "FT", "total_row_ft": 74.8, "roadbed_ft": 49.2, "median_ft": 0.0, "left_sw_ft": 16.0, "right_sw_ft": 9.6}, "geometry": {"type": "LineString", "coordinates": [[-73.95973753504668, 40.73921881243301], [-73.9599983079484, 40.73927153420036]]}}, {"type": "Feature", "properties": {"segment_id": 1732477, "physicalid": "185084", "street_name": "2 ST", "borough": "queens", "direction": "FT", "total_row_ft": 81.7, "roadbed_ft": 46.8, "median_ft": 9.0, "left_sw_ft": 16.1, "right_sw_ft": 9.8}, "geometry": {"type": "LineString", "coordinates": [[-73.95975474441039, 40.73916549058803], [-73.96002586288306, 40.73922030395842]]}}, {"type": "Feature", "properties": {"segment_id": 1732478, "physicalid": "185084", "street_name": "2 ST", "borough": "queens", "direction": "FT", "total_row_ft": 105.8, "roadbed_ft": 51.9, "median_ft": 8.6, "left_sw_ft": 15.7, "right_sw_ft": 29.6}, "geometry": {"type": "LineString", "coordinates": [[-73.95978382520444, 40.73909095209394], [-73.96011484358097, 40.73921527815733]]}}, {"type": "Feature", "properties": {"segment_id": 1740834, "physicalid": "187992", "street_name": "PULASKI BRIDGE BIKE PATH", "borough": "queens", "direction": "NV", "total_row_ft": 88.6, "roadbed_ft": 60.7, "median_ft": 3.0, "left_sw_ft": 10.0, "right_sw_ft": 15.0}, "geometry": {"type": "LineString", "coordinates": [[-73.95274881022105, 40.739310157403295], [-73.9524867617383, 40.73925979771693]]}}, {"type": "Feature", "properties": {"segment_id": 1740835, "physicalid": "187992", "street_name": "PULASKI BRIDGE BIKE PATH", "borough": "queens", "direction": "NV", "total_row_ft": 88.5, "roadbed_ft": 60.6, "median_ft": 3.0, "left_sw_ft": 9.9, "right_sw_ft": 15.0}, "geometry": {"type": "LineString", "coordinates": [[-73.95273087653801, 40.73936333105008], [-73.9524690824047, 40.73931302024136]]}}, {"type": "Feature", "properties": {"segment_id": 1740836, "physicalid": "187992", "street_name": "PULASKI BRIDGE BIKE PATH", "borough": "queens", "direction": "NV", "total_row_ft": 88.4, "roadbed_ft": 60.6, "median_ft": 2.9, "left_sw_ft": 9.9, "right_sw_ft": 15.0}, "geometry": {"type": "LineString", "coordinates": [[-73.95271294282634, 40.7394165046937], [-73.9524514030429, 40.73936624276263]]}}, {"type": "Feature", "properties": {"segment_id": 1740837, "physicalid": "187992", "street_name": "PULASKI BRIDGE BIKE PATH", "borough": "queens", "direction": "NV", "total_row_ft": 112.1, "roadbed_ft": 60.7, "median_ft": 2.7, "left_sw_ft": 33.7, "right_sw_ft": 15.0}, "geometry": {"type": "LineString", "coordinates": [[-73.95277828397762, 40.73948568171326], [-73.95243372365282, 40.73941946528082]]}}, {"type": "Feature", "properties": {"segment_id": 1740838, "physicalid": "187992", "street_name": "PULASKI BRIDGE BIKE PATH", "borough": "queens", "direction": "NV", "total_row_ft": 88.1, "roadbed_ft": 60.7, "median_ft": 2.5, "left_sw_ft": 10.0, "right_sw_ft": 15.0}, "geometry": {"type": "LineString", "coordinates": [[-73.95267699628042, 40.739522836782434], [-73.9524160442345, 40.73947268779585]]}}, {"type": "Feature", "properties": {"segment_id": 1740839, "physicalid": "187995", "street_name": "PULASKI BRIDGE BIKE PATH", "borough": "queens", "direction": "NV", "total_row_ft": 102.1, "roadbed_ft": 74.4, "median_ft": 2.6, "left_sw_ft": 10.1, "right_sw_ft": 15.0}, "geometry": {"type": "LineString", "coordinates": [[-73.95263988981281, 40.73963342305497], [-73.95237920304739, 40.739584737229265]]}}, {"type": "Feature", "properties": {"segment_id": 1740840, "physicalid": "187998", "street_name": "PULASKI BRIDGE BIKE PATH", "borough": "queens", "direction": "NV", "total_row_ft": 121.4, "roadbed_ft": 87.9, "median_ft": 2.6, "left_sw_ft": 15.9, "right_sw_ft": 15.0}, "geometry": {"type": "LineString", "coordinates": [[-73.95271921158984, 40.739743770058055], [-73.95235053027393, 40.73967177978931]]}}, {"type": "Feature", "properties": {"segment_id": 1740841, "physicalid": "187998", "street_name": "PULASKI BRIDGE BIKE PATH", "borough": "queens", "direction": "NV", "total_row_ft": 120.8, "roadbed_ft": 87.6, "median_ft": 2.7, "left_sw_ft": 15.5, "right_sw_ft": 15.0}, "geometry": {"type": "LineString", "coordinates": [[-73.95270172344544, 40.739797030347276], [-73.95233258409993, 40.739724950639236]]}}, {"type": "Feature", "properties": {"segment_id": 1740842, "physicalid": "187998", "street_name": "PULASKI BRIDGE BIKE PATH", "borough": "queens", "direction": "NV", "total_row_ft": 120.3, "roadbed_ft": 87.5, "median_ft": 2.8, "left_sw_ft": 15.1, "right_sw_ft": 15.0}, "geometry": {"type": "LineString", "coordinates": [[-73.9526842352731, 40.73985029063337], [-73.95231463789729, 40.739778121486054]]}}, {"type": "Feature", "properties": {"segment_id": 1740843, "physicalid": "187998", "street_name": "PULASKI BRIDGE BIKE PATH", "borough": "queens", "direction": "NV", "total_row_ft": 124.3, "roadbed_ft": 87.6, "median_ft": 2.9, "left_sw_ft": 18.7, "right_sw_ft": 15.0}, "geometry": {"type": "LineString", "coordinates": [[-73.95268037113124, 40.73990621118216], [-73.95229669166602, 40.73983129232958]]}}, {"type": "Feature", "properties": {"segment_id": 1740844, "physicalid": "187998", "street_name": "PULASKI BRIDGE BIKE PATH", "borough": "queens", "direction": "NV", "total_row_ft": 124.5, "roadbed_ft": 87.9, "median_ft": 3.0, "left_sw_ft": 18.7, "right_sw_ft": 15.0}, "geometry": {"type": "LineString", "coordinates": [[-73.95266374486303, 40.73995963977051], [-73.95227874540609, 40.739884463169965]]}}, {"type": "Feature", "properties": {"segment_id": 1740845, "physicalid": "187998", "street_name": "PULASKI BRIDGE BIKE PATH", "borough": "queens", "direction": "NV", "total_row_ft": 124.6, "roadbed_ft": 88.1, "median_ft": 3.0, "left_sw_ft": 18.5, "right_sw_ft": 15.0}, "geometry": {"type": "LineString", "coordinates": [[-73.95264675619235, 40.7400129975977], [-73.95226079911751, 40.739937634007184]]}}]}