{"type": "FeatureCollection", "features": [{"type": "Feature", "properties": {"segment_id": 191315, "physicalid": "14991", "street_name": "ROCKAWAY POINT BLVD", "borough": "queens", "direction": "TW", "total_row_ft": 49.9, "roadbed_ft": 29.4, "median_ft": 0.0, "left_sw_ft": 5.5, "right_sw_ft": 15.0}, "geometry": {"type": "LineString", "coordinates": [[-73.92997150229243, 40.557328476501674], [-73.9300789307644, 40.557533545075465]]}}, {"type": "Feature", "properties": {"segment_id": 191316, "physicalid": "14991", "street_name": "ROCKAWAY POINT BLVD", "borough": "queens", "direction": "TW", "total_row_ft": 50.4, "roadbed_ft": 29.4, "median_ft": 0.0, "left_sw_ft": 6.0, "right_sw_ft": 15.0}, "geometry": {"type": "LineString", "coordinates": [[-73.93003770688632, 40.557306900253224], [-73.93014576823556, 40.55751317652734]]}}, {"type": "Feature", "properties": {"segment_id": 191317, "physicalid": "14991", "street_name": "ROCKAWAY POINT BLVD", "borough": "queens", "direction": "TW", "total_row_ft": 51.3, "roadbed_ft": 29.3, "median_ft": 0.0, "left_sw_ft": 6.9, "right_sw_ft": 15.0}, "geometry": {"type": "LineString", "coordinates": [[-73.93010326582493, 40.55728409156716], [-73.930212605666, 40.55749280794028]]}}, {"type": "Feature", "properties": {"segment_id": 191318, "physicalid": "14991", "street_name": "ROCKAWAY POINT BLVD", "borough": "queens", "direction": "TW", "total_row_ft": 52.7, "roadbed_ft": 29.3, "median_ft": 0.0, "left_sw_ft": 8.4, "right_sw_ft": 15.0}, "geometry": {"type": "LineString", "coordinates": [[-73.9301681109523, 40.55725992034867], [-73.93027944305568, 40.55747243931426]]}}, {"type": "Feature", "properties": {"segment_id": 191319, "physicalid": "14991", "street_name": "ROCKAWAY POINT BLVD", "borough": "queens", "direction": "TW", "total_row_ft": 89.3, "roadbed_ft": 29.3, "median_ft": 0.0, "left_sw_ft": 45.0, "right_sw_ft": 15.0}, "geometry": {"type": "LineString", "coordinates": [[-73.93018604709036, 40.55714620555106], [-73.9303462804046, 40.55745207064934]]}}, {"type": "Feature", "properties": {"segment_id": 191320, "physicalid": "14992", "street_name": "ROCKAWAY POINT BLVD", "borough": "queens", "direction": "TW", "total_row_ft": 89.3, "roadbed_ft": 30.2, "median_ft": 0.0, "left_sw_ft": 44.1, "right_sw_ft": 15.0}, "geometry": {"type": "LineString", "coordinates": [[-73.9302938369103, 40.55711319391305], [-73.93045555149567, 40.55741860514673]]}}, {"type": "Feature", "properties": {"segment_id": 191321, "physicalid": "14992", "street_name": "ROCKAWAY POINT BLVD", "borough": "queens", "direction": "TW", "total_row_ft": 59.8, "roadbed_ft": 29.8, "median_ft": 0.0, "left_sw_ft": 15.0, "right_sw_ft": 15.0}, "geometry": {"type": "LineString", "coordinates": [[-73.93036057475084, 40.55709263699491], [-73.93052228959156, 40.557398048135134]]}}, {"type": "Feature", "properties": {"segment_id": 191322, "physicalid": "14992", "street_name": "ROCKAWAY POINT BLVD", "borough": "queens", "direction": "TW", "total_row_ft": 59.7, "roadbed_ft": 29.7, "median_ft": 0.0, "left_sw_ft": 15.0, "right_sw_ft": 15.0}, "geometry": {"type": "LineString", "coordinates": [[-73.93042731255034, 40.557072080037926], [-73.93058902764636, 40.55737749108473]]}}, {"type": "Feature", "properties": {"segment_id": 191323, "physicalid": "14992", "street_name": "ROCKAWAY POINT BLVD", "borough": "queens", "direction": "TW", "total_row_ft": 59.7, "roadbed_ft": 29.7, "median_ft": 0.0, "left_sw_ft": 15.0, "right_sw_ft": 15.0}, "geometry": {"type": "LineString", "coordinates": [[-73.93049405030877, 40.557051523042155], [-73.93065576566012, 40.55735693399551]]}}, {"type": "Feature", "properties": {"segment_id": 191324, "physicalid": "14992", "street_name": "ROCKAWAY POINT BLVD", "borough": "queens", "direction": "TW", "total_row_ft": 59.7, "roadbed_ft": 29.7, "median_ft": 0.0, "left_sw_ft": 15.0, "right_sw_ft": 15.0}, "geometry": {"type": "LineString", "coordinates": [[-73.93056078802613, 40.55703096600754], [-73.9307225036328, 40.55733637686746]]}}, {"type": "Feature", "properties": {"segment_id": 191325, "physicalid": "14992", "street_name": "ROCKAWAY POINT BLVD", "borough": "queens", "direction": "TW", "total_row_ft": 59.7, "roadbed_ft": 29.7, "median_ft": 0.0, "left_sw_ft": 15.0, "right_sw_ft": 15.0}, "geometry": {"type": "LineString", "coordinates": [[-73.93062752570242, 40.557010408934104], [-73.93078924156438, 40.55731581970061]]}}, {"type": "Feature", "properties": {"segment_id": 191326, "physicalid": "14992", "street_name": "ROCKAWAY POINT BLVD", "borough": "queens", "direction": "TW", "total_row_ft": 104.7, "roadbed_ft": 74.7, "median_ft": 0.0, "left_sw_ft": 15.0, "right_sw_ft": 15.0}, "geometry": {"type": "LineString", "coordinates": [[-73.93069426027357, 40.556989852624156], [-73.93085598239011, 40.55729526144923]]}}, {"type": "Feature", "properties": {"segment_id": 191327, "physicalid": "14992", "street_name": "ROCKAWAY POINT BLVD", "borough": "queens", "direction": "TW", "total_row_ft": 59.8, "roadbed_ft": 29.8, "median_ft": 0.0, "left_sw_ft": 15.0, "right_sw_ft": 15.0}, "geometry": {"type": "LineString", "coordinates": [[-73.93076099746392, 40.5569692947105], [-73.93092271983575, 40.55727470344212]]}}, {"type": "Feature", "properties": {"segment_id": 191328, "physicalid": "14992", "street_name": "ROCKAWAY POINT BLVD", "borough": "queens", "direction": "TW", "total_row_ft": 59.8, "roadbed_ft": 29.8, "median_ft": 0.0, "left_sw_ft": 15.0, "right_sw_ft": 15.0}, "geometry": {"type": "LineString", "coordinates": [[-73.93082773461317, 40.556948736758], [-73.93098945724032, 40.557254145396186]]}}, {"type": "Feature", "properties": {"segment_id": 191329, "physicalid": "14992", "street_name": "ROCKAWAY POINT BLVD", "borough": "queens", "direction": "TW", "total_row_ft": 59.8, "roadbed_ft": 29.8, "median_ft": 0.0, "left_sw_ft": 15.0, "right_sw_ft": 15.0}, "geometry": {"type": "LineString", "coordinates": [[-73.93089447172139, 40.556928178766704], [-73.93105619460383, 40.55723358731145]]}}, {"type": "Feature", "properties": {"segment_id": 191330, "physicalid": "14992", "street_name": "ROCKAWAY POINT BLVD", "borough": "queens", "direction": "TW", "total_row_ft": 59.8, "roadbed_ft": 29.8, "median_ft": 0.0, "left_sw_ft": 15.0, "right_sw_ft": 15.0}, "geometry": {"type": "LineString", "coordinates": [[-73.93096120878849, 40.5569076207366], [-73.9311229319263, 40.5572130291879]]}}, {"type": "Feature", "properties": {"segment_id": 191331, "physicalid": "14992", "street_name": "ROCKAWAY POINT BLVD", "borough": "queens", "direction": "TW", "total_row_ft": 60.0, "roadbed_ft": 29.8, "median_ft": 0.0, "left_sw_ft": 15.2, "right_sw_ft": 15.0}, "geometry": {"type": "LineString", "coordinates": [[-73.93102794581456, 40.556887062667656], [-73.93118966920763, 40.55719247102553]]}}, {"type": "Feature", "properties": {"segment_id": 191332, "physicalid": "14993", "street_name": "ROCKAWAY POINT BLVD", "borough": "queens", "direction": "TW", "total_row_ft": 74.9, "roadbed_ft": 44.9, "median_ft": 0.0, "left_sw_ft": 15.0, "right_sw_ft": 15.0}, "geometry": {"type": "LineString", "coordinates": [[-73.93114717283285, 40.55684874623628], [-73.93132430921236, 40.55714913921318]]}}, {"type": "Feature", "properties": {"segment_id": 191333, "physicalid": "14993", "street_name": "ROCKAWAY POINT BLVD", "borough": "queens", "direction": "TW", "total_row_ft": 58.4, "roadbed_ft": 28.4, "median_ft": 0.0, "left_sw_ft": 15.0, "right_sw_ft": 15.0}, "geometry": {"type": "LineString", "coordinates": [[-73.93121281383635, 40.55682622883367], [-73.93138995045123, 40.55712662170995]]}}, {"type": "Feature", "properties": {"segment_id": 191334, "physicalid": "14993", "street_name": "ROCKAWAY POINT BLVD", "borough": "queens", "direction": "TW", "total_row_ft": 56.8, "roadbed_ft": 26.8, "median_ft": 0.0, "left_sw_ft": 15.0, "right_sw_ft": 15.0}, "geometry": {"type": "LineString", "coordinates": [[-73.93127845479557, 40.556803711393556], [-73.9314555916459, 40.55710410416915]]}}, {"type": "Feature", "properties": {"segment_id": 191335, "physicalid": "14993", "street_name": "ROCKAWAY POINT BLVD", "borough": "queens", "direction": "TW", "total_row_ft": 55.9, "roadbed_ft": 25.9, "median_ft": 0.0, "left_sw_ft": 15.0, "right_sw_ft": 15.0}, "geometry": {"type": "LineString", "coordinates": [[-73.93134409571056, 40.556781193915846], [-73.93152123279631, 40.557081586590776]]}}, {"type": "Feature", "properties": {"segment_id": 191336, "physicalid": "14993", "street_name": "ROCKAWAY POINT BLVD", "borough": "queens", "direction": "TW", "total_row_ft": 59.6, "roadbed_ft": 29.6, "median_ft": 0.0, "left_sw_ft": 15.0, "right_sw_ft": 15.0}, "geometry": {"type": "LineString", "coordinates": [[-73.93140973658129, 40.5567586764006], [-73.93158687390249, 40.55705906897485]]}}, {"type": "Feature", "properties": {"segment_id": 191337, "physicalid": "14993", "street_name": "ROCKAWAY POINT BLVD", "borough": "queens", "direction": "TW", "total_row_ft": 63.7, "roadbed_ft": 33.7, "median_ft": 0.0, "left_sw_ft": 15.0, "right_sw_ft": 15.0}, "geometry": {"type": "LineString", "coordinates": [[-73.93147537740779, 40.556736158847784], [-73.93165251496438, 40.55703655132139]]}}, {"type": "Feature", "properties": {"segment_id": 191338, "physicalid": "14993", "street_name": "ROCKAWAY POINT BLVD", "borough": "queens", "direction": "TW", "total_row_ft": 70.1, "roadbed_ft": 40.1, "median_ft": 0.0, "left_sw_ft": 15.0, "right_sw_ft": 15.0}, "geometry": {"type": "LineString", "coordinates": [[-73.93154101819005, 40.5567136412574], [-73.93171815598207, 40.55701403363034]]}}, {"type": "Feature", "properties": {"segment_id": 191339, "physicalid": "14993", "street_name": "ROCKAWAY POINT BLVD", "borough": "queens", "direction": "TW", "total_row_ft": 75.8, "roadbed_ft": 45.8, "median_ft": 0.0, "left_sw_ft": 15.0, "right_sw_ft": 15.0}, "geometry": {"type": "LineString", "coordinates": [[-73.93145589715404, 40.55686816784798], [-73.93187619965292, 40.55679251832824]]}}, {"type": "Feature", "properties": {"segment_id": 191340, "physicalid": "14993", "street_name": "ROCKAWAY POINT BLVD", "borough": "queens", "direction": "TW", "total_row_ft": 63.9, "roadbed_ft": 33.9, "median_ft": 0.0, "left_sw_ft": 15.0, "right_sw_ft": 15.0}, "geometry": {"type": "LineString", "coordinates": [[-73.93143936661869, 40.55681473916527], [-73.93185966880017, 40.55673908970568]]}}, {"type": "Feature", "properties": {"segment_id": 191341, "physicalid": "14993", "street_name": "ROCKAWAY POINT BLVD", "borough": "queens", "direction": "TW", "total_row_ft": 56.3, "roadbed_ft": 26.3, "median_ft": 0.0, "left_sw_ft": 15.0, "right_sw_ft": 15.0}, "geometry": {"type": "LineString", "coordinates": [[-73.93142283610979, 40.556761310479956], [-73.93184313797389, 40.556685661080536]]}}, {"type": "Feature", "properties": {"segment_id": 191342, "physicalid": "14993", "street_name": "ROCKAWAY POINT BLVD", "borough": "queens", "direction": "TW", "total_row_ft": 52.8, "roadbed_ft": 22.8, "median_ft": 0.0, "left_sw_ft": 15.0, "right_sw_ft": 15.0}, "geometry": {"type": "LineString", "coordinates": [[-73.93140630562732, 40.55670788179203], [-73.93182660717402, 40.556632232452756]]}}, {"type": "Feature", "properties": {"segment_id": 191343, "physicalid": "14993", "street_name": "ROCKAWAY POINT BLVD", "borough": "queens", "direction": "TW", "total_row_ft": 52.9, "roadbed_ft": 22.9, "median_ft": 0.0, "left_sw_ft": 15.0, "right_sw_ft": 15.0}, "geometry": {"type": "LineString", "coordinates": [[-73.9313897751713, 40.55665445310146], [-73.9318100764006, 40.55657880382234]]}}, {"type": "Feature", "properties": {"segment_id": 191344, "physicalid": "14993", "street_name": "ROCKAWAY POINT BLVD", "borough": "queens", "direction": "TW", "total_row_ft": 52.7, "roadbed_ft": 22.7, "median_ft": 0.0, "left_sw_ft": 15.0, "right_sw_ft": 15.0}, "geometry": {"type": "LineString", "coordinates": [[-73.93137324474172, 40.55660102440833], [-73.9317935456536, 40.55652537518929]]}}, {"type": "Feature", "properties": {"segment_id": 191345, "physicalid": "14993", "street_name": "ROCKAWAY POINT BLVD", "borough": "queens", "direction": "TW", "total_row_ft": 52.5, "roadbed_ft": 22.5, "median_ft": 0.0, "left_sw_ft": 15.0, "right_sw_ft": 15.0}, "geometry": {"type": "LineString", "coordinates": [[-73.93135671433855, 40.556547595712495], [-73.93177701493308, 40.556471946553664]]}}, {"type": "Feature", "properties": {"segment_id": 191346, "physicalid": "14993", "street_name": "ROCKAWAY POINT BLVD", "borough": "queens", "direction": "TW", "total_row_ft": 52.8, "roadbed_ft": 22.8, "median_ft": 0.0, "left_sw_ft": 15.0, "right_sw_ft": 15.0}, "geometry": {"type": "LineString", "coordinates": [[-73.93134018396184, 40.556494167014066], [-73.93176048423898, 40.5564185179154]]}}, {"type": "Feature", "properties": {"segment_id": 191347, "physicalid": "14993", "street_name": "ROCKAWAY POINT BLVD", "borough": "queens", "direction": "TW", "total_row_ft": 52.6, "roadbed_ft": 22.6, "median_ft": 0.0, "left_sw_ft": 15.0, "right_sw_ft": 15.0}, "geometry": {"type": "LineString", "coordinates": [[-73.93132365361157, 40.556440738313015], [-73.9317439535713, 40.55636508927451]]}}, {"type": "Feature", "properties": {"segment_id": 191348, "physicalid": "14993", "street_name": "ROCKAWAY POINT BLVD", "borough": "queens", "direction": "TW", "total_row_ft": 83.0, "roadbed_ft": 53.0, "median_ft": 0.0, "left_sw_ft": 15.0, "right_sw_ft": 15.0}, "geometry": {"type": "LineString", "coordinates": [[-73.93130712328772, 40.556387309609356], [-73.93172742293008, 40.55631166063102]]}}, {"type": "Feature", "properties": {"segment_id": 191349, "physicalid": "14993", "street_name": "ROCKAWAY POINT BLVD", "borough": "queens", "direction": "TW", "total_row_ft": 51.6, "roadbed_ft": 21.6, "median_ft": 0.0, "left_sw_ft": 15.0, "right_sw_ft": 15.0}, "geometry": {"type": "LineString", "coordinates": [[-73.93129059299032, 40.55633388090309], [-73.9317108923153, 40.556258231984884]]}}, {"type": "Feature", "properties": {"segment_id": 191350, "physicalid": "14993", "street_name": "ROCKAWAY POINT BLVD", "borough": "queens", "direction": "TW", "total_row_ft": 51.3, "roadbed_ft": 21.3, "median_ft": 0.0, "left_sw_ft": 15.0, "right_sw_ft": 15.0}, "geometry": {"type": "LineString", "coordinates": [[-73.93127406271937, 40.55628045219417], [-73.93169436172694, 40.55620480333611]]}}, {"type": "Feature", "properties": {"segment_id": 191351, "physicalid": "14993", "street_name": "ROCKAWAY POINT BLVD", "borough": "queens", "direction": "TW", "total_row_ft": 51.5, "roadbed_ft": 21.5, "median_ft": 0.0, "left_sw_ft": 15.0, "right_sw_ft": 15.0}, "geometry": {"type": "LineString", "coordinates": [[-73.93125753247483, 40.55622702348264], [-73.93167783116503, 40.55615137468474]]}}, {"type": "Feature", "properties": {"segment_id": 191352, "physicalid": "14993", "street_name": "ROCKAWAY POINT BLVD", "borough": "queens", "direction": "TW", "total_row_ft": 52.6, "roadbed_ft": 22.6, "median_ft": 0.0, "left_sw_ft": 15.0, "right_sw_ft": 15.0}, "geometry": {"type": "LineString", "coordinates": [[-73.93124100225674, 40.556173594768495], [-73.93166130062954, 40.55609794603074]]}}, {"type": "Feature", "properties": {"segment_id": 191353, "physicalid": "14993", "street_name": "ROCKAWAY POINT BLVD", "borough": "queens", "direction": "TW", "total_row_ft": 53.7, "roadbed_ft": 23.7, "median_ft": 0.0, "left_sw_ft": 15.0, "right_sw_ft": 15.0}, "geometry": {"type": "LineString", "coordinates": [[-73.9312244720651, 40.55612016605173], [-73.93164477012051, 40.55604451737414]]}}, {"type": "Feature", "properties": {"segment_id": 191354, "physicalid": "14993", "street_name": "ROCKAWAY POINT BLVD", "borough": "queens", "direction": "TW", "total_row_ft": 54.8, "roadbed_ft": 24.8, "median_ft": 0.0, "left_sw_ft": 15.0, "right_sw_ft": 15.0}, "geometry": {"type": "LineString", "coordinates": [[-73.93120794189988, 40.556066737332344], [-73.93162823963792, 40.55599108871489]]}}, {"type": "Feature", "properties": {"segment_id": 191355, "physicalid": "14993", "street_name": "ROCKAWAY POINT BLVD", "borough": "queens", "direction": "TW", "total_row_ft": 59.3, "roadbed_ft": 29.3, "median_ft": 0.0, "left_sw_ft": 15.0, "right_sw_ft": 15.0}, "geometry": {"type": "LineString", "coordinates": [[-73.93119141176112, 40.556013308610325], [-73.93161170918175, 40.55593766005303]]}}, {"type": "Feature", "properties": {"segment_id": 191356, "physicalid": "14993", "street_name": "ROCKAWAY POINT BLVD", "borough": "queens", "direction": "TW", "total_row_ft": 69.1, "roadbed_ft": 39.1, "median_ft": 0.0, "left_sw_ft": 15.0, "right_sw_ft": 15.0}, "geometry": {"type": "LineString", "coordinates": [[-73.93117488164879, 40.5559598798857], [-73.93159517875203, 40.55588423138856]]}}, {"type": "Feature", "properties": {"segment_id": 191357, "physicalid": "14993", "street_name": "ROCKAWAY POINT BLVD", "borough": "queens", "direction": "TW", "total_row_ft": 81.3, "roadbed_ft": 49.6, "median_ft": 1.7, "left_sw_ft": 15.0, "right_sw_ft": 15.0}, "geometry": {"type": "LineString", "coordinates": [[-73.93115835156289, 40.55590645115845], [-73.93157864834876, 40.55583080272145]]}}, {"type": "Feature", "properties": {"segment_id": 191358, "physicalid": "14993", "street_name": "ROCKAWAY POINT BLVD", "borough": "queens", "direction": "TW", "total_row_ft": 93.4, "roadbed_ft": 56.1, "median_ft": 7.3, "left_sw_ft": 15.0, "right_sw_ft": 15.0}, "geometry": {"type": "LineString", "coordinates": [[-73.93114182150342, 40.55585302242858], [-73.93156211797191, 40.55577737405176]]}}, {"type": "Feature", "properties": {"segment_id": 191359, "physicalid": "14993", "street_name": "ROCKAWAY POINT BLVD", "borough": "queens", "direction": "TW", "total_row_ft": 97.3, "roadbed_ft": 46.9, "median_ft": 20.5, "left_sw_ft": 15.0, "right_sw_ft": 15.0}, "geometry": {"type": "LineString", "coordinates": [[-73.9311252914704, 40.55579959369609], [-73.9315455876215, 40.555723945379405]]}}, {"type": "Feature", "properties": {"segment_id": 191360, "physicalid": "14993", "street_name": "ROCKAWAY POINT BLVD", "borough": "queens", "direction": "TW", "total_row_ft": 96.8, "roadbed_ft": 45.7, "median_ft": 21.1, "left_sw_ft": 15.0, "right_sw_ft": 15.0}, "geometry": {"type": "LineString", "coordinates": [[-73.9311087614638, 40.55574616496097], [-73.93152905729752, 40.55567051670443]]}}, {"type": "Feature", "properties": {"segment_id": 191361, "physicalid": "14993", "street_name": "ROCKAWAY POINT BLVD", "borough": "queens", "direction": "TW", "total_row_ft": 96.2, "roadbed_ft": 47.9, "median_ft": 18.3, "left_sw_ft": 15.0, "right_sw_ft": 15.0}, "geometry": {"type": "LineString", "coordinates": [[-73.93109223148367, 40.55569273622324], [-73.931512527, 40.555617088026864]]}}, {"type": "Feature", "properties": {"segment_id": 191362, "physicalid": "14993", "street_name": "ROCKAWAY POINT BLVD", "borough": "queens", "direction": "TW", "total_row_ft": 95.7, "roadbed_ft": 56.6, "median_ft": 9.1, "left_sw_ft": 15.0, "right_sw_ft": 15.0}, "geometry": {"type": "LineString", "coordinates": [[-73.93107570152995, 40.555639307482885], [-73.93149599672891, 40.555563659346646]]}}, {"type": "Feature", "properties": {"segment_id": 191363, "physicalid": "14993", "street_name": "ROCKAWAY POINT BLVD", "borough": "queens", "direction": "TW", "total_row_ft": 94.8, "roadbed_ft": 64.8, "median_ft": 0.0, "left_sw_ft": 15.0, "right_sw_ft": 15.0}, "geometry": {"type": "LineString", "coordinates": [[-73.93105917160267, 40.5555858787399], [-73.93147946648425, 40.555510230663835]]}}, {"type": "Feature", "properties": {"segment_id": 191364, "physicalid": "14993", "street_name": "ROCKAWAY POINT BLVD", "borough": "queens", "direction": "TW", "total_row_ft": 72.4, "roadbed_ft": 42.4, "median_ft": 0.0, "left_sw_ft": 15.0, "right_sw_ft": 15.0}, "geometry": {"type": "LineString", "coordinates": [[-73.93104264170185, 40.55553244999432], [-73.93146293626603, 40.55545680197839]]}}, {"type": "Feature", "properties": {"segment_id": 191365, "physicalid": "14993", "street_name": "ROCKAWAY POINT BLVD", "borough": "queens", "direction": "TW", "total_row_ft": 60.3, "roadbed_ft": 30.3, "median_ft": 0.0, "left_sw_ft": 15.0, "right_sw_ft": 15.0}, "geometry": {"type": "LineString", "coordinates": [[-73.93102611182745, 40.55547902124613], [-73.93144640607423, 40.5554033732903]]}}, {"type": "Feature", "properties": {"segment_id": 191366, "physicalid": "14993", "street_name": "ROCKAWAY POINT BLVD", "borough": "queens", "direction": "TW", "total_row_ft": 54.7, "roadbed_ft": 24.7, "median_ft": 0.0, "left_sw_ft": 15.0, "right_sw_ft": 15.0}, "geometry": {"type": "LineString", "coordinates": [[-73.93100958197948, 40.55542559249526], [-73.9314298759089, 40.555349944599655]]}}, {"type": "Feature", "properties": {"segment_id": 191367, "physicalid": "14993", "street_name": "ROCKAWAY POINT BLVD", "borough": "queens", "direction": "TW", "total_row_ft": 52.2, "roadbed_ft": 22.2, "median_ft": 0.0, "left_sw_ft": 15.0, "right_sw_ft": 15.0}, "geometry": {"type": "LineString", "coordinates": [[-73.93099305215796, 40.55537216374181], [-73.93141334577, 40.555296515906356]]}}, {"type": "Feature", "properties": {"segment_id": 1542778, "physicalid": "103913", "street_name": "BCH 222 ST", "borough": "queens", "direction": "TW", "total_row_ft": 30.0, "roadbed_ft": 0.0, "median_ft": 0.0, "left_sw_ft": 15.0, "right_sw_ft": 15.0}, "geometry": {"type": "LineString", "coordinates": [[-73.93096612722518, 40.557039568353225], [-73.93136631899337, 40.55691578484316]]}}, {"type": "Feature", "properties": {"segment_id": 1542779, "physicalid": "103913", "street_name": "BCH 222 ST", "borough": "queens", "direction": "TW", "total_row_ft": 30.0, "roadbed_ft": 0.0, "median_ft": 0.0, "left_sw_ft": 15.0, "right_sw_ft": 15.0}, "geometry": {"type": "LineString", "coordinates": [[-73.93093907850992, 40.556988696230995], [-73.93133927002351, 40.55686491281464]]}}, {"type": "Feature", "properties": {"segment_id": 1542780, "physicalid": "103913", "street_name": "BCH 222 ST", "borough": "queens", "direction": "TW", "total_row_ft": 54.9, "roadbed_ft": 30.2, "median_ft": 0.0, "left_sw_ft": 9.7, "right_sw_ft": 15.0}, "geometry": {"type": "LineString", "coordinates": [[-73.93103094613514, 40.55690104224646], [-73.93131222109486, 40.55681404077954]]}}, {"type": "Feature", "properties": {"segment_id": 1542781, "physicalid": "103913", "street_name": "BCH 222 ST", "borough": "queens", "direction": "TW", "total_row_ft": 54.8, "roadbed_ft": 30.4, "median_ft": 0.0, "left_sw_ft": 9.4, "right_sw_ft": 15.0}, "geometry": {"type": "LineString", "coordinates": [[-73.93100409851566, 40.55685010794015], [-73.9312851722074, 40.55676316873783]]}}, {"type": "Feature", "properties": {"segment_id": 1542782, "physicalid": "103913", "street_name": "BCH 222 ST", "borough": "queens", "direction": "TW", "total_row_ft": 54.6, "roadbed_ft": 30.5, "median_ft": 0.0, "left_sw_ft": 9.1, "right_sw_ft": 15.0}, "geometry": {"type": "LineString", "coordinates": [[-73.93097725093709, 40.55679917362735], [-73.93125812336113, 40.55671229668955]]}}, {"type": "Feature", "properties": {"segment_id": 1542783, "physicalid": "103913", "street_name": "BCH 222 ST", "borough": "queens", "direction": "TW", "total_row_ft": 54.5, "roadbed_ft": 30.6, "median_ft": 0.0, "left_sw_ft": 8.9, "right_sw_ft": 15.0}, "geometry": {"type": "LineString", "coordinates": [[-73.93095040339946, 40.55674823930804], [-73.93123107455605, 40.55666142463466]]}}, {"type": "Feature", "properties": {"segment_id": 1542784, "physicalid": "103913", "street_name": "BCH 222 ST", "borough": "queens", "direction": "TW", "total_row_ft": 54.5, "roadbed_ft": 30.9, "median_ft": 0.0, "left_sw_ft": 8.6, "right_sw_ft": 15.0}, "geometry": {"type": "LineString", "coordinates": [[-73.93092355600321, 40.556697304951214], [-73.93120402579214, 40.556610552573176]]}}, {"type": "Feature", "properties": {"segment_id": 1542785, "physicalid": "103913", "street_name": "BCH 222 ST", "borough": "queens", "direction": "TW", "total_row_ft": 54.5, "roadbed_ft": 31.2, "median_ft": 0.0, "left_sw_ft": 8.3, "right_sw_ft": 15.0}, "geometry": {"type": "LineString", "coordinates": [[-73.9308966959627, 40.55664637451149], [-73.93117697706946, 40.55655968050514]]}}, {"type": "Feature", "properties": {"segment_id": 1542786, "physicalid": "103913", "street_name": "BCH 222 ST", "borough": "queens", "direction": "TW", "total_row_ft": 54.6, "roadbed_ft": 31.5, "median_ft": 0.0, "left_sw_ft": 8.1, "right_sw_ft": 15.0}, "geometry": {"type": "LineString", "coordinates": [[-73.93086977124626, 40.55659546408282], [-73.93114992838794, 40.55650880843048]]}}, {"type": "Feature", "properties": {"segment_id": 1542787, "physicalid": "103913", "street_name": "BCH 222 ST", "borough": "queens", "direction": "TW", "total_row_ft": 54.7, "roadbed_ft": 31.7, "median_ft": 0.0, "left_sw_ft": 8.0, "right_sw_ft": 15.0}, "geometry": {"type": "LineString", "coordinates": [[-73.93084284657087, 40.55654455364761], [-73.9311228797476, 40.556457936349226]]}}, {"type": "Feature", "properties": {"segment_id": 1542788, "physicalid": "103913", "street_name": "BCH 222 ST", "borough": "queens", "direction": "TW", "total_row_ft": 54.8, "roadbed_ft": 31.6, "median_ft": 0.0, "left_sw_ft": 8.1, "right_sw_ft": 15.0}, "geometry": {"type": "LineString", "coordinates": [[-73.9308159219365, 40.55649364320587], [-73.93109583114848, 40.55640706426142]]}}, {"type": "Feature", "properties": {"segment_id": 1542789, "physicalid": "103913", "street_name": "BCH 222 ST", "borough": "queens", "direction": "TW", "total_row_ft": 54.8, "roadbed_ft": 31.5, "median_ft": 0.0, "left_sw_ft": 8.3, "right_sw_ft": 15.0}, "geometry": {"type": "LineString", "coordinates": [[-73.93078899734317, 40.55644273275758], [-73.93106878259054, 40.55635619216698]]}}, {"type": "Feature", "properties": {"segment_id": 1542790, "physicalid": "103913", "street_name": "BCH 222 ST", "borough": "queens", "direction": "TW", "total_row_ft": 54.9, "roadbed_ft": 31.4, "median_ft": 0.0, "left_sw_ft": 8.5, "right_sw_ft": 15.0}, "geometry": {"type": "LineString", "coordinates": [[-73.93076208293482, 40.55639181916517], [-73.9310417340738, 40.55630532006597]]}}, {"type": "Feature", "properties": {"segment_id": 1542791, "physicalid": "103913", "street_name": "BCH 222 ST", "borough": "queens", "direction": "TW", "total_row_ft": 55.0, "roadbed_ft": 31.3, "median_ft": 0.0, "left_sw_ft": 8.6, "right_sw_ft": 15.0}, "geometry": {"type": "LineString", "coordinates": [[-73.93073517784828, 40.55634090269558], [-73.93101468559824, 40.55625444795838]]}}, {"type": "Feature", "properties": {"segment_id": 1542792, "physicalid": "103913", "street_name": "BCH 222 ST", "borough": "queens", "direction": "TW", "total_row_ft": 55.0, "roadbed_ft": 31.3, "median_ft": 0.0, "left_sw_ft": 8.7, "right_sw_ft": 15.0}, "geometry": {"type": "LineString", "coordinates": [[-73.93070827280275, 40.55628998621948], [-73.93098763716387, 40.556203575844194]]}}, {"type": "Feature", "properties": {"segment_id": 1542793, "physicalid": "103913", "street_name": "BCH 222 ST", "borough": "queens", "direction": "TW", "total_row_ft": 55.1, "roadbed_ft": 31.3, "median_ft": 0.0, "left_sw_ft": 8.8, "right_sw_ft": 15.0}, "geometry": {"type": "LineString", "coordinates": [[-73.93068136779823, 40.55623906973684], [-73.93096058877069, 40.55615270372341]]}}, {"type": "Feature", "properties": {"segment_id": 1542794, "physicalid": "103913", "street_name": "BCH 222 ST", "borough": "queens", "direction": "TW", "total_row_ft": 55.1, "roadbed_ft": 31.2, "median_ft": 0.0, "left_sw_ft": 8.9, "right_sw_ft": 15.0}, "geometry": {"type": "LineString", "coordinates": [[-73.93065446283472, 40.55618815324769], [-73.9309335404187, 40.556101831596045]]}}, {"type": "Feature", "properties": {"segment_id": 1542795, "physicalid": "103913", "street_name": "BCH 222 ST", "borough": "queens", "direction": "TW", "total_row_ft": 54.8, "roadbed_ft": 30.9, "median_ft": 0.0, "left_sw_ft": 8.9, "right_sw_ft": 15.0}, "geometry": {"type": "LineString", "coordinates": [[-73.93062760725768, 40.55613722148902], [-73.93090649210791, 40.556050959462084]]}}, {"type": "Feature", "properties": {"segment_id": 1542796, "physicalid": "103913", "street_name": "BCH 222 ST", "borough": "queens", "direction": "TW", "total_row_ft": 54.5, "roadbed_ft": 30.5, "median_ft": 0.0, "left_sw_ft": 9.0, "right_sw_ft": 15.0}, "geometry": {"type": "LineString", "coordinates": [[-73.93060080154162, 40.55608627431407], [-73.9308794438383, 40.55600008732152]]}}, {"type": "Feature", "properties": {"segment_id": 1542797, "physicalid": "103913", "street_name": "BCH 222 ST", "borough": "queens", "direction": "TW", "total_row_ft": 54.2, "roadbed_ft": 30.2, "median_ft": 0.0, "left_sw_ft": 9.0, "right_sw_ft": 15.0}, "geometry": {"type": "LineString", "coordinates": [[-73.93057399586642, 40.55603532713264], [-73.93085239560989, 40.55594921517441]]}}, {"type": "Feature", "properties": {"segment_id": 1542798, "physicalid": "103913", "street_name": "BCH 222 ST", "borough": "queens", "direction": "TW", "total_row_ft": 53.9, "roadbed_ft": 29.9, "median_ft": 0.0, "left_sw_ft": 9.0, "right_sw_ft": 15.0}, "geometry": {"type": "LineString", "coordinates": [[-73.93054719023212, 40.55598437994475], [-73.93082534742265, 40.55589834302068]]}}, {"type": "Feature", "properties": {"segment_id": 1542799, "physicalid": "103913", "street_name": "BCH 222 ST", "borough": "queens", "direction": "TW", "total_row_ft": 53.6, "roadbed_ft": 29.5, "median_ft": 0.0, "left_sw_ft": 9.1, "right_sw_ft": 15.0}, "geometry": {"type": "LineString", "coordinates": [[-73.9305203846387, 40.55593343275038], [-73.93079829927662, 40.555847470860385]]}}, {"type": "Feature", "properties": {"segment_id": 1542800, "physicalid": "103913", "street_name": "BCH 222 ST", "borough": "queens", "direction": "TW", "total_row_ft": 53.3, "roadbed_ft": 29.2, "median_ft": 0.0, "left_sw_ft": 9.1, "right_sw_ft": 15.0}, "geometry": {"type": "LineString", "coordinates": [[-73.93049357908615, 40.55588248554952], [-73.93077125117178, 40.555796598693455]]}}, {"type": "Feature", "properties": {"segment_id": 1542801, "physicalid": "103913", "street_name": "BCH 222 ST", "borough": "queens", "direction": "TW", "total_row_ft": 53.0, "roadbed_ft": 28.8, "median_ft": 0.0, "left_sw_ft": 9.2, "right_sw_ft": 15.0}, "geometry": {"type": "LineString", "coordinates": [[-73.9304667735745, 40.555831538342204], [-73.9307442031081, 40.55574572651998]]}}, {"type": "Feature", "properties": {"segment_id": 1542802, "physicalid": "103913", "street_name": "BCH 222 ST", "borough": "queens", "direction": "TW", "total_row_ft": 52.9, "roadbed_ft": 28.5, "median_ft": 0.0, "left_sw_ft": 9.5, "right_sw_ft": 15.0}, "geometry": {"type": "LineString", "coordinates": [[-73.93043907751954, 40.555780866593814], [-73.93071715508565, 40.55569485433988]]}}, {"type": "Feature", "properties": {"segment_id": 1542803, "physicalid": "103913", "street_name": "BCH 222 ST", "borough": "queens", "direction": "TW", "total_row_ft": 52.9, "roadbed_ft": 28.1, "median_ft": 0.0, "left_sw_ft": 9.8, "right_sw_ft": 15.0}, "geometry": {"type": "LineString", "coordinates": [[-73.93041123819783, 40.55573023916518], [-73.93069010710437, 40.555643982153235]]}}, {"type": "Feature", "properties": {"segment_id": 1542804, "physicalid": "103913", "street_name": "BCH 222 ST", "borough": "queens", "direction": "TW", "total_row_ft": 89.1, "roadbed_ft": 27.7, "median_ft": 0.0, "left_sw_ft": 46.4, "right_sw_ft": 15.0}, "geometry": {"type": "LineString", "coordinates": [[-73.93026287401564, 40.555716891033406], [-73.93066305916426, 40.55559310995996]]}}, {"type": "Feature", "properties": {"segment_id": 1542805, "physicalid": "103914", "street_name": "BCH 222 ST", "borough": "queens", "direction": "TW", "total_row_ft": 104.0, "roadbed_ft": 74.0, "median_ft": 0.0, "left_sw_ft": 15.0, "right_sw_ft": 15.0}, "geometry": {"type": "LineString", "coordinates": [[-73.9302044173669, 40.555606732524005], [-73.93060491228492, 40.55548353692208]]}}, {"type": "Feature", "properties": {"segment_id": 1542806, "physicalid": "103914", "street_name": "BCH 222 ST", "borough": "queens", "direction": "TW", "total_row_ft": 53.7, "roadbed_ft": 27.9, "median_ft": 0.0, "left_sw_ft": 10.7, "right_sw_ft": 15.0}, "geometry": {"type": "LineString", "coordinates": [[-73.93029529920994, 40.55551958423061], [-73.93057799236315, 40.55543262525943]]}}, {"type": "Feature", "properties": {"segment_id": 1542807, "physicalid": "103914", "street_name": "BCH 222 ST", "borough": "queens", "direction": "TW", "total_row_ft": 52.3, "roadbed_ft": 27.7, "median_ft": 0.0, "left_sw_ft": 9.6, "right_sw_ft": 15.0}, "geometry": {"type": "LineString", "coordinates": [[-73.93027292322255, 40.55546727481585], [-73.93055107248246, 40.55538171359028]]}}, {"type": "Feature", "properties": {"segment_id": 1542808, "physicalid": "103914", "street_name": "BCH 222 ST", "borough": "queens", "direction": "TW", "total_row_ft": 52.2, "roadbed_ft": 27.5, "median_ft": 0.0, "left_sw_ft": 9.7, "right_sw_ft": 15.0}, "geometry": {"type": "LineString", "coordinates": [[-73.93024638094703, 40.5554162469884], [-73.93052415264277, 40.5553308019146]]}}, {"type": "Feature", "properties": {"segment_id": 1542809, "physicalid": "103914", "street_name": "BCH 222 ST", "borough": "queens", "direction": "TW", "total_row_ft": 52.2, "roadbed_ft": 27.3, "median_ft": 0.0, "left_sw_ft": 9.9, "right_sw_ft": 15.0}, "geometry": {"type": "LineString", "coordinates": [[-73.93021937677045, 40.55536536125123], [-73.93049723284412, 40.555279890232384]]}}, {"type": "Feature", "properties": {"segment_id": 1542810, "physicalid": "103914", "street_name": "BCH 222 ST", "borough": "queens", "direction": "TW", "total_row_ft": 52.4, "roadbed_ft": 27.0, "median_ft": 0.0, "left_sw_ft": 10.4, "right_sw_ft": 15.0}, "geometry": {"type": "LineString", "coordinates": [[-73.93019169089445, 40.555314685215876], [-73.9304703130865, 40.55522897854365]]}}, {"type": "Feature", "properties": {"segment_id": 1542811, "physicalid": "103914", "street_name": "BCH 222 ST", "borough": "queens", "direction": "TW", "total_row_ft": 52.7, "roadbed_ft": 27.2, "median_ft": 0.0, "left_sw_ft": 10.5, "right_sw_ft": 15.0}, "geometry": {"type": "LineString", "coordinates": [[-73.93016400506045, 40.55526400917364], [-73.93044339336988, 40.55517806684838]]}}, {"type": "Feature", "properties": {"segment_id": 1542812, "physicalid": "103914", "street_name": "BCH 222 ST", "borough": "queens", "direction": "TW", "total_row_ft": 52.9, "roadbed_ft": 27.4, "median_ft": 0.0, "left_sw_ft": 10.5, "right_sw_ft": 15.0}, "geometry": {"type": "LineString", "coordinates": [[-73.93013631926844, 40.555213333124506], [-73.93041647369434, 40.55512715514662]]}}, {"type": "Feature", "properties": {"segment_id": 1542813, "physicalid": "103914", "street_name": "BCH 222 ST", "borough": "queens", "direction": "TW", "total_row_ft": 53.0, "roadbed_ft": 27.7, "median_ft": 0.0, "left_sw_ft": 10.4, "right_sw_ft": 15.0}, "geometry": {"type": "LineString", "coordinates": [[-73.93010899063613, 40.55516254721654], [-73.93038955405976, 40.555076243438286]]}}, {"type": "Feature", "properties": {"segment_id": 1542814, "physicalid": "103914", "street_name": "BCH 222 ST", "borough": "queens", "direction": "TW", "total_row_ft": 53.2, "roadbed_ft": 27.9, "median_ft": 0.0, "left_sw_ft": 10.3, "right_sw_ft": 15.0}, "geometry": {"type": "LineString", "coordinates": [[-73.93008170878673, 40.55511174692384], [-73.93036263446625, 40.55502533172345]]}}, {"type": "Feature", "properties": {"segment_id": 1542815, "physicalid": "103914", "street_name": "BCH 222 ST", "borough": "queens", "direction": "TW", "total_row_ft": 53.3, "roadbed_ft": 28.2, "median_ft": 0.0, "left_sw_ft": 10.1, "right_sw_ft": 15.0}, "geometry": {"type": "LineString", "coordinates": [[-73.93005442697884, 40.55506094662445], [-73.93033571491372, 40.55497442000204]]}}, {"type": "Feature", "properties": {"segment_id": 1542816, "physicalid": "103914", "street_name": "BCH 222 ST", "borough": "queens", "direction": "TW", "total_row_ft": 53.4, "roadbed_ft": 28.4, "median_ft": 0.0, "left_sw_ft": 10.0, "right_sw_ft": 15.0}, "geometry": {"type": "LineString", "coordinates": [[-73.93002714521243, 40.555010146318374], [-73.93030879540225, 40.55492350827414]]}}, {"type": "Feature", "properties": {"segment_id": 1542817, "physicalid": "103914", "street_name": "BCH 222 ST", "borough": "queens", "direction": "TW", "total_row_ft": 53.5, "roadbed_ft": 28.6, "median_ft": 0.0, "left_sw_ft": 9.9, "right_sw_ft": 15.0}, "geometry": {"type": "LineString", "coordinates": [[-73.92999986348751, 40.554959346005575], [-73.93028187593181, 40.55487259653969]]}}, {"type": "Feature", "properties": {"segment_id": 1542818, "physicalid": "103914", "street_name": "BCH 222 ST", "borough": "queens", "direction": "TW", "total_row_ft": 53.3, "roadbed_ft": 28.7, "median_ft": 0.0, "left_sw_ft": 9.6, "right_sw_ft": 15.0}, "geometry": {"type": "LineString", "coordinates": [[-73.92997304931916, 40.55490840187522], [-73.93025495650238, 40.55482168479873]]}}, {"type": "Feature", "properties": {"segment_id": 1542819, "physicalid": "103914", "street_name": "BCH 222 ST", "borough": "queens", "direction": "TW", "total_row_ft": 53.1, "roadbed_ft": 28.7, "median_ft": 0.0, "left_sw_ft": 9.4, "right_sw_ft": 15.0}, "geometry": {"type": "LineString", "coordinates": [[-73.92994670798878, 40.55485731230265], [-73.93022803711399, 40.55477077305129]]}}, {"type": "Feature", "properties": {"segment_id": 1542820, "physicalid": "103914", "street_name": "BCH 222 ST", "borough": "queens", "direction": "TW", "total_row_ft": 52.8, "roadbed_ft": 28.5, "median_ft": 0.0, "left_sw_ft": 9.3, "right_sw_ft": 15.0}, "geometry": {"type": "LineString", "coordinates": [[-73.9299203666987, 40.554806222723876], [-73.93020111776659, 40.55471986129723]]}}, {"type": "Feature", "properties": {"segment_id": 1542821, "physicalid": "103914", "street_name": "BCH 222 ST", "borough": "queens", "direction": "TW", "total_row_ft": 52.6, "roadbed_ft": 28.3, "median_ft": 0.0, "left_sw_ft": 9.2, "right_sw_ft": 15.0}, "geometry": {"type": "LineString", "coordinates": [[-73.92989402544889, 40.55475513313881], [-73.93017419846026, 40.55466894953671]]}}, {"type": "Feature", "properties": {"segment_id": 1542822, "physicalid": "103914", "street_name": "BCH 222 ST", "borough": "queens", "direction": "TW", "total_row_ft": 52.5, "roadbed_ft": 28.3, "median_ft": 0.0, "left_sw_ft": 9.3, "right_sw_ft": 15.0}, "geometry": {"type": "LineString", "coordinates": [[-73.9298673614466, 40.55470414284077], [-73.93014727919491, 40.554618037769586]]}}, {"type": "Feature", "properties": {"segment_id": 1542852, "physicalid": "103916", "street_name": "BCH 221 ST", "borough": "queens", "direction": "TW", "total_row_ft": 135.0, "roadbed_ft": 75.7, "median_ft": 0.0, "left_sw_ft": 44.3, "right_sw_ft": 15.0}, "geometry": {"type": "LineString", "coordinates": [[-73.93010408363753, 40.55730409935161], [-73.93050519265746, 40.55718205211342]]}}, {"type": "Feature", "properties": {"segment_id": 1542853, "physicalid": "103916", "street_name": "BCH 221 ST", "borough": "queens", "direction": "TW", "total_row_ft": 51.1, "roadbed_ft": 27.8, "median_ft": 0.0, "left_sw_ft": 9.5, "right_sw_ft": 13.8}, "geometry": {"type": "LineString", "coordinates": [[-73.93019744781571, 40.5572165878724], [-73.93036823275975, 40.55716462236898]]}}, {"type": "Feature", "properties": {"segment_id": 1542854, "physicalid": "103916", "street_name": "BCH 221 ST", "borough": "queens", "direction": "TW", "total_row_ft": 50.6, "roadbed_ft": 27.1, "median_ft": 0.0, "left_sw_ft": 10.4, "right_sw_ft": 13.1}, "geometry": {"type": "LineString", "coordinates": [[-73.93017076084155, 40.55716560470722], [-73.93034002205124, 40.557114102844864]]}}, {"type": "Feature", "properties": {"segment_id": 1542855, "physicalid": "103916", "street_name": "BCH 221 ST", "borough": "queens", "direction": "TW", "total_row_ft": 50.3, "roadbed_ft": 27.4, "median_ft": 0.0, "left_sw_ft": 10.3, "right_sw_ft": 12.6}, "geometry": {"type": "LineString", "coordinates": [[-73.93014405716802, 40.55711462662921], [-73.93031210071244, 40.557063495278534]]}}, {"type": "Feature", "properties": {"segment_id": 1542856, "physicalid": "103916", "street_name": "BCH 221 ST", "borough": "queens", "direction": "TW", "total_row_ft": 50.0, "roadbed_ft": 27.7, "median_ft": 0.0, "left_sw_ft": 10.2, "right_sw_ft": 12.0}, "geometry": {"type": "LineString", "coordinates": [[-73.93011717605253, 40.557063702548035], [-73.93028435615521, 40.55701283392777]]}}, {"type": "Feature", "properties": {"segment_id": 1542857, "physicalid": "103916", "street_name": "BCH 221 ST", "borough": "queens", "direction": "TW", "total_row_ft": 49.8, "roadbed_ft": 28.1, "median_ft": 0.0, "left_sw_ft": 10.2, "right_sw_ft": 11.5}, "geometry": {"type": "LineString", "coordinates": [[-73.930090294978, 40.557012778460354], [-73.9302566115857, 40.55696217258662]]}}, {"type": "Feature", "properties": {"segment_id": 1542858, "physicalid": "103916", "street_name": "BCH 221 ST", "borough": "queens", "direction": "TW", "total_row_ft": 49.5, "roadbed_ft": 28.4, "median_ft": 0.0, "left_sw_ft": 10.2, "right_sw_ft": 10.9}, "geometry": {"type": "LineString", "coordinates": [[-73.93006341394447, 40.55696185436616], [-73.93022886703561, 40.556911511245445]]}}, {"type": "Feature", "properties": {"segment_id": 1542859, "physicalid": "103916", "street_name": "BCH 221 ST", "borough": "queens", "direction": "TW", "total_row_ft": 49.2, "roadbed_ft": 28.6, "median_ft": 0.0, "left_sw_ft": 10.2, "right_sw_ft": 10.5}, "geometry": {"type": "LineString", "coordinates": [[-73.93003653295189, 40.556910930265424], [-73.9302011225276, 40.556860849897376]]}}, {"type": "Feature", "properties": {"segment_id": 1542860, "physicalid": "103916", "street_name": "BCH 221 ST", "borough": "queens", "direction": "TW", "total_row_ft": 49.2, "roadbed_ft": 28.8, "median_ft": 0.0, "left_sw_ft": 10.3, "right_sw_ft": 10.1}, "geometry": {"type": "LineString", "coordinates": [[-73.93000896254851, 40.556860215939956], [-73.93017337806165, 40.55681018854238]]}}, {"type": "Feature", "properties": {"segment_id": 1542861, "physicalid": "103916", "street_name": "BCH 221 ST", "borough": "queens", "direction": "TW", "total_row_ft": 49.6, "roadbed_ft": 29.0, "median_ft": 0.0, "left_sw_ft": 10.6, "right_sw_ft": 10.0}, "geometry": {"type": "LineString", "coordinates": [[-73.92998094938709, 40.55680963633977], [-73.93014670653085, 40.55675920072582]]}}, {"type": "Feature", "properties": {"segment_id": 1542862, "physicalid": "103916", "street_name": "BCH 221 ST", "borough": "queens", "direction": "TW", "total_row_ft": 50.0, "roadbed_ft": 29.2, "median_ft": 0.0, "left_sw_ft": 11.0, "right_sw_ft": 9.9}, "geometry": {"type": "LineString", "coordinates": [[-73.92995293653955, 40.556759056649945], [-73.93012021582616, 40.556708157894334]]}}, {"type": "Feature", "properties": {"segment_id": 1542863, "physicalid": "103916", "street_name": "BCH 221 ST", "borough": "queens", "direction": "TW", "total_row_ft": 50.5, "roadbed_ft": 29.4, "median_ft": 0.0, "left_sw_ft": 11.3, "right_sw_ft": 9.9}, "geometry": {"type": "LineString", "coordinates": [[-73.9299249237344, 40.55670847695306], [-73.93009372516197, 40.55665711505653]]}}, {"type": "Feature", "properties": {"segment_id": 1542932, "physicalid": "103919", "street_name": "4 AVE", "borough": "queens", "direction": "TW", "total_row_ft": 150.0, "roadbed_ft": 120.0, "median_ft": 0.0, "left_sw_ft": 15.0, "right_sw_ft": 15.0}, "geometry": {"type": "LineString", "coordinates": [[-73.9299426874214, 40.555558520120584], [-73.93010920139331, 40.55586242618928]]}}, {"type": "Feature", "properties": {"segment_id": 1542933, "physicalid": "103919", "street_name": "4 AVE", "borough": "queens", "direction": "TW", "total_row_ft": 61.4, "roadbed_ft": 36.8, "median_ft": 0.0, "left_sw_ft": 13.2, "right_sw_ft": 11.4}, "geometry": {"type": "LineString", "coordinates": [[-73.93004877747438, 40.555609777939694], [-73.93013392484755, 40.555765180863546]]}}, {"type": "Feature", "properties": {"segment_id": 1542934, "physicalid": "103919", "street_name": "4 AVE", "borough": "queens", "direction": "TW", "total_row_ft": 61.7, "roadbed_ft": 36.9, "median_ft": 0.0, "left_sw_ft": 13.6, "right_sw_ft": 11.2}, "geometry": {"type": "LineString", "coordinates": [[-73.93011454250453, 40.555587437982126], [-73.93020020947006, 40.55574378893693]]}}, {"type": "Feature", "properties": {"segment_id": 1542935, "physicalid": "103919", "street_name": "4 AVE", "borough": "queens", "direction": "TW", "total_row_ft": 61.6, "roadbed_ft": 37.1, "median_ft": 0.0, "left_sw_ft": 13.5, "right_sw_ft": 11.0}, "geometry": {"type": "LineString", "coordinates": [[-73.93018099440708, 40.55556635168026], [-73.9302664940501, 40.55572239697202]]}}, {"type": "Feature", "properties": {"segment_id": 1542936, "physicalid": "103919", "street_name": "4 AVE", "borough": "queens", "direction": "TW", "total_row_ft": 61.3, "roadbed_ft": 37.3, "median_ft": 0.0, "left_sw_ft": 13.2, "right_sw_ft": 10.8}, "geometry": {"type": "LineString", "coordinates": [[-73.93024767345713, 40.55554567998342], [-73.93033277858771, 40.55570100496884]]}}, {"type": "Feature", "properties": {"segment_id": 1542937, "physicalid": "103919", "street_name": "4 AVE", "borough": "queens", "direction": "TW", "total_row_ft": 120.0, "roadbed_ft": 38.5, "median_ft": 0.0, "left_sw_ft": 40.8, "right_sw_ft": 40.6}, "geometry": {"type": "LineString", "coordinates": [[-73.93027472391047, 40.555452682215794], [-73.93044123912891, 40.55575658780577]]}}, {"type": "Feature", "properties": {"segment_id": 1546134, "physicalid": "104210", "street_name": "4 AVE", "borough": "queens", "direction": "TW", "total_row_ft": 55.5, "roadbed_ft": 25.5, "median_ft": 0.0, "left_sw_ft": 15.0, "right_sw_ft": 15.0}, "geometry": {"type": "LineString", "coordinates": [[-73.93116697915144, 40.55508209573337], [-73.93129162315866, 40.55539745401765]]}}, {"type": "Feature", "properties": {"segment_id": 1546135, "physicalid": "104210", "street_name": "4 AVE", "borough": "queens", "direction": "TW", "total_row_ft": 52.7, "roadbed_ft": 22.7, "median_ft": 0.0, "left_sw_ft": 15.0, "right_sw_ft": 15.0}, "geometry": {"type": "LineString", "coordinates": [[-73.9312358884885, 40.55506625068433], [-73.93136053279142, 40.555381608894265]]}}, {"type": "Feature", "properties": {"segment_id": 1546136, "physicalid": "104210", "street_name": "4 AVE", "borough": "queens", "direction": "TW", "total_row_ft": 53.3, "roadbed_ft": 23.3, "median_ft": 0.0, "left_sw_ft": 15.0, "right_sw_ft": 15.0}, "geometry": {"type": "LineString", "coordinates": [[-73.93130479779286, 40.55505040559393], [-73.93142944239148, 40.55536576372948]]}}, {"type": "Feature", "properties": {"segment_id": 1546137, "physicalid": "104210", "street_name": "4 AVE", "borough": "queens", "direction": "TW", "total_row_ft": 53.5, "roadbed_ft": 23.5, "median_ft": 0.0, "left_sw_ft": 15.0, "right_sw_ft": 15.0}, "geometry": {"type": "LineString", "coordinates": [[-73.93137370706457, 40.555034560462175], [-73.93149835195885, 40.55534991852337]]}}, {"type": "Feature", "properties": {"segment_id": 1546138, "physicalid": "104210", "street_name": "4 AVE", "borough": "queens", "direction": "TW", "total_row_ft": 53.6, "roadbed_ft": 23.6, "median_ft": 0.0, "left_sw_ft": 15.0, "right_sw_ft": 15.0}, "geometry": {"type": "LineString", "coordinates": [[-73.93144261630358, 40.555018715289044], [-73.93156726149354, 40.55533407327589]]}}, {"type": "Feature", "properties": {"segment_id": 1546139, "physicalid": "104210", "street_name": "4 AVE", "borough": "queens", "direction": "TW", "total_row_ft": 53.7, "roadbed_ft": 23.7, "median_ft": 0.0, "left_sw_ft": 15.0, "right_sw_ft": 15.0}, "geometry": {"type": "LineString", "coordinates": [[-73.93151152550989, 40.55500287007453], [-73.93163617099555, 40.55531822798699]]}}, {"type": "Feature", "properties": {"segment_id": 1546140, "physicalid": "104210", "street_name": "4 AVE", "borough": "queens", "direction": "TW", "total_row_ft": 53.8, "roadbed_ft": 23.8, "median_ft": 0.0, "left_sw_ft": 15.0, "right_sw_ft": 15.0}, "geometry": {"type": "LineString", "coordinates": [[-73.93158043468354, 40.554987024818665], [-73.93170508046487, 40.555302382656755]]}}, {"type": "Feature", "properties": {"segment_id": 1546141, "physicalid": "104210", "street_name": "4 AVE", "borough": "queens", "direction": "TW", "total_row_ft": 53.9, "roadbed_ft": 23.9, "median_ft": 0.0, "left_sw_ft": 15.0, "right_sw_ft": 15.0}, "geometry": {"type": "LineString", "coordinates": [[-73.93164934382447, 40.55497117952144], [-73.93177398990152, 40.55528653728515]]}}, {"type": "Feature", "properties": {"segment_id": 1546142, "physicalid": "104210", "street_name": "4 AVE", "borough": "queens", "direction": "TW", "total_row_ft": 54.0, "roadbed_ft": 24.0, "median_ft": 0.0, "left_sw_ft": 15.0, "right_sw_ft": 15.0}, "geometry": {"type": "LineString", "coordinates": [[-73.93171825293274, 40.554955334182836], [-73.93184289930548, 40.55527069187219]]}}, {"type": "Feature", "properties": {"segment_id": 1546143, "physicalid": "104210", "street_name": "4 AVE", "borough": "queens", "direction": "TW", "total_row_ft": 54.2, "roadbed_ft": 24.2, "median_ft": 0.0, "left_sw_ft": 15.0, "right_sw_ft": 15.0}, "geometry": {"type": "LineString", "coordinates": [[-73.93178716200833, 40.554939488802866], [-73.93191180867674, 40.55525484641785]]}}, {"type": "Feature", "properties": {"segment_id": 1546144, "physicalid": "104210", "street_name": "4 AVE", "borough": "queens", "direction": "TW", "total_row_ft": 54.3, "roadbed_ft": 24.3, "median_ft": 0.0, "left_sw_ft": 15.0, "right_sw_ft": 15.0}, "geometry": {"type": "LineString", "coordinates": [[-73.93185607105123, 40.55492364338153], [-73.93198071801534, 40.55523900092213]]}}, {"type": "Feature", "properties": {"segment_id": 1546145, "physicalid": "104210", "street_name": "4 AVE", "borough": "queens", "direction": "TW", "total_row_ft": 53.7, "roadbed_ft": 23.7, "median_ft": 0.0, "left_sw_ft": 15.0, "right_sw_ft": 15.0}, "geometry": {"type": "LineString", "coordinates": [[-73.93192498006145, 40.55490779791881], [-73.93204962732122, 40.555223155385086]]}}, {"type": "Feature", "properties": {"segment_id": 1546146, "physicalid": "104210", "street_name": "4 AVE", "borough": "queens", "direction": "TW", "total_row_ft": 53.0, "roadbed_ft": 23.0, "median_ft": 0.0, "left_sw_ft": 15.0, "right_sw_ft": 15.0}, "geometry": {"type": "LineString", "coordinates": [[-73.93199388903898, 40.554891952414735], [-73.93211853659444, 40.555207309806626]]}}, {"type": "Feature", "properties": {"segment_id": 1546147, "physicalid": "104210", "street_name": "4 AVE", "borough": "queens", "direction": "TW", "total_row_ft": 52.3, "roadbed_ft": 22.3, "median_ft": 0.0, "left_sw_ft": 15.0, "right_sw_ft": 15.0}, "geometry": {"type": "LineString", "coordinates": [[-73.93206279798382, 40.55487610686929], [-73.93218744583497, 40.55519146418682]]}}, {"type": "Feature", "properties": {"segment_id": 1546148, "physicalid": "104210", "street_name": "4 AVE", "borough": "queens", "direction": "TW", "total_row_ft": 51.6, "roadbed_ft": 21.6, "median_ft": 0.0, "left_sw_ft": 15.0, "right_sw_ft": 15.0}, "geometry": {"type": "LineString", "coordinates": [[-73.93213170689596, 40.5548602612825], [-73.93225635504284, 40.555175618525624]]}}, {"type": "Feature", "properties": {"segment_id": 1546149, "physicalid": "104210", "street_name": "4 AVE", "borough": "queens", "direction": "TW", "total_row_ft": 51.1, "roadbed_ft": 21.1, "median_ft": 0.0, "left_sw_ft": 15.0, "right_sw_ft": 15.0}, "geometry": {"type": "LineString", "coordinates": [[-73.93220061577544, 40.55484441565431], [-73.932325264218, 40.555159772823075]]}}, {"type": "Feature", "properties": {"segment_id": 1546150, "physicalid": "104210", "street_name": "4 AVE", "borough": "queens", "direction": "TW", "total_row_ft": 51.7, "roadbed_ft": 21.7, "median_ft": 0.0, "left_sw_ft": 15.0, "right_sw_ft": 15.0}, "geometry": {"type": "LineString", "coordinates": [[-73.93226952462224, 40.55482856998475], [-73.93239417336045, 40.555143927079165]]}}, {"type": "Feature", "properties": {"segment_id": 1546151, "physicalid": "104210", "street_name": "4 AVE", "borough": "queens", "direction": "TW", "total_row_ft": 52.2, "roadbed_ft": 22.2, "median_ft": 0.0, "left_sw_ft": 15.0, "right_sw_ft": 15.0}, "geometry": {"type": "LineString", "coordinates": [[-73.93233843343636, 40.55481272427385], [-73.93246308247024, 40.555128081293894]]}}, {"type": "Feature", "properties": {"segment_id": 1546152, "physicalid": "104210", "street_name": "4 AVE", "borough": "queens", "direction": "TW", "total_row_ft": 52.6, "roadbed_ft": 22.6, "median_ft": 0.0, "left_sw_ft": 15.0, "right_sw_ft": 15.0}, "geometry": {"type": "LineString", "coordinates": [[-73.93240734221776, 40.554796878521564], [-73.93253199154735, 40.555112235467234]]}}, {"type": "Feature", "properties": {"segment_id": 1546153, "physicalid": "104210", "street_name": "4 AVE", "borough": "queens", "direction": "TW", "total_row_ft": 53.1, "roadbed_ft": 23.1, "median_ft": 0.0, "left_sw_ft": 15.0, "right_sw_ft": 15.0}, "geometry": {"type": "LineString", "coordinates": [[-73.93247625096649, 40.55478103272794], [-73.93260090059177, 40.555096389599214]]}}, {"type": "Feature", "properties": {"segment_id": 1546154, "physicalid": "104210", "street_name": "4 AVE", "borough": "queens", "direction": "TW", "total_row_ft": 53.5, "roadbed_ft": 23.5, "median_ft": 0.0, "left_sw_ft": 15.0, "right_sw_ft": 15.0}, "geometry": {"type": "LineString", "coordinates": [[-73.93254515968255, 40.554765186892915], [-73.9326698096035, 40.555080543689826]]}}, {"type": "Feature", "properties": {"segment_id": 1546155, "physicalid": "104210", "street_name": "4 AVE", "borough": "queens", "direction": "TW", "total_row_ft": 54.0, "roadbed_ft": 24.0, "median_ft": 0.0, "left_sw_ft": 15.0, "right_sw_ft": 15.0}, "geometry": {"type": "LineString", "coordinates": [[-73.9326140683659, 40.55474934101654], [-73.93273871858256, 40.5550646977391]]}}, {"type": "Feature", "properties": {"segment_id": 1546156, "physicalid": "104210", "street_name": "4 AVE", "borough": "queens", "direction": "TW", "total_row_ft": 54.4, "roadbed_ft": 24.4, "median_ft": 0.0, "left_sw_ft": 15.0, "right_sw_ft": 15.0}, "geometry": {"type": "LineString", "coordinates": [[-73.9326829770166, 40.55473349509879], [-73.9328076275289, 40.55504885174697]]}}, {"type": "Feature", "properties": {"segment_id": 1546157, "physicalid": "104210", "street_name": "4 AVE", "borough": "queens", "direction": "TW", "total_row_ft": 54.9, "roadbed_ft": 24.9, "median_ft": 0.0, "left_sw_ft": 15.0, "right_sw_ft": 15.0}, "geometry": {"type": "LineString", "coordinates": [[-73.93275188563457, 40.55471764913967], [-73.93287653644259, 40.555033005713476]]}}, {"type": "Feature", "properties": {"segment_id": 1546158, "physicalid": "104210", "street_name": "4 AVE", "borough": "queens", "direction": "TW", "total_row_ft": 55.3, "roadbed_ft": 25.3, "median_ft": 0.0, "left_sw_ft": 15.0, "right_sw_ft": 15.0}, "geometry": {"type": "LineString", "coordinates": [[-73.9328207942199, 40.55470180313918], [-73.93294544532355, 40.55501715963864]]}}, {"type": "Feature", "properties": {"segment_id": 1546159, "physicalid": "104210", "street_name": "4 AVE", "borough": "queens", "direction": "TW", "total_row_ft": 55.8, "roadbed_ft": 25.8, "median_ft": 0.0, "left_sw_ft": 15.0, "right_sw_ft": 15.0}, "geometry": {"type": "LineString", "coordinates": [[-73.9328897027725, 40.554685957097334], [-73.93301435417186, 40.555001313522396]]}}, {"type": "Feature", "properties": {"segment_id": 1546160, "physicalid": "104210", "street_name": "4 AVE", "borough": "queens", "direction": "TW", "total_row_ft": 57.3, "roadbed_ft": 27.3, "median_ft": 0.0, "left_sw_ft": 15.0, "right_sw_ft": 15.0}, "geometry": {"type": "LineString", "coordinates": [[-73.93295861129245, 40.55467011101411], [-73.93308326298748, 40.55498546736482]]}}, {"type": "Feature", "properties": {"segment_id": 1546161, "physicalid": "104211", "street_name": "BCH 227 ST", "borough": "queens", "direction": "TW", "total_row_ft": 60.8, "roadbed_ft": 30.8, "median_ft": 0.0, "left_sw_ft": 15.0, "right_sw_ft": 15.0}, "geometry": {"type": "LineString", "coordinates": [[-73.9329992368876, 40.554657672107176], [-73.93327590829588, 40.554910567739]]}}, {"type": "Feature", "properties": {"segment_id": 1546162, "physicalid": "104211", "street_name": "BCH 227 ST", "borough": "queens", "direction": "TW", "total_row_ft": 60.4, "roadbed_ft": 30.4, "median_ft": 0.0, "left_sw_ft": 15.0, "right_sw_ft": 15.0}, "geometry": {"type": "LineString", "coordinates": [[-73.93305449712338, 40.55462250074055], [-73.9333311685952, 40.55487539623999]]}}, {"type": "Feature", "properties": {"segment_id": 1546163, "physicalid": "104211", "street_name": "BCH 227 ST", "borough": "queens", "direction": "TW", "total_row_ft": 58.6, "roadbed_ft": 28.6, "median_ft": 0.0, "left_sw_ft": 15.0, "right_sw_ft": 15.0}, "geometry": {"type": "LineString", "coordinates": [[-73.93308692803521, 40.55459829202103], [-73.93340208644008, 40.55482346881435]]}}, {"type": "Feature", "properties": {"segment_id": 1546164, "physicalid": "104211", "street_name": "BCH 227 ST", "borough": "queens", "direction": "TW", "total_row_ft": 56.9, "roadbed_ft": 26.9, "median_ft": 0.0, "left_sw_ft": 15.0, "right_sw_ft": 15.0}, "geometry": {"type": "LineString", "coordinates": [[-73.93313613140838, 40.554558228014784], [-73.93345128979011, 40.554783404673834]]}}, {"type": "Feature", "properties": {"segment_id": 1546165, "physicalid": "104211", "street_name": "BCH 227 ST", "borough": "queens", "direction": "TW", "total_row_ft": 54.7, "roadbed_ft": 24.7, "median_ft": 0.0, "left_sw_ft": 15.0, "right_sw_ft": 15.0}, "geometry": {"type": "LineString", "coordinates": [[-73.93316549077153, 40.55453246204823], [-73.93351513403793, 40.55472576721815]]}}, {"type": "Feature", "properties": {"segment_id": 1546166, "physicalid": "104211", "street_name": "BCH 227 ST", "borough": "queens", "direction": "TW", "total_row_ft": 53.1, "roadbed_ft": 23.1, "median_ft": 0.0, "left_sw_ft": 15.0, "right_sw_ft": 15.0}, "geometry": {"type": "LineString", "coordinates": [[-73.93320772986786, 40.554488014148], [-73.93355737302394, 40.554681319190024]]}}, {"type": "Feature", "properties": {"segment_id": 1546167, "physicalid": "104211", "street_name": "BCH 227 ST", "borough": "queens", "direction": "TW", "total_row_ft": 52.0, "roadbed_ft": 22.0, "median_ft": 0.0, "left_sw_ft": 15.0, "right_sw_ft": 15.0}, "geometry": {"type": "LineString", "coordinates": [[-73.93323440820477, 40.554460914834344], [-73.93361346669134, 40.55461870058597]]}}, {"type": "Feature", "properties": {"segment_id": 1546168, "physicalid": "104211", "street_name": "BCH 227 ST", "borough": "queens", "direction": "TW", "total_row_ft": 53.4, "roadbed_ft": 23.4, "median_ft": 0.0, "left_sw_ft": 15.0, "right_sw_ft": 15.0}, "geometry": {"type": "LineString", "coordinates": [[-73.93326888595867, 40.554412727492085], [-73.93364794425332, 40.55457051313048]]}}, {"type": "Feature", "properties": {"segment_id": 1546169, "physicalid": "104211", "street_name": "BCH 227 ST", "borough": "queens", "direction": "TW", "total_row_ft": 54.5, "roadbed_ft": 24.5, "median_ft": 0.0, "left_sw_ft": 15.0, "right_sw_ft": 15.0}, "geometry": {"type": "LineString", "coordinates": [[-73.93330336366287, 40.554364540139204], [-73.93368242176552, 40.554522325664486]]}}, {"type": "Feature", "properties": {"segment_id": 1546170, "physicalid": "104211", "street_name": "BCH 227 ST", "borough": "queens", "direction": "TW", "total_row_ft": 54.7, "roadbed_ft": 24.7, "median_ft": 0.0, "left_sw_ft": 15.0, "right_sw_ft": 15.0}, "geometry": {"type": "LineString", "coordinates": [[-73.9333192658888, 40.554333123756955], [-73.93372173914197, 40.55445249611358]]}}, {"type": "Feature", "properties": {"segment_id": 1546171, "physicalid": "104211", "street_name": "BCH 227 ST", "borough": "queens", "direction": "TW", "total_row_ft": 54.1, "roadbed_ft": 24.1, "median_ft": 0.0, "left_sw_ft": 15.0, "right_sw_ft": 15.0}, "geometry": {"type": "LineString", "coordinates": [[-73.9333453499337, 40.55428195971604], [-73.93374782292528, 40.55440133198179]]}}, {"type": "Feature", "properties": {"segment_id": 1546172, "physicalid": "104211", "street_name": "BCH 227 ST", "borough": "queens", "direction": "TW", "total_row_ft": 52.8, "roadbed_ft": 22.8, "median_ft": 0.0, "left_sw_ft": 15.0, "right_sw_ft": 15.0}, "geometry": {"type": "LineString", "coordinates": [[-73.93335849949476, 40.55424987468097], [-73.9337777211498, 40.554328886965486]]}}, {"type": "Feature", "properties": {"segment_id": 1546173, "physicalid": "104211", "street_name": "BCH 227 ST", "borough": "queens", "direction": "TW", "total_row_ft": 51.7, "roadbed_ft": 21.7, "median_ft": 0.0, "left_sw_ft": 15.0, "right_sw_ft": 15.0}, "geometry": {"type": "LineString", "coordinates": [[-73.93337576450624, 40.55419658141775], [-73.9337949858473, 40.55427559363959]]}}, {"type": "Feature", "properties": {"segment_id": 1546174, "physicalid": "104211", "street_name": "BCH 227 ST", "borough": "queens", "direction": "TW", "total_row_ft": 52.2, "roadbed_ft": 22.2, "median_ft": 0.0, "left_sw_ft": 15.0, "right_sw_ft": 15.0}, "geometry": {"type": "LineString", "coordinates": [[-73.93338610373286, 40.55416368885502], [-73.93381510297061, 40.55420133937221]]}}, {"type": "Feature", "properties": {"segment_id": 1546175, "physicalid": "104211", "street_name": "BCH 227 ST", "borough": "queens", "direction": "TW", "total_row_ft": 52.6, "roadbed_ft": 22.6, "median_ft": 0.0, "left_sw_ft": 15.0, "right_sw_ft": 15.0}, "geometry": {"type": "LineString", "coordinates": [[-73.93339433084968, 40.55410915251983], [-73.9338233297419, 40.554146803006525]]}}, {"type": "Feature", "properties": {"segment_id": 1546176, "physicalid": "104211", "street_name": "BCH 227 ST", "borough": "queens", "direction": "TW", "total_row_ft": 53.2, "roadbed_ft": 23.2, "median_ft": 0.0, "left_sw_ft": 15.0, "right_sw_ft": 15.0}, "geometry": {"type": "LineString", "coordinates": [[-73.93340255795306, 40.554054616183834], [-73.93383155649974, 40.554092266639984]]}}, {"type": "Feature", "properties": {"segment_id": 1546177, "physicalid": "104211", "street_name": "BCH 227 ST", "borough": "queens", "direction": "TW", "total_row_ft": 65.5, "roadbed_ft": 35.5, "median_ft": 0.0, "left_sw_ft": 15.0, "right_sw_ft": 15.0}, "geometry": {"type": "LineString", "coordinates": [[-73.9334007098, 40.55402037362042], [-73.93383251235815, 40.55401675080363]]}}, {"type": "Feature", "properties": {"segment_id": 1546178, "physicalid": "104211", "street_name": "BCH 227 ST", "borough": "queens", "direction": "TW", "total_row_ft": 70.3, "roadbed_ft": 40.3, "median_ft": 0.0, "left_sw_ft": 15.0, "right_sw_ft": 15.0}, "geometry": {"type": "LineString", "coordinates": [[-73.9333999183644, 40.55396548076239], [-73.93383172056785, 40.553961857948565]]}}, {"type": "Feature", "properties": {"segment_id": 1546179, "physicalid": "104211", "street_name": "BCH 227 ST", "borough": "queens", "direction": "TW", "total_row_ft": 71.1, "roadbed_ft": 41.1, "median_ft": 0.0, "left_sw_ft": 15.0, "right_sw_ft": 15.0}, "geometry": {"type": "LineString", "coordinates": [[-73.9333945003224, 40.55393107135823], [-73.93382248131445, 40.55388720378968]]}}, {"type": "Feature", "properties": {"segment_id": 1546180, "physicalid": "104211", "street_name": "BCH 227 ST", "borough": "queens", "direction": "TW", "total_row_ft": 71.7, "roadbed_ft": 41.7, "median_ft": 0.0, "left_sw_ft": 15.0, "right_sw_ft": 15.0}, "geometry": {"type": "LineString", "coordinates": [[-73.93338491511261, 40.553876664210094], [-73.93381289576249, 40.55383279667715]]}}, {"type": "Feature", "properties": {"segment_id": 1546181, "physicalid": "104211", "street_name": "BCH 227 ST", "borough": "queens", "direction": "TW", "total_row_ft": 70.2, "roadbed_ft": 40.2, "median_ft": 0.0, "left_sw_ft": 15.0, "right_sw_ft": 15.0}, "geometry": {"type": "LineString", "coordinates": [[-73.9333788386347, 40.553863595317296], [-73.93377968642908, 40.55374108908485]]}}, {"type": "Feature", "properties": {"segment_id": 1546182, "physicalid": "104211", "street_name": "BCH 227 ST", "borough": "queens", "direction": "TW", "total_row_ft": 68.5, "roadbed_ft": 38.5, "median_ft": 0.0, "left_sw_ft": 15.0, "right_sw_ft": 15.0}, "geometry": {"type": "LineString", "coordinates": [[-73.93335207030718, 40.55381263736656], [-73.93375291784494, 40.55369013122705]]}}, {"type": "Feature", "properties": {"segment_id": 1546183, "physicalid": "104211", "street_name": "BCH 227 ST", "borough": "queens", "direction": "TW", "total_row_ft": 68.2, "roadbed_ft": 38.2, "median_ft": 0.0, "left_sw_ft": 15.0, "right_sw_ft": 15.0}, "geometry": {"type": "LineString", "coordinates": [[-73.9333253020205, 40.5537616794094], [-73.93372614930163, 40.55363917336279]]}}, {"type": "Feature", "properties": {"segment_id": 1546184, "physicalid": "104211", "street_name": "BCH 227 ST", "borough": "queens", "direction": "TW", "total_row_ft": 67.4, "roadbed_ft": 37.4, "median_ft": 0.0, "left_sw_ft": 15.0, "right_sw_ft": 15.0}, "geometry": {"type": "LineString", "coordinates": [[-73.93329853377466, 40.55371072144578], [-73.93369938079915, 40.55358821549208]]}}, {"type": "Feature", "properties": {"segment_id": 1546185, "physicalid": "104211", "street_name": "BCH 227 ST", "borough": "queens", "direction": "TW", "total_row_ft": 63.1, "roadbed_ft": 33.1, "median_ft": 0.0, "left_sw_ft": 15.0, "right_sw_ft": 15.0}, "geometry": {"type": "LineString", "coordinates": [[-73.93327176556964, 40.55365976347569], [-73.93367261233749, 40.55353725761489]]}}, {"type": "Feature", "properties": {"segment_id": 1546186, "physicalid": "104211", "street_name": "BCH 227 ST", "borough": "queens", "direction": "TW", "total_row_ft": 60.0, "roadbed_ft": 30.0, "median_ft": 0.0, "left_sw_ft": 15.0, "right_sw_ft": 15.0}, "geometry": {"type": "LineString", "coordinates": [[-73.93324499740545, 40.553608805499145], [-73.93364584391668, 40.55348629973126]]}}, {"type": "Feature", "properties": {"segment_id": 1546187, "physicalid": "104211", "street_name": "BCH 227 ST", "borough": "queens", "direction": "TW", "total_row_ft": 56.6, "roadbed_ft": 26.6, "median_ft": 0.0, "left_sw_ft": 15.0, "right_sw_ft": 15.0}, "geometry": {"type": "LineString", "coordinates": [[-73.93321822928212, 40.553557847516146], [-73.93361907553668, 40.55343534184116]]}}, {"type": "Feature", "properties": {"segment_id": 1546188, "physicalid": "104211", "street_name": "BCH 227 ST", "borough": "queens", "direction": "TW", "total_row_ft": 53.8, "roadbed_ft": 23.8, "median_ft": 0.0, "left_sw_ft": 15.0, "right_sw_ft": 15.0}, "geometry": {"type": "LineString", "coordinates": [[-73.93319146119958, 40.553506889526695], [-73.93359230719754, 40.55338438394462]]}}, {"type": "Feature", "properties": {"segment_id": 1546189, "physicalid": "104211", "street_name": "BCH 227 ST", "borough": "queens", "direction": "TW", "total_row_ft": 53.5, "roadbed_ft": 23.5, "median_ft": 0.0, "left_sw_ft": 15.0, "right_sw_ft": 15.0}, "geometry": {"type": "LineString", "coordinates": [[-73.93316469315789, 40.55345593153076], [-73.93356553889922, 40.55333342604161]]}}, {"type": "Feature", "properties": {"segment_id": 1546190, "physicalid": "104211", "street_name": "BCH 227 ST", "borough": "queens", "direction": "TW", "total_row_ft": 53.3, "roadbed_ft": 23.3, "median_ft": 0.0, "left_sw_ft": 15.0, "right_sw_ft": 15.0}, "geometry": {"type": "LineString", "coordinates": [[-73.93313792515703, 40.55340497352842], [-73.9335387706417, 40.55328246813213]]}}, {"type": "Feature", "properties": {"segment_id": 1546191, "physicalid": "104211", "street_name": "BCH 227 ST", "borough": "queens", "direction": "TW", "total_row_ft": 53.1, "roadbed_ft": 23.1, "median_ft": 0.0, "left_sw_ft": 15.0, "right_sw_ft": 15.0}, "geometry": {"type": "LineString", "coordinates": [[-73.933111157197, 40.55335401551958], [-73.93351200242505, 40.55323151021621]]}}, {"type": "Feature", "properties": {"segment_id": 1546192, "physicalid": "104211", "street_name": "BCH 227 ST", "borough": "queens", "direction": "TW", "total_row_ft": 52.9, "roadbed_ft": 22.9, "median_ft": 0.0, "left_sw_ft": 15.0, "right_sw_ft": 15.0}, "geometry": {"type": "LineString", "coordinates": [[-73.9330843892778, 40.553303057504294], [-73.9334852342492, 40.553180552293846]]}}, {"type": "Feature", "properties": {"segment_id": 1546193, "physicalid": "104211", "street_name": "BCH 227 ST", "borough": "queens", "direction": "TW", "total_row_ft": 52.6, "roadbed_ft": 22.6, "median_ft": 0.0, "left_sw_ft": 15.0, "right_sw_ft": 15.0}, "geometry": {"type": "LineString", "coordinates": [[-73.93305762139941, 40.55325209948255], [-73.93345846611422, 40.553129594365004]]}}, {"type": "Feature", "properties": {"segment_id": 1546194, "physicalid": "104211", "street_name": "BCH 227 ST", "borough": "queens", "direction": "TW", "total_row_ft": 52.4, "roadbed_ft": 22.4, "median_ft": 0.0, "left_sw_ft": 15.0, "right_sw_ft": 15.0}, "geometry": {"type": "LineString", "coordinates": [[-73.93303085356187, 40.55320114145436], [-73.93343169802004, 40.553078636429724]]}}, {"type": "Feature", "properties": {"segment_id": 1546195, "physicalid": "104211", "street_name": "BCH 227 ST", "borough": "queens", "direction": "TW", "total_row_ft": 52.2, "roadbed_ft": 22.2, "median_ft": 0.0, "left_sw_ft": 15.0, "right_sw_ft": 15.0}, "geometry": {"type": "LineString", "coordinates": [[-73.93300408576516, 40.553150183419696], [-73.93340492996668, 40.55302767848798]]}}, {"type": "Feature", "properties": {"segment_id": 1546196, "physicalid": "104211", "street_name": "BCH 227 ST", "borough": "queens", "direction": "TW", "total_row_ft": 54.8, "roadbed_ft": 24.8, "median_ft": 0.0, "left_sw_ft": 15.0, "right_sw_ft": 15.0}, "geometry": {"type": "LineString", "coordinates": [[-73.9329775696869, 40.55310081294398], [-73.93337689116909, 40.552975448666075]]}}, {"type": "Feature", "properties": {"segment_id": 1546197, "physicalid": "104211", "street_name": "BCH 227 ST", "borough": "queens", "direction": "TW", "total_row_ft": 58.4, "roadbed_ft": 28.4, "median_ft": 0.0, "left_sw_ft": 15.0, "right_sw_ft": 15.0}, "geometry": {"type": "LineString", "coordinates": [[-73.93295017716943, 40.55305004844127], [-73.93334949839964, 40.55292468425806]]}}, {"type": "Feature", "properties": {"segment_id": 1546198, "physicalid": "104211", "street_name": "BCH 227 ST", "borough": "queens", "direction": "TW", "total_row_ft": 60.5, "roadbed_ft": 30.5, "median_ft": 0.0, "left_sw_ft": 15.0, "right_sw_ft": 15.0}, "geometry": {"type": "LineString", "coordinates": [[-73.93292278469359, 40.55299928393178], [-73.9333221056718, 40.55287391984331]]}}, {"type": "Feature", "properties": {"segment_id": 1546199, "physicalid": "104211", "street_name": "BCH 227 ST", "borough": "queens", "direction": "TW", "total_row_ft": 60.8, "roadbed_ft": 30.8, "median_ft": 0.0, "left_sw_ft": 15.0, "right_sw_ft": 15.0}, "geometry": {"type": "LineString", "coordinates": [[-73.93289539225937, 40.55294851941552], [-73.93329471298561, 40.552823155421834]]}}, {"type": "Feature", "properties": {"segment_id": 1546200, "physicalid": "104211", "street_name": "BCH 227 ST", "borough": "queens", "direction": "TW", "total_row_ft": 61.1, "roadbed_ft": 31.1, "median_ft": 0.0, "left_sw_ft": 15.0, "right_sw_ft": 15.0}, "geometry": {"type": "LineString", "coordinates": [[-73.93286799986676, 40.55289775489255], [-73.93326732034103, 40.55277239099356]]}}, {"type": "Feature", "properties": {"segment_id": 1546201, "physicalid": "104211", "street_name": "BCH 227 ST", "borough": "queens", "direction": "TW", "total_row_ft": 61.5, "roadbed_ft": 31.5, "median_ft": 0.0, "left_sw_ft": 15.0, "right_sw_ft": 15.0}, "geometry": {"type": "LineString", "coordinates": [[-73.93284060751581, 40.552846990362866], [-73.93323992773804, 40.552721626558515]]}}, {"type": "Feature", "properties": {"segment_id": 1546202, "physicalid": "104211", "street_name": "BCH 227 ST", "borough": "queens", "direction": "TW", "total_row_ft": 61.8, "roadbed_ft": 31.8, "median_ft": 0.0, "left_sw_ft": 15.0, "right_sw_ft": 15.0}, "geometry": {"type": "LineString", "coordinates": [[-73.93281321520647, 40.552796225826384], [-73.93321253517671, 40.55267086211676]]}}, {"type": "Feature", "properties": {"segment_id": 1546203, "physicalid": "104211", "street_name": "BCH 227 ST", "borough": "queens", "direction": "TW", "total_row_ft": 62.1, "roadbed_ft": 32.1, "median_ft": 0.0, "left_sw_ft": 15.0, "right_sw_ft": 15.0}, "geometry": {"type": "LineString", "coordinates": [[-73.93278582293875, 40.55274546128315], [-73.933185142657, 40.55262009766826]]}}, {"type": "Feature", "properties": {"segment_id": 1546204, "physicalid": "104211", "street_name": "BCH 227 ST", "borough": "queens", "direction": "TW", "total_row_ft": 62.4, "roadbed_ft": 32.4, "median_ft": 0.0, "left_sw_ft": 15.0, "right_sw_ft": 15.0}, "geometry": {"type": "LineString", "coordinates": [[-73.93275843071264, 40.55269469673316], [-73.93315775017892, 40.552569333213036]]}}, {"type": "Feature", "properties": {"segment_id": 1546205, "physicalid": "104211", "street_name": "BCH 227 ST", "borough": "queens", "direction": "TW", "total_row_ft": 62.8, "roadbed_ft": 32.8, "median_ft": 0.0, "left_sw_ft": 15.0, "right_sw_ft": 15.0}, "geometry": {"type": "LineString", "coordinates": [[-73.93273103852816, 40.55264393217643], [-73.93313035774244, 40.552518568751026]]}}, {"type": "Feature", "properties": {"segment_id": 1546206, "physicalid": "104211", "street_name": "BCH 227 ST", "borough": "queens", "direction": "TW", "total_row_ft": 62.5, "roadbed_ft": 32.5, "median_ft": 0.0, "left_sw_ft": 15.0, "right_sw_ft": 15.0}, "geometry": {"type": "LineString", "coordinates": [[-73.93270364638532, 40.552593167613], [-73.93310296534757, 40.55246780428224]]}}, {"type": "Feature", "properties": {"segment_id": 1546207, "physicalid": "104211", "street_name": "BCH 227 ST", "borough": "queens", "direction": "TW", "total_row_ft": 62.1, "roadbed_ft": 32.1, "median_ft": 0.0, "left_sw_ft": 15.0, "right_sw_ft": 15.0}, "geometry": {"type": "LineString", "coordinates": [[-73.93267625428409, 40.552542403042764], [-73.93307557299435, 40.552417039806734]]}}, {"type": "Feature", "properties": {"segment_id": 1546208, "physicalid": "104211", "street_name": "BCH 227 ST", "borough": "queens", "direction": "TW", "total_row_ft": 61.6, "roadbed_ft": 31.6, "median_ft": 0.0, "left_sw_ft": 15.0, "right_sw_ft": 15.0}, "geometry": {"type": "LineString", "coordinates": [[-73.93264886222448, 40.552491638465796], [-73.93304818068276, 40.552366275324474]]}}, {"type": "Feature", "properties": {"segment_id": 1546209, "physicalid": "104211", "street_name": "BCH 227 ST", "borough": "queens", "direction": "TW", "total_row_ft": 60.6, "roadbed_ft": 30.6, "median_ft": 0.0, "left_sw_ft": 15.0, "right_sw_ft": 15.0}, "geometry": {"type": "LineString", "coordinates": [[-73.9326214702065, 40.552440873882084], [-73.93302078841279, 40.55231551083548]]}}, {"type": "Feature", "properties": {"segment_id": 1546210, "physicalid": "104211", "street_name": "BCH 227 ST", "borough": "queens", "direction": "TW", "total_row_ft": 61.0, "roadbed_ft": 31.0, "median_ft": 0.0, "left_sw_ft": 15.0, "right_sw_ft": 15.0}, "geometry": {"type": "LineString", "coordinates": [[-73.93259407823012, 40.55239010929159], [-73.93299339618446, 40.55226474633976]]}}, {"type": "Feature", "properties": {"segment_id": 1546211, "physicalid": "104211", "street_name": "BCH 227 ST", "borough": "queens", "direction": "TW", "total_row_ft": 62.6, "roadbed_ft": 32.6, "median_ft": 0.0, "left_sw_ft": 15.0, "right_sw_ft": 15.0}, "geometry": {"type": "LineString", "coordinates": [[-73.9325666862954, 40.55233934469439], [-73.9329660039977, 40.552213981837234]]}}, {"type": "Feature", "properties": {"segment_id": 1546212, "physicalid": "104211", "street_name": "BCH 227 ST", "borough": "queens", "direction": "TW", "total_row_ft": 65.0, "roadbed_ft": 35.0, "median_ft": 0.0, "left_sw_ft": 15.0, "right_sw_ft": 15.0}, "geometry": {"type": "LineString", "coordinates": [[-73.9325392944023, 40.55228858009044], [-73.9329386118526, 40.55216321732798]]}}]}