{"type": "FeatureCollection", "features": [{"type": "Feature", "properties": {"segment_id": 136164, "physicalid": "10811", "street_name": "METROPOLITAN AVE", "borough": "queens", "direction": "TW", "total_row_ft": 75.0, "roadbed_ft": 54.3, "median_ft": 0.0, "left_sw_ft": 11.5, "right_sw_ft": 9.2}, "geometry": {"type": "LineString", "coordinates": [[-73.92077537772244, 40.713907133777475], [-73.92079704432864, 40.71370197491084]]}}, {"type": "Feature", "properties": {"segment_id": 136165, "physicalid": "10811", "street_name": "METROPOLITAN AVE", "borough": "queens", "direction": "TW", "total_row_ft": 88.7, "roadbed_ft": 66.8, "median_ft": 0.0, "left_sw_ft": 11.8, "right_sw_ft": 10.1}, "geometry": {"type": "LineString", "coordinates": [[-73.92070340027297, 40.7139033537784], [-73.92072902759844, 40.71366069361411]]}}, {"type": "Feature", "properties": {"segment_id": 136166, "physicalid": "10811", "street_name": "METROPOLITAN AVE", "borough": "queens", "direction": "TW", "total_row_ft": 94.5, "roadbed_ft": 79.4, "median_ft": 0.0, "left_sw_ft": 11.3, "right_sw_ft": 3.8}, "geometry": {"type": "LineString", "coordinates": [[-73.92063164868135, 40.71389743523737], [-73.92065895375914, 40.71363889132952]]}}, {"type": "Feature", "properties": {"segment_id": 136167, "physicalid": "10811", "street_name": "METROPOLITAN AVE", "borough": "queens", "direction": "TW", "total_row_ft": 108.8, "roadbed_ft": 83.1, "median_ft": 0.0, "left_sw_ft": 10.6, "right_sw_ft": 15.0}, "geometry": {"type": "LineString", "coordinates": [[-73.92055994636033, 40.71389105024986], [-73.92058704178807, 40.71363449407068]]}}, {"type": "Feature", "properties": {"segment_id": 136168, "physicalid": "10811", "street_name": "METROPOLITAN AVE", "borough": "queens", "direction": "TW", "total_row_ft": 78.8, "roadbed_ft": 40.7, "median_ft": 0.0, "left_sw_ft": 10.0, "right_sw_ft": 28.1}, "geometry": {"type": "LineString", "coordinates": [[-73.92048824405302, 40.713884665217684], [-73.92051100542835, 40.71366914883547]]}}, {"type": "Feature", "properties": {"segment_id": 136169, "physicalid": "10811", "street_name": "METROPOLITAN AVE", "borough": "queens", "direction": "TW", "total_row_ft": 68.7, "roadbed_ft": 40.2, "median_ft": 0.0, "left_sw_ft": 9.5, "right_sw_ft": 19.0}, "geometry": {"type": "LineString", "coordinates": [[-73.92041649905022, 40.71387868452828], [-73.92044284428108, 40.713629236770906]]}}, {"type": "Feature", "properties": {"segment_id": 136170, "physicalid": "10811", "street_name": "METROPOLITAN AVE", "borough": "queens", "direction": "TW", "total_row_ft": 57.5, "roadbed_ft": 40.3, "median_ft": 0.0, "left_sw_ft": 9.3, "right_sw_ft": 7.9}, "geometry": {"type": "LineString", "coordinates": [[-73.92034465273791, 40.71387366314395], [-73.9203612782826, 40.713716247298834]]}}, {"type": "Feature", "properties": {"segment_id": 136171, "physicalid": "10811", "street_name": "METROPOLITAN AVE", "borough": "queens", "direction": "TW", "total_row_ft": 57.4, "roadbed_ft": 40.7, "median_ft": 0.0, "left_sw_ft": 9.1, "right_sw_ft": 7.6}, "geometry": {"type": "LineString", "coordinates": [[-73.92027280643643, 40.71386864171481], [-73.92028938749444, 40.713711648685035]]}}, {"type": "Feature", "properties": {"segment_id": 136172, "physicalid": "10811", "street_name": "METROPOLITAN AVE", "borough": "queens", "direction": "TW", "total_row_ft": 57.2, "roadbed_ft": 41.0, "median_ft": 0.0, "left_sw_ft": 9.0, "right_sw_ft": 7.2}, "geometry": {"type": "LineString", "coordinates": [[-73.9202009601418, 40.71386362027836], [-73.92021749670857, 40.71370705009859]]}}, {"type": "Feature", "properties": {"segment_id": 136173, "physicalid": "10811", "street_name": "METROPOLITAN AVE", "borough": "queens", "direction": "TW", "total_row_ft": 57.3, "roadbed_ft": 41.4, "median_ft": 0.0, "left_sw_ft": 8.9, "right_sw_ft": 7.1}, "geometry": {"type": "LineString", "coordinates": [[-73.9201291079265, 40.71385865495663], [-73.92014567322343, 40.71370181435502]]}}, {"type": "Feature", "properties": {"segment_id": 136174, "physicalid": "10811", "street_name": "METROPOLITAN AVE", "borough": "queens", "direction": "TW", "total_row_ft": 57.6, "roadbed_ft": 41.6, "median_ft": 0.0, "left_sw_ft": 9.1, "right_sw_ft": 7.0}, "geometry": {"type": "LineString", "coordinates": [[-73.92005719830433, 40.71385423321393], [-73.92007385482249, 40.71369653053619]]}}, {"type": "Feature", "properties": {"segment_id": 136182, "physicalid": "10812", "street_name": "METROPOLITAN AVE", "borough": "queens", "direction": "TW", "total_row_ft": 123.6, "roadbed_ft": 81.8, "median_ft": 17.2, "left_sw_ft": 9.5, "right_sw_ft": 15.0}, "geometry": {"type": "LineString", "coordinates": [[-73.92397723356065, 40.714090851112246], [-73.92400328351441, 40.71384088771184]]}}, {"type": "Feature", "properties": {"segment_id": 136183, "physicalid": "10812", "street_name": "METROPOLITAN AVE", "borough": "queens", "direction": "TW", "total_row_ft": 106.7, "roadbed_ft": 82.2, "median_ft": 0.0, "left_sw_ft": 9.5, "right_sw_ft": 15.0}, "geometry": {"type": "LineString", "coordinates": [[-73.92390520851964, 40.71408753374009], [-73.92393136526479, 40.71383654822071]]}}, {"type": "Feature", "properties": {"segment_id": 136184, "physicalid": "10812", "street_name": "METROPOLITAN AVE", "borough": "queens", "direction": "TW", "total_row_ft": 73.2, "roadbed_ft": 43.2, "median_ft": 0.0, "left_sw_ft": 9.6, "right_sw_ft": 20.4}, "geometry": {"type": "LineString", "coordinates": [[-73.9238331834858, 40.714084216322895], [-73.92385406869862, 40.713883815718]]}}, {"type": "Feature", "properties": {"segment_id": 136185, "physicalid": "10812", "street_name": "METROPOLITAN AVE", "borough": "queens", "direction": "TW", "total_row_ft": 65.9, "roadbed_ft": 39.4, "median_ft": 0.0, "left_sw_ft": 9.9, "right_sw_ft": 16.7}, "geometry": {"type": "LineString", "coordinates": [[-73.92376115849706, 40.71408089849643], [-73.9237859612165, 40.71384291044087]]}}, {"type": "Feature", "properties": {"segment_id": 136186, "physicalid": "10812", "street_name": "METROPOLITAN AVE", "borough": "queens", "direction": "TW", "total_row_ft": 58.3, "roadbed_ft": 39.5, "median_ft": 0.0, "left_sw_ft": 9.9, "right_sw_ft": 8.9}, "geometry": {"type": "LineString", "coordinates": [[-73.92368919379736, 40.714077002214246], [-73.92371561057213, 40.71382352947785]]}}, {"type": "Feature", "properties": {"segment_id": 136187, "physicalid": "10812", "street_name": "METROPOLITAN AVE", "borough": "queens", "direction": "TW", "total_row_ft": 57.9, "roadbed_ft": 39.6, "median_ft": 0.0, "left_sw_ft": 9.9, "right_sw_ft": 8.3}, "geometry": {"type": "LineString", "coordinates": [[-73.92361722984171, 40.714073098828415], [-73.92363374572977, 40.713914628387805]]}}, {"type": "Feature", "properties": {"segment_id": 136188, "physicalid": "10812", "street_name": "METROPOLITAN AVE", "borough": "queens", "direction": "TW", "total_row_ft": 58.1, "roadbed_ft": 39.8, "median_ft": 0.0, "left_sw_ft": 10.0, "right_sw_ft": 8.4}, "geometry": {"type": "LineString", "coordinates": [[-73.9235452659617, 40.71406919475277], [-73.92356183781155, 40.71391018900419]]}}, {"type": "Feature", "properties": {"segment_id": 136189, "physicalid": "10812", "street_name": "METROPOLITAN AVE", "borough": "queens", "direction": "TW", "total_row_ft": 58.3, "roadbed_ft": 39.9, "median_ft": 0.0, "left_sw_ft": 10.0, "right_sw_ft": 8.4}, "geometry": {"type": "LineString", "coordinates": [[-73.92347330209385, 40.71406529059635], [-73.9234899166891, 40.713905876359945]]}}, {"type": "Feature", "properties": {"segment_id": 136190, "physicalid": "10812", "street_name": "METROPOLITAN AVE", "borough": "queens", "direction": "TW", "total_row_ft": 58.4, "roadbed_ft": 40.0, "median_ft": 0.0, "left_sw_ft": 10.0, "right_sw_ft": 8.3}, "geometry": {"type": "LineString", "coordinates": [[-73.92340133159927, 40.71406145005751], [-73.9234179946353, 40.71390157269637]]}}, {"type": "Feature", "properties": {"segment_id": 136191, "physicalid": "10812", "street_name": "METROPOLITAN AVE", "borough": "queens", "direction": "TW", "total_row_ft": 58.8, "roadbed_ft": 40.2, "median_ft": 0.0, "left_sw_ft": 10.3, "right_sw_ft": 8.3}, "geometry": {"type": "LineString", "coordinates": [[-73.92332929803926, 40.71405821464134], [-73.92334607259077, 40.71389726898789]]}}, {"type": "Feature", "properties": {"segment_id": 136192, "physicalid": "10812", "street_name": "METROPOLITAN AVE", "borough": "queens", "direction": "TW", "total_row_ft": 59.2, "roadbed_ft": 40.2, "median_ft": 0.0, "left_sw_ft": 10.7, "right_sw_ft": 8.3}, "geometry": {"type": "LineString", "coordinates": [[-73.92325726452928, 40.714054978767074], [-73.92327415055554, 40.71389296523446]]}}, {"type": "Feature", "properties": {"segment_id": 136193, "physicalid": "10812", "street_name": "METROPOLITAN AVE", "borough": "queens", "direction": "TW", "total_row_ft": 59.7, "roadbed_ft": 40.2, "median_ft": 0.0, "left_sw_ft": 11.1, "right_sw_ft": 8.4}, "geometry": {"type": "LineString", "coordinates": [[-73.92318523102745, 40.714051742836865], [-73.92320226675412, 40.71388829469255]]}}, {"type": "Feature", "properties": {"segment_id": 136194, "physicalid": "10812", "street_name": "METROPOLITAN AVE", "borough": "queens", "direction": "TW", "total_row_ft": 60.4, "roadbed_ft": 40.2, "median_ft": 0.0, "left_sw_ft": 11.5, "right_sw_ft": 8.7}, "geometry": {"type": "LineString", "coordinates": [[-73.92311319751123, 40.714048507066536], [-73.92313042775542, 40.71388319434898]]}}, {"type": "Feature", "properties": {"segment_id": 136195, "physicalid": "10812", "street_name": "METROPOLITAN AVE", "borough": "queens", "direction": "TW", "total_row_ft": 60.9, "roadbed_ft": 40.2, "median_ft": 0.0, "left_sw_ft": 11.7, "right_sw_ft": 9.0}, "geometry": {"type": "LineString", "coordinates": [[-73.92304122117794, 40.71404472269312], [-73.92305858876772, 40.7138780939606]]}}, {"type": "Feature", "properties": {"segment_id": 136196, "physicalid": "10812", "street_name": "METROPOLITAN AVE", "borough": "queens", "direction": "TW", "total_row_ft": 60.9, "roadbed_ft": 40.2, "median_ft": 0.0, "left_sw_ft": 11.5, "right_sw_ft": 9.2}, "geometry": {"type": "LineString", "coordinates": [[-73.9229693739098, 40.71403970008802], [-73.92298674979101, 40.713872993527374]]}}, {"type": "Feature", "properties": {"segment_id": 136197, "physicalid": "10812", "street_name": "METROPOLITAN AVE", "borough": "queens", "direction": "TW", "total_row_ft": 60.9, "roadbed_ft": 40.1, "median_ft": 0.0, "left_sw_ft": 11.3, "right_sw_ft": 9.5}, "geometry": {"type": "LineString", "coordinates": [[-73.92289752662157, 40.71403467773437], [-73.92291489100758, 40.71386808318175]]}}, {"type": "Feature", "properties": {"segment_id": 136198, "physicalid": "10812", "street_name": "METROPOLITAN AVE", "borough": "queens", "direction": "TW", "total_row_ft": 60.3, "roadbed_ft": 40.1, "median_ft": 0.0, "left_sw_ft": 11.1, "right_sw_ft": 9.1}, "geometry": {"type": "LineString", "coordinates": [[-73.92282567934419, 40.71402965533588], [-73.9228428693909, 40.71386473510852]]}}, {"type": "Feature", "properties": {"segment_id": 136199, "physicalid": "10812", "street_name": "METROPOLITAN AVE", "borough": "queens", "direction": "TW", "total_row_ft": 59.7, "roadbed_ft": 40.0, "median_ft": 0.0, "left_sw_ft": 10.9, "right_sw_ft": 8.8}, "geometry": {"type": "LineString", "coordinates": [[-73.92275383207762, 40.714024632892524], [-73.92277084778149, 40.713861386990196]]}}, {"type": "Feature", "properties": {"segment_id": 136200, "physicalid": "10812", "street_name": "METROPOLITAN AVE", "borough": "queens", "direction": "TW", "total_row_ft": 59.1, "roadbed_ft": 39.9, "median_ft": 0.0, "left_sw_ft": 10.7, "right_sw_ft": 8.5}, "geometry": {"type": "LineString", "coordinates": [[-73.92268197631353, 40.71401969203114], [-73.9226988261793, 40.71385803882683]]}}, {"type": "Feature", "properties": {"segment_id": 136201, "physicalid": "10812", "street_name": "METROPOLITAN AVE", "borough": "queens", "direction": "TW", "total_row_ft": 58.9, "roadbed_ft": 39.8, "median_ft": 0.0, "left_sw_ft": 10.8, "right_sw_ft": 8.3}, "geometry": {"type": "LineString", "coordinates": [[-73.92261001303415, 40.71401578268758], [-73.922626822303, 40.71385452063156]]}}, {"type": "Feature", "properties": {"segment_id": 136202, "physicalid": "10812", "street_name": "METROPOLITAN AVE", "borough": "queens", "direction": "TW", "total_row_ft": 59.1, "roadbed_ft": 39.7, "median_ft": 0.0, "left_sw_ft": 11.0, "right_sw_ft": 8.4}, "geometry": {"type": "LineString", "coordinates": [[-73.92253804976318, 40.71401187329903], [-73.92255490678404, 40.71385015480246]]}}, {"type": "Feature", "properties": {"segment_id": 136203, "physicalid": "10812", "street_name": "METROPOLITAN AVE", "borough": "queens", "direction": "TW", "total_row_ft": 59.3, "roadbed_ft": 39.6, "median_ft": 0.0, "left_sw_ft": 11.2, "right_sw_ft": 8.5}, "geometry": {"type": "LineString", "coordinates": [[-73.92246608648504, 40.71400796401534], [-73.92248299127452, 40.71384578892842]]}}, {"type": "Feature", "properties": {"segment_id": 136204, "physicalid": "10812", "street_name": "METROPOLITAN AVE", "borough": "queens", "direction": "TW", "total_row_ft": 59.0, "roadbed_ft": 39.5, "median_ft": 0.0, "left_sw_ft": 11.0, "right_sw_ft": 8.6}, "geometry": {"type": "LineString", "coordinates": [[-73.92239423836727, 40.71400294999778], [-73.9224110757744, 40.713841423009455]]}}, {"type": "Feature", "properties": {"segment_id": 136205, "physicalid": "10812", "street_name": "METROPOLITAN AVE", "borough": "queens", "direction": "TW", "total_row_ft": 58.7, "roadbed_ft": 39.4, "median_ft": 0.0, "left_sw_ft": 10.7, "right_sw_ft": 8.7}, "geometry": {"type": "LineString", "coordinates": [[-73.92232241413615, 40.71399770688928], [-73.92233916028371, 40.71383705704557]]}}, {"type": "Feature", "properties": {"segment_id": 136206, "physicalid": "10812", "street_name": "METROPOLITAN AVE", "borough": "queens", "direction": "TW", "total_row_ft": 58.7, "roadbed_ft": 39.3, "median_ft": 0.0, "left_sw_ft": 10.6, "right_sw_ft": 8.8}, "geometry": {"type": "LineString", "coordinates": [[-73.9222505285962, 40.71399305198728], [-73.92226725947992, 40.71383255023341]]}}, {"type": "Feature", "properties": {"segment_id": 136207, "physicalid": "10812", "street_name": "METROPOLITAN AVE", "borough": "queens", "direction": "TW", "total_row_ft": 58.7, "roadbed_ft": 39.2, "median_ft": 0.0, "left_sw_ft": 10.5, "right_sw_ft": 9.0}, "geometry": {"type": "LineString", "coordinates": [[-73.92217864308417, 40.71398839686859], [-73.92219539627956, 40.713827682737175]]}}, {"type": "Feature", "properties": {"segment_id": 136208, "physicalid": "10812", "street_name": "METROPOLITAN AVE", "borough": "queens", "direction": "TW", "total_row_ft": 58.8, "roadbed_ft": 39.2, "median_ft": 0.0, "left_sw_ft": 10.6, "right_sw_ft": 9.1}, "geometry": {"type": "LineString", "coordinates": [[-73.92210675758221, 40.71398374170501], [-73.9221235330897, 40.713822815196075]]}}, {"type": "Feature", "properties": {"segment_id": 136209, "physicalid": "10812", "street_name": "METROPOLITAN AVE", "borough": "queens", "direction": "TW", "total_row_ft": 58.9, "roadbed_ft": 39.1, "median_ft": 0.0, "left_sw_ft": 10.7, "right_sw_ft": 9.2}, "geometry": {"type": "LineString", "coordinates": [[-73.92203487209028, 40.713979086496536], [-73.92205166991036, 40.71381794761011]]}}, {"type": "Feature", "properties": {"segment_id": 136210, "physicalid": "10812", "street_name": "METROPOLITAN AVE", "borough": "queens", "direction": "TW", "total_row_ft": 59.0, "roadbed_ft": 39.0, "median_ft": 0.0, "left_sw_ft": 10.8, "right_sw_ft": 9.2}, "geometry": {"type": "LineString", "coordinates": [[-73.92196298660839, 40.71397443124319], [-73.92197980674149, 40.71381307997929]]}}, {"type": "Feature", "properties": {"segment_id": 136211, "physicalid": "10812", "street_name": "METROPOLITAN AVE", "borough": "queens", "direction": "TW", "total_row_ft": 58.7, "roadbed_ft": 38.9, "median_ft": 0.0, "left_sw_ft": 10.8, "right_sw_ft": 8.9}, "geometry": {"type": "LineString", "coordinates": [[-73.92189110113655, 40.713969775944925], [-73.92190784020907, 40.713809203936854]]}}, {"type": "Feature", "properties": {"segment_id": 136212, "physicalid": "10812", "street_name": "METROPOLITAN AVE", "borough": "queens", "direction": "TW", "total_row_ft": 58.3, "roadbed_ft": 38.9, "median_ft": 0.0, "left_sw_ft": 10.9, "right_sw_ft": 8.5}, "geometry": {"type": "LineString", "coordinates": [[-73.92181921567474, 40.713965120601806], [-73.92183583555587, 40.71380569360583]]}}, {"type": "Feature", "properties": {"segment_id": 136213, "physicalid": "10812", "street_name": "METROPOLITAN AVE", "borough": "queens", "direction": "TW", "total_row_ft": 58.0, "roadbed_ft": 38.8, "median_ft": 0.0, "left_sw_ft": 11.2, "right_sw_ft": 8.0}, "geometry": {"type": "LineString", "coordinates": [[-73.9217472954626, 40.71396079865014], [-73.92176383091028, 40.71380218322977]]}}, {"type": "Feature", "properties": {"segment_id": 136214, "physicalid": "10812", "street_name": "METROPOLITAN AVE", "borough": "queens", "direction": "TW", "total_row_ft": 57.7, "roadbed_ft": 38.7, "median_ft": 0.0, "left_sw_ft": 11.4, "right_sw_ft": 7.6}, "geometry": {"type": "LineString", "coordinates": [[-73.92167535735474, 40.713956648404455], [-73.92169182627225, 40.71379867280867]]}}, {"type": "Feature", "properties": {"segment_id": 136215, "physicalid": "10812", "street_name": "METROPOLITAN AVE", "borough": "queens", "direction": "TW", "total_row_ft": 57.5, "roadbed_ft": 38.5, "median_ft": 0.0, "left_sw_ft": 11.7, "right_sw_ft": 7.3}, "geometry": {"type": "LineString", "coordinates": [[-73.92160341925586, 40.713952498113784], [-73.92161982164181, 40.71379516234256]]}}, {"type": "Feature", "properties": {"segment_id": 136216, "physicalid": "10812", "street_name": "METROPOLITAN AVE", "borough": "queens", "direction": "TW", "total_row_ft": 57.8, "roadbed_ft": 38.2, "median_ft": 0.0, "left_sw_ft": 12.0, "right_sw_ft": 7.6}, "geometry": {"type": "LineString", "coordinates": [[-73.92153148116591, 40.71394834777817], [-73.92154795748093, 40.71379030449594]]}}, {"type": "Feature", "properties": {"segment_id": 136217, "physicalid": "10812", "street_name": "METROPOLITAN AVE", "borough": "queens", "direction": "TW", "total_row_ft": 58.1, "roadbed_ft": 38.0, "median_ft": 0.0, "left_sw_ft": 12.3, "right_sw_ft": 7.9}, "geometry": {"type": "LineString", "coordinates": [[-73.92145954308495, 40.713944197397595], [-73.92147612899225, 40.713785104534416]]}}, {"type": "Feature", "properties": {"segment_id": 136218, "physicalid": "10812", "street_name": "METROPOLITAN AVE", "borough": "queens", "direction": "TW", "total_row_ft": 58.6, "roadbed_ft": 38.0, "median_ft": 0.0, "left_sw_ft": 12.3, "right_sw_ft": 8.3}, "geometry": {"type": "LineString", "coordinates": [[-73.92138758987133, 40.713940192209336], [-73.9214043005148, 40.7137799045281]]}}, {"type": "Feature", "properties": {"segment_id": 136219, "physicalid": "10812", "street_name": "METROPOLITAN AVE", "borough": "queens", "direction": "TW", "total_row_ft": 59.0, "roadbed_ft": 38.2, "median_ft": 0.0, "left_sw_ft": 12.2, "right_sw_ft": 8.7}, "geometry": {"type": "LineString", "coordinates": [[-73.92131563269045, 40.7139362251122], [-73.92133247204856, 40.71377470447694]]}}, {"type": "Feature", "properties": {"segment_id": 136220, "physicalid": "10812", "street_name": "METROPOLITAN AVE", "borough": "queens", "direction": "TW", "total_row_ft": 59.0, "roadbed_ft": 38.4, "median_ft": 0.0, "left_sw_ft": 12.0, "right_sw_ft": 8.5}, "geometry": {"type": "LineString", "coordinates": [[-73.92124367551814, 40.71393225797009], [-73.92126050300665, 40.71377085285867]]}}, {"type": "Feature", "properties": {"segment_id": 136221, "physicalid": "10812", "street_name": "METROPOLITAN AVE", "borough": "queens", "direction": "TW", "total_row_ft": 58.9, "roadbed_ft": 38.6, "median_ft": 0.0, "left_sw_ft": 11.9, "right_sw_ft": 8.4}, "geometry": {"type": "LineString", "coordinates": [[-73.92117171840319, 40.713928290315046], [-73.92118852255234, 40.713767110739276]]}}, {"type": "Feature", "properties": {"segment_id": 136222, "physicalid": "10812", "street_name": "METROPOLITAN AVE", "borough": "queens", "direction": "TW", "total_row_ft": 58.8, "roadbed_ft": 38.8, "median_ft": 0.0, "left_sw_ft": 11.8, "right_sw_ft": 8.2}, "geometry": {"type": "LineString", "coordinates": [[-73.92109976127107, 40.7139243228618], [-73.92111654210612, 40.713763368574874]]}}, {"type": "Feature", "properties": {"segment_id": 136223, "physicalid": "10812", "street_name": "METROPOLITAN AVE", "borough": "queens", "direction": "TW", "total_row_ft": 58.8, "roadbed_ft": 39.0, "median_ft": 0.0, "left_sw_ft": 11.7, "right_sw_ft": 8.1}, "geometry": {"type": "LineString", "coordinates": [[-73.9210278006866, 40.713920388558655], [-73.92104456166798, 40.71375962636548]]}}, {"type": "Feature", "properties": {"segment_id": 136224, "physicalid": "10812", "street_name": "METROPOLITAN AVE", "borough": "queens", "direction": "TW", "total_row_ft": 59.2, "roadbed_ft": 39.4, "median_ft": 0.0, "left_sw_ft": 11.6, "right_sw_ft": 8.2}, "geometry": {"type": "LineString", "coordinates": [[-73.9209558239614, 40.713916609103144], [-73.9209727022583, 40.713754723358804]]}}, {"type": "Feature", "properties": {"segment_id": 136225, "physicalid": "10812", "street_name": "METROPOLITAN AVE", "borough": "queens", "direction": "TW", "total_row_ft": 59.8, "roadbed_ft": 39.9, "median_ft": 0.0, "left_sw_ft": 11.5, "right_sw_ft": 8.3}, "geometry": {"type": "LineString", "coordinates": [[-73.92088384724437, 40.713912829602606], [-73.92090091039596, 40.71374917254318]]}}, {"type": "Feature", "properties": {"segment_id": 284401, "physicalid": "21633", "street_name": "ONDERDONK AVE", "borough": "queens", "direction": "TW", "total_row_ft": 63.1, "roadbed_ft": 33.9, "median_ft": 0.0, "left_sw_ft": 14.3, "right_sw_ft": 14.9}, "geometry": {"type": "LineString", "coordinates": [[-73.92095152167794, 40.712210806732834], [-73.92108965601189, 40.71207325300369]]}}, {"type": "Feature", "properties": {"segment_id": 284402, "physicalid": "21633", "street_name": "ONDERDONK AVE", "borough": "queens", "direction": "TW", "total_row_ft": 62.8, "roadbed_ft": 34.2, "median_ft": 0.0, "left_sw_ft": 14.0, "right_sw_ft": 14.6}, "geometry": {"type": "LineString", "coordinates": [[-73.92089491869594, 40.71217675980054], [-73.92103247468464, 40.712039782100184]]}}, {"type": "Feature", "properties": {"segment_id": 284403, "physicalid": "21633", "street_name": "ONDERDONK AVE", "borough": "queens", "direction": "TW", "total_row_ft": 62.6, "roadbed_ft": 34.5, "median_ft": 0.0, "left_sw_ft": 13.8, "right_sw_ft": 14.3}, "geometry": {"type": "LineString", "coordinates": [[-73.92083820196122, 40.71214282617198], [-73.92097529339705, 40.7120063111858]]}}, {"type": "Feature", "properties": {"segment_id": 284404, "physicalid": "21633", "street_name": "ONDERDONK AVE", "borough": "queens", "direction": "TW", "total_row_ft": 62.4, "roadbed_ft": 34.8, "median_ft": 0.0, "left_sw_ft": 13.6, "right_sw_ft": 14.0}, "geometry": {"type": "LineString", "coordinates": [[-73.92078148523319, 40.71210889256612], [-73.92091811216687, 40.71197284024289]]}}, {"type": "Feature", "properties": {"segment_id": 284405, "physicalid": "21633", "street_name": "ONDERDONK AVE", "borough": "queens", "direction": "TW", "total_row_ft": 62.2, "roadbed_ft": 35.1, "median_ft": 0.0, "left_sw_ft": 13.4, "right_sw_ft": 13.7}, "geometry": {"type": "LineString", "coordinates": [[-73.92072462828246, 40.712075098622186], [-73.92086093099414, 40.71193936927143]]}}, {"type": "Feature", "properties": {"segment_id": 284406, "physicalid": "21633", "street_name": "ONDERDONK AVE", "borough": "queens", "direction": "TW", "total_row_ft": 62.3, "roadbed_ft": 35.4, "median_ft": 0.0, "left_sw_ft": 13.4, "right_sw_ft": 13.5}, "geometry": {"type": "LineString", "coordinates": [[-73.92066738416878, 40.71204169024041], [-73.92080391133432, 40.711905737494774]]}}, {"type": "Feature", "properties": {"segment_id": 284407, "physicalid": "21633", "street_name": "ONDERDONK AVE", "borough": "queens", "direction": "TW", "total_row_ft": 62.6, "roadbed_ft": 35.7, "median_ft": 0.0, "left_sw_ft": 13.6, "right_sw_ft": 13.3}, "geometry": {"type": "LineString", "coordinates": [[-73.92060985300544, 40.71200856772809], [-73.92074691427527, 40.711872083241346]]}}, {"type": "Feature", "properties": {"segment_id": 284408, "physicalid": "21633", "street_name": "ONDERDONK AVE", "borough": "queens", "direction": "TW", "total_row_ft": 63.0, "roadbed_ft": 36.0, "median_ft": 0.0, "left_sw_ft": 13.9, "right_sw_ft": 13.1}, "geometry": {"type": "LineString", "coordinates": [[-73.92055198727329, 40.71197577840354], [-73.92068991727785, 40.711838428955446]]}}, {"type": "Feature", "properties": {"segment_id": 284409, "physicalid": "21633", "street_name": "ONDERDONK AVE", "borough": "queens", "direction": "TW", "total_row_ft": 63.4, "roadbed_ft": 36.3, "median_ft": 0.0, "left_sw_ft": 14.2, "right_sw_ft": 12.8}, "geometry": {"type": "LineString", "coordinates": [[-73.92049412159803, 40.71194298904978], [-73.92063292034797, 40.71180477463128]]}}, {"type": "Feature", "properties": {"segment_id": 284410, "physicalid": "21633", "street_name": "ONDERDONK AVE", "borough": "queens", "direction": "TW", "total_row_ft": 63.8, "roadbed_ft": 36.5, "median_ft": 0.0, "left_sw_ft": 14.5, "right_sw_ft": 12.7}, "geometry": {"type": "LineString", "coordinates": [[-73.92043625597971, 40.7119101996668], [-73.92057592347564, 40.711771120278755]]}}, {"type": "Feature", "properties": {"segment_id": 284411, "physicalid": "21633", "street_name": "ONDERDONK AVE", "borough": "queens", "direction": "TW", "total_row_ft": 63.8, "roadbed_ft": 36.4, "median_ft": 0.0, "left_sw_ft": 14.7, "right_sw_ft": 12.7}, "geometry": {"type": "LineString", "coordinates": [[-73.92037900298766, 40.71187680026681], [-73.92051863491946, 40.7117377564113]]}}, {"type": "Feature", "properties": {"segment_id": 284412, "physicalid": "21633", "street_name": "ONDERDONK AVE", "borough": "queens", "direction": "TW", "total_row_ft": 63.3, "roadbed_ft": 36.3, "median_ft": 0.0, "left_sw_ft": 14.6, "right_sw_ft": 12.5}, "geometry": {"type": "LineString", "coordinates": [[-73.92032224119826, 40.711842911763156], [-73.92046095014285, 40.71170478712473]]}}, {"type": "Feature", "properties": {"segment_id": 284413, "physicalid": "21633", "street_name": "ONDERDONK AVE", "borough": "queens", "direction": "TW", "total_row_ft": 62.9, "roadbed_ft": 36.2, "median_ft": 0.0, "left_sw_ft": 14.5, "right_sw_ft": 12.2}, "geometry": {"type": "LineString", "coordinates": [[-73.92026547945325, 40.71180902324465], [-73.92040326542332, 40.71167181780912]]}}, {"type": "Feature", "properties": {"segment_id": 284414, "physicalid": "21633", "street_name": "ONDERDONK AVE", "borough": "queens", "direction": "TW", "total_row_ft": 62.5, "roadbed_ft": 36.1, "median_ft": 0.0, "left_sw_ft": 14.4, "right_sw_ft": 12.0}, "geometry": {"type": "LineString", "coordinates": [[-73.92020871774668, 40.71177513471721], [-73.92034558076085, 40.71163884846445]]}}, {"type": "Feature", "properties": {"segment_id": 284415, "physicalid": "21633", "street_name": "ONDERDONK AVE", "borough": "queens", "direction": "TW", "total_row_ft": 62.1, "roadbed_ft": 36.3, "median_ft": 0.0, "left_sw_ft": 14.3, "right_sw_ft": 11.5}, "geometry": {"type": "LineString", "coordinates": [[-73.92015195609781, 40.71174124616162], [-73.92028789615544, 40.711605879090754]]}}, {"type": "Feature", "properties": {"segment_id": 284416, "physicalid": "21633", "street_name": "ONDERDONK AVE", "borough": "queens", "direction": "TW", "total_row_ft": 61.7, "roadbed_ft": 36.4, "median_ft": 0.0, "left_sw_ft": 14.3, "right_sw_ft": 11.0}, "geometry": {"type": "LineString", "coordinates": [[-73.92009509140037, 40.711707460249244], [-73.92023021151012, 40.71157290978457]]}}, {"type": "Feature", "properties": {"segment_id": 284417, "physicalid": "21633", "street_name": "ONDERDONK AVE", "borough": "queens", "direction": "TW", "total_row_ft": 61.8, "roadbed_ft": 36.5, "median_ft": 0.0, "left_sw_ft": 14.6, "right_sw_ft": 10.8}, "geometry": {"type": "LineString", "coordinates": [[-73.92003751375981, 40.711674384301034], [-73.92017280197062, 40.711539666559666]]}}, {"type": "Feature", "properties": {"segment_id": 284418, "physicalid": "21633", "street_name": "ONDERDONK AVE", "borough": "queens", "direction": "TW", "total_row_ft": 61.9, "roadbed_ft": 36.1, "median_ft": 0.0, "left_sw_ft": 14.8, "right_sw_ft": 11.0}, "geometry": {"type": "LineString", "coordinates": [[-73.9199799361764, 40.71164130832388], [-73.92011548999858, 40.71150632620679]]}}, {"type": "Feature", "properties": {"segment_id": 304618, "physicalid": "22909", "street_name": "FLUSHING AVE", "borough": "queens", "direction": "TW", "total_row_ft": 124.0, "roadbed_ft": 84.1, "median_ft": 0.0, "left_sw_ft": 15.0, "right_sw_ft": 24.8}, "geometry": {"type": "LineString", "coordinates": [[-73.92089105887652, 40.71066423880917], [-73.92057408076504, 40.71048735589896]]}}, {"type": "Feature", "properties": {"segment_id": 304619, "physicalid": "22909", "street_name": "FLUSHING AVE", "borough": "queens", "direction": "TW", "total_row_ft": 77.0, "roadbed_ft": 45.0, "median_ft": 0.0, "left_sw_ft": 7.3, "right_sw_ft": 24.8}, "geometry": {"type": "LineString", "coordinates": [[-73.92075439011359, 40.71065604793174], [-73.92053028787723, 40.71053099219665]]}}, {"type": "Feature", "properties": {"segment_id": 304620, "physicalid": "22909", "street_name": "FLUSHING AVE", "borough": "queens", "direction": "TW", "total_row_ft": 77.4, "roadbed_ft": 45.0, "median_ft": 0.0, "left_sw_ft": 7.6, "right_sw_ft": 24.8}, "geometry": {"type": "LineString", "coordinates": [[-73.9207117255689, 40.71070031394012], [-73.9204864949321, 40.710574628477396]]}}, {"type": "Feature", "properties": {"segment_id": 304621, "physicalid": "22909", "street_name": "FLUSHING AVE", "borough": "queens", "direction": "TW", "total_row_ft": 77.8, "roadbed_ft": 45.0, "median_ft": 0.0, "left_sw_ft": 8.1, "right_sw_ft": 24.8}, "geometry": {"type": "LineString", "coordinates": [[-73.92066906096757, 40.710744579932445], [-73.92044270192962, 40.71061826474125]]}}, {"type": "Feature", "properties": {"segment_id": 304622, "physicalid": "22909", "street_name": "FLUSHING AVE", "borough": "queens", "direction": "TW", "total_row_ft": 78.2, "roadbed_ft": 44.9, "median_ft": 0.0, "left_sw_ft": 8.5, "right_sw_ft": 24.8}, "geometry": {"type": "LineString", "coordinates": [[-73.92062639630956, 40.71078884590866], [-73.92039890886979, 40.7106619009882]]}}, {"type": "Feature", "properties": {"segment_id": 304623, "physicalid": "22909", "street_name": "FLUSHING AVE", "borough": "queens", "direction": "TW", "total_row_ft": 78.6, "roadbed_ft": 44.9, "median_ft": 0.0, "left_sw_ft": 8.9, "right_sw_ft": 24.9}, "geometry": {"type": "LineString", "coordinates": [[-73.9205837315949, 40.71083311186883], [-73.92035511575263, 40.710705537218246]]}}, {"type": "Feature", "properties": {"segment_id": 304624, "physicalid": "22909", "street_name": "FLUSHING AVE", "borough": "queens", "direction": "TW", "total_row_ft": 78.6, "roadbed_ft": 44.8, "median_ft": 0.0, "left_sw_ft": 9.1, "right_sw_ft": 24.7}, "geometry": {"type": "LineString", "coordinates": [[-73.92054062470163, 40.71087713109615], [-73.92031204859511, 40.71074957857277]]}}, {"type": "Feature", "properties": {"segment_id": 304625, "physicalid": "22909", "street_name": "FLUSHING AVE", "borough": "queens", "direction": "TW", "total_row_ft": 78.1, "roadbed_ft": 44.7, "median_ft": 0.0, "left_sw_ft": 9.4, "right_sw_ft": 24.0}, "geometry": {"type": "LineString", "coordinates": [[-73.92049742092831, 40.71092109627695], [-73.92027017868237, 40.710794288044944]]}}, {"type": "Feature", "properties": {"segment_id": 304626, "physicalid": "22909", "street_name": "FLUSHING AVE", "borough": "queens", "direction": "TW", "total_row_ft": 77.6, "roadbed_ft": 44.7, "median_ft": 0.0, "left_sw_ft": 9.6, "right_sw_ft": 23.4}, "geometry": {"type": "LineString", "coordinates": [[-73.92045415523047, 40.7109650269174], [-73.92022830844644, 40.7108389973526]]}}, {"type": "Feature", "properties": {"segment_id": 304627, "physicalid": "22909", "street_name": "FLUSHING AVE", "borough": "queens", "direction": "TW", "total_row_ft": 66.4, "roadbed_ft": 44.6, "median_ft": 0.0, "left_sw_ft": 9.7, "right_sw_ft": 12.0}, "geometry": {"type": "LineString", "coordinates": [[-73.92041080420685, 40.7110089099589], [-73.92021776742357, 40.71090118941701]]}}, {"type": "Feature", "properties": {"segment_id": 304628, "physicalid": "22909", "street_name": "FLUSHING AVE", "borough": "queens", "direction": "TW", "total_row_ft": 66.3, "roadbed_ft": 44.6, "median_ft": 0.0, "left_sw_ft": 9.9, "right_sw_ft": 11.9}, "geometry": {"type": "LineString", "coordinates": [[-73.92036745297386, 40.711052792898826], [-73.92017449280698, 40.71094511507116]]}}, {"type": "Feature", "properties": {"segment_id": 304629, "physicalid": "22909", "street_name": "FLUSHING AVE", "borough": "queens", "direction": "TW", "total_row_ft": 66.3, "roadbed_ft": 44.8, "median_ft": 0.0, "left_sw_ft": 9.8, "right_sw_ft": 11.7}, "geometry": {"type": "LineString", "coordinates": [[-73.9203241016838, 40.711096675822155], [-73.92013121789591, 40.71098904057628]]}}, {"type": "Feature", "properties": {"segment_id": 304630, "physicalid": "22909", "street_name": "FLUSHING AVE", "borough": "queens", "direction": "TW", "total_row_ft": 66.3, "roadbed_ft": 46.7, "median_ft": 0.0, "left_sw_ft": 9.4, "right_sw_ft": 10.2}, "geometry": {"type": "LineString", "coordinates": [[-73.92028075033664, 40.71114055872892], [-73.92008794292781, 40.71103296606489]]}}, {"type": "Feature", "properties": {"segment_id": 304631, "physicalid": "22909", "street_name": "FLUSHING AVE", "borough": "queens", "direction": "TW", "total_row_ft": 66.8, "roadbed_ft": 48.0, "median_ft": 0.0, "left_sw_ft": 9.0, "right_sw_ft": 9.8}, "geometry": {"type": "LineString", "coordinates": [[-73.92023740923375, 40.71118444736755], [-73.92004302894914, 40.71107597694558]]}}, {"type": "Feature", "properties": {"segment_id": 304632, "physicalid": "22909", "street_name": "FLUSHING AVE", "borough": "queens", "direction": "TW", "total_row_ft": 67.5, "roadbed_ft": 48.6, "median_ft": 0.0, "left_sw_ft": 8.6, "right_sw_ft": 10.4}, "geometry": {"type": "LineString", "coordinates": [[-73.92019409633377, 40.71122835175952], [-73.91999763477942, 40.71111871987794]]}}, {"type": "Feature", "properties": {"segment_id": 304633, "physicalid": "22909", "street_name": "FLUSHING AVE", "borough": "queens", "direction": "TW", "total_row_ft": 68.3, "roadbed_ft": 48.4, "median_ft": 0.0, "left_sw_ft": 8.2, "right_sw_ft": 11.7}, "geometry": {"type": "LineString", "coordinates": [[-73.92015078337673, 40.711272256134976], [-73.91995224055151, 40.71116146279214]]}}, {"type": "Feature", "properties": {"segment_id": 304634, "physicalid": "22909", "street_name": "FLUSHING AVE", "borough": "queens", "direction": "TW", "total_row_ft": 69.0, "roadbed_ft": 47.3, "median_ft": 0.0, "left_sw_ft": 7.7, "right_sw_ft": 13.9}, "geometry": {"type": "LineString", "coordinates": [[-73.92010747036262, 40.71131616049388], [-73.9199068462654, 40.71120420568817]]}}, {"type": "Feature", "properties": {"segment_id": 307965, "physicalid": "23101", "street_name": "WOODWARD AVE", "borough": "queens", "direction": "TW", "total_row_ft": 77.7, "roadbed_ft": 55.4, "median_ft": 0.0, "left_sw_ft": 14.0, "right_sw_ft": 8.3}, "geometry": {"type": "LineString", "coordinates": [[-73.92068341450761, 40.713902044880484], [-73.92085411434554, 40.71373295448622]]}}, {"type": "Feature", "properties": {"segment_id": 307966, "physicalid": "23101", "street_name": "WOODWARD AVE", "borough": "queens", "direction": "TW", "total_row_ft": 85.5, "roadbed_ft": 68.1, "median_ft": 0.0, "left_sw_ft": 9.7, "right_sw_ft": 7.8}, "geometry": {"type": "LineString", "coordinates": [[-73.9206074081136, 40.713887220366416], [-73.92079534709872, 40.71370105359494]]}}, {"type": "Feature", "properties": {"segment_id": 307967, "physicalid": "23101", "street_name": "WOODWARD AVE", "borough": "queens", "direction": "TW", "total_row_ft": 100.9, "roadbed_ft": 77.5, "median_ft": 0.0, "left_sw_ft": 15.0, "right_sw_ft": 8.4}, "geometry": {"type": "LineString", "coordinates": [[-73.92055019535947, 40.713853779504745], [-73.92073899332166, 40.71366676201121]]}}, {"type": "Feature", "properties": {"segment_id": 307968, "physicalid": "23101", "street_name": "WOODWARD AVE", "borough": "queens", "direction": "TW", "total_row_ft": 101.3, "roadbed_ft": 77.3, "median_ft": 0.0, "left_sw_ft": 15.0, "right_sw_ft": 9.1}, "geometry": {"type": "LineString", "coordinates": [[-73.92049298266272, 40.713820338614504], [-73.92068265442649, 40.7136324557156]]}}, {"type": "Feature", "properties": {"segment_id": 307969, "physicalid": "23101", "street_name": "WOODWARD AVE", "borough": "queens", "direction": "TW", "total_row_ft": 67.4, "roadbed_ft": 30.3, "median_ft": 0.0, "left_sw_ft": 27.4, "right_sw_ft": 9.7}, "geometry": {"type": "LineString", "coordinates": [[-73.92047811241753, 40.713744954803225], [-73.92062631558927, 40.71359814939228]]}}, {"type": "Feature", "properties": {"segment_id": 307970, "physicalid": "23101", "street_name": "WOODWARD AVE", "borough": "queens", "direction": "TW", "total_row_ft": 58.9, "roadbed_ft": 30.3, "median_ft": 0.0, "left_sw_ft": 18.5, "right_sw_ft": 10.1}, "geometry": {"type": "LineString", "coordinates": [[-73.9203917346325, 40.71374040390286], [-73.92056997681006, 40.71356384304126]]}}, {"type": "Feature", "properties": {"segment_id": 307971, "physicalid": "23101", "street_name": "WOODWARD AVE", "borough": "queens", "direction": "TW", "total_row_ft": 52.4, "roadbed_ft": 30.4, "median_ft": 0.0, "left_sw_ft": 11.7, "right_sw_ft": 10.3}, "geometry": {"type": "LineString", "coordinates": [[-73.92032134491701, 40.713720015772324], [-73.92051363808885, 40.71352953666245]]}}, {"type": "Feature", "properties": {"segment_id": 307972, "physicalid": "23101", "street_name": "WOODWARD AVE", "borough": "queens", "direction": "TW", "total_row_ft": 50.1, "roadbed_ft": 30.6, "median_ft": 0.0, "left_sw_ft": 9.0, "right_sw_ft": 10.6}, "geometry": {"type": "LineString", "coordinates": [[-73.9203471087781, 40.71360438146757], [-73.92045729942564, 40.71349523025595]]}}, {"type": "Feature", "properties": {"segment_id": 307973, "physicalid": "23101", "street_name": "WOODWARD AVE", "borough": "queens", "direction": "TW", "total_row_ft": 50.6, "roadbed_ft": 30.7, "median_ft": 0.0, "left_sw_ft": 9.1, "right_sw_ft": 10.8}, "geometry": {"type": "LineString", "coordinates": [[-73.92028981683548, 40.71357101928642], [-73.9204009608204, 40.71346092382174]]}}, {"type": "Feature", "properties": {"segment_id": 307974, "physicalid": "23101", "street_name": "WOODWARD AVE", "borough": "queens", "direction": "TW", "total_row_ft": 51.0, "roadbed_ft": 30.8, "median_ft": 0.0, "left_sw_ft": 9.1, "right_sw_ft": 11.1}, "geometry": {"type": "LineString", "coordinates": [[-73.9202325122477, 40.71353766965923], [-73.92034462227318, 40.71342661735978]]}}, {"type": "Feature", "properties": {"segment_id": 307975, "physicalid": "23101", "street_name": "WOODWARD AVE", "borough": "queens", "direction": "TW", "total_row_ft": 51.5, "roadbed_ft": 30.9, "median_ft": 0.0, "left_sw_ft": 9.3, "right_sw_ft": 11.3}, "geometry": {"type": "LineString", "coordinates": [[-73.92017502981889, 40.713504496222775], [-73.92028828378395, 40.7133923108701]]}}, {"type": "Feature", "properties": {"segment_id": 307976, "physicalid": "23101", "street_name": "WOODWARD AVE", "borough": "queens", "direction": "TW", "total_row_ft": 52.1, "roadbed_ft": 30.9, "median_ft": 0.0, "left_sw_ft": 9.4, "right_sw_ft": 11.7}, "geometry": {"type": "LineString", "coordinates": [[-73.92011754744732, 40.71347132275749], [-73.9202319453527, 40.71335800435269]]}}, {"type": "Feature", "properties": {"segment_id": 307977, "physicalid": "23101", "street_name": "WOODWARD AVE", "borough": "queens", "direction": "TW", "total_row_ft": 52.6, "roadbed_ft": 30.7, "median_ft": 0.0, "left_sw_ft": 9.6, "right_sw_ft": 12.4}, "geometry": {"type": "LineString", "coordinates": [[-73.92006006513297, 40.71343814926333], [-73.92017560697946, 40.71332369780755]]}}, {"type": "Feature", "properties": {"segment_id": 307978, "physicalid": "23101", "street_name": "WOODWARD AVE", "borough": "queens", "direction": "TW", "total_row_ft": 53.1, "roadbed_ft": 30.4, "median_ft": 0.0, "left_sw_ft": 9.7, "right_sw_ft": 13.0}, "geometry": {"type": "LineString", "coordinates": [[-73.9200025825033, 40.71340497610934], [-73.9201192686642, 40.71328939123468]]}}, {"type": "Feature", "properties": {"segment_id": 376452, "physicalid": "27785", "street_name": "GRAND AVE", "borough": "queens", "direction": "TW", "total_row_ft": 110.5, "roadbed_ft": 84.3, "median_ft": 0.0, "left_sw_ft": 15.0, "right_sw_ft": 11.2}, "geometry": {"type": "LineString", "coordinates": [[-73.92156184238642, 40.71696394659264], [-73.92144325579518, 40.71671794765958]]}}, {"type": "Feature", "properties": {"segment_id": 376453, "physicalid": "27785", "street_name": "GRAND AVE", "borough": "queens", "direction": "TW", "total_row_ft": 72.6, "roadbed_ft": 50.2, "median_ft": 0.0, "left_sw_ft": 11.1, "right_sw_ft": 11.3}, "geometry": {"type": "LineString", "coordinates": [[-73.92146553732039, 40.7169235833028], [-73.9213753191033, 40.71673643184715]]}}, {"type": "Feature", "properties": {"segment_id": 376454, "physicalid": "27785", "street_name": "GRAND AVE", "borough": "queens", "direction": "TW", "total_row_ft": 72.5, "roadbed_ft": 50.2, "median_ft": 0.0, "left_sw_ft": 11.0, "right_sw_ft": 11.3}, "geometry": {"type": "LineString", "coordinates": [[-73.92139760680145, 40.71694208073031], [-73.92130756445141, 40.71675529370399]]}}, {"type": "Feature", "properties": {"segment_id": 376455, "physicalid": "27785", "street_name": "GRAND AVE", "borough": "queens", "direction": "TW", "total_row_ft": 72.2, "roadbed_ft": 50.2, "median_ft": 0.0, "left_sw_ft": 10.9, "right_sw_ft": 11.1}, "geometry": {"type": "LineString", "coordinates": [[-73.92132967624481, 40.7169605781177], [-73.92124000937028, 40.716774569599224]]}}, {"type": "Feature", "properties": {"segment_id": 376456, "physicalid": "27785", "street_name": "GRAND AVE", "borough": "queens", "direction": "TW", "total_row_ft": 71.9, "roadbed_ft": 50.2, "median_ft": 0.0, "left_sw_ft": 10.8, "right_sw_ft": 10.9}, "geometry": {"type": "LineString", "coordinates": [[-73.92126174565048, 40.71697907546497], [-73.92117245430951, 40.716793845578074]]}}, {"type": "Feature", "properties": {"segment_id": 376457, "physicalid": "27785", "street_name": "GRAND AVE", "borough": "queens", "direction": "TW", "total_row_ft": 71.6, "roadbed_ft": 50.2, "median_ft": 0.0, "left_sw_ft": 10.7, "right_sw_ft": 10.7}, "geometry": {"type": "LineString", "coordinates": [[-73.92119381501189, 40.71699757275851], [-73.92110489922068, 40.716813121540056]]}}, {"type": "Feature", "properties": {"segment_id": 376458, "physicalid": "27785", "street_name": "GRAND AVE", "borough": "queens", "direction": "TW", "total_row_ft": 71.3, "roadbed_ft": 50.2, "median_ft": 0.0, "left_sw_ft": 10.6, "right_sw_ft": 10.5}, "geometry": {"type": "LineString", "coordinates": [[-73.92112588418641, 40.71701606970243], [-73.92103734396011, 40.716832397187176]]}}, {"type": "Feature", "properties": {"segment_id": 376459, "physicalid": "27785", "street_name": "GRAND AVE", "borough": "queens", "direction": "TW", "total_row_ft": 71.0, "roadbed_ft": 50.2, "median_ft": 0.0, "left_sw_ft": 10.5, "right_sw_ft": 10.3}, "geometry": {"type": "LineString", "coordinates": [[-73.92105795332321, 40.71703456660624], [-73.92096978884972, 40.71685167318719]]}}, {"type": "Feature", "properties": {"segment_id": 376460, "physicalid": "27785", "street_name": "GRAND AVE", "borough": "queens", "direction": "TW", "total_row_ft": 71.0, "roadbed_ft": 50.2, "median_ft": 0.0, "left_sw_ft": 10.7, "right_sw_ft": 10.1}, "geometry": {"type": "LineString", "coordinates": [[-73.92099047288048, 40.71705399792527], [-73.92090223370026, 40.71687094914755]]}}, {"type": "Feature", "properties": {"segment_id": 376461, "physicalid": "27785", "street_name": "GRAND AVE", "borough": "queens", "direction": "TW", "total_row_ft": 71.2, "roadbed_ft": 50.2, "median_ft": 0.0, "left_sw_ft": 11.0, "right_sw_ft": 10.0}, "geometry": {"type": "LineString", "coordinates": [[-73.92092301080261, 40.7170734673835], [-73.92083461563513, 40.716890094632475]]}}, {"type": "Feature", "properties": {"segment_id": 376462, "physicalid": "27785", "street_name": "GRAND AVE", "borough": "queens", "direction": "TW", "total_row_ft": 71.6, "roadbed_ft": 50.2, "median_ft": 0.0, "left_sw_ft": 11.3, "right_sw_ft": 10.1}, "geometry": {"type": "LineString", "coordinates": [[-73.92085554868532, 40.71709293680214], [-73.92076664340871, 40.71690850545904]]}}, {"type": "Feature", "properties": {"segment_id": 376463, "physicalid": "27785", "street_name": "GRAND AVE", "borough": "queens", "direction": "TW", "total_row_ft": 72.0, "roadbed_ft": 50.2, "median_ft": 0.0, "left_sw_ft": 11.5, "right_sw_ft": 10.3}, "geometry": {"type": "LineString", "coordinates": [[-73.92078808652863, 40.71711240618122], [-73.92069867114473, 40.7169269162454]]}}, {"type": "Feature", "properties": {"segment_id": 376464, "physicalid": "27785", "street_name": "GRAND AVE", "borough": "queens", "direction": "TW", "total_row_ft": 72.4, "roadbed_ft": 50.2, "median_ft": 0.0, "left_sw_ft": 11.8, "right_sw_ft": 10.4}, "geometry": {"type": "LineString", "coordinates": [[-73.92072062433253, 40.7171318755207], [-73.92063069884321, 40.71694532699156]]}}, {"type": "Feature", "properties": {"segment_id": 376465, "physicalid": "27785", "street_name": "GRAND AVE", "borough": "queens", "direction": "TW", "total_row_ft": 95.0, "roadbed_ft": 50.3, "median_ft": 0.0, "left_sw_ft": 34.2, "right_sw_ft": 10.5}, "geometry": {"type": "LineString", "coordinates": [[-73.92068074544997, 40.71720856579912], [-73.92056272650413, 40.716963737697576]]}}, {"type": "Feature", "properties": {"segment_id": 376466, "physicalid": "27785", "street_name": "GRAND AVE", "borough": "queens", "direction": "TW", "total_row_ft": 95.2, "roadbed_ft": 50.4, "median_ft": 0.0, "left_sw_ft": 34.1, "right_sw_ft": 10.7}, "geometry": {"type": "LineString", "coordinates": [[-73.92061299992923, 40.71722744759183], [-73.9204947541275, 40.71698214836342]]}}, {"type": "Feature", "properties": {"segment_id": 376467, "physicalid": "27785", "street_name": "GRAND AVE", "borough": "queens", "direction": "TW", "total_row_ft": 95.4, "roadbed_ft": 50.4, "median_ft": 0.0, "left_sw_ft": 34.1, "right_sw_ft": 10.8}, "geometry": {"type": "LineString", "coordinates": [[-73.9205452543701, 40.71724632934461], [-73.92042676968529, 40.717000534036934]]}}, {"type": "Feature", "properties": {"segment_id": 376468, "physicalid": "27785", "street_name": "GRAND AVE", "borough": "queens", "direction": "TW", "total_row_ft": 95.6, "roadbed_ft": 50.5, "median_ft": 0.0, "left_sw_ft": 34.1, "right_sw_ft": 11.0}, "geometry": {"type": "LineString", "coordinates": [[-73.92047750877259, 40.71726521105749], [-73.920358761824, 40.71701887116512]]}}, {"type": "Feature", "properties": {"segment_id": 376469, "physicalid": "27785", "street_name": "GRAND AVE", "borough": "queens", "direction": "TW", "total_row_ft": 95.8, "roadbed_ft": 50.6, "median_ft": 0.0, "left_sw_ft": 34.0, "right_sw_ft": 11.2}, "geometry": {"type": "LineString", "coordinates": [[-73.9204097631367, 40.71728409273046], [-73.92029075392529, 40.71703720825309]]}}, {"type": "Feature", "properties": {"segment_id": 376470, "physicalid": "27785", "street_name": "GRAND AVE", "borough": "queens", "direction": "TW", "total_row_ft": 96.0, "roadbed_ft": 50.7, "median_ft": 0.0, "left_sw_ft": 34.0, "right_sw_ft": 11.3}, "geometry": {"type": "LineString", "coordinates": [[-73.92034201746243, 40.71730297436351], [-73.92022274598914, 40.717055545300845]]}}, {"type": "Feature", "properties": {"segment_id": 376471, "physicalid": "27785", "street_name": "GRAND AVE", "borough": "queens", "direction": "TW", "total_row_ft": 96.2, "roadbed_ft": 50.7, "median_ft": 0.0, "left_sw_ft": 34.1, "right_sw_ft": 11.5}, "geometry": {"type": "LineString", "coordinates": [[-73.92027427174978, 40.717321855956634], [-73.92015473801558, 40.71707388230837]]}}, {"type": "Feature", "properties": {"segment_id": 376472, "physicalid": "27785", "street_name": "GRAND AVE", "borough": "queens", "direction": "TW", "total_row_ft": 96.5, "roadbed_ft": 50.6, "median_ft": 0.0, "left_sw_ft": 34.2, "right_sw_ft": 11.7}, "geometry": {"type": "LineString", "coordinates": [[-73.92020652599872, 40.71734073750989], [-73.92008669409486, 40.71709214478022]]}}, {"type": "Feature", "properties": {"segment_id": 376473, "physicalid": "27785", "street_name": "GRAND AVE", "borough": "queens", "direction": "TW", "total_row_ft": 96.9, "roadbed_ft": 50.6, "median_ft": 0.0, "left_sw_ft": 34.3, "right_sw_ft": 12.0}, "geometry": {"type": "LineString", "coordinates": [[-73.9201387802093, 40.717359619023206], [-73.92001837421905, 40.71710983481346]]}}, {"type": "Feature", "properties": {"segment_id": 376474, "physicalid": "27785", "street_name": "GRAND AVE", "borough": "queens", "direction": "TW", "total_row_ft": 97.4, "roadbed_ft": 50.6, "median_ft": 0.0, "left_sw_ft": 34.3, "right_sw_ft": 12.4}, "geometry": {"type": "LineString", "coordinates": [[-73.9200710343815, 40.71737850049659], [-73.91995005430336, 40.71712752479865]]}}, {"type": "Feature", "properties": {"segment_id": 376484, "physicalid": "27786", "street_name": "GRAND AVE", "borough": "queens", "direction": "TW", "total_row_ft": 40.8, "roadbed_ft": 19.7, "median_ft": 0.0, "left_sw_ft": 8.1, "right_sw_ft": 13.0}, "geometry": {"type": "LineString", "coordinates": [[-73.92229893348916, 40.71665651667091], [-73.9222519225285, 40.716550396334775]]}}, {"type": "Feature", "properties": {"segment_id": 376485, "physicalid": "27786", "street_name": "GRAND AVE", "borough": "queens", "direction": "TW", "total_row_ft": 41.6, "roadbed_ft": 20.1, "median_ft": 0.0, "left_sw_ft": 8.8, "right_sw_ft": 12.7}, "geometry": {"type": "LineString", "coordinates": [[-73.9222318780958, 40.71667701324216], [-73.92218400108342, 40.71656893767837]]}}, {"type": "Feature", "properties": {"segment_id": 376486, "physicalid": "27786", "street_name": "GRAND AVE", "borough": "queens", "direction": "TW", "total_row_ft": 45.5, "roadbed_ft": 22.5, "median_ft": 0.0, "left_sw_ft": 8.8, "right_sw_ft": 14.2}, "geometry": {"type": "LineString", "coordinates": [[-73.92216482266454, 40.7166975097818], [-73.92211240084524, 40.716579174679154]]}}, {"type": "Feature", "properties": {"segment_id": 376487, "physicalid": "27786", "street_name": "GRAND AVE", "borough": "queens", "direction": "TW", "total_row_ft": 60.7, "roadbed_ft": 33.6, "median_ft": 0.0, "left_sw_ft": 7.7, "right_sw_ft": 19.3}, "geometry": {"type": "LineString", "coordinates": [[-73.92209794379218, 40.71671840493316], [-73.92202806154704, 40.716560654855144]]}}, {"type": "Feature", "properties": {"segment_id": 376488, "physicalid": "27786", "street_name": "GRAND AVE", "borough": "queens", "direction": "TW", "total_row_ft": 63.9, "roadbed_ft": 45.8, "median_ft": 0.0, "left_sw_ft": 7.5, "right_sw_ft": 10.6}, "geometry": {"type": "LineString", "coordinates": [[-73.92203361237998, 40.71674505069791], [-73.92195997259641, 40.716578818106996]]}}, {"type": "Feature", "properties": {"segment_id": 376489, "physicalid": "27786", "street_name": "GRAND AVE", "borough": "queens", "direction": "TW", "total_row_ft": 67.0, "roadbed_ft": 49.1, "median_ft": 0.0, "left_sw_ft": 7.1, "right_sw_ft": 10.7}, "geometry": {"type": "LineString", "coordinates": [[-73.9219690288453, 40.71677112740822], [-73.92189188362639, 40.71659698135849]]}}, {"type": "Feature", "properties": {"segment_id": 376490, "physicalid": "27786", "street_name": "GRAND AVE", "borough": "queens", "direction": "TW", "total_row_ft": 67.5, "roadbed_ft": 50.5, "median_ft": 0.0, "left_sw_ft": 6.4, "right_sw_ft": 10.6}, "geometry": {"type": "LineString", "coordinates": [[-73.9219015850181, 40.716790747434125], [-73.92182379461924, 40.71661514456963]]}}, {"type": "Feature", "properties": {"segment_id": 376491, "physicalid": "27786", "street_name": "GRAND AVE", "borough": "queens", "direction": "TW", "total_row_ft": 77.4, "roadbed_ft": 50.5, "median_ft": 0.0, "left_sw_ft": 16.4, "right_sw_ft": 10.5}, "geometry": {"type": "LineString", "coordinates": [[-73.92184494604537, 40.71683475820149], [-73.92175570814902, 40.716633313551085]]}}, {"type": "Feature", "properties": {"segment_id": 376492, "physicalid": "27786", "street_name": "GRAND AVE", "borough": "queens", "direction": "TW", "total_row_ft": 77.2, "roadbed_ft": 50.7, "median_ft": 0.0, "left_sw_ft": 15.7, "right_sw_ft": 10.8}, "geometry": {"type": "LineString", "coordinates": [[-73.92177655713274, 40.71685224495877], [-73.92168762905692, 40.71665149923148]]}}, {"type": "Feature", "properties": {"segment_id": 376493, "physicalid": "27786", "street_name": "GRAND AVE", "borough": "queens", "direction": "TW", "total_row_ft": 96.0, "roadbed_ft": 50.9, "median_ft": 0.0, "left_sw_ft": 34.2, "right_sw_ft": 10.9}, "geometry": {"type": "LineString", "coordinates": [[-73.92173028553611, 40.716919659174756], [-73.92161966700628, 40.7166699491655]]}}, {"type": "Feature", "properties": {"segment_id": 376494, "physicalid": "27786", "street_name": "GRAND AVE", "borough": "queens", "direction": "TW", "total_row_ft": 110.6, "roadbed_ft": 84.6, "median_ft": 0.0, "left_sw_ft": 15.0, "right_sw_ft": 11.0}, "geometry": {"type": "LineString", "coordinates": [[-73.92166191735878, 40.71693719293604], [-73.92155172135362, 40.716688436161306]]}}, {"type": "Feature", "properties": {"segment_id": 376495, "physicalid": "27787", "street_name": "GRAND ST BRIDGE", "borough": "queens", "direction": "TW", "total_row_ft": 34.0, "roadbed_ft": 19.8, "median_ft": 0.0, "left_sw_ft": 6.9, "right_sw_ft": 7.3}, "geometry": {"type": "LineString", "coordinates": [[-73.92269112934002, 40.716551137686665], [-73.92264618336459, 40.716464417540045]]}}, {"type": "Feature", "properties": {"segment_id": 376496, "physicalid": "27787", "street_name": "GRAND ST BRIDGE", "borough": "queens", "direction": "TW", "total_row_ft": 34.2, "roadbed_ft": 19.7, "median_ft": 0.0, "left_sw_ft": 7.1, "right_sw_ft": 7.4}, "geometry": {"type": "LineString", "coordinates": [[-73.92262294183537, 40.71656921030421], [-73.92257773199141, 40.71648198086576]]}}, {"type": "Feature", "properties": {"segment_id": 376497, "physicalid": "27787", "street_name": "GRAND ST BRIDGE", "borough": "queens", "direction": "TW", "total_row_ft": 34.4, "roadbed_ft": 19.7, "median_ft": 0.0, "left_sw_ft": 7.2, "right_sw_ft": 7.4}, "geometry": {"type": "LineString", "coordinates": [[-73.92255475429373, 40.71658728288131], [-73.92250928058215, 40.71649954415071]]}}, {"type": "Feature", "properties": {"segment_id": 376498, "physicalid": "27787", "street_name": "GRAND ST BRIDGE", "borough": "queens", "direction": "TW", "total_row_ft": 34.6, "roadbed_ft": 19.7, "median_ft": 0.0, "left_sw_ft": 7.4, "right_sw_ft": 7.5}, "geometry": {"type": "LineString", "coordinates": [[-73.92248656666975, 40.71660535533048], [-73.92244082912408, 40.71651710737032]]}}, {"type": "Feature", "properties": {"segment_id": 376499, "physicalid": "27787", "street_name": "GRAND ST BRIDGE", "borough": "queens", "direction": "TW", "total_row_ft": 34.8, "roadbed_ft": 19.6, "median_ft": 0.0, "left_sw_ft": 7.5, "right_sw_ft": 7.6}, "geometry": {"type": "LineString", "coordinates": [[-73.92241837897622, 40.71662342767637], [-73.9223723776198, 40.71653467052966]]}}, {"type": "Feature", "properties": {"segment_id": 1436992, "physicalid": "97413", "street_name": "47 ST", "borough": "queens", "direction": "TW", "total_row_ft": 64.1, "roadbed_ft": 38.2, "median_ft": 0.0, "left_sw_ft": 11.0, "right_sw_ft": 14.9}, "geometry": {"type": "LineString", "coordinates": [[-73.92295674995661, 40.71999039230995], [-73.92317370404439, 40.71992978356843]]}}, {"type": "Feature", "properties": {"segment_id": 1436993, "physicalid": "97413", "street_name": "47 ST", "borough": "queens", "direction": "TW", "total_row_ft": 63.7, "roadbed_ft": 38.3, "median_ft": 0.0, "left_sw_ft": 11.0, "right_sw_ft": 14.3}, "geometry": {"type": "LineString", "coordinates": [[-73.92293225440453, 40.719938756796154], [-73.92314782297358, 40.71987853512256]]}}, {"type": "Feature", "properties": {"segment_id": 1436994, "physicalid": "97413", "street_name": "47 ST", "borough": "queens", "direction": "TW", "total_row_ft": 63.9, "roadbed_ft": 38.5, "median_ft": 0.0, "left_sw_ft": 11.4, "right_sw_ft": 14.0}, "geometry": {"type": "LineString", "coordinates": [[-73.92290648277489, 40.71988747777338], [-73.92312279122494, 40.719827049412345]]}}, {"type": "Feature", "properties": {"segment_id": 1436995, "physicalid": "97413", "street_name": "47 ST", "borough": "queens", "direction": "TW", "total_row_ft": 64.1, "roadbed_ft": 38.7, "median_ft": 0.0, "left_sw_ft": 11.7, "right_sw_ft": 13.7}, "geometry": {"type": "LineString", "coordinates": [[-73.92288071118493, 40.71983619874454], [-73.92309775909163, 40.719775563814544]]}}, {"type": "Feature", "properties": {"segment_id": 1436996, "physicalid": "97413", "street_name": "47 ST", "borough": "queens", "direction": "TW", "total_row_ft": 64.3, "roadbed_ft": 38.9, "median_ft": 0.0, "left_sw_ft": 12.1, "right_sw_ft": 13.3}, "geometry": {"type": "LineString", "coordinates": [[-73.92285493963462, 40.71978491970954], [-73.92307272699703, 40.71972407821097]]}}, {"type": "Feature", "properties": {"segment_id": 1436997, "physicalid": "97413", "street_name": "47 ST", "borough": "queens", "direction": "TW", "total_row_ft": 64.5, "roadbed_ft": 39.1, "median_ft": 0.0, "left_sw_ft": 12.4, "right_sw_ft": 13.0}, "geometry": {"type": "LineString", "coordinates": [[-73.92282916812398, 40.71973364066845], [-73.92304771601529, 40.719672586714225]]}}, {"type": "Feature", "properties": {"segment_id": 1436998, "physicalid": "97413", "street_name": "47 ST", "borough": "queens", "direction": "TW", "total_row_ft": 64.8, "roadbed_ft": 39.2, "median_ft": 0.0, "left_sw_ft": 12.8, "right_sw_ft": 12.8}, "geometry": {"type": "LineString", "coordinates": [[-73.92280339665298, 40.7196823616212], [-73.92302275310223, 40.71962108179392]]}}, {"type": "Feature", "properties": {"segment_id": 1436999, "physicalid": "97413", "street_name": "47 ST", "borough": "queens", "direction": "TW", "total_row_ft": 64.8, "roadbed_ft": 39.2, "median_ft": 0.0, "left_sw_ft": 12.9, "right_sw_ft": 12.7}, "geometry": {"type": "LineString", "coordinates": [[-73.92277851165912, 40.71963083493214], [-73.92299779022773, 40.719569576867784]]}}, {"type": "Feature", "properties": {"segment_id": 1437000, "physicalid": "97413", "street_name": "47 ST", "borough": "queens", "direction": "TW", "total_row_ft": 64.5, "roadbed_ft": 39.2, "median_ft": 0.0, "left_sw_ft": 12.8, "right_sw_ft": 12.5}, "geometry": {"type": "LineString", "coordinates": [[-73.92275428427746, 40.719579124537134], [-73.92297282739183, 40.71951807193591]]}}, {"type": "Feature", "properties": {"segment_id": 1437001, "physicalid": "97413", "street_name": "47 ST", "borough": "queens", "direction": "TW", "total_row_ft": 64.3, "roadbed_ft": 39.2, "median_ft": 0.0, "left_sw_ft": 12.7, "right_sw_ft": 12.4}, "geometry": {"type": "LineString", "coordinates": [[-73.92273005693339, 40.71952741413664], [-73.9229478645945, 40.7194665669983]]}}, {"type": "Feature", "properties": {"segment_id": 1437002, "physicalid": "97413", "street_name": "47 ST", "borough": "queens", "direction": "TW", "total_row_ft": 64.1, "roadbed_ft": 39.3, "median_ft": 0.0, "left_sw_ft": 12.6, "right_sw_ft": 12.3}, "geometry": {"type": "LineString", "coordinates": [[-73.92270582962695, 40.719475703730744], [-73.9229228391057, 40.71941507957932]]}}, {"type": "Feature", "properties": {"segment_id": 1437003, "physicalid": "97413", "street_name": "47 ST", "borough": "queens", "direction": "TW", "total_row_ft": 63.8, "roadbed_ft": 39.3, "median_ft": 0.0, "left_sw_ft": 12.5, "right_sw_ft": 12.1}, "geometry": {"type": "LineString", "coordinates": [[-73.92268160230188, 40.71942399333504], [-73.92289772623093, 40.719363616577795]]}}, {"type": "Feature", "properties": {"segment_id": 1437004, "physicalid": "97413", "street_name": "47 ST", "borough": "queens", "direction": "TW", "total_row_ft": 63.6, "roadbed_ft": 39.3, "median_ft": 0.0, "left_sw_ft": 12.4, "right_sw_ft": 11.9}, "geometry": {"type": "LineString", "coordinates": [[-73.92265715052055, 40.71937234564866], [-73.92287261328809, 40.71931215360025]]}}, {"type": "Feature", "properties": {"segment_id": 1437005, "physicalid": "97413", "street_name": "47 ST", "borough": "queens", "direction": "TW", "total_row_ft": 63.5, "roadbed_ft": 39.3, "median_ft": 0.0, "left_sw_ft": 12.4, "right_sw_ft": 11.8}, "geometry": {"type": "LineString", "coordinates": [[-73.92263257096182, 40.719320733663196], [-73.92284750038405, 40.7192606906169]]}}, {"type": "Feature", "properties": {"segment_id": 1437006, "physicalid": "97413", "street_name": "47 ST", "borough": "queens", "direction": "TW", "total_row_ft": 63.3, "roadbed_ft": 39.3, "median_ft": 0.0, "left_sw_ft": 12.4, "right_sw_ft": 11.6}, "geometry": {"type": "LineString", "coordinates": [[-73.92260799184629, 40.71926912155903], [-73.92282238751879, 40.71920922762767]]}}, {"type": "Feature", "properties": {"segment_id": 1437007, "physicalid": "97413", "street_name": "47 ST", "borough": "queens", "direction": "TW", "total_row_ft": 63.2, "roadbed_ft": 39.3, "median_ft": 0.0, "left_sw_ft": 12.4, "right_sw_ft": 11.4}, "geometry": {"type": "LineString", "coordinates": [[-73.92258341280848, 40.719217509438124], [-73.9227972746923, 40.71915776463266]]}}, {"type": "Feature", "properties": {"segment_id": 1437008, "physicalid": "97413", "street_name": "47 ST", "borough": "queens", "direction": "TW", "total_row_ft": 63.0, "roadbed_ft": 39.3, "median_ft": 0.0, "left_sw_ft": 12.4, "right_sw_ft": 11.3}, "geometry": {"type": "LineString", "coordinates": [[-73.92255883396165, 40.71916589726892], [-73.92277217796041, 40.71910629714639]]}}, {"type": "Feature", "properties": {"segment_id": 1437009, "physicalid": "97413", "street_name": "47 ST", "borough": "queens", "direction": "TW", "total_row_ft": 62.9, "roadbed_ft": 39.2, "median_ft": 0.0, "left_sw_ft": 12.5, "right_sw_ft": 11.2}, "geometry": {"type": "LineString", "coordinates": [[-73.9225339718659, 40.71911436423329], [-73.92274709874941, 40.719054824770446]]}}, {"type": "Feature", "properties": {"segment_id": 1437010, "physicalid": "97413", "street_name": "47 ST", "borough": "queens", "direction": "TW", "total_row_ft": 62.9, "roadbed_ft": 39.2, "median_ft": 0.0, "left_sw_ft": 12.7, "right_sw_ft": 11.1}, "geometry": {"type": "LineString", "coordinates": [[-73.92250889178372, 40.7190628920994], [-73.9227220191747, 40.71900335250115]]}}, {"type": "Feature", "properties": {"segment_id": 1437011, "physicalid": "97413", "street_name": "47 ST", "borough": "queens", "direction": "TW", "total_row_ft": 62.9, "roadbed_ft": 39.1, "median_ft": 0.0, "left_sw_ft": 12.8, "right_sw_ft": 11.0}, "geometry": {"type": "LineString", "coordinates": [[-73.92248381174029, 40.719011419959756], [-73.92269693963873, 40.718951880225966]]}}, {"type": "Feature", "properties": {"segment_id": 1437012, "physicalid": "97413", "street_name": "47 ST", "borough": "queens", "direction": "TW", "total_row_ft": 62.9, "roadbed_ft": 39.1, "median_ft": 0.0, "left_sw_ft": 13.0, "right_sw_ft": 10.9}, "geometry": {"type": "LineString", "coordinates": [[-73.922458731373, 40.71895994791552], [-73.92267186024105, 40.7189004079172]]}}, {"type": "Feature", "properties": {"segment_id": 1437013, "physicalid": "97413", "street_name": "47 ST", "borough": "queens", "direction": "TW", "total_row_ft": 62.9, "roadbed_ft": 39.0, "median_ft": 0.0, "left_sw_ft": 13.1, "right_sw_ft": 10.8}, "geometry": {"type": "LineString", "coordinates": [[-73.9224336510027, 40.71890847587719], [-73.92264678125903, 40.71884893549727]]}}, {"type": "Feature", "properties": {"segment_id": 1437014, "physicalid": "97413", "street_name": "47 ST", "borough": "queens", "direction": "TW", "total_row_ft": 63.2, "roadbed_ft": 39.0, "median_ft": 0.0, "left_sw_ft": 13.3, "right_sw_ft": 11.0}, "geometry": {"type": "LineString", "coordinates": [[-73.92240848746626, 40.718857027077114], [-73.9226226612578, 40.71879719517903]]}}, {"type": "Feature", "properties": {"segment_id": 1437015, "physicalid": "97413", "street_name": "47 ST", "borough": "queens", "direction": "TW", "total_row_ft": 63.7, "roadbed_ft": 38.9, "median_ft": 0.0, "left_sw_ft": 13.4, "right_sw_ft": 11.3}, "geometry": {"type": "LineString", "coordinates": [[-73.92238331080311, 40.71880558194919], [-73.9225990518786, 40.71874531221709]]}}, {"type": "Feature", "properties": {"segment_id": 1437016, "physicalid": "97413", "street_name": "47 ST", "borough": "queens", "direction": "TW", "total_row_ft": 64.2, "roadbed_ft": 38.9, "median_ft": 0.0, "left_sw_ft": 13.6, "right_sw_ft": 11.7}, "geometry": {"type": "LineString", "coordinates": [[-73.92235813419371, 40.71875413681117], [-73.92257544242146, 40.718693429282034]]}}, {"type": "Feature", "properties": {"segment_id": 1437017, "physicalid": "97413", "street_name": "47 ST", "borough": "queens", "direction": "TW", "total_row_ft": 72.7, "roadbed_ft": 39.0, "median_ft": 0.0, "left_sw_ft": 13.8, "right_sw_ft": 19.9}, "geometry": {"type": "LineString", "coordinates": [[-73.92233295762321, 40.71870269166733], [-73.92257902177514, 40.71863395081163]]}}, {"type": "Feature", "properties": {"segment_id": 1437018, "physicalid": "97413", "street_name": "47 ST", "borough": "queens", "direction": "TW", "total_row_ft": 72.8, "roadbed_ft": 39.1, "median_ft": 0.0, "left_sw_ft": 13.6, "right_sw_ft": 20.1}, "geometry": {"type": "LineString", "coordinates": [[-73.92230903289469, 40.71865089681377], [-73.92255548123163, 40.71858204863509]]}}, {"type": "Feature", "properties": {"segment_id": 1437019, "physicalid": "97413", "street_name": "47 ST", "borough": "queens", "direction": "TW", "total_row_ft": 71.6, "roadbed_ft": 39.2, "median_ft": 0.0, "left_sw_ft": 13.2, "right_sw_ft": 19.1}, "geometry": {"type": "LineString", "coordinates": [[-73.9222855584383, 40.71859897617711], [-73.92252796487169, 40.71853125715905]]}}, {"type": "Feature", "properties": {"segment_id": 1437020, "physicalid": "97413", "street_name": "47 ST", "borough": "queens", "direction": "TW", "total_row_ft": 70.4, "roadbed_ft": 39.3, "median_ft": 0.0, "left_sw_ft": 12.9, "right_sw_ft": 18.2}, "geometry": {"type": "LineString", "coordinates": [[-73.9222620840616, 40.71854705552332], [-73.92250044855368, 40.71848046567602]]}}, {"type": "Feature", "properties": {"segment_id": 1437021, "physicalid": "97413", "street_name": "47 ST", "borough": "queens", "direction": "TW", "total_row_ft": 69.2, "roadbed_ft": 39.4, "median_ft": 0.0, "left_sw_ft": 12.6, "right_sw_ft": 17.2}, "geometry": {"type": "LineString", "coordinates": [[-73.92223860992296, 40.718495134808045], [-73.92247293227763, 40.71842967418609]]}}, {"type": "Feature", "properties": {"segment_id": 1437022, "physicalid": "97413", "street_name": "47 ST", "borough": "queens", "direction": "TW", "total_row_ft": 68.1, "roadbed_ft": 39.6, "median_ft": 0.0, "left_sw_ft": 12.3, "right_sw_ft": 16.2}, "geometry": {"type": "LineString", "coordinates": [[-73.9222149380762, 40.71844326932964], [-73.92244541604347, 40.71837888268921]]}}, {"type": "Feature", "properties": {"segment_id": 1437023, "physicalid": "97413", "street_name": "47 ST", "borough": "queens", "direction": "TW", "total_row_ft": 67.5, "roadbed_ft": 39.7, "median_ft": 0.0, "left_sw_ft": 12.5, "right_sw_ft": 15.4}, "geometry": {"type": "LineString", "coordinates": [[-73.92218965773313, 40.7183918532059], [-73.92241829555458, 40.71832798064077]]}}, {"type": "Feature", "properties": {"segment_id": 1437024, "physicalid": "97413", "street_name": "47 ST", "borough": "queens", "direction": "TW", "total_row_ft": 67.7, "roadbed_ft": 39.8, "median_ft": 0.0, "left_sw_ft": 12.6, "right_sw_ft": 15.2}, "geometry": {"type": "LineString", "coordinates": [[-73.92216437742906, 40.71834043707629], [-73.92239355646332, 40.71827641332379]]}}, {"type": "Feature", "properties": {"segment_id": 1437025, "physicalid": "97413", "street_name": "47 ST", "borough": "queens", "direction": "TW", "total_row_ft": 67.8, "roadbed_ft": 40.0, "median_ft": 0.0, "left_sw_ft": 12.8, "right_sw_ft": 15.0}, "geometry": {"type": "LineString", "coordinates": [[-73.922139097164, 40.718289020940766], [-73.92236881741039, 40.71822484600118]]}}, {"type": "Feature", "properties": {"segment_id": 1437026, "physicalid": "97413", "street_name": "47 ST", "borough": "queens", "direction": "TW", "total_row_ft": 68.0, "roadbed_ft": 40.1, "median_ft": 0.0, "left_sw_ft": 13.0, "right_sw_ft": 14.9}, "geometry": {"type": "LineString", "coordinates": [[-73.92211381693795, 40.718237604799356], [-73.92234407839571, 40.71817327867288]]}}, {"type": "Feature", "properties": {"segment_id": 1437027, "physicalid": "97413", "street_name": "47 ST", "borough": "queens", "direction": "TW", "total_row_ft": 68.2, "roadbed_ft": 40.2, "median_ft": 0.0, "left_sw_ft": 13.2, "right_sw_ft": 14.8}, "geometry": {"type": "LineString", "coordinates": [[-73.9220885367509, 40.71818618865204], [-73.9223193394193, 40.71812171133888]]}}, {"type": "Feature", "properties": {"segment_id": 1437028, "physicalid": "97413", "street_name": "47 ST", "borough": "queens", "direction": "TW", "total_row_ft": 68.2, "roadbed_ft": 40.1, "median_ft": 0.0, "left_sw_ft": 13.2, "right_sw_ft": 14.9}, "geometry": {"type": "LineString", "coordinates": [[-73.92206370104522, 40.71813464833938], [-73.9222946004812, 40.71807014399925]]}}, {"type": "Feature", "properties": {"segment_id": 1437029, "physicalid": "97413", "street_name": "47 ST", "borough": "queens", "direction": "TW", "total_row_ft": 68.2, "roadbed_ft": 40.0, "median_ft": 0.0, "left_sw_ft": 13.3, "right_sw_ft": 15.0}, "geometry": {"type": "LineString", "coordinates": [[-73.92203894368255, 40.71808308614591], [-73.92226976768096, 40.71801860288617]]}}, {"type": "Feature", "properties": {"segment_id": 1437030, "physicalid": "97413", "street_name": "47 ST", "borough": "queens", "direction": "TW", "total_row_ft": 68.0, "roadbed_ft": 39.8, "median_ft": 0.0, "left_sw_ft": 13.3, "right_sw_ft": 14.8}, "geometry": {"type": "LineString", "coordinates": [[-73.92201418635818, 40.71803152394674], [-73.9222443079826, 40.717967236909914]]}}, {"type": "Feature", "properties": {"segment_id": 1437031, "physicalid": "97413", "street_name": "47 ST", "borough": "queens", "direction": "TW", "total_row_ft": 67.7, "roadbed_ft": 39.7, "median_ft": 0.0, "left_sw_ft": 13.3, "right_sw_ft": 14.7}, "geometry": {"type": "LineString", "coordinates": [[-73.92198942907214, 40.717979961741904], [-73.92221884832345, 40.71791587092763]]}}, {"type": "Feature", "properties": {"segment_id": 1437032, "physicalid": "97413", "street_name": "47 ST", "borough": "queens", "direction": "TW", "total_row_ft": 67.5, "roadbed_ft": 39.6, "median_ft": 0.0, "left_sw_ft": 13.3, "right_sw_ft": 14.6}, "geometry": {"type": "LineString", "coordinates": [[-73.92196467182438, 40.71792839953135], [-73.92219338870359, 40.71786450493939]]}}, {"type": "Feature", "properties": {"segment_id": 1437033, "physicalid": "97413", "street_name": "47 ST", "borough": "queens", "direction": "TW", "total_row_ft": 67.3, "roadbed_ft": 39.5, "median_ft": 0.0, "left_sw_ft": 13.4, "right_sw_ft": 14.5}, "geometry": {"type": "LineString", "coordinates": [[-73.92193991461494, 40.71787683731515], [-73.92216792912295, 40.71781313894513]]}}, {"type": "Feature", "properties": {"segment_id": 1437034, "physicalid": "97413", "street_name": "47 ST", "borough": "queens", "direction": "TW", "total_row_ft": 67.2, "roadbed_ft": 39.3, "median_ft": 0.0, "left_sw_ft": 13.4, "right_sw_ft": 14.4}, "geometry": {"type": "LineString", "coordinates": [[-73.92191494156324, 40.71782533540159], [-73.92214246958157, 40.71776177294493]]}}, {"type": "Feature", "properties": {"segment_id": 1437035, "physicalid": "97413", "street_name": "47 ST", "borough": "queens", "direction": "TW", "total_row_ft": 67.2, "roadbed_ft": 39.2, "median_ft": 0.0, "left_sw_ft": 13.6, "right_sw_ft": 14.4}, "geometry": {"type": "LineString", "coordinates": [[-73.92188982757352, 40.71777387286546], [-73.92211730367661, 40.71771032491877]]}}, {"type": "Feature", "properties": {"segment_id": 1437036, "physicalid": "97413", "street_name": "47 ST", "borough": "queens", "direction": "TW", "total_row_ft": 67.3, "roadbed_ft": 39.2, "median_ft": 0.0, "left_sw_ft": 13.7, "right_sw_ft": 14.4}, "geometry": {"type": "LineString", "coordinates": [[-73.9218647136226, 40.7177224103235], [-73.92209260057373, 40.717658747608155]]}}, {"type": "Feature", "properties": {"segment_id": 1437037, "physicalid": "97413", "street_name": "47 ST", "borough": "queens", "direction": "TW", "total_row_ft": 67.4, "roadbed_ft": 39.1, "median_ft": 0.0, "left_sw_ft": 13.8, "right_sw_ft": 14.4}, "geometry": {"type": "LineString", "coordinates": [[-73.92183959971044, 40.7176709477757], [-73.9220678975091, 40.71760717029197]]}}, {"type": "Feature", "properties": {"segment_id": 1437038, "physicalid": "97413", "street_name": "47 ST", "borough": "queens", "direction": "TW", "total_row_ft": 67.5, "roadbed_ft": 39.2, "median_ft": 0.0, "left_sw_ft": 13.9, "right_sw_ft": 14.4}, "geometry": {"type": "LineString", "coordinates": [[-73.92181448583706, 40.7176194852221], [-73.92204319448267, 40.717555592970044]]}}, {"type": "Feature", "properties": {"segment_id": 1437039, "physicalid": "97413", "street_name": "47 ST", "borough": "queens", "direction": "TW", "total_row_ft": 67.6, "roadbed_ft": 39.3, "median_ft": 0.0, "left_sw_ft": 13.9, "right_sw_ft": 14.4}, "geometry": {"type": "LineString", "coordinates": [[-73.92178948026142, 40.71756799241943], [-73.92201849149451, 40.71750401564253]]}}, {"type": "Feature", "properties": {"segment_id": 1437040, "physicalid": "97413", "street_name": "47 ST", "borough": "queens", "direction": "TW", "total_row_ft": 67.7, "roadbed_ft": 39.4, "median_ft": 0.0, "left_sw_ft": 13.9, "right_sw_ft": 14.5}, "geometry": {"type": "LineString", "coordinates": [[-73.92176457877507, 40.717516470543494], [-73.92199378854455, 40.717452438309294]]}}, {"type": "Feature", "properties": {"segment_id": 1437041, "physicalid": "97413", "street_name": "47 ST", "borough": "queens", "direction": "TW", "total_row_ft": 67.7, "roadbed_ft": 39.5, "median_ft": 0.0, "left_sw_ft": 13.8, "right_sw_ft": 14.4}, "geometry": {"type": "LineString", "coordinates": [[-73.92173967732717, 40.71746494866177], [-73.9219690258498, 40.71740087767157]]}}, {"type": "Feature", "properties": {"segment_id": 1437042, "physicalid": "97413", "street_name": "47 ST", "borough": "queens", "direction": "TW", "total_row_ft": 67.8, "roadbed_ft": 39.6, "median_ft": 0.0, "left_sw_ft": 13.7, "right_sw_ft": 14.4}, "geometry": {"type": "LineString", "coordinates": [[-73.92171477591782, 40.717413426774336], [-73.92194421185452, 40.71734933137026]]}}, {"type": "Feature", "properties": {"segment_id": 1437043, "physicalid": "97413", "street_name": "47 ST", "borough": "queens", "direction": "TW", "total_row_ft": 67.8, "roadbed_ft": 39.7, "median_ft": 0.0, "left_sw_ft": 13.7, "right_sw_ft": 14.4}, "geometry": {"type": "LineString", "coordinates": [[-73.92168987454694, 40.71736190488114], [-73.92191939789763, 40.717297785063266]]}}, {"type": "Feature", "properties": {"segment_id": 1437044, "physicalid": "97413", "street_name": "47 ST", "borough": "queens", "direction": "TW", "total_row_ft": 67.8, "roadbed_ft": 39.8, "median_ft": 0.0, "left_sw_ft": 13.6, "right_sw_ft": 14.4}, "geometry": {"type": "LineString", "coordinates": [[-73.92166497321455, 40.71731038298221], [-73.92189458397912, 40.71724623875055]]}}, {"type": "Feature", "properties": {"segment_id": 1437045, "physicalid": "97413", "street_name": "47 ST", "borough": "queens", "direction": "TW", "total_row_ft": 67.8, "roadbed_ft": 39.9, "median_ft": 0.0, "left_sw_ft": 13.5, "right_sw_ft": 14.3}, "geometry": {"type": "LineString", "coordinates": [[-73.92164025145968, 40.71725881092164], [-73.92186977009898, 40.71719469243212]]}}, {"type": "Feature", "properties": {"segment_id": 1437046, "physicalid": "97413", "street_name": "47 ST", "borough": "queens", "direction": "TW", "total_row_ft": 67.7, "roadbed_ft": 40.0, "median_ft": 0.0, "left_sw_ft": 13.4, "right_sw_ft": 14.3}, "geometry": {"type": "LineString", "coordinates": [[-73.92161566312305, 40.71720720159442], [-73.92184495625725, 40.71714314610802]]}}, {"type": "Feature", "properties": {"segment_id": 1437047, "physicalid": "97413", "street_name": "47 ST", "borough": "queens", "direction": "TW", "total_row_ft": 67.7, "roadbed_ft": 40.1, "median_ft": 0.0, "left_sw_ft": 13.2, "right_sw_ft": 14.3}, "geometry": {"type": "LineString", "coordinates": [[-73.9215910748245, 40.717155592261626], [-73.92182020142768, 40.71709158330316]]}}, {"type": "Feature", "properties": {"segment_id": 1437048, "physicalid": "97413", "street_name": "47 ST", "borough": "queens", "direction": "TW", "total_row_ft": 68.0, "roadbed_ft": 40.3, "median_ft": 0.0, "left_sw_ft": 13.1, "right_sw_ft": 14.6}, "geometry": {"type": "LineString", "coordinates": [[-73.92156648656403, 40.71710398292321], [-73.92179668131652, 40.71703967557006]]}}, {"type": "Feature", "properties": {"segment_id": 1437049, "physicalid": "97413", "street_name": "47 ST", "borough": "queens", "direction": "TW", "total_row_ft": 68.3, "roadbed_ft": 40.4, "median_ft": 0.0, "left_sw_ft": 12.9, "right_sw_ft": 15.0}, "geometry": {"type": "LineString", "coordinates": [[-73.92154189834164, 40.71705237357919], [-73.92177316124199, 40.71698776783176]]}}, {"type": "Feature", "properties": {"segment_id": 1437050, "physicalid": "97413", "street_name": "47 ST", "borough": "queens", "direction": "TW", "total_row_ft": 68.6, "roadbed_ft": 40.6, "median_ft": 0.0, "left_sw_ft": 12.7, "right_sw_ft": 15.3}, "geometry": {"type": "LineString", "coordinates": [[-73.92151745901191, 40.71700072264562], [-73.9217496412041, 40.716935860088356]]}}, {"type": "Feature", "properties": {"segment_id": 1437051, "physicalid": "97413", "street_name": "47 ST", "borough": "queens", "direction": "TW", "total_row_ft": 68.8, "roadbed_ft": 41.1, "median_ft": 0.0, "left_sw_ft": 12.3, "right_sw_ft": 15.4}, "geometry": {"type": "LineString", "coordinates": [[-73.92149315573947, 40.716949033708275], [-73.92172612120282, 40.71688395233971]]}}, {"type": "Feature", "properties": {"segment_id": 1437052, "physicalid": "97413", "street_name": "47 ST", "borough": "queens", "direction": "TW", "total_row_ft": 120.0, "roadbed_ft": 47.4, "median_ft": 0.0, "left_sw_ft": 39.2, "right_sw_ft": 33.3}, "geometry": {"type": "LineString", "coordinates": [[-73.92137015585956, 40.71692491653535], [-73.92177651588163, 40.716811395623544]]}}, {"type": "Feature", "properties": {"segment_id": 1540883, "physicalid": "103722", "street_name": "ONDERDONK AVE", "borough": "queens", "direction": "TW", "total_row_ft": 77.0, "roadbed_ft": 44.8, "median_ft": 0.0, "left_sw_ft": 15.7, "right_sw_ft": 16.6}, "geometry": {"type": "LineString", "coordinates": [[-73.92211490283785, 40.71290795055778], [-73.92228278089247, 40.71273957955716]]}}, {"type": "Feature", "properties": {"segment_id": 1540884, "physicalid": "103722", "street_name": "ONDERDONK AVE", "borough": "queens", "direction": "TW", "total_row_ft": 67.5, "roadbed_ft": 43.5, "median_ft": 0.0, "left_sw_ft": 15.6, "right_sw_ft": 8.4}, "geometry": {"type": "LineString", "coordinates": [[-73.92205786191512, 40.71287433657732], [-73.92220511035868, 40.712726655947016]]}}, {"type": "Feature", "properties": {"segment_id": 1540885, "physicalid": "103722", "street_name": "ONDERDONK AVE", "borough": "queens", "direction": "TW", "total_row_ft": 67.7, "roadbed_ft": 43.7, "median_ft": 0.0, "left_sw_ft": 15.6, "right_sw_ft": 8.4}, "geometry": {"type": "LineString", "coordinates": [[-73.9220008210086, 40.712840722609904], [-73.92214840504215, 40.712692705528525]]}}, {"type": "Feature", "properties": {"segment_id": 1540886, "physicalid": "103722", "street_name": "ONDERDONK AVE", "borough": "queens", "direction": "TW", "total_row_ft": 67.8, "roadbed_ft": 43.9, "median_ft": 0.0, "left_sw_ft": 15.5, "right_sw_ft": 8.4}, "geometry": {"type": "LineString", "coordinates": [[-73.92194386136202, 40.712807027173696], [-73.9220916997834, 40.712658755081925]]}}, {"type": "Feature", "properties": {"segment_id": 1540887, "physicalid": "103722", "street_name": "ONDERDONK AVE", "borough": "queens", "direction": "TW", "total_row_ft": 67.9, "roadbed_ft": 44.1, "median_ft": 0.0, "left_sw_ft": 15.4, "right_sw_ft": 8.4}, "geometry": {"type": "LineString", "coordinates": [[-73.92188706229788, 40.71277317071404], [-73.92203499453052, 40.71262480465932]]}}, {"type": "Feature", "properties": {"segment_id": 1540888, "physicalid": "103722", "street_name": "ONDERDONK AVE", "borough": "queens", "direction": "TW", "total_row_ft": 67.9, "roadbed_ft": 44.3, "median_ft": 0.0, "left_sw_ft": 15.2, "right_sw_ft": 8.3}, "geometry": {"type": "LineString", "coordinates": [[-73.92183026329144, 40.71273931422621], [-73.92197828916201, 40.71259085438249]]}}, {"type": "Feature", "properties": {"segment_id": 1540889, "physicalid": "103722", "street_name": "ONDERDONK AVE", "borough": "queens", "direction": "TW", "total_row_ft": 67.7, "roadbed_ft": 44.4, "median_ft": 0.0, "left_sw_ft": 15.2, "right_sw_ft": 8.1}, "geometry": {"type": "LineString", "coordinates": [[-73.92177346434268, 40.71270545771019], [-73.92192114537878, 40.7125573438365]]}}, {"type": "Feature", "properties": {"segment_id": 1540890, "physicalid": "103722", "street_name": "ONDERDONK AVE", "borough": "queens", "direction": "TW", "total_row_ft": 67.5, "roadbed_ft": 44.3, "median_ft": 0.0, "left_sw_ft": 15.3, "right_sw_ft": 7.9}, "geometry": {"type": "LineString", "coordinates": [[-73.92171666545164, 40.712671601165994], [-73.92186392140155, 40.71252391374879]]}}, {"type": "Feature", "properties": {"segment_id": 1540891, "physicalid": "103722", "street_name": "ONDERDONK AVE", "borough": "queens", "direction": "TW", "total_row_ft": 67.3, "roadbed_ft": 44.2, "median_ft": 0.0, "left_sw_ft": 15.4, "right_sw_ft": 7.7}, "geometry": {"type": "LineString", "coordinates": [[-73.92165986661831, 40.71263774459362], [-73.92180669748171, 40.7124904836325]]}}, {"type": "Feature", "properties": {"segment_id": 1540892, "physicalid": "103722", "street_name": "ONDERDONK AVE", "borough": "queens", "direction": "TW", "total_row_ft": 67.2, "roadbed_ft": 44.2, "median_ft": 0.0, "left_sw_ft": 15.6, "right_sw_ft": 7.4}, "geometry": {"type": "LineString", "coordinates": [[-73.92160306784267, 40.71260388799307], [-73.92174947361929, 40.7124570534876]]}}, {"type": "Feature", "properties": {"segment_id": 1540893, "physicalid": "103722", "street_name": "ONDERDONK AVE", "borough": "queens", "direction": "TW", "total_row_ft": 67.3, "roadbed_ft": 44.1, "median_ft": 0.0, "left_sw_ft": 16.1, "right_sw_ft": 7.2}, "geometry": {"type": "LineString", "coordinates": [[-73.92154551487796, 40.71257078781703], [-73.92169224981426, 40.71242362331411]]}}, {"type": "Feature", "properties": {"segment_id": 1663560, "physicalid": "167191", "street_name": "49 PL", "borough": "queens", "direction": "TF", "total_row_ft": 57.4, "roadbed_ft": 39.3, "median_ft": 0.0, "left_sw_ft": 9.1, "right_sw_ft": 9.0}, "geometry": {"type": "LineString", "coordinates": [[-73.91990667304843, 40.719929747924546], [-73.92010561693832, 40.71997328335476]]}}, {"type": "Feature", "properties": {"segment_id": 1663561, "physicalid": "167191", "street_name": "49 PL", "borough": "queens", "direction": "TF", "total_row_ft": 57.2, "roadbed_ft": 39.3, "median_ft": 0.0, "left_sw_ft": 9.0, "right_sw_ft": 9.0}, "geometry": {"type": "LineString", "coordinates": [[-73.91992709815776, 40.7198770969391], [-73.92012546351995, 40.71992050576558]]}}, {"type": "Feature", "properties": {"segment_id": 1663562, "physicalid": "167191", "street_name": "49 PL", "borough": "queens", "direction": "TF", "total_row_ft": 57.1, "roadbed_ft": 39.2, "median_ft": 0.0, "left_sw_ft": 8.9, "right_sw_ft": 9.1}, "geometry": {"type": "LineString", "coordinates": [[-73.91994717139065, 40.719824368954264], [-73.92014529347554, 40.719867724541174]]}}, {"type": "Feature", "properties": {"segment_id": 1663563, "physicalid": "167191", "street_name": "49 PL", "borough": "queens", "direction": "TF", "total_row_ft": 57.3, "roadbed_ft": 39.1, "median_ft": 0.0, "left_sw_ft": 8.8, "right_sw_ft": 9.3}, "geometry": {"type": "LineString", "coordinates": [[-73.91996649048568, 40.71977147594175], [-73.92016512339971, 40.71981494331299]]}}, {"type": "Feature", "properties": {"segment_id": 1663564, "physicalid": "167191", "street_name": "49 PL", "borough": "queens", "direction": "TF", "total_row_ft": 57.4, "roadbed_ft": 39.1, "median_ft": 0.0, "left_sw_ft": 8.7, "right_sw_ft": 9.6}, "geometry": {"type": "LineString", "coordinates": [[-73.91998580972523, 40.719718582963985], [-73.92018495329249, 40.71976216208101]]}}, {"type": "Feature", "properties": {"segment_id": 1663565, "physicalid": "167191", "street_name": "49 PL", "borough": "queens", "direction": "TF", "total_row_ft": 57.6, "roadbed_ft": 39.0, "median_ft": 0.0, "left_sw_ft": 8.7, "right_sw_ft": 9.9}, "geometry": {"type": "LineString", "coordinates": [[-73.92000512893412, 40.71966568998259], [-73.92020478315385, 40.71970938084524]]}}, {"type": "Feature", "properties": {"segment_id": 1663566, "physicalid": "167191", "street_name": "49 PL", "borough": "queens", "direction": "TF", "total_row_ft": 57.8, "roadbed_ft": 39.0, "median_ft": 0.0, "left_sw_ft": 8.6, "right_sw_ft": 10.2}, "geometry": {"type": "LineString", "coordinates": [[-73.92002444759866, 40.71961279688516], [-73.9202247244292, 40.71965662399348]]}}, {"type": "Feature", "properties": {"segment_id": 1663567, "physicalid": "167191", "street_name": "49 PL", "borough": "queens", "direction": "TF", "total_row_ft": 58.1, "roadbed_ft": 39.3, "median_ft": 0.0, "left_sw_ft": 8.4, "right_sw_ft": 10.3}, "geometry": {"type": "LineString", "coordinates": [[-73.92004381929608, 40.719559915396204], [-73.9202450929943, 40.71960396064928]]}}, {"type": "Feature", "properties": {"segment_id": 1663568, "physicalid": "167191", "street_name": "49 PL", "borough": "queens", "direction": "TF", "total_row_ft": 58.3, "roadbed_ft": 39.6, "median_ft": 0.0, "left_sw_ft": 8.3, "right_sw_ft": 10.5}, "geometry": {"type": "LineString", "coordinates": [[-73.92006322484731, 40.71950704131866], [-73.9202654615272, 40.71955129730113]]}}, {"type": "Feature", "properties": {"segment_id": 1663569, "physicalid": "167191", "street_name": "49 PL", "borough": "queens", "direction": "TF", "total_row_ft": 58.6, "roadbed_ft": 39.9, "median_ft": 0.0, "left_sw_ft": 8.1, "right_sw_ft": 10.6}, "geometry": {"type": "LineString", "coordinates": [[-73.92008263036772, 40.71945416723752], [-73.92028583002792, 40.71949863394896]]}}, {"type": "Feature", "properties": {"segment_id": 1663570, "physicalid": "167191", "street_name": "49 PL", "borough": "queens", "direction": "TF", "total_row_ft": 58.8, "roadbed_ft": 40.2, "median_ft": 0.0, "left_sw_ft": 7.9, "right_sw_ft": 10.7}, "geometry": {"type": "LineString", "coordinates": [[-73.92010203585735, 40.71940129315272], [-73.92030591321532, 40.71944590816433]]}}, {"type": "Feature", "properties": {"segment_id": 1663571, "physicalid": "167191", "street_name": "49 PL", "borough": "queens", "direction": "TF", "total_row_ft": 58.8, "roadbed_ft": 40.1, "median_ft": 0.0, "left_sw_ft": 7.9, "right_sw_ft": 10.8}, "geometry": {"type": "LineString", "coordinates": [[-73.92012144131621, 40.71934841906425], [-73.92032527577825, 40.71939302468743]]}}, {"type": "Feature", "properties": {"segment_id": 1663572, "physicalid": "167191", "street_name": "49 PL", "borough": "queens", "direction": "TF", "total_row_ft": 59.6, "roadbed_ft": 40.9, "median_ft": 0.0, "left_sw_ft": 7.6, "right_sw_ft": 11.2}, "geometry": {"type": "LineString", "coordinates": [[-73.92012079467817, 40.71935018096152], [-73.92032241480408, 40.71929334289829]]}}, {"type": "Feature", "properties": {"segment_id": 1663573, "physicalid": "167191", "street_name": "49 PL", "borough": "queens", "direction": "TF", "total_row_ft": 57.4, "roadbed_ft": 41.3, "median_ft": 0.0, "left_sw_ft": 7.1, "right_sw_ft": 9.0}, "geometry": {"type": "LineString", "coordinates": [[-73.92010334382738, 40.71929655836775], [-73.9202976062321, 40.71924179449234]]}}, {"type": "Feature", "properties": {"segment_id": 1663574, "physicalid": "167191", "street_name": "49 PL", "borough": "queens", "direction": "TF", "total_row_ft": 56.7, "roadbed_ft": 41.1, "median_ft": 0.0, "left_sw_ft": 7.1, "right_sw_ft": 8.6}, "geometry": {"type": "LineString", "coordinates": [[-73.92007978699971, 40.71924465708832], [-73.92027151732539, 40.71919060702782]]}}, {"type": "Feature", "properties": {"segment_id": 1663575, "physicalid": "167191", "street_name": "49 PL", "borough": "queens", "direction": "TF", "total_row_ft": 56.1, "roadbed_ft": 40.8, "median_ft": 0.0, "left_sw_ft": 7.1, "right_sw_ft": 8.2}, "geometry": {"type": "LineString", "coordinates": [[-73.92005562725691, 40.719192925779204], [-73.92024542845876, 40.71913941955705]]}}, {"type": "Feature", "properties": {"segment_id": 1663576, "physicalid": "167191", "street_name": "49 PL", "borough": "queens", "direction": "TF", "total_row_ft": 56.4, "roadbed_ft": 40.6, "median_ft": 0.0, "left_sw_ft": 7.4, "right_sw_ft": 8.5}, "geometry": {"type": "LineString", "coordinates": [[-73.92002955575242, 40.719141733411504], [-73.92022040899046, 40.7190879306197]]}}, {"type": "Feature", "properties": {"segment_id": 1663577, "physicalid": "167191", "street_name": "49 PL", "borough": "queens", "direction": "TF", "total_row_ft": 56.8, "roadbed_ft": 40.3, "median_ft": 0.0, "left_sw_ft": 7.7, "right_sw_ft": 8.7}, "geometry": {"type": "LineString", "coordinates": [[-73.92000348428796, 40.71909054103755], [-73.92019552273243, 40.71903640413442]]}}, {"type": "Feature", "properties": {"segment_id": 1663578, "physicalid": "167191", "street_name": "49 PL", "borough": "queens", "direction": "TF", "total_row_ft": 106.7, "roadbed_ft": 82.7, "median_ft": 0.0, "left_sw_ft": 15.0, "right_sw_ft": 9.0}, "geometry": {"type": "LineString", "coordinates": [[-73.91997741286357, 40.71903934865735], [-73.92028767778571, 40.71895188273987]]}}, {"type": "Feature", "properties": {"segment_id": 1663579, "physicalid": "167191", "street_name": "49 PL", "borough": "queens", "direction": "TF", "total_row_ft": 56.9, "roadbed_ft": 39.8, "median_ft": 0.0, "left_sw_ft": 7.9, "right_sw_ft": 9.3}, "geometry": {"type": "LineString", "coordinates": [[-73.91995134147923, 40.7189881562709], [-73.92014385838108, 40.71893388450201]]}}, {"type": "Feature", "properties": {"segment_id": 1663580, "physicalid": "167191", "street_name": "49 PL", "borough": "queens", "direction": "TF", "total_row_ft": 56.7, "roadbed_ft": 39.3, "median_ft": 0.0, "left_sw_ft": 7.9, "right_sw_ft": 9.5}, "geometry": {"type": "LineString", "coordinates": [[-73.91992584752087, 40.71893680110995], [-73.9201177118465, 40.71888271331351]]}}]}