{"type": "FeatureCollection", "features": [{"type": "Feature", "properties": {"segment_id": 117058, "physicalid": "9238", "street_name": "MYRTLE AVE", "borough": "queens", "direction": "TW", "total_row_ft": 109.3, "roadbed_ft": 97.1, "median_ft": 0.0, "left_sw_ft": 11.1, "right_sw_ft": 1.1}, "geometry": {"type": "LineString", "coordinates": [[-73.91101523049953, 40.6996727028285], [-73.91094102250882, 40.699378126293865]]}}, {"type": "Feature", "properties": {"segment_id": 117059, "physicalid": "9238", "street_name": "MYRTLE AVE", "borough": "queens", "direction": "TW", "total_row_ft": 135.0, "roadbed_ft": 116.3, "median_ft": 0.0, "left_sw_ft": 3.7, "right_sw_ft": 15.0}, "geometry": {"type": "LineString", "coordinates": [[-73.91095167328942, 40.699711943143704], [-73.91087018433889, 40.69938846284173]]}}, {"type": "Feature", "properties": {"segment_id": 117060, "physicalid": "9238", "street_name": "MYRTLE AVE", "borough": "queens", "direction": "TW", "total_row_ft": 118.1, "roadbed_ft": 64.9, "median_ft": 0.0, "left_sw_ft": 15.0, "right_sw_ft": 38.2}, "geometry": {"type": "LineString", "coordinates": [[-73.91088083476643, 40.69972227969768], [-73.91081084971789, 40.69944446455727]]}}, {"type": "Feature", "properties": {"segment_id": 117061, "physicalid": "9238", "street_name": "MYRTLE AVE", "borough": "queens", "direction": "TW", "total_row_ft": 110.9, "roadbed_ft": 65.9, "median_ft": 0.0, "left_sw_ft": 15.0, "right_sw_ft": 30.0}, "geometry": {"type": "LineString", "coordinates": [[-73.91080999622147, 40.69973261620804], [-73.9107285079331, 40.69940913580662]]}}, {"type": "Feature", "properties": {"segment_id": 117062, "physicalid": "9238", "street_name": "MYRTLE AVE", "borough": "queens", "direction": "TW", "total_row_ft": 73.9, "roadbed_ft": 41.0, "median_ft": 0.0, "left_sw_ft": 20.2, "right_sw_ft": 12.7}, "geometry": {"type": "LineString", "coordinates": [[-73.9107352472827, 40.69972742985507], [-73.910685071119, 40.69952824723481]]}}, {"type": "Feature", "properties": {"segment_id": 117063, "physicalid": "9238", "street_name": "MYRTLE AVE", "borough": "queens", "direction": "TW", "total_row_ft": 63.0, "roadbed_ft": 36.9, "median_ft": 0.0, "left_sw_ft": 13.3, "right_sw_ft": 12.8}, "geometry": {"type": "LineString", "coordinates": [[-73.91066831906566, 40.699753289097956], [-73.91061344053868, 40.699535438788025]]}}, {"type": "Feature", "properties": {"segment_id": 117064, "physicalid": "9238", "street_name": "MYRTLE AVE", "borough": "queens", "direction": "TW", "total_row_ft": 60.4, "roadbed_ft": 37.1, "median_ft": 0.0, "left_sw_ft": 10.3, "right_sw_ft": 13.0}, "geometry": {"type": "LineString", "coordinates": [[-73.91058281667556, 40.6997054148316], [-73.91054180994291, 40.699542630296655]]}}, {"type": "Feature", "properties": {"segment_id": 117065, "physicalid": "9238", "street_name": "MYRTLE AVE", "borough": "queens", "direction": "TW", "total_row_ft": 60.5, "roadbed_ft": 37.3, "median_ft": 0.0, "left_sw_ft": 10.1, "right_sw_ft": 13.1}, "geometry": {"type": "LineString", "coordinates": [[-73.91051128120608, 40.699712984682904], [-73.91047018369876, 40.69954983909674]]}}, {"type": "Feature", "properties": {"segment_id": 117066, "physicalid": "9238", "street_name": "MYRTLE AVE", "borough": "queens", "direction": "TW", "total_row_ft": 60.9, "roadbed_ft": 37.6, "median_ft": 0.0, "left_sw_ft": 10.1, "right_sw_ft": 13.2}, "geometry": {"type": "LineString", "coordinates": [[-73.91043990173709, 40.699721173833474], [-73.91039856761881, 40.69955708826312]]}}, {"type": "Feature", "properties": {"segment_id": 117067, "physicalid": "9238", "street_name": "MYRTLE AVE", "borough": "queens", "direction": "TW", "total_row_ft": 61.3, "roadbed_ft": 37.8, "median_ft": 0.0, "left_sw_ft": 10.1, "right_sw_ft": 13.3}, "geometry": {"type": "LineString", "coordinates": [[-73.91036855216872, 40.69972948170726], [-73.9103269515233, 40.69956433738493]]}}, {"type": "Feature", "properties": {"segment_id": 117068, "physicalid": "9238", "street_name": "MYRTLE AVE", "borough": "queens", "direction": "TW", "total_row_ft": 61.7, "roadbed_ft": 37.9, "median_ft": 0.0, "left_sw_ft": 10.1, "right_sw_ft": 13.7}, "geometry": {"type": "LineString", "coordinates": [[-73.91029720258257, 40.6997377895368], [-73.91025533541222, 40.699571586462184]]}}, {"type": "Feature", "properties": {"segment_id": 117069, "physicalid": "9238", "street_name": "MYRTLE AVE", "borough": "queens", "direction": "TW", "total_row_ft": 62.0, "roadbed_ft": 37.9, "median_ft": 0.0, "left_sw_ft": 10.2, "right_sw_ft": 14.0}, "geometry": {"type": "LineString", "coordinates": [[-73.91022585297864, 40.699746097322134], [-73.91018372392642, 40.69957885391823]]}}, {"type": "Feature", "properties": {"segment_id": 117070, "physicalid": "9238", "street_name": "MYRTLE AVE", "borough": "queens", "direction": "TW", "total_row_ft": 61.9, "roadbed_ft": 37.9, "median_ft": 0.0, "left_sw_ft": 10.2, "right_sw_ft": 13.8}, "geometry": {"type": "LineString", "coordinates": [[-73.91015450335694, 40.6997544050632], [-73.91011250000085, 40.69958765993406]]}}, {"type": "Feature", "properties": {"segment_id": 117071, "physicalid": "9238", "street_name": "MYRTLE AVE", "borough": "queens", "direction": "TW", "total_row_ft": 61.7, "roadbed_ft": 37.9, "median_ft": 0.0, "left_sw_ft": 10.2, "right_sw_ft": 13.5}, "geometry": {"type": "LineString", "coordinates": [[-73.91008314125068, 40.699762663269304], [-73.91004127605646, 40.69959646590582]]}}, {"type": "Feature", "properties": {"segment_id": 392562, "physicalid": "28866", "street_name": "PALMETTO ST", "borough": "queens", "direction": "TW", "total_row_ft": 120.0, "roadbed_ft": 81.8, "median_ft": 0.0, "left_sw_ft": 27.8, "right_sw_ft": 10.3}, "geometry": {"type": "LineString", "coordinates": [[-73.91117277422813, 40.69966554941353], [-73.91083073303797, 40.699463758125184]]}}, {"type": "Feature", "properties": {"segment_id": 392563, "physicalid": "28866", "street_name": "PALMETTO ST", "borough": "queens", "direction": "TW", "total_row_ft": 88.1, "roadbed_ft": 57.1, "median_ft": 0.0, "left_sw_ft": 12.2, "right_sw_ft": 18.8}, "geometry": {"type": "LineString", "coordinates": [[-73.91104571711156, 40.699660047708925], [-73.91079450151797, 40.69951183982922]]}}, {"type": "Feature", "properties": {"segment_id": 392564, "physicalid": "28866", "street_name": "PALMETTO ST", "borough": "queens", "direction": "TW", "total_row_ft": 87.1, "roadbed_ft": 75.5, "median_ft": 0.0, "left_sw_ft": 8.1, "right_sw_ft": 3.4}, "geometry": {"type": "LineString", "coordinates": [[-73.91099057740921, 40.69969697436559], [-73.91074235302094, 40.69955053108458]]}}, {"type": "Feature", "properties": {"segment_id": 392565, "physicalid": "28866", "street_name": "PALMETTO ST", "borough": "queens", "direction": "TW", "total_row_ft": 102.1, "roadbed_ft": 79.2, "median_ft": 0.0, "left_sw_ft": 7.9, "right_sw_ft": 15.0}, "geometry": {"type": "LineString", "coordinates": [[-73.91094646305775, 40.69974040556155], [-73.91069816292611, 40.69959391753853]]}}, {"type": "Feature", "properties": {"segment_id": 392566, "physicalid": "28866", "street_name": "PALMETTO ST", "borough": "queens", "direction": "TW", "total_row_ft": 69.6, "roadbed_ft": 50.3, "median_ft": 0.0, "left_sw_ft": 7.4, "right_sw_ft": 11.9}, "geometry": {"type": "LineString", "coordinates": [[-73.91090152488066, 40.699783350748994], [-73.91070319550576, 40.69966634369725]]}}, {"type": "Feature", "properties": {"segment_id": 392567, "physicalid": "28866", "street_name": "PALMETTO ST", "borough": "queens", "direction": "TW", "total_row_ft": 71.0, "roadbed_ft": 41.8, "median_ft": 0.0, "left_sw_ft": 6.8, "right_sw_ft": 22.5}, "geometry": {"type": "LineString", "coordinates": [[-73.91085644165132, 40.69982621037757], [-73.910609782564, 40.69968069039471]]}}, {"type": "Feature", "properties": {"segment_id": 392568, "physicalid": "28866", "street_name": "PALMETTO ST", "borough": "queens", "direction": "TW", "total_row_ft": 59.2, "roadbed_ft": 41.8, "median_ft": 0.0, "left_sw_ft": 6.4, "right_sw_ft": 11.0}, "geometry": {"type": "LineString", "coordinates": [[-73.91081135873092, 40.6998690702047], [-73.9106425707034, 40.699769491428846]]}}, {"type": "Feature", "properties": {"segment_id": 392569, "physicalid": "28866", "street_name": "PALMETTO ST", "borough": "queens", "direction": "TW", "total_row_ft": 58.8, "roadbed_ft": 41.8, "median_ft": 0.0, "left_sw_ft": 6.0, "right_sw_ft": 11.0}, "geometry": {"type": "LineString", "coordinates": [[-73.9107662757526, 40.699911930013926], [-73.91059859045133, 40.69981300176711]]}}, {"type": "Feature", "properties": {"segment_id": 392570, "physicalid": "28866", "street_name": "PALMETTO ST", "borough": "queens", "direction": "TW", "total_row_ft": 58.5, "roadbed_ft": 41.8, "median_ft": 0.0, "left_sw_ft": 5.7, "right_sw_ft": 11.1}, "geometry": {"type": "LineString", "coordinates": [[-73.91072137756261, 40.699954898857655], [-73.91055461014186, 40.69985651208832]]}}, {"type": "Feature", "properties": {"segment_id": 392571, "physicalid": "28866", "street_name": "PALMETTO ST", "borough": "queens", "direction": "TW", "total_row_ft": 58.6, "roadbed_ft": 41.8, "median_ft": 0.0, "left_sw_ft": 5.8, "right_sw_ft": 11.0}, "geometry": {"type": "LineString", "coordinates": [[-73.91067784167286, 40.69999867142397], [-73.91051091353732, 40.69990018980256]]}}, {"type": "Feature", "properties": {"segment_id": 392572, "physicalid": "28866", "street_name": "PALMETTO ST", "borough": "queens", "direction": "TW", "total_row_ft": 58.3, "roadbed_ft": 41.8, "median_ft": 0.0, "left_sw_ft": 6.0, "right_sw_ft": 10.5}, "geometry": {"type": "LineString", "coordinates": [[-73.91063430572595, 40.700042443973544], [-73.91046821964676, 40.69994445910088]]}}]}