{"type": "FeatureCollection", "features": [{"type": "Feature", "properties": {"segment_id": 306483, "physicalid": "22989", "street_name": "SHORE BLVD", "borough": "queens", "direction": "FT", "total_row_ft": 56.9, "roadbed_ft": 32.3, "median_ft": 4.1, "left_sw_ft": 8.3, "right_sw_ft": 12.1}, "geometry": {"type": "LineString", "coordinates": [[-73.91995543517284, 40.78222378475192], [-73.9200974062996, 40.78232028333739]]}}, {"type": "Feature", "properties": {"segment_id": 306484, "physicalid": "22989", "street_name": "SHORE BLVD", "borough": "queens", "direction": "FT", "total_row_ft": 57.1, "roadbed_ft": 32.1, "median_ft": 4.2, "left_sw_ft": 8.4, "right_sw_ft": 12.5}, "geometry": {"type": "LineString", "coordinates": [[-73.92000464982436, 40.782183595447506], [-73.92014707505328, 40.78228040263761]]}}, {"type": "Feature", "properties": {"segment_id": 306485, "physicalid": "22989", "street_name": "SHORE BLVD", "borough": "queens", "direction": "FT", "total_row_ft": 59.9, "roadbed_ft": 32.1, "median_ft": 4.1, "left_sw_ft": 11.1, "right_sw_ft": 12.6}, "geometry": {"type": "LineString", "coordinates": [[-73.92004618090988, 40.78213818359092], [-73.92019621757892, 40.782240164277674]]}}, {"type": "Feature", "properties": {"segment_id": 306486, "physicalid": "22989", "street_name": "SHORE BLVD", "borough": "queens", "direction": "FT", "total_row_ft": 71.3, "roadbed_ft": 32.3, "median_ft": 4.1, "left_sw_ft": 22.2, "right_sw_ft": 12.7}, "geometry": {"type": "LineString", "coordinates": [[-73.9200451180226, 40.782063820332574], [-73.92024536004517, 40.782199925896506]]}}, {"type": "Feature", "properties": {"segment_id": 306487, "physicalid": "22989", "street_name": "SHORE BLVD", "borough": "queens", "direction": "FT", "total_row_ft": 60.6, "roadbed_ft": 32.4, "median_ft": 4.1, "left_sw_ft": 11.3, "right_sw_ft": 12.8}, "geometry": {"type": "LineString", "coordinates": [[-73.92006755132472, 40.78200542762162], [-73.92029450245204, 40.78215968749415]]}}, {"type": "Feature", "properties": {"segment_id": 306488, "physicalid": "22989", "street_name": "SHORE BLVD", "borough": "queens", "direction": "FT", "total_row_ft": 57.1, "roadbed_ft": 32.6, "median_ft": 4.1, "left_sw_ft": 7.3, "right_sw_ft": 13.1}, "geometry": {"type": "LineString", "coordinates": [[-73.92020150704651, 40.78202283748024], [-73.92034401933608, 40.782119703643964]]}}, {"type": "Feature", "properties": {"segment_id": 306489, "physicalid": "22989", "street_name": "SHORE BLVD", "borough": "queens", "direction": "FT", "total_row_ft": 57.4, "roadbed_ft": 32.7, "median_ft": 4.3, "left_sw_ft": 7.0, "right_sw_ft": 13.4}, "geometry": {"type": "LineString", "coordinates": [[-73.92025065477688, 40.78198260278474], [-73.92039357463794, 40.78207974592535]]}}, {"type": "Feature", "properties": {"segment_id": 306490, "physicalid": "22989", "street_name": "SHORE BLVD", "borough": "queens", "direction": "FT", "total_row_ft": 57.8, "roadbed_ft": 33.1, "median_ft": 4.4, "left_sw_ft": 6.9, "right_sw_ft": 13.5}, "geometry": {"type": "LineString", "coordinates": [[-73.92029935231922, 40.7819420621134], [-73.92044312988034, 40.78203978818519]]}}, {"type": "Feature", "properties": {"segment_id": 306491, "physicalid": "22989", "street_name": "SHORE BLVD", "borough": "queens", "direction": "FT", "total_row_ft": 58.2, "roadbed_ft": 33.5, "median_ft": 4.5, "left_sw_ft": 6.8, "right_sw_ft": 13.4}, "geometry": {"type": "LineString", "coordinates": [[-73.92034804980229, 40.781901521421254], [-73.92049249405927, 40.78199970059785]]}}, {"type": "Feature", "properties": {"segment_id": 306492, "physicalid": "22989", "street_name": "SHORE BLVD", "borough": "queens", "direction": "FT", "total_row_ft": 58.0, "roadbed_ft": 33.9, "median_ft": 4.2, "left_sw_ft": 6.6, "right_sw_ft": 13.2}, "geometry": {"type": "LineString", "coordinates": [[-73.92039674722605, 40.78186098070827], [-73.9205416271521, 40.78195945596008]]}}, {"type": "Feature", "properties": {"segment_id": 306493, "physicalid": "22989", "street_name": "SHORE BLVD", "borough": "queens", "direction": "FT", "total_row_ft": 57.7, "roadbed_ft": 34.4, "median_ft": 3.7, "left_sw_ft": 6.5, "right_sw_ft": 13.1}, "geometry": {"type": "LineString", "coordinates": [[-73.9204454445905, 40.78182043997448], [-73.92059076018555, 40.78191921130109]]}}, {"type": "Feature", "properties": {"segment_id": 306494, "physicalid": "22989", "street_name": "SHORE BLVD", "borough": "queens", "direction": "FT", "total_row_ft": 57.4, "roadbed_ft": 34.7, "median_ft": 3.2, "left_sw_ft": 6.5, "right_sw_ft": 12.9}, "geometry": {"type": "LineString", "coordinates": [[-73.92049414189566, 40.78177989921984], [-73.92063989315957, 40.781878966620916]]}}, {"type": "Feature", "properties": {"segment_id": 306495, "physicalid": "22989", "street_name": "SHORE BLVD", "borough": "queens", "direction": "FT", "total_row_ft": 56.5, "roadbed_ft": 33.4, "median_ft": 2.1, "left_sw_ft": 8.2, "right_sw_ft": 12.8}, "geometry": {"type": "LineString", "coordinates": [[-73.92054278946303, 40.78173932467773], [-73.92068905837307, 40.78183874387309]]}}, {"type": "Feature", "properties": {"segment_id": 306496, "physicalid": "22989", "street_name": "SHORE BLVD", "borough": "queens", "direction": "FT", "total_row_ft": 55.6, "roadbed_ft": 32.0, "median_ft": 1.0, "left_sw_ft": 9.9, "right_sw_ft": 12.7}, "geometry": {"type": "LineString", "coordinates": [[-73.92059132681574, 40.781698675241955], [-73.92073823258396, 40.781798527259895]]}}, {"type": "Feature", "properties": {"segment_id": 306497, "physicalid": "22989", "street_name": "SHORE BLVD", "borough": "queens", "direction": "FT", "total_row_ft": 52.5, "roadbed_ft": 30.1, "median_ft": 0.0, "left_sw_ft": 9.9, "right_sw_ft": 12.5}, "geometry": {"type": "LineString", "coordinates": [[-73.92064618286865, 40.781662320661376], [-73.920787406871, 40.78175831071763]]}}, {"type": "Feature", "properties": {"segment_id": 306498, "physicalid": "22990", "street_name": "SHORE BLVD", "borough": "queens", "direction": "FT", "total_row_ft": 44.6, "roadbed_ft": 22.7, "median_ft": 0.0, "left_sw_ft": 9.7, "right_sw_ft": 12.2}, "geometry": {"type": "LineString", "coordinates": [[-73.92078209544592, 40.78158289257798], [-73.92089989532464, 40.78166631462041]]}}, {"type": "Feature", "properties": {"segment_id": 306499, "physicalid": "22990", "street_name": "SHORE BLVD", "borough": "queens", "direction": "FT", "total_row_ft": 42.6, "roadbed_ft": 22.1, "median_ft": 0.0, "left_sw_ft": 8.4, "right_sw_ft": 12.1}, "geometry": {"type": "LineString", "coordinates": [[-73.92083659337533, 40.78154646003007], [-73.92094906005013, 40.78162610522277]]}}, {"type": "Feature", "properties": {"segment_id": 306500, "physicalid": "22990", "street_name": "SHORE BLVD", "borough": "queens", "direction": "FT", "total_row_ft": 46.5, "roadbed_ft": 26.5, "median_ft": 0.3, "left_sw_ft": 7.8, "right_sw_ft": 11.9}, "geometry": {"type": "LineString", "coordinates": [[-73.92087624117617, 40.78149951111156], [-73.92099822425388, 40.781585895476496]]}}, {"type": "Feature", "properties": {"segment_id": 306501, "physicalid": "22990", "street_name": "SHORE BLVD", "borough": "queens", "direction": "FT", "total_row_ft": 51.2, "roadbed_ft": 29.8, "median_ft": 1.3, "left_sw_ft": 8.3, "right_sw_ft": 11.8}, "geometry": {"type": "LineString", "coordinates": [[-73.92091550307529, 40.78145228893534], [-73.92104747222899, 40.78154574507497]]}}, {"type": "Feature", "properties": {"segment_id": 306502, "physicalid": "22990", "street_name": "SHORE BLVD", "borough": "queens", "direction": "FT", "total_row_ft": 53.4, "roadbed_ft": 29.4, "median_ft": 2.2, "left_sw_ft": 9.9, "right_sw_ft": 11.7}, "geometry": {"type": "LineString", "coordinates": [[-73.92096173765033, 40.781410004610144], [-73.92109679365488, 40.78150564670946]]}}, {"type": "Feature", "properties": {"segment_id": 306503, "physicalid": "22990", "street_name": "SHORE BLVD", "borough": "queens", "direction": "FT", "total_row_ft": 54.7, "roadbed_ft": 30.0, "median_ft": 3.2, "left_sw_ft": 9.8, "right_sw_ft": 11.7}, "geometry": {"type": "LineString", "coordinates": [[-73.9210099423016, 40.781369115451675], [-73.92114611502137, 40.781465548322586]]}}, {"type": "Feature", "properties": {"segment_id": 306504, "physicalid": "22990", "street_name": "SHORE BLVD", "borough": "queens", "direction": "FT", "total_row_ft": 55.7, "roadbed_ft": 30.9, "median_ft": 3.7, "left_sw_ft": 9.5, "right_sw_ft": 11.6}, "geometry": {"type": "LineString", "coordinates": [[-73.9210581470413, 40.781328226377354], [-73.92119543632845, 40.781425449914366]]}}, {"type": "Feature", "properties": {"segment_id": 306505, "physicalid": "22990", "street_name": "SHORE BLVD", "borough": "queens", "direction": "FT", "total_row_ft": 56.7, "roadbed_ft": 31.8, "median_ft": 4.3, "left_sw_ft": 9.1, "right_sw_ft": 11.5}, "geometry": {"type": "LineString", "coordinates": [[-73.92110635235585, 40.781287337731605], [-73.92124475844085, 40.781385352097146]]}}, {"type": "Feature", "properties": {"segment_id": 306506, "physicalid": "22990", "street_name": "SHORE BLVD", "borough": "queens", "direction": "FT", "total_row_ft": 57.0, "roadbed_ft": 32.7, "median_ft": 4.2, "left_sw_ft": 8.7, "right_sw_ft": 11.4}, "geometry": {"type": "LineString", "coordinates": [[-73.92115455735708, 40.78124644888549], [-73.92129408136631, 40.78134525487643]]}}, {"type": "Feature", "properties": {"segment_id": 306507, "physicalid": "22990", "street_name": "SHORE BLVD", "borough": "queens", "direction": "FT", "total_row_ft": 57.1, "roadbed_ft": 33.2, "median_ft": 4.1, "left_sw_ft": 8.3, "right_sw_ft": 11.4}, "geometry": {"type": "LineString", "coordinates": [[-73.92120352736673, 40.7812061018139], [-73.92134340423237, 40.78130515763436]]}}, {"type": "Feature", "properties": {"segment_id": 306508, "physicalid": "22990", "street_name": "SHORE BLVD", "borough": "queens", "direction": "FT", "total_row_ft": 57.1, "roadbed_ft": 33.2, "median_ft": 4.0, "left_sw_ft": 8.3, "right_sw_ft": 11.5}, "geometry": {"type": "LineString", "coordinates": [[-73.92125259305035, 40.781165822516336], [-73.92139279478137, 40.78126510834348]]}}, {"type": "Feature", "properties": {"segment_id": 306509, "physicalid": "22990", "street_name": "SHORE BLVD", "borough": "queens", "direction": "FT", "total_row_ft": 57.2, "roadbed_ft": 33.2, "median_ft": 4.0, "left_sw_ft": 8.3, "right_sw_ft": 11.7}, "geometry": {"type": "LineString", "coordinates": [[-73.92130165871929, 40.78112554322924], [-73.92144228023017, 40.78122512627774]]}}, {"type": "Feature", "properties": {"segment_id": 306510, "physicalid": "22990", "street_name": "SHORE BLVD", "borough": "queens", "direction": "FT", "total_row_ft": 57.2, "roadbed_ft": 33.2, "median_ft": 3.9, "left_sw_ft": 8.4, "right_sw_ft": 11.8}, "geometry": {"type": "LineString", "coordinates": [[-73.92135079814997, 40.78108531619854], [-73.92149176561955, 40.78118514419048]]}}, {"type": "Feature", "properties": {"segment_id": 306511, "physicalid": "22990", "street_name": "SHORE BLVD", "borough": "queens", "direction": "FT", "total_row_ft": 57.2, "roadbed_ft": 33.2, "median_ft": 3.8, "left_sw_ft": 8.2, "right_sw_ft": 12.0}, "geometry": {"type": "LineString", "coordinates": [[-73.92140023513781, 40.78104529990814], [-73.92154125094949, 40.78114516208174]]}}, {"type": "Feature", "properties": {"segment_id": 306512, "physicalid": "22990", "street_name": "SHORE BLVD", "borough": "queens", "direction": "FT", "total_row_ft": 57.2, "roadbed_ft": 33.1, "median_ft": 3.8, "left_sw_ft": 8.1, "right_sw_ft": 12.1}, "geometry": {"type": "LineString", "coordinates": [[-73.92144967206622, 40.78100528359628], [-73.92159073404025, 40.78110517840786]]}}, {"type": "Feature", "properties": {"segment_id": 306513, "physicalid": "22990", "street_name": "SHORE BLVD", "borough": "queens", "direction": "FT", "total_row_ft": 63.7, "roadbed_ft": 33.2, "median_ft": 3.7, "left_sw_ft": 14.7, "right_sw_ft": 12.1}, "geometry": {"type": "LineString", "coordinates": [[-73.92140269890263, 40.78089699304865], [-73.92163988882683, 40.78106496226256]]}}, {"type": "Feature", "properties": {"segment_id": 306514, "physicalid": "22990", "street_name": "SHORE BLVD", "borough": "queens", "direction": "FT", "total_row_ft": 69.9, "roadbed_ft": 33.2, "median_ft": 3.6, "left_sw_ft": 20.9, "right_sw_ft": 12.2}, "geometry": {"type": "LineString", "coordinates": [[-73.92145192542809, 40.78085682781367], [-73.92168904355405, 40.78102474609601]]}}, {"type": "Feature", "properties": {"segment_id": 306515, "physicalid": "22990", "street_name": "SHORE BLVD", "borough": "queens", "direction": "FT", "total_row_ft": 67.4, "roadbed_ft": 33.2, "median_ft": 0.0, "left_sw_ft": 22.0, "right_sw_ft": 12.2}, "geometry": {"type": "LineString", "coordinates": [[-73.92151160569603, 40.78082406557747], [-73.92173819822189, 40.780984529908245]]}}, {"type": "Feature", "properties": {"segment_id": 306516, "physicalid": "22990", "street_name": "SHORE BLVD", "borough": "queens", "direction": "FT", "total_row_ft": 71.2, "roadbed_ft": 33.2, "median_ft": 3.8, "left_sw_ft": 22.0, "right_sw_ft": 12.2}, "geometry": {"type": "LineString", "coordinates": [[-73.92157074053246, 40.7807909170965], [-73.92178735283034, 40.78094431369928]]}}, {"type": "Feature", "properties": {"segment_id": 306517, "physicalid": "22990", "street_name": "SHORE BLVD", "borough": "queens", "direction": "FT", "total_row_ft": 71.2, "roadbed_ft": 33.1, "median_ft": 3.8, "left_sw_ft": 22.2, "right_sw_ft": 12.2}, "geometry": {"type": "LineString", "coordinates": [[-73.92162661990399, 40.78075546322352], [-73.92183650737942, 40.78090409746912]]}}, {"type": "Feature", "properties": {"segment_id": 306518, "physicalid": "22990", "street_name": "SHORE BLVD", "borough": "queens", "direction": "FT", "total_row_ft": 70.3, "roadbed_ft": 32.4, "median_ft": 3.8, "left_sw_ft": 21.8, "right_sw_ft": 12.2}, "geometry": {"type": "LineString", "coordinates": [[-73.92167913343437, 40.780717625799255], [-73.92188561170863, 40.78086384569614]]}}, {"type": "Feature", "properties": {"segment_id": 306519, "physicalid": "22990", "street_name": "SHORE BLVD", "borough": "queens", "direction": "FT", "total_row_ft": 72.2, "roadbed_ft": 32.1, "median_ft": 3.8, "left_sw_ft": 24.1, "right_sw_ft": 12.2}, "geometry": {"type": "LineString", "coordinates": [[-73.921728527108, 40.780677579025266], [-73.92193466722117, 40.78082355937407]]}}, {"type": "Feature", "properties": {"segment_id": 306520, "physicalid": "22990", "street_name": "SHORE BLVD", "borough": "queens", "direction": "FT", "total_row_ft": 69.5, "roadbed_ft": 32.2, "median_ft": 3.8, "left_sw_ft": 21.4, "right_sw_ft": 12.2}, "geometry": {"type": "LineString", "coordinates": [[-73.92177457845783, 40.78063516536214], [-73.92198372200382, 40.78078327255604]]}}, {"type": "Feature", "properties": {"segment_id": 306521, "physicalid": "22990", "street_name": "SHORE BLVD", "borough": "queens", "direction": "FT", "total_row_ft": 62.5, "roadbed_ft": 32.3, "median_ft": 3.8, "left_sw_ft": 14.4, "right_sw_ft": 12.1}, "geometry": {"type": "LineString", "coordinates": [[-73.92181767562023, 40.780590659676484], [-73.92203277666935, 40.780742985675985]]}}, {"type": "Feature", "properties": {"segment_id": 306522, "physicalid": "22990", "street_name": "SHORE BLVD", "borough": "queens", "direction": "FT", "total_row_ft": 61.5, "roadbed_ft": 32.3, "median_ft": 3.8, "left_sw_ft": 13.2, "right_sw_ft": 12.1}, "geometry": {"type": "LineString", "coordinates": [[-73.92185427842757, 40.78054155495577], [-73.92208183823645, 40.78070270370422]]}}, {"type": "Feature", "properties": {"segment_id": 306523, "physicalid": "22990", "street_name": "SHORE BLVD", "borough": "queens", "direction": "FT", "total_row_ft": 82.8, "roadbed_ft": 32.4, "median_ft": 0.0, "left_sw_ft": 38.3, "right_sw_ft": 12.1}, "geometry": {"type": "LineString", "coordinates": [[-73.92189496148478, 40.78049533974156], [-73.92213091801571, 40.780662434650445]]}}, {"type": "Feature", "properties": {"segment_id": 306524, "physicalid": "22990", "street_name": "SHORE BLVD", "borough": "queens", "direction": "FT", "total_row_ft": 59.9, "roadbed_ft": 32.5, "median_ft": 3.6, "left_sw_ft": 11.6, "right_sw_ft": 12.1}, "geometry": {"type": "LineString", "coordinates": [[-73.92194418741637, 40.78045517429385], [-73.92217999773558, 40.78062216557549]]}}, {"type": "Feature", "properties": {"segment_id": 306525, "physicalid": "22990", "street_name": "SHORE BLVD", "borough": "queens", "direction": "FT", "total_row_ft": 63.4, "roadbed_ft": 32.6, "median_ft": 3.7, "left_sw_ft": 15.0, "right_sw_ft": 12.1}, "geometry": {"type": "LineString", "coordinates": [[-73.92199341328856, 40.78041500882485], [-73.92222907739611, 40.7805818964794]]}}, {"type": "Feature", "properties": {"segment_id": 306526, "physicalid": "22990", "street_name": "SHORE BLVD", "borough": "queens", "direction": "FT", "total_row_ft": 63.5, "roadbed_ft": 32.8, "median_ft": 3.7, "left_sw_ft": 15.0, "right_sw_ft": 12.0}, "geometry": {"type": "LineString", "coordinates": [[-73.92204263910138, 40.780374843334585], [-73.92227815699727, 40.78054162736215]]}}, {"type": "Feature", "properties": {"segment_id": 306527, "physicalid": "22990", "street_name": "SHORE BLVD", "borough": "queens", "direction": "FT", "total_row_ft": 63.5, "roadbed_ft": 32.8, "median_ft": 3.7, "left_sw_ft": 15.0, "right_sw_ft": 12.0}, "geometry": {"type": "LineString", "coordinates": [[-73.9220918648548, 40.780334677823056], [-73.92232732302267, 40.78050141946759]]}}, {"type": "Feature", "properties": {"segment_id": 306528, "physicalid": "22990", "street_name": "SHORE BLVD", "borough": "queens", "direction": "FT", "total_row_ft": 63.7, "roadbed_ft": 32.8, "median_ft": 3.8, "left_sw_ft": 15.0, "right_sw_ft": 12.2}, "geometry": {"type": "LineString", "coordinates": [[-73.92214109054885, 40.78029451229025], [-73.92237706932548, 40.78046162252025]]}}, {"type": "Feature", "properties": {"segment_id": 306529, "physicalid": "22990", "street_name": "SHORE BLVD", "borough": "queens", "direction": "FT", "total_row_ft": 63.8, "roadbed_ft": 32.7, "median_ft": 3.8, "left_sw_ft": 15.0, "right_sw_ft": 12.3}, "geometry": {"type": "LineString", "coordinates": [[-73.9221903161835, 40.78025434673615], [-73.92242681556881, 40.7804218255512]]}}, {"type": "Feature", "properties": {"segment_id": 306530, "physicalid": "22990", "street_name": "SHORE BLVD", "borough": "queens", "direction": "FT", "total_row_ft": 63.9, "roadbed_ft": 32.7, "median_ft": 3.7, "left_sw_ft": 15.0, "right_sw_ft": 12.5}, "geometry": {"type": "LineString", "coordinates": [[-73.92223954175877, 40.78021418116078], [-73.9224765617527, 40.78038202856042]]}}, {"type": "Feature", "properties": {"segment_id": 306531, "physicalid": "22990", "street_name": "SHORE BLVD", "borough": "queens", "direction": "FT", "total_row_ft": 63.9, "roadbed_ft": 32.6, "median_ft": 3.7, "left_sw_ft": 15.0, "right_sw_ft": 12.5}, "geometry": {"type": "LineString", "coordinates": [[-73.92228876727464, 40.78017401556415], [-73.9225259665043, 40.78034198980341]]}}, {"type": "Feature", "properties": {"segment_id": 306532, "physicalid": "22990", "street_name": "SHORE BLVD", "borough": "queens", "direction": "FT", "total_row_ft": 63.8, "roadbed_ft": 32.6, "median_ft": 3.7, "left_sw_ft": 15.0, "right_sw_ft": 12.5}, "geometry": {"type": "LineString", "coordinates": [[-73.92233799273114, 40.780133849946246], [-73.92257510009668, 40.78030175904472]]}}, {"type": "Feature", "properties": {"segment_id": 306533, "physicalid": "22990", "street_name": "SHORE BLVD", "borough": "queens", "direction": "FT", "total_row_ft": 63.6, "roadbed_ft": 32.6, "median_ft": 3.7, "left_sw_ft": 15.0, "right_sw_ft": 12.4}, "geometry": {"type": "LineString", "coordinates": [[-73.92238721812825, 40.78009368430705], [-73.9226242336297, 40.7802615282648]]}}, {"type": "Feature", "properties": {"segment_id": 306534, "physicalid": "22990", "street_name": "SHORE BLVD", "borough": "queens", "direction": "FT", "total_row_ft": 50.6, "roadbed_ft": 32.5, "median_ft": 3.6, "left_sw_ft": 2.1, "right_sw_ft": 12.4}, "geometry": {"type": "LineString", "coordinates": [[-73.92243644346597, 40.78005351864659], [-73.92267336710336, 40.78022129746371]]}}, {"type": "Feature", "properties": {"segment_id": 306535, "physicalid": "22990", "street_name": "SHORE BLVD", "borough": "queens", "direction": "FT", "total_row_ft": 57.9, "roadbed_ft": 32.5, "median_ft": 3.6, "left_sw_ft": 9.6, "right_sw_ft": 12.3}, "geometry": {"type": "LineString", "coordinates": [[-73.9224856687443, 40.78001335296486], [-73.92272250051762, 40.78018106664142]]}}, {"type": "Feature", "properties": {"segment_id": 306536, "physicalid": "22990", "street_name": "SHORE BLVD", "borough": "queens", "direction": "FT", "total_row_ft": 62.7, "roadbed_ft": 32.4, "median_ft": 3.6, "left_sw_ft": 14.4, "right_sw_ft": 12.3}, "geometry": {"type": "LineString", "coordinates": [[-73.92254306855284, 40.77997897616012], [-73.92277179276304, 40.78014094831656]]}}, {"type": "Feature", "properties": {"segment_id": 306537, "physicalid": "22990", "street_name": "SHORE BLVD", "borough": "queens", "direction": "FT", "total_row_ft": 62.8, "roadbed_ft": 32.4, "median_ft": 3.5, "left_sw_ft": 14.6, "right_sw_ft": 12.3}, "geometry": {"type": "LineString", "coordinates": [[-73.92261013551223, 40.77995144522799], [-73.92282117578911, 40.780100894298926]]}}, {"type": "Feature", "properties": {"segment_id": 1607402, "physicalid": "140824", "street_name": "HELL GATE BRG", "borough": "queens", "direction": "NV", "total_row_ft": 30.0, "roadbed_ft": 0.0, "median_ft": 0.0, "left_sw_ft": 15.0, "right_sw_ft": 15.0}, "geometry": {"type": "LineString", "coordinates": [[-73.92079236806426, 40.78186470953855], [-73.92107725099427, 40.78161653534771]]}}, {"type": "Feature", "properties": {"segment_id": 1607403, "physicalid": "140824", "street_name": "HELL GATE BRG", "borough": "queens", "direction": "NV", "total_row_ft": 30.0, "roadbed_ft": 0.0, "median_ft": 0.0, "left_sw_ft": 15.0, "right_sw_ft": 15.0}, "geometry": {"type": "LineString", "coordinates": [[-73.92073795315468, 40.781828618153895], [-73.92102283613312, 40.78158044409621]]}}]}